{"type":"FeatureCollection","features":[{"type":"Feature","geometry":{"type":"MultiPolygon","coordinates":[[[[116.81264,3.57367],[116.81297,3.57338],[116.81393,3.57393],[116.81424,3.57313],[116.81445,3.57291],[116.81461,3.57281],[116.81531,3.57275],[116.81573,3.57274],[116.81589,3.57166],[116.81588,3.57144],[116.82405,3.55805],[116.82398,3.55787],[116.82306,3.55627],[116.82299,3.55614],[116.81644,3.55682],[116.81435,3.56861],[116.81457,3.56971],[116.81444,3.5698],[116.81435,3.56986],[116.81437,3.56997],[116.81434,3.57009],[116.81444,3.57021],[116.81449,3.57029],[116.81441,3.5704],[116.8143,3.57047],[116.8141,3.57044],[116.81406,3.57054],[116.81404,3.5706],[116.81401,3.57071],[116.81396,3.57093],[116.81384,3.57103],[116.81359,3.57118],[116.81332,3.57145],[116.81323,3.57164],[116.81312,3.57191],[116.81307,3.57218],[116.81295,3.57248],[116.81284,3.57273],[116.81236,3.57342],[116.8126,3.57363],[116.81262,3.57365],[116.81264,3.57367]]]]},"properties":{"kdprov":"65","kdkab":"03","kdkec":"010","kddesa":"004","kdsls":"0002","idsls":"65030100040002","nmprov":"KALIMANTAN UTARA","nmkab":"TANA TIDUNG","nmkec":"MURUK RIAN","nmdesa":"KAPUAK","nmsls":"RT 002"}},{"type":"Feature","geometry":{"type":"MultiPolygon","coordinates":[[[[116.82405,3.55805],[116.81588,3.57144],[116.81589,3.57166],[116.81573,3.57274],[116.81531,3.57275],[116.81461,3.57281],[116.81445,3.57291],[116.81424,3.57313],[116.81393,3.57393],[116.81297,3.57338],[116.81264,3.57367],[116.81264,3.57367],[116.8128,3.57383],[116.81288,3.57388],[116.81376,3.57444],[116.81484,3.57512],[116.81484,3.57512],[116.81494,3.57518],[116.81549,3.57496],[116.81617,3.57467],[116.8166,3.57449],[116.81661,3.57449],[116.81686,3.57438],[116.81701,3.57432],[116.81733,3.57423],[116.81799,3.57421],[116.81843,3.57416],[116.81884,3.57417],[116.81957,3.57431],[116.82013,3.57449],[116.82015,3.57449],[116.82051,3.57456],[116.82097,3.57465],[116.82161,3.57473],[116.82219,3.57466],[116.82304,3.57437],[116.82305,3.57437],[116.82321,3.5743],[116.82297,3.57427],[116.82286,3.5742],[116.82286,3.5742],[116.82268,3.57409],[116.82205,3.57369],[116.82216,3.57364],[116.82308,3.57318],[116.82386,3.57369],[116.82392,3.57372],[116.82406,3.57378],[116.82415,3.57365],[116.82422,3.57345],[116.82439,3.57214],[116.82512,3.57096],[116.82518,3.57049],[116.82534,3.56961],[116.82536,3.56872],[116.82534,3.56861],[116.82527,3.56827],[116.82509,3.56735],[116.82508,3.56716],[116.82511,3.56665],[116.82511,3.56655],[116.82521,3.56588],[116.82519,3.56522],[116.82523,3.56429],[116.82558,3.56324],[116.82562,3.56309],[116.82563,3.56298],[116.82563,3.56256],[116.82565,3.56084],[116.82535,3.56025],[116.82506,3.55992],[116.82491,3.55975],[116.82446,3.55924],[116.82421,3.55851],[116.82405,3.55805]]]]},"properties":{"kdprov":"65","kdkab":"03","kdkec":"010","kddesa":"004","kdsls":"0001","idsls":"65030100040001","nmprov":"KALIMANTAN UTARA","nmkab":"TANA TIDUNG","nmkec":"MURUK RIAN","nmdesa":"KAPUAK","nmsls":"RT 001"}},{"type":"Feature","geometry":{"type":"MultiPolygon","coordinates":[[[[116.81236,3.57342],[116.81284,3.57273],[116.81295,3.57248],[116.81307,3.57218],[116.81312,3.57191],[116.81323,3.57164],[116.81332,3.57145],[116.81359,3.57118],[116.81384,3.57103],[116.81396,3.57093],[116.81401,3.57071],[116.81404,3.5706],[116.81406,3.57054],[116.8141,3.57044],[116.8143,3.57047],[116.81441,3.5704],[116.81449,3.57029],[116.81444,3.57021],[116.81434,3.57009],[116.81437,3.56997],[116.81435,3.56986],[116.81444,3.5698],[116.81457,3.56971],[116.81435,3.56861],[116.81644,3.55682],[116.82299,3.55614],[116.82298,3.55613],[116.82256,3.55573],[116.82207,3.55513],[116.82178,3.5543],[116.82178,3.55311],[116.8222,3.5518],[116.82267,3.55003],[116.82267,3.55003],[116.82267,3.55003],[116.82268,3.54907],[116.82245,3.54662],[116.82244,3.54491],[116.82262,3.54365],[116.82226,3.54281],[116.82172,3.54145],[116.82113,3.54044],[116.82107,3.53979],[116.82113,3.53919],[116.82102,3.53879],[116.82089,3.53834],[116.82038,3.53764],[116.82021,3.53725],[116.82018,3.53718],[116.82023,3.53625],[116.82023,3.53621],[116.82073,3.53475],[116.82085,3.53417],[116.82085,3.53392],[116.82058,3.5335],[116.82017,3.53284],[116.81991,3.53254],[116.81946,3.53202],[116.81915,3.53167],[116.81883,3.53138],[116.81863,3.53128],[116.81809,3.53109],[116.81715,3.53097],[116.81715,3.53097],[116.81682,3.53092],[116.81678,3.53091],[116.81677,3.53091],[116.81662,3.53084],[116.81639,3.53073],[116.81617,3.53051],[116.816,3.53015],[116.81584,3.52966],[116.81577,3.52942],[116.81577,3.52923],[116.81577,3.52913],[116.81581,3.52905],[116.81589,3.5289],[116.81608,3.5286],[116.81674,3.52797],[116.81714,3.52758],[116.81704,3.52697],[116.81704,3.52639],[116.81704,3.52622],[116.81711,3.52551],[116.81724,3.52526],[116.82197,3.51593],[116.8229,3.5154],[116.82346,3.51509],[116.82393,3.51483],[116.82394,3.51482],[116.82646,3.51504],[116.8303,3.51537],[116.83165,3.51482],[116.83488,3.5135],[116.83535,3.51331],[116.83558,3.51294],[116.84026,3.50519],[116.84368,3.49955],[116.83013,3.50666],[116.82996,3.50668],[116.82463,3.50735],[116.82439,3.50778],[116.82369,3.50893],[116.82298,3.50933],[116.82201,3.5091],[116.82179,3.50905],[116.82152,3.5091],[116.82044,3.50932],[116.81807,3.50913],[116.81759,3.50909],[116.81711,3.50906],[116.8145,3.51284],[116.81416,3.51333],[116.80334,3.5289],[116.79952,3.53439],[116.79812,3.53641],[116.79408,3.54222],[116.79252,3.54447],[116.78757,3.55159],[116.78748,3.56701],[116.78747,3.56984],[116.78746,3.57197],[116.78746,3.57197],[116.79071,3.57021],[116.79414,3.56896],[116.79615,3.56882],[116.80162,3.57068],[116.80525,3.5719],[116.80569,3.57205],[116.80645,3.57231],[116.81018,3.57357],[116.81062,3.57372],[116.81062,3.57372],[116.81118,3.57391],[116.81161,3.57406],[116.81162,3.574],[116.81162,3.57399],[116.81163,3.57399],[116.81205,3.57366],[116.81207,3.57365],[116.81207,3.57365],[116.81221,3.57354],[116.81236,3.57342]]]]},"properties":{"kdprov":"65","kdkab":"03","kdkec":"010","kddesa":"004","kdsls":"1002","idsls":"65030100041002","nmprov":"KALIMANTAN UTARA","nmkab":"TANA TIDUNG","nmkec":"MURUK RIAN","nmdesa":"KAPUAK","nmsls":"KEBUN PENDUDUK"}},{"type":"Feature","geometry":{"type":"MultiPolygon","coordinates":[[[[116.775,3.58704],[116.775,3.58694],[116.77497,3.58645],[116.77462,3.58062],[116.77444,3.57766],[116.77411,3.5722],[116.77365,3.56447],[116.77302,3.55405],[116.77278,3.55003],[116.76636,3.54592],[116.76239,3.54338],[116.74368,3.53141],[116.74008,3.52969],[116.74012,3.52963],[116.74012,3.52945],[116.7402,3.52926],[116.74032,3.52909],[116.74035,3.52898],[116.74033,3.52881],[116.74029,3.52869],[116.74039,3.5286],[116.7406,3.52845],[116.74071,3.52829],[116.74084,3.52805],[116.74076,3.5279],[116.74062,3.52782],[116.74056,3.52776],[116.74056,3.52761],[116.74065,3.52729],[116.74068,3.52707],[116.74063,3.52686],[116.74056,3.52672],[116.74044,3.52662],[116.74037,3.52648],[116.74039,3.52627],[116.74055,3.52621],[116.73933,3.52651],[116.73931,3.5265],[116.7393,3.5265],[116.73875,3.5267],[116.72426,3.52005],[116.72387,3.51989],[116.7203,3.51835],[116.70758,3.5129],[116.6999,3.50961],[116.69162,3.50606],[116.68988,3.50531],[116.68659,3.5039],[116.68487,3.50316],[116.68486,3.50323],[116.68406,3.50448],[116.68265,3.50667],[116.6809,3.50929],[116.67971,3.51108],[116.67646,3.51339],[116.67456,3.51476],[116.67441,3.5169],[116.67431,3.51843],[116.67431,3.52211],[116.67627,3.52726],[116.67799,3.53069],[116.68216,3.53388],[116.68535,3.5367],[116.69001,3.54136],[116.69276,3.54549],[116.69295,3.54577],[116.69687,3.55338],[116.69834,3.55754],[116.69898,3.55924],[116.70427,3.57023],[116.70528,3.57233],[116.70594,3.57348],[116.70655,3.57495],[116.71159,3.58539],[116.71403,3.59057],[116.71502,3.59236],[116.71579,3.59432],[116.71778,3.59855],[116.72082,3.60705],[116.72196,3.60995],[116.72249,3.61119],[116.72444,3.61574],[116.72479,3.61657],[116.72498,3.61702],[116.72515,3.61735],[116.72585,3.61871],[116.72586,3.61873],[116.72664,3.62026],[116.72865,3.62021],[116.73341,3.61858],[116.73565,3.61634],[116.73772,3.61426],[116.73996,3.60906],[116.74128,3.60559],[116.74189,3.604],[116.74531,3.60014],[116.7517,3.59776],[116.75621,3.59656],[116.76345,3.59463],[116.76509,3.59508],[116.77119,3.59151],[116.775,3.58704]]]]},"properties":{"kdprov":"65","kdkab":"03","kdkec":"010","kddesa":"002","kdsls":"0001","idsls":"65030100020001","nmprov":"KALIMANTAN UTARA","nmkab":"TANA TIDUNG","nmkec":"MURUK RIAN","nmdesa":"SEPUTUK","nmsls":"RT 001"}},{"type":"Feature","geometry":{"type":"MultiPolygon","coordinates":[[[[116.81661,3.57449],[116.8166,3.57449],[116.81617,3.57467],[116.81549,3.57496],[116.81494,3.57518],[116.81484,3.57512],[116.81484,3.57512],[116.81376,3.57444],[116.81288,3.57388],[116.8128,3.57383],[116.81264,3.57367],[116.81216,3.57412],[116.81206,3.57421],[116.81169,3.57456],[116.81172,3.57466],[116.81172,3.57528],[116.81172,3.57531],[116.81171,3.576],[116.81174,3.57621],[116.81179,3.57656],[116.81189,3.57672],[116.81197,3.57714],[116.812,3.57739],[116.8121,3.57744],[116.81211,3.57746],[116.81223,3.5775],[116.81347,3.57813],[116.81478,3.57878],[116.81597,3.5793],[116.81624,3.57942],[116.81654,3.57955],[116.81689,3.5797],[116.81792,3.5799],[116.81853,3.5799],[116.81867,3.5799],[116.81884,3.5799],[116.81986,3.5799],[116.82016,3.57993],[116.83704,3.58175],[116.83746,3.58032],[116.83823,3.57769],[116.8385,3.57677],[116.83851,3.57674],[116.84231,3.57707],[116.84232,3.57707],[116.8432,3.57714],[116.84417,3.57723],[116.84242,3.56265],[116.84242,3.56265],[116.83899,3.56226],[116.83778,3.55192],[116.83722,3.54747],[116.8366,3.54265],[116.8363,3.5403],[116.83685,3.54022],[116.83957,3.53981],[116.83955,3.53938],[116.83954,3.53913],[116.83858,3.53142],[116.8386,3.53122],[116.83896,3.52851],[116.83902,3.52808],[116.83915,3.52712],[116.84084,3.51519],[116.84111,3.51328],[116.84167,3.5093],[116.84215,3.50592],[116.84216,3.50593],[116.84224,3.50558],[116.84316,3.50172],[116.84368,3.49955],[116.84026,3.50519],[116.83558,3.51294],[116.83535,3.51331],[116.83488,3.5135],[116.83165,3.51482],[116.8303,3.51537],[116.82646,3.51504],[116.82394,3.51482],[116.82393,3.51483],[116.82346,3.51509],[116.8229,3.5154],[116.82197,3.51593],[116.81724,3.52526],[116.81711,3.52551],[116.81704,3.52622],[116.81704,3.52639],[116.81704,3.52697],[116.81714,3.52758],[116.81674,3.52797],[116.81608,3.5286],[116.81589,3.5289],[116.81581,3.52905],[116.81577,3.52913],[116.81577,3.52923],[116.81577,3.52942],[116.81584,3.52966],[116.816,3.53015],[116.81617,3.53051],[116.81639,3.53073],[116.81662,3.53084],[116.81677,3.53091],[116.81678,3.53091],[116.81682,3.53092],[116.81715,3.53097],[116.81715,3.53097],[116.81809,3.53109],[116.81863,3.53128],[116.81883,3.53138],[116.81915,3.53167],[116.81946,3.53202],[116.81991,3.53254],[116.82017,3.53284],[116.82058,3.5335],[116.82085,3.53392],[116.82085,3.53417],[116.82073,3.53475],[116.82023,3.53621],[116.82023,3.53625],[116.82018,3.53718],[116.82021,3.53725],[116.82038,3.53764],[116.82089,3.53834],[116.82102,3.53879],[116.82113,3.53919],[116.82107,3.53979],[116.82113,3.54044],[116.82172,3.54145],[116.82226,3.54281],[116.82262,3.54365],[116.82244,3.54491],[116.82245,3.54662],[116.82268,3.54907],[116.82267,3.55003],[116.82267,3.55003],[116.82267,3.55003],[116.8222,3.5518],[116.82178,3.55311],[116.82178,3.5543],[116.82207,3.55513],[116.82256,3.55573],[116.82298,3.55613],[116.82299,3.55614],[116.82306,3.55627],[116.82398,3.55787],[116.82405,3.55805],[116.82421,3.55851],[116.82446,3.55924],[116.82491,3.55975],[116.82506,3.55992],[116.82535,3.56025],[116.82565,3.56084],[116.82563,3.56256],[116.82563,3.56298],[116.82562,3.56309],[116.82558,3.56324],[116.82523,3.56429],[116.82519,3.56522],[116.82521,3.56588],[116.82511,3.56655],[116.82511,3.56665],[116.82508,3.56716],[116.82509,3.56735],[116.82527,3.56827],[116.82534,3.56861],[116.82536,3.56872],[116.82534,3.56961],[116.82518,3.57049],[116.82512,3.57096],[116.82439,3.57214],[116.82422,3.57345],[116.82415,3.57365],[116.82406,3.57378],[116.82392,3.57372],[116.82386,3.57369],[116.82308,3.57318],[116.82216,3.57364],[116.82205,3.57369],[116.82268,3.57409],[116.82286,3.5742],[116.82286,3.5742],[116.82297,3.57427],[116.82321,3.5743],[116.82305,3.57437],[116.82304,3.57437],[116.82219,3.57466],[116.82161,3.57473],[116.82097,3.57465],[116.82051,3.57456],[116.82015,3.57449],[116.82013,3.57449],[116.81957,3.57431],[116.81884,3.57417],[116.81843,3.57416],[116.81799,3.57421],[116.81733,3.57423],[116.81701,3.57432],[116.81686,3.57438],[116.81661,3.57449]]]]},"properties":{"kdprov":"65","kdkab":"03","kdkec":"010","kddesa":"003","kdsls":"0002","idsls":"65030100030002","nmprov":"KALIMANTAN UTARA","nmkab":"TANA TIDUNG","nmkec":"MURUK RIAN","nmdesa":"RIAN","nmsls":"RT 002"}},{"type":"Feature","geometry":{"type":"MultiPolygon","coordinates":[[[[116.81264,3.57367],[116.81264,3.57367],[116.81262,3.57365],[116.8126,3.57363],[116.81236,3.57342],[116.81221,3.57354],[116.81207,3.57365],[116.81207,3.57365],[116.81205,3.57366],[116.81163,3.57399],[116.81162,3.57399],[116.81162,3.574],[116.81161,3.57406],[116.81118,3.57391],[116.81062,3.57372],[116.81062,3.57372],[116.81018,3.57357],[116.80645,3.57231],[116.80569,3.57205],[116.80525,3.5719],[116.80162,3.57068],[116.79615,3.56882],[116.79414,3.56896],[116.79071,3.57021],[116.78746,3.57197],[116.78746,3.57197],[116.78745,3.57222],[116.78737,3.5728],[116.78741,3.61426],[116.78736,3.662],[116.78736,3.66438],[116.78734,3.67521],[116.78734,3.67937],[116.78732,3.69322],[116.78865,3.693],[116.79223,3.6924],[116.7954,3.69186],[116.79555,3.69184],[116.80504,3.69024],[116.80627,3.69003],[116.80627,3.69003],[116.80944,3.6895],[116.80944,3.6895],[116.80944,3.6895],[116.80944,3.67675],[116.80944,3.67426],[116.80943,3.66866],[116.80943,3.66637],[116.80943,3.65391],[116.80943,3.64114],[116.80942,3.62583],[116.81013,3.62578],[116.81045,3.62551],[116.8109,3.62501],[116.81085,3.62396],[116.81114,3.62379],[116.81134,3.62379],[116.81143,3.62379],[116.81143,3.62379],[116.81143,3.62379],[116.81142,3.61867],[116.8156,3.61812],[116.82053,3.61747],[116.82461,3.61693],[116.82633,3.6167],[116.82816,3.61064],[116.82849,3.60957],[116.83152,3.59953],[116.83155,3.59942],[116.83155,3.59941],[116.83343,3.59342],[116.83351,3.59316],[116.83517,3.58785],[116.83537,3.58749],[116.83645,3.58377],[116.83704,3.58177],[116.83704,3.58175],[116.82016,3.57993],[116.81986,3.5799],[116.81884,3.5799],[116.81867,3.5799],[116.81853,3.5799],[116.81792,3.5799],[116.81689,3.5797],[116.81654,3.57955],[116.81624,3.57942],[116.81597,3.5793],[116.81478,3.57878],[116.81347,3.57813],[116.81223,3.5775],[116.81211,3.57746],[116.8121,3.57744],[116.812,3.57739],[116.81197,3.57714],[116.81189,3.57672],[116.81179,3.57656],[116.81174,3.57621],[116.81171,3.576],[116.81172,3.57531],[116.81172,3.57528],[116.81172,3.57466],[116.81169,3.57456],[116.81206,3.57421],[116.81216,3.57412],[116.81264,3.57367]]]]},"properties":{"kdprov":"65","kdkab":"03","kdkec":"010","kddesa":"003","kdsls":"0001","idsls":"65030100030001","nmprov":"KALIMANTAN UTARA","nmkab":"TANA TIDUNG","nmkec":"MURUK RIAN","nmdesa":"RIAN","nmsls":"RT 001"}},{"type":"Feature","geometry":{"type":"MultiPolygon","coordinates":[[[[116.78746,3.57197],[116.785,3.57379],[116.7831,3.57529],[116.7817,3.5766],[116.78065,3.57758],[116.78013,3.57831],[116.78013,3.57831],[116.7798,3.57875],[116.77925,3.57977],[116.7787,3.58076],[116.77828,3.58154],[116.77709,3.58359],[116.77626,3.58497],[116.77573,3.58617],[116.77515,3.58657],[116.77507,3.58675],[116.775,3.58694],[116.775,3.58704],[116.77533,3.59654],[116.77457,3.59747],[116.76971,3.59949],[116.76681,3.6007],[116.76664,3.60077],[116.76632,3.60121],[116.76591,3.60178],[116.76549,3.60256],[116.7652,3.60335],[116.76536,3.60417],[116.76494,3.60443],[116.76013,3.60501],[116.76018,3.64785],[116.76018,3.65189],[116.7602,3.6608],[116.76018,3.66664],[116.76016,3.68068],[116.76015,3.68282],[116.76014,3.68982],[116.76228,3.69105],[116.76471,3.69228],[116.77054,3.69525],[116.77188,3.6951],[116.77738,3.69448],[116.78093,3.69408],[116.78094,3.69407],[116.78095,3.69407],[116.78157,3.69402],[116.7822,3.69396],[116.78374,3.69383],[116.78732,3.69322],[116.78734,3.67937],[116.78734,3.67521],[116.78736,3.66438],[116.78736,3.662],[116.78741,3.61426],[116.78737,3.5728],[116.78745,3.57222],[116.78746,3.57197]]]]},"properties":{"kdprov":"65","kdkab":"03","kdkec":"010","kddesa":"004","kdsls":"4001","idsls":"65030100044001","nmprov":"KALIMANTAN UTARA","nmkab":"TANA TIDUNG","nmkec":"MURUK RIAN","nmdesa":"KAPUAK","nmsls":"KAMP MUTIARA"}},{"type":"Feature","geometry":{"type":"MultiPolygon","coordinates":[[[[116.7817,3.5766],[116.7831,3.57529],[116.785,3.57379],[116.78746,3.57197],[116.78747,3.56984],[116.78748,3.56701],[116.78757,3.55159],[116.79252,3.54447],[116.79408,3.54222],[116.79812,3.53641],[116.79952,3.53439],[116.80334,3.5289],[116.81416,3.51333],[116.8145,3.51284],[116.81711,3.50906],[116.81759,3.50909],[116.81807,3.50913],[116.82044,3.50932],[116.82152,3.5091],[116.82179,3.50905],[116.82201,3.5091],[116.82298,3.50933],[116.82369,3.50893],[116.82439,3.50778],[116.82463,3.50735],[116.82996,3.50668],[116.83013,3.50666],[116.84368,3.49955],[116.84481,3.49536],[116.84191,3.49397],[116.8413,3.49367],[116.84124,3.49364],[116.84082,3.49256],[116.83964,3.48949],[116.83901,3.48784],[116.83901,3.48784],[116.83901,3.48783],[116.83849,3.4865],[116.83781,3.48471],[116.83435,3.48214],[116.83184,3.48066],[116.83183,3.48065],[116.83007,3.47691],[116.82731,3.4741],[116.8271,3.47388],[116.82574,3.47184],[116.82525,3.47111],[116.82525,3.47111],[116.82525,3.47111],[116.81619,3.47003],[116.81209,3.48011],[116.81052,3.48399],[116.79707,3.51711],[116.79707,3.51739],[116.78108,3.5471],[116.7817,3.5766]]]]},"properties":{"kdprov":"65","kdkab":"03","kdkec":"010","kddesa":"005","kdsls":"0001","idsls":"65030100050001","nmprov":"KALIMANTAN UTARA","nmkab":"TANA TIDUNG","nmkec":"MURUK RIAN","nmdesa":"RIAN RAYO","nmsls":"RT 001"}},{"type":"Feature","geometry":{"type":"MultiPolygon","coordinates":[[[[116.81619,3.47003],[116.81619,3.47003],[116.81605,3.47001],[116.81605,3.47001],[116.81604,3.47001],[116.81604,3.47001],[116.81605,3.47001],[116.81604,3.47],[116.81592,3.47],[116.81494,3.47001],[116.81454,3.46967],[116.81375,3.46919],[116.81309,3.46915],[116.8128,3.4694],[116.81227,3.46994],[116.812,3.46989],[116.81078,3.46994],[116.80969,3.47075],[116.80878,3.4705],[116.80736,3.47002],[116.80647,3.46919],[116.80622,3.46902],[116.80612,3.46888],[116.80608,3.46883],[116.80606,3.4688],[116.80529,3.46775],[116.80503,3.4674],[116.80435,3.46701],[116.80342,3.46673],[116.80308,3.46665],[116.80092,3.46732],[116.7995,3.46725],[116.79868,3.46738],[116.79768,3.46769],[116.79627,3.46831],[116.79361,3.46888],[116.79202,3.46948],[116.79053,3.46958],[116.78996,3.46962],[116.78981,3.46975],[116.78887,3.47061],[116.78866,3.4708],[116.78837,3.4712],[116.78794,3.4718],[116.7873,3.47318],[116.78709,3.47362],[116.78619,3.47546],[116.78583,3.47651],[116.78587,3.4775],[116.78588,3.47868],[116.78629,3.47968],[116.78691,3.48012],[116.78686,3.48155],[116.78803,3.48187],[116.78874,3.48201],[116.78879,3.48209],[116.78911,3.4826],[116.78903,3.48271],[116.78879,3.48304],[116.78868,3.48318],[116.78866,3.48322],[116.7884,3.48323],[116.78744,3.48341],[116.78673,3.4837],[116.78642,3.48407],[116.78627,3.48425],[116.78593,3.48504],[116.78583,3.48528],[116.78514,3.48619],[116.78499,3.48659],[116.78487,3.48677],[116.78395,3.48685],[116.78363,3.48679],[116.78326,3.4869],[116.7831,3.48699],[116.7831,3.487],[116.7829,3.48704],[116.7824,3.48803],[116.78254,3.48849],[116.78203,3.48965],[116.78124,3.49015],[116.78109,3.49125],[116.7811,3.49126],[116.78104,3.49145],[116.78132,3.49203],[116.78155,3.49321],[116.78157,3.49333],[116.7818,3.49383],[116.78206,3.49404],[116.7822,3.4941],[116.78281,3.49441],[116.78279,3.49472],[116.78222,3.49552],[116.78178,3.49615],[116.78169,3.49628],[116.78133,3.49645],[116.78087,3.49667],[116.7809,3.49709],[116.78092,3.49737],[116.78093,3.49747],[116.7806,3.49786],[116.77952,3.49793],[116.77952,3.49799],[116.7795,3.4981],[116.77938,3.49899],[116.77909,3.50075],[116.77909,3.50075],[116.77896,3.50156],[116.77891,3.50183],[116.77873,3.50291],[116.77871,3.50302],[116.77567,3.52136],[116.77229,3.54179],[116.77278,3.55003],[116.77302,3.55405],[116.77365,3.56447],[116.77411,3.5722],[116.77444,3.57766],[116.77462,3.58062],[116.77497,3.58645],[116.775,3.58694],[116.77507,3.58675],[116.77515,3.58657],[116.77573,3.58617],[116.77626,3.58497],[116.77709,3.58359],[116.77828,3.58154],[116.7787,3.58076],[116.77925,3.57977],[116.7798,3.57875],[116.78013,3.57831],[116.78013,3.57831],[116.78065,3.57758],[116.7817,3.5766],[116.78108,3.5471],[116.79707,3.51739],[116.79707,3.51711],[116.81052,3.48399],[116.81209,3.48011],[116.81619,3.47003]]]]},"properties":{"kdprov":"65","kdkab":"03","kdkec":"010","kddesa":"005","kdsls":"0002","idsls":"65030100050002","nmprov":"KALIMANTAN UTARA","nmkab":"TANA TIDUNG","nmkec":"MURUK RIAN","nmdesa":"RIAN RAYO","nmsls":"RT 002"}},{"type":"Feature","geometry":{"type":"MultiPolygon","coordinates":[[[[116.84691,3.50935],[116.84578,3.50844],[116.84224,3.50558],[116.84216,3.50593],[116.84215,3.50592],[116.84167,3.5093],[116.84111,3.51328],[116.84084,3.51519],[116.83915,3.52712],[116.83902,3.52808],[116.83896,3.52851],[116.8386,3.53122],[116.83858,3.53142],[116.83954,3.53913],[116.83955,3.53938],[116.83957,3.53981],[116.83685,3.54022],[116.8363,3.5403],[116.8366,3.54265],[116.83722,3.54747],[116.83778,3.55192],[116.83899,3.56226],[116.84242,3.56265],[116.84242,3.56265],[116.84243,3.56266],[116.84436,3.56083],[116.84375,3.53181],[116.84374,3.53164],[116.84365,3.53154],[116.8435,3.53143],[116.84339,3.53121],[116.8434,3.53104],[116.84339,3.53077],[116.84331,3.53068],[116.84328,3.53049],[116.84307,3.53018],[116.84317,3.52951],[116.84329,3.52904],[116.84296,3.52835],[116.84691,3.50935]]]]},"properties":{"kdprov":"65","kdkab":"03","kdkec":"010","kddesa":"006","kdsls":"0002","idsls":"65030100060002","nmprov":"KALIMANTAN UTARA","nmkab":"TANA TIDUNG","nmkec":"MURUK RIAN","nmdesa":"SAPARI","nmsls":"RT 002"}},{"type":"Feature","geometry":{"type":"MultiPolygon","coordinates":[[[[116.72135,3.48189],[116.72141,3.4789],[116.72146,3.47676],[116.72153,3.47231],[116.72153,3.47001],[116.72156,3.42787],[116.72157,3.40824],[116.72158,3.4011],[116.72159,3.38712],[116.72159,3.37341],[116.72151,3.3734],[116.72139,3.3734],[116.71992,3.37095],[116.71811,3.37067],[116.71738,3.37056],[116.71674,3.37046],[116.71673,3.37046],[116.71477,3.3707],[116.71447,3.37074],[116.7106,3.37119],[116.70903,3.37155],[116.70791,3.3718],[116.70733,3.37139],[116.70725,3.37133],[116.70712,3.37124],[116.70549,3.37548],[116.70501,3.37559],[116.70443,3.37604],[116.70357,3.37676],[116.70325,3.37709],[116.70281,3.37725],[116.7037,3.37827],[116.70374,3.37872],[116.7036,3.37975],[116.70368,3.38073],[116.70362,3.38137],[116.703,3.382],[116.70198,3.38222],[116.7014,3.38234],[116.70122,3.38277],[116.70112,3.38301],[116.7005,3.3844],[116.69997,3.3856],[116.69968,3.38593],[116.6995,3.38685],[116.69996,3.38814],[116.70029,3.38934],[116.69953,3.38953],[116.69866,3.38987],[116.69824,3.39019],[116.69799,3.39057],[116.69789,3.391],[116.6979,3.39161],[116.69812,3.39277],[116.69843,3.39349],[116.69856,3.39466],[116.6983,3.39591],[116.69791,3.39649],[116.69709,3.3964],[116.69682,3.39639],[116.69646,3.39639],[116.69603,3.39653],[116.69568,3.3968],[116.69537,3.39784],[116.6959,3.39798],[116.6963,3.39845],[116.69643,3.39864],[116.69655,3.3988],[116.69742,3.39942],[116.69779,3.40069],[116.69795,3.40113],[116.69833,3.40214],[116.69911,3.40222],[116.70057,3.40214],[116.70063,3.40331],[116.70098,3.40379],[116.70083,3.40407],[116.7008,3.40516],[116.701,3.40591],[116.70109,3.40688],[116.70127,3.40773],[116.70176,3.40901],[116.70193,3.41019],[116.70201,3.41077],[116.70254,3.41222],[116.7029,3.41297],[116.70343,3.41363],[116.70407,3.41634],[116.70426,3.41653],[116.70496,3.41711],[116.7067,3.41801],[116.70715,3.41989],[116.70766,3.42026],[116.70839,3.42081],[116.70909,3.42134],[116.71024,3.42294],[116.71076,3.42365],[116.70771,3.42521],[116.70753,3.42535],[116.70787,3.42597],[116.70863,3.42733],[116.71003,3.42663],[116.71053,3.4268],[116.71138,3.42687],[116.71418,3.42824],[116.71452,3.42867],[116.71507,3.42912],[116.71551,3.43017],[116.71512,3.43098],[116.71464,3.43214],[116.71303,3.43144],[116.7103,3.43026],[116.70675,3.43163],[116.70524,3.4322],[116.70461,3.43244],[116.70388,3.43161],[116.70347,3.43115],[116.70165,3.42908],[116.69973,3.43019],[116.69893,3.4335],[116.70206,3.44631],[116.70397,3.45135],[116.70456,3.45292],[116.70466,3.45317],[116.70478,3.4535],[116.70515,3.45447],[116.70738,3.46038],[116.71004,3.46686],[116.70631,3.46693],[116.70493,3.46895],[116.70157,3.46884],[116.69878,3.46921],[116.69839,3.46928],[116.69657,3.46962],[116.69546,3.47088],[116.69536,3.471],[116.69522,3.47116],[116.69485,3.47158],[116.69341,3.47333],[116.69357,3.47405],[116.69358,3.4741],[116.69368,3.47525],[116.69369,3.47753],[116.69459,3.47839],[116.69695,3.47862],[116.69848,3.47924],[116.69942,3.47962],[116.70144,3.48029],[116.7015,3.48029],[116.70369,3.48053],[116.70546,3.48038],[116.7074,3.48069],[116.70959,3.4806],[116.71222,3.47955],[116.7134,3.47949],[116.71445,3.47868],[116.71607,3.47888],[116.71777,3.47923],[116.71913,3.4792],[116.71924,3.47939],[116.71923,3.47958],[116.71898,3.47998],[116.71882,3.48022],[116.71865,3.48051],[116.71866,3.4808],[116.71874,3.48145],[116.71888,3.48192],[116.71898,3.48212],[116.71915,3.48214],[116.71938,3.48212],[116.71961,3.48196],[116.72005,3.48165],[116.7204,3.48135],[116.72073,3.48107],[116.72092,3.48112],[116.72096,3.48112],[116.72103,3.48123],[116.72111,3.48157],[116.72116,3.48162],[116.72135,3.48189]]]]},"properties":{"kdprov":"65","kdkab":"03","kdkec":"010","kddesa":"001","kdsls":"0002","idsls":"65030100010002","nmprov":"KALIMANTAN UTARA","nmkab":"TANA TIDUNG","nmkec":"MURUK RIAN","nmdesa":"BALAYAN ARI","nmsls":"RT 002"}},{"type":"Feature","geometry":{"type":"MultiPolygon","coordinates":[[[[116.72159,3.37341],[116.72159,3.38712],[116.72158,3.4011],[116.72157,3.40824],[116.72156,3.42787],[116.72153,3.47001],[116.72153,3.47231],[116.72146,3.47676],[116.72141,3.4789],[116.72135,3.48189],[116.72154,3.48214],[116.72158,3.48235],[116.72166,3.48257],[116.72172,3.48285],[116.72174,3.48314],[116.72196,3.48347],[116.7222,3.48376],[116.72236,3.48394],[116.72243,3.48427],[116.72238,3.48437],[116.72218,3.48447],[116.72195,3.48454],[116.72168,3.48462],[116.72142,3.48469],[116.72134,3.48479],[116.72129,3.48489],[116.72122,3.48503],[116.72112,3.48526],[116.72107,3.48549],[116.721,3.48581],[116.72101,3.48592],[116.72103,3.48636],[116.72105,3.48643],[116.72108,3.48657],[116.72122,3.48705],[116.72125,3.48715],[116.72136,3.48753],[116.72146,3.48767],[116.72165,3.48778],[116.72188,3.48772],[116.722,3.48749],[116.72199,3.48734],[116.72192,3.48721],[116.72188,3.48712],[116.72178,3.48685],[116.72179,3.48674],[116.72182,3.48655],[116.7219,3.48636],[116.72199,3.48615],[116.72215,3.48606],[116.72228,3.48608],[116.72236,3.48613],[116.7225,3.48621],[116.72259,3.48631],[116.72267,3.48643],[116.72273,3.48655],[116.72279,3.48689],[116.72293,3.48712],[116.72308,3.48724],[116.72321,3.48767],[116.72355,3.4879],[116.72369,3.48788],[116.72433,3.48844],[116.72446,3.48839],[116.72456,3.48825],[116.72455,3.48809],[116.72438,3.48799],[116.72412,3.48784],[116.72421,3.48771],[116.72432,3.48762],[116.72448,3.48761],[116.72462,3.4877],[116.72474,3.48775],[116.72487,3.48775],[116.72496,3.48763],[116.72498,3.4875],[116.72495,3.48727],[116.72489,3.48711],[116.72477,3.48701],[116.72464,3.48684],[116.72465,3.48669],[116.7248,3.48667],[116.72499,3.48693],[116.7251,3.48697],[116.72514,3.48691],[116.72533,3.48682],[116.72565,3.48686],[116.72583,3.48671],[116.72598,3.48641],[116.72589,3.48615],[116.72568,3.48568],[116.7255,3.48543],[116.72554,3.48513],[116.72566,3.4849],[116.72564,3.48438],[116.72546,3.48426],[116.72505,3.4845],[116.72494,3.48448],[116.72511,3.48421],[116.72537,3.48412],[116.72568,3.4838],[116.72569,3.48365],[116.72594,3.48352],[116.72608,3.48327],[116.72608,3.48289],[116.72577,3.48276],[116.72555,3.48298],[116.72541,3.48274],[116.72542,3.48257],[116.72549,3.48244],[116.72538,3.48232],[116.72532,3.48197],[116.72501,3.48171],[116.72482,3.48152],[116.72495,3.48115],[116.72497,3.48094],[116.72545,3.48064],[116.72563,3.48051],[116.72602,3.48022],[116.72603,3.48022],[116.72612,3.4802],[116.72624,3.48021],[116.72648,3.48027],[116.72702,3.48029],[116.7271,3.48029],[116.72738,3.4805],[116.7275,3.48066],[116.72784,3.48095],[116.72792,3.48105],[116.72799,3.48115],[116.72803,3.48141],[116.72816,3.48167],[116.72827,3.48174],[116.72847,3.48171],[116.72857,3.48172],[116.72854,3.4817],[116.72858,3.48169],[116.72882,3.48162],[116.7289,3.48166],[116.72904,3.48172],[116.72919,3.4818],[116.72929,3.48186],[116.72956,3.48194],[116.72982,3.48207],[116.7299,3.48208],[116.73009,3.48204],[116.73029,3.482],[116.73057,3.48205],[116.73061,3.48207],[116.73068,3.48211],[116.73087,3.4822],[116.73108,3.48237],[116.73129,3.4825],[116.73139,3.48256],[116.73159,3.48264],[116.73198,3.48267],[116.73247,3.48266],[116.73287,3.48264],[116.7332,3.48262],[116.73387,3.48257],[116.7345,3.48262],[116.73472,3.48269],[116.73498,3.48286],[116.73506,3.48289],[116.73522,3.48291],[116.73532,3.48286],[116.73564,3.48271],[116.73654,3.48229],[116.73704,3.48154],[116.73737,3.48135],[116.73799,3.48137],[116.7384,3.48146],[116.73847,3.48151],[116.73862,3.48162],[116.7387,3.48167],[116.73893,3.48191],[116.73914,3.4823],[116.73942,3.48297],[116.73965,3.48339],[116.74029,3.48376],[116.7404,3.48386],[116.7404,3.48386],[116.74083,3.48424],[116.74096,3.48436],[116.74101,3.48442],[116.74132,3.4849],[116.7415,3.48533],[116.74163,3.48555],[116.74174,3.48568],[116.74197,3.48581],[116.74227,3.48589],[116.74245,3.486],[116.74281,3.48602],[116.74295,3.48602],[116.74312,3.48596],[116.74314,3.48595],[116.74352,3.48537],[116.74367,3.48524],[116.74383,3.48519],[116.7441,3.48522],[116.74418,3.48524],[116.74432,3.48529],[116.74454,3.48539],[116.74469,3.48566],[116.74482,3.48597],[116.745,3.48629],[116.74525,3.48655],[116.74549,3.48664],[116.74581,3.48667],[116.74601,3.48663],[116.74648,3.48656],[116.7468,3.48676],[116.74681,3.48676],[116.74711,3.48693],[116.74729,3.48711],[116.74746,3.48737],[116.74763,3.4877],[116.7477,3.48838],[116.74824,3.48883],[116.74868,3.48919],[116.7489,3.48929],[116.74919,3.48927],[116.74933,3.48926],[116.75045,3.48866],[116.75049,3.48864],[116.7514,3.48797],[116.75165,3.4879],[116.75206,3.48788],[116.75214,3.48789],[116.75267,3.48794],[116.75291,3.48791],[116.753,3.48786],[116.75339,3.48746],[116.75354,3.48716],[116.7536,3.48703],[116.75424,3.48572],[116.75437,3.48555],[116.75458,3.48543],[116.75467,3.48541],[116.75469,3.48544],[116.75482,3.48556],[116.75527,3.48608],[116.75551,3.48625],[116.75576,3.48633],[116.75597,3.48634],[116.75621,3.48629],[116.75658,3.48619],[116.75692,3.48609],[116.75903,3.48549],[116.75938,3.48534],[116.75959,3.48533],[116.75969,3.48531],[116.75997,3.48531],[116.76006,3.48532],[116.76024,3.48536],[116.76045,3.48535],[116.76062,3.48542],[116.76069,3.48547],[116.76103,3.48587],[116.76125,3.48609],[116.76152,3.48621],[116.76176,3.48628],[116.76304,3.48635],[116.7631,3.48637],[116.76355,3.48665],[116.7637,3.48674],[116.76421,3.48723],[116.76433,3.48724],[116.76444,3.48719],[116.76453,3.48711],[116.76459,3.48701],[116.76464,3.48694],[116.76474,3.48683],[116.76487,3.48676],[116.76498,3.48685],[116.76512,3.48697],[116.76513,3.48697],[116.76531,3.48726],[116.7657,3.48781],[116.7658,3.48793],[116.7658,3.48905],[116.7658,3.48928],[116.7659,3.48972],[116.76601,3.48989],[116.76623,3.49005],[116.76667,3.49011],[116.76687,3.49017],[116.76704,3.49033],[116.76715,3.49063],[116.76722,3.49169],[116.76729,3.49185],[116.76744,3.49202],[116.76767,3.4922],[116.76791,3.4923],[116.76841,3.49234],[116.76863,3.49238],[116.76884,3.49242],[116.76907,3.49241],[116.76928,3.49236],[116.76947,3.4923],[116.76954,3.49227],[116.76965,3.49225],[116.76976,3.49225],[116.76996,3.49226],[116.77014,3.49235],[116.77025,3.49241],[116.77037,3.49257],[116.7705,3.49274],[116.77075,3.49301],[116.77099,3.49333],[116.77126,3.49357],[116.77157,3.49383],[116.77168,3.49393],[116.7718,3.49416],[116.77183,3.49461],[116.77192,3.49481],[116.772,3.49494],[116.77215,3.4951],[116.77219,3.49532],[116.77223,3.49571],[116.77231,3.49599],[116.77243,3.49621],[116.77257,3.49635],[116.77299,3.49657],[116.77299,3.49657],[116.77324,3.4967],[116.77363,3.4969],[116.77391,3.49713],[116.77418,3.49739],[116.77439,3.49764],[116.77444,3.49776],[116.77449,3.49785],[116.77459,3.49806],[116.77465,3.49815],[116.77482,3.49832],[116.775,3.49846],[116.77502,3.49846],[116.77529,3.49854],[116.77561,3.49871],[116.77576,3.49877],[116.7759,3.49882],[116.77607,3.49897],[116.77623,3.49909],[116.77642,3.49927],[116.77656,3.49944],[116.77681,3.49948],[116.7769,3.49945],[116.77698,3.49938],[116.77715,3.49901],[116.77724,3.4988],[116.77753,3.49858],[116.77795,3.49842],[116.77841,3.49828],[116.77846,3.49826],[116.77918,3.49799],[116.7795,3.49793],[116.77952,3.49793],[116.7806,3.49786],[116.78093,3.49747],[116.78092,3.49737],[116.7809,3.49709],[116.78087,3.49667],[116.78133,3.49645],[116.78169,3.49628],[116.78178,3.49615],[116.78222,3.49552],[116.78279,3.49472],[116.78281,3.49441],[116.7822,3.4941],[116.78206,3.49404],[116.7818,3.49383],[116.78157,3.49333],[116.78155,3.49321],[116.78132,3.49203],[116.78104,3.49145],[116.7811,3.49126],[116.78109,3.49125],[116.78124,3.49015],[116.78203,3.48965],[116.78254,3.48849],[116.7824,3.48803],[116.7829,3.48704],[116.7831,3.487],[116.7831,3.48699],[116.78326,3.4869],[116.78363,3.48679],[116.78395,3.48685],[116.78487,3.48677],[116.78499,3.48659],[116.78514,3.48619],[116.78583,3.48528],[116.78593,3.48504],[116.78627,3.48425],[116.78642,3.48407],[116.78673,3.4837],[116.78744,3.48341],[116.7884,3.48323],[116.78866,3.48322],[116.78868,3.48318],[116.78879,3.48304],[116.78903,3.48271],[116.78911,3.4826],[116.78879,3.48209],[116.78874,3.48201],[116.78803,3.48187],[116.78686,3.48155],[116.78691,3.48012],[116.78629,3.47968],[116.78588,3.47868],[116.78587,3.4775],[116.78583,3.47651],[116.78619,3.47546],[116.78709,3.47362],[116.7873,3.47318],[116.78794,3.4718],[116.78837,3.4712],[116.78866,3.4708],[116.78887,3.47061],[116.78981,3.46975],[116.78996,3.46962],[116.79053,3.46958],[116.79202,3.46948],[116.79361,3.46888],[116.79627,3.46831],[116.79768,3.46769],[116.79868,3.46738],[116.7995,3.46725],[116.80092,3.46732],[116.80308,3.46665],[116.80342,3.46673],[116.80435,3.46701],[116.80503,3.4674],[116.80529,3.46775],[116.80606,3.4688],[116.80608,3.46883],[116.80612,3.46888],[116.80622,3.46902],[116.80647,3.46919],[116.80736,3.47002],[116.80878,3.4705],[116.80969,3.47075],[116.81078,3.46994],[116.812,3.46989],[116.81227,3.46994],[116.8128,3.4694],[116.81309,3.46915],[116.81375,3.46919],[116.81454,3.46967],[116.81494,3.47001],[116.81592,3.47],[116.81604,3.47],[116.81604,3.46962],[116.81604,3.4696],[116.81615,3.46918],[116.81638,3.46863],[116.81638,3.46863],[116.81634,3.46857],[116.81615,3.46831],[116.81599,3.46805],[116.81598,3.46802],[116.81589,3.46725],[116.81588,3.46724],[116.81587,3.46723],[116.81543,3.4667],[116.81543,3.4667],[116.81476,3.46639],[116.81429,3.46617],[116.81408,3.46595],[116.81364,3.46549],[116.81296,3.46482],[116.81268,3.46455],[116.81258,3.46446],[116.81257,3.46446],[116.81257,3.46446],[116.81255,3.46444],[116.81244,3.46435],[116.8123,3.46423],[116.81224,3.46418],[116.81223,3.46417],[116.81222,3.46415],[116.81178,3.46374],[116.8116,3.46357],[116.81121,3.46274],[116.81133,3.46108],[116.81136,3.46103],[116.81136,3.46103],[116.81176,3.46014],[116.81161,3.45897],[116.81161,3.45897],[116.81161,3.45895],[116.81114,3.45854],[116.81109,3.45849],[116.81108,3.45849],[116.80944,3.45804],[116.80833,3.45685],[116.80638,3.45576],[116.80337,3.45475],[116.79854,3.45254],[116.79637,3.4521],[116.796,3.45203],[116.796,3.45202],[116.796,3.45202],[116.79508,3.45103],[116.79551,3.4482],[116.79511,3.44772],[116.79223,3.44437],[116.79223,3.44437],[116.79079,3.44461],[116.79079,3.44461],[116.79079,3.44461],[116.78895,3.44311],[116.788,3.44083],[116.78593,3.43879],[116.78548,3.43811],[116.78616,3.43598],[116.78708,3.43469],[116.78709,3.43469],[116.78709,3.43469],[116.78709,3.43468],[116.78627,3.43311],[116.78694,3.43095],[116.78706,3.42927],[116.78445,3.42139],[116.78443,3.42132],[116.7845,3.42116],[116.78545,3.41916],[116.78692,3.41789],[116.78815,3.41728],[116.78827,3.41722],[116.78827,3.41722],[116.79003,3.41706],[116.7913,3.41627],[116.79144,3.41619],[116.79144,3.41619],[116.79148,3.4154],[116.79152,3.41442],[116.79101,3.41316],[116.79096,3.41192],[116.79093,3.41104],[116.79094,3.41102],[116.79103,3.41073],[116.79103,3.41073],[116.79139,3.40969],[116.79133,3.40729],[116.79192,3.40569],[116.79356,3.40534],[116.79344,3.40429],[116.79284,3.40364],[116.79139,3.40207],[116.79086,3.40175],[116.78915,3.40074],[116.78848,3.39898],[116.7898,3.39827],[116.78981,3.39827],[116.79042,3.39754],[116.79094,3.39692],[116.79274,3.39558],[116.79274,3.39558],[116.79235,3.3911],[116.79061,3.39006],[116.7906,3.39005],[116.7906,3.39005],[116.79091,3.3885],[116.79086,3.38824],[116.79049,3.38704],[116.79055,3.38689],[116.79165,3.38377],[116.79208,3.38369],[116.79225,3.38364],[116.79242,3.3836],[116.79242,3.3836],[116.79246,3.3836],[116.79261,3.38362],[116.79446,3.38365],[116.79458,3.38365],[116.79465,3.38332],[116.79482,3.38253],[116.79442,3.38003],[116.79482,3.37949],[116.79506,3.37857],[116.79507,3.37857],[116.79508,3.37856],[116.79508,3.37854],[116.7951,3.37847],[116.79558,3.37839],[116.79597,3.37831],[116.79733,3.37725],[116.79733,3.37725],[116.79735,3.37726],[116.79735,3.37725],[116.79812,3.37731],[116.79813,3.37731],[116.79878,3.37721],[116.79948,3.37721],[116.79984,3.37695],[116.79987,3.37633],[116.79987,3.37624],[116.79846,3.37587],[116.79427,3.37457],[116.78864,3.37284],[116.78546,3.37082],[116.78112,3.37082],[116.77837,3.37154],[116.77751,3.37457],[116.77693,3.37992],[116.77678,3.38025],[116.77592,3.38223],[116.77418,3.3831],[116.77379,3.38308],[116.7734,3.38306],[116.772,3.383],[116.77188,3.383],[116.771,3.38296],[116.76855,3.38252],[116.76566,3.38353],[116.7632,3.3844],[116.76133,3.38451],[116.76074,3.38455],[116.76071,3.38452],[116.75881,3.38298],[116.75873,3.38292],[116.75771,3.38209],[116.75593,3.38083],[116.75464,3.37991],[116.75453,3.37983],[116.75451,3.37982],[116.75323,3.37891],[116.75255,3.37888],[116.75186,3.37885],[116.74962,3.37876],[116.74687,3.37992],[116.74412,3.3818],[116.74167,3.38166],[116.73908,3.37894],[116.73893,3.37878],[116.73878,3.37862],[116.73767,3.37617],[116.73693,3.37451],[116.73617,3.37284],[116.73599,3.37233],[116.7351,3.36982],[116.73442,3.36991],[116.73332,3.37005],[116.73035,3.37044],[116.73022,3.37046],[116.72834,3.37174],[116.72556,3.37364],[116.72468,3.37359],[116.72295,3.37349],[116.72159,3.37341]]]]},"properties":{"kdprov":"65","kdkab":"03","kdkec":"010","kddesa":"001","kdsls":"0001","idsls":"65030100010001","nmprov":"KALIMANTAN UTARA","nmkab":"TANA TIDUNG","nmkec":"MURUK RIAN","nmdesa":"BALAYAN ARI","nmsls":"RT 001"}},{"type":"Feature","geometry":{"type":"MultiPolygon","coordinates":[[[[116.73063,3.63157],[116.73114,3.63331],[116.7329,3.63786],[116.7335,3.6394],[116.73478,3.64389],[116.73692,3.64817],[116.73811,3.65368],[116.73863,3.65608],[116.73891,3.65737],[116.73911,3.65829],[116.74034,3.664],[116.74227,3.67469],[116.74416,3.67807],[116.74472,3.67906],[116.74476,3.67915],[116.74491,3.67951],[116.74502,3.67977],[116.74548,3.68041],[116.74612,3.68154],[116.74803,3.6838],[116.74894,3.68426],[116.75136,3.6855],[116.75905,3.68941],[116.76014,3.68982],[116.76015,3.68282],[116.76016,3.68068],[116.76018,3.66664],[116.7602,3.6608],[116.76018,3.65189],[116.76018,3.64785],[116.76013,3.60501],[116.75782,3.60541],[116.7564,3.6107],[116.75576,3.61307],[116.75122,3.61556],[116.74982,3.61632],[116.74877,3.6169],[116.74682,3.61868],[116.74343,3.62179],[116.74337,3.62185],[116.74171,3.6231],[116.7392,3.625],[116.73431,3.6287],[116.73416,3.62882],[116.73063,3.63157]]]]},"properties":{"kdprov":"65","kdkab":"03","kdkec":"010","kddesa":"005","kdsls":"2001","idsls":"65030100052001","nmprov":"KALIMANTAN UTARA","nmkab":"TANA TIDUNG","nmkec":"MURUK RIAN","nmdesa":"RIAN RAYO","nmsls":"HUTAN"}},{"type":"Feature","geometry":{"type":"MultiPolygon","coordinates":[[[[116.76013,3.60501],[116.76494,3.60443],[116.76536,3.60417],[116.7652,3.60335],[116.76549,3.60256],[116.76591,3.60178],[116.76632,3.60121],[116.76664,3.60077],[116.76681,3.6007],[116.76971,3.59949],[116.77457,3.59747],[116.77533,3.59654],[116.775,3.58704],[116.77119,3.59151],[116.76509,3.59508],[116.76345,3.59463],[116.75621,3.59656],[116.7517,3.59776],[116.74531,3.60014],[116.74189,3.604],[116.74128,3.60559],[116.73996,3.60906],[116.73772,3.61426],[116.73565,3.61634],[116.73341,3.61858],[116.72865,3.62021],[116.72664,3.62026],[116.72739,3.62172],[116.72744,3.62176],[116.72943,3.62753],[116.72981,3.62882],[116.73005,3.62962],[116.73063,3.63157],[116.73416,3.62882],[116.73431,3.6287],[116.7392,3.625],[116.74171,3.6231],[116.74337,3.62185],[116.74343,3.62179],[116.74682,3.61868],[116.74877,3.6169],[116.74982,3.61632],[116.75122,3.61556],[116.75576,3.61307],[116.7564,3.6107],[116.75782,3.60541],[116.76013,3.60501]]]]},"properties":{"kdprov":"65","kdkab":"03","kdkec":"010","kddesa":"002","kdsls":"4001","idsls":"65030100024001","nmprov":"KALIMANTAN UTARA","nmkab":"TANA TIDUNG","nmkec":"MURUK RIAN","nmdesa":"SEPUTUK","nmsls":"MESS MELINDO"}},{"type":"Feature","geometry":{"type":"MultiPolygon","coordinates":[[[[116.77278,3.55003],[116.77229,3.54179],[116.77567,3.52136],[116.77871,3.50302],[116.77873,3.50291],[116.77891,3.50183],[116.77896,3.50156],[116.77909,3.50075],[116.77909,3.50075],[116.77938,3.49899],[116.7795,3.4981],[116.77952,3.49799],[116.77952,3.49793],[116.7795,3.49793],[116.77918,3.49799],[116.77846,3.49826],[116.77841,3.49828],[116.77795,3.49842],[116.77753,3.49858],[116.77724,3.4988],[116.77715,3.49901],[116.77698,3.49938],[116.7769,3.49945],[116.77681,3.49948],[116.77656,3.49944],[116.77642,3.49927],[116.77623,3.49909],[116.77607,3.49897],[116.7759,3.49882],[116.77576,3.49877],[116.77561,3.49871],[116.77529,3.49854],[116.77502,3.49846],[116.775,3.49846],[116.77482,3.49832],[116.77465,3.49815],[116.77459,3.49806],[116.77449,3.49785],[116.77444,3.49776],[116.77439,3.49764],[116.77418,3.49739],[116.77391,3.49713],[116.77363,3.4969],[116.77324,3.4967],[116.77299,3.49657],[116.77299,3.49657],[116.77257,3.49635],[116.77243,3.49621],[116.77231,3.49599],[116.77223,3.49571],[116.77219,3.49532],[116.77215,3.4951],[116.772,3.49494],[116.77192,3.49481],[116.77183,3.49461],[116.7718,3.49416],[116.77168,3.49393],[116.77157,3.49383],[116.77126,3.49357],[116.77099,3.49333],[116.77075,3.49301],[116.7705,3.49274],[116.77037,3.49257],[116.77025,3.49241],[116.77014,3.49235],[116.76996,3.49226],[116.76976,3.49225],[116.76965,3.49225],[116.76954,3.49227],[116.76947,3.4923],[116.76928,3.49236],[116.76907,3.49241],[116.76884,3.49242],[116.76863,3.49238],[116.76841,3.49234],[116.76791,3.4923],[116.76767,3.4922],[116.76744,3.49202],[116.76729,3.49185],[116.76722,3.49169],[116.76715,3.49063],[116.76704,3.49033],[116.76687,3.49017],[116.76667,3.49011],[116.76623,3.49005],[116.76601,3.48989],[116.7659,3.48972],[116.7658,3.48928],[116.7658,3.48905],[116.7658,3.48793],[116.7657,3.48781],[116.76531,3.48726],[116.76513,3.48697],[116.76512,3.48697],[116.76498,3.48685],[116.76487,3.48676],[116.76474,3.48683],[116.76464,3.48694],[116.76459,3.48701],[116.76453,3.48711],[116.76444,3.48719],[116.76433,3.48724],[116.76421,3.48723],[116.7637,3.48674],[116.76355,3.48665],[116.7631,3.48637],[116.76304,3.48635],[116.76176,3.48628],[116.76152,3.48621],[116.76125,3.48609],[116.76103,3.48587],[116.76069,3.48547],[116.76062,3.48542],[116.76045,3.48535],[116.76024,3.48536],[116.76006,3.48532],[116.75997,3.48531],[116.75969,3.48531],[116.75959,3.48533],[116.75938,3.48534],[116.75903,3.48549],[116.75692,3.48609],[116.75658,3.48619],[116.75621,3.48629],[116.75597,3.48634],[116.75576,3.48633],[116.75551,3.48625],[116.75527,3.48608],[116.75482,3.48556],[116.75469,3.48544],[116.75467,3.48541],[116.75458,3.48543],[116.75437,3.48555],[116.75424,3.48572],[116.7536,3.48703],[116.75354,3.48716],[116.75339,3.48746],[116.753,3.48786],[116.75291,3.48791],[116.75267,3.48794],[116.75214,3.48789],[116.75206,3.48788],[116.75165,3.4879],[116.7514,3.48797],[116.75049,3.48864],[116.75045,3.48866],[116.74933,3.48926],[116.74919,3.48927],[116.7489,3.48929],[116.74868,3.48919],[116.74824,3.48883],[116.7477,3.48838],[116.74763,3.4877],[116.74746,3.48737],[116.74729,3.48711],[116.74711,3.48693],[116.74681,3.48676],[116.7468,3.48676],[116.74648,3.48656],[116.74601,3.48663],[116.74581,3.48667],[116.74549,3.48664],[116.74525,3.48655],[116.745,3.48629],[116.74482,3.48597],[116.74469,3.48566],[116.74454,3.48539],[116.74432,3.48529],[116.74418,3.48524],[116.7441,3.48522],[116.74383,3.48519],[116.74367,3.48524],[116.74352,3.48537],[116.74314,3.48595],[116.74312,3.48596],[116.74295,3.48602],[116.74281,3.48602],[116.74245,3.486],[116.74227,3.48589],[116.74197,3.48581],[116.74174,3.48568],[116.74163,3.48555],[116.7415,3.48533],[116.74132,3.4849],[116.74101,3.48442],[116.74096,3.48436],[116.74083,3.48424],[116.7404,3.48386],[116.7404,3.48386],[116.74029,3.48376],[116.73965,3.48339],[116.73942,3.48297],[116.73914,3.4823],[116.73893,3.48191],[116.7387,3.48167],[116.73862,3.48162],[116.73847,3.48151],[116.7384,3.48146],[116.73799,3.48137],[116.73737,3.48135],[116.73704,3.48154],[116.73654,3.48229],[116.73564,3.48271],[116.73532,3.48286],[116.73522,3.48291],[116.73506,3.48289],[116.73498,3.48286],[116.73472,3.48269],[116.7345,3.48262],[116.73387,3.48257],[116.7332,3.48262],[116.73287,3.48264],[116.73247,3.48266],[116.73198,3.48267],[116.73159,3.48264],[116.73139,3.48256],[116.73129,3.4825],[116.73108,3.48237],[116.73087,3.4822],[116.73068,3.48211],[116.73061,3.48207],[116.73057,3.48205],[116.73029,3.482],[116.73009,3.48204],[116.7299,3.48208],[116.72982,3.48207],[116.72956,3.48194],[116.72929,3.48186],[116.72919,3.4818],[116.72904,3.48172],[116.7289,3.48166],[116.72882,3.48162],[116.72858,3.48169],[116.72854,3.4817],[116.72857,3.48172],[116.72847,3.48171],[116.72827,3.48174],[116.72816,3.48167],[116.72803,3.48141],[116.72799,3.48115],[116.72792,3.48105],[116.72784,3.48095],[116.7275,3.48066],[116.72738,3.4805],[116.7271,3.48029],[116.72702,3.48029],[116.72648,3.48027],[116.72624,3.48021],[116.72612,3.4802],[116.72603,3.48022],[116.72602,3.48022],[116.72563,3.48051],[116.72545,3.48064],[116.72497,3.48094],[116.72495,3.48115],[116.72482,3.48152],[116.72501,3.48171],[116.72532,3.48197],[116.72538,3.48232],[116.72549,3.48244],[116.72542,3.48257],[116.72541,3.48274],[116.72555,3.48298],[116.72577,3.48276],[116.72608,3.48289],[116.72608,3.48327],[116.72594,3.48352],[116.72569,3.48365],[116.72568,3.4838],[116.72537,3.48412],[116.72511,3.48421],[116.72494,3.48448],[116.72505,3.4845],[116.72546,3.48426],[116.72564,3.48438],[116.72566,3.4849],[116.72554,3.48513],[116.7255,3.48543],[116.72568,3.48568],[116.72589,3.48615],[116.72598,3.48641],[116.72583,3.48671],[116.72565,3.48686],[116.72533,3.48682],[116.72514,3.48691],[116.7251,3.48697],[116.72499,3.48693],[116.7248,3.48667],[116.72465,3.48669],[116.72464,3.48684],[116.72477,3.48701],[116.72489,3.48711],[116.72495,3.48727],[116.72498,3.4875],[116.72496,3.48763],[116.72487,3.48775],[116.72474,3.48775],[116.72462,3.4877],[116.72448,3.48761],[116.72432,3.48762],[116.72421,3.48771],[116.72412,3.48784],[116.72438,3.48799],[116.72455,3.48809],[116.72456,3.48825],[116.72446,3.48839],[116.72433,3.48844],[116.72369,3.48788],[116.72355,3.4879],[116.72321,3.48767],[116.72308,3.48724],[116.72293,3.48712],[116.72279,3.48689],[116.72273,3.48655],[116.72267,3.48643],[116.72259,3.48631],[116.7225,3.48621],[116.72236,3.48613],[116.72228,3.48608],[116.72215,3.48606],[116.72199,3.48615],[116.7219,3.48636],[116.72182,3.48655],[116.72179,3.48674],[116.72178,3.48685],[116.72188,3.48712],[116.72192,3.48721],[116.72199,3.48734],[116.722,3.48749],[116.72188,3.48772],[116.72165,3.48778],[116.72146,3.48767],[116.72136,3.48753],[116.72125,3.48715],[116.72122,3.48705],[116.72108,3.48657],[116.72105,3.48643],[116.72103,3.48636],[116.72101,3.48592],[116.721,3.48581],[116.72107,3.48549],[116.72112,3.48526],[116.72122,3.48503],[116.72129,3.48489],[116.72134,3.48479],[116.72142,3.48469],[116.72168,3.48462],[116.72195,3.48454],[116.72218,3.48447],[116.72238,3.48437],[116.72243,3.48427],[116.72236,3.48394],[116.7222,3.48376],[116.72196,3.48347],[116.72174,3.48314],[116.72172,3.48285],[116.72166,3.48257],[116.72158,3.48235],[116.72154,3.48214],[116.72135,3.48189],[116.72116,3.48162],[116.72111,3.48157],[116.72103,3.48123],[116.72096,3.48112],[116.72092,3.48112],[116.72073,3.48107],[116.7204,3.48135],[116.72005,3.48165],[116.71961,3.48196],[116.71938,3.48212],[116.71915,3.48214],[116.71898,3.48212],[116.71888,3.48192],[116.71874,3.48145],[116.71866,3.4808],[116.71865,3.48051],[116.71882,3.48022],[116.71898,3.47998],[116.71923,3.47958],[116.71924,3.47939],[116.71913,3.4792],[116.71777,3.47923],[116.71607,3.47888],[116.71445,3.47868],[116.7134,3.47949],[116.71222,3.47955],[116.70959,3.4806],[116.7074,3.48069],[116.70546,3.48038],[116.70369,3.48053],[116.7015,3.48029],[116.70144,3.48029],[116.69942,3.47962],[116.69848,3.47924],[116.69695,3.47862],[116.69459,3.47839],[116.69369,3.47753],[116.69368,3.47525],[116.69358,3.4741],[116.69357,3.47405],[116.69341,3.47333],[116.69327,3.47351],[116.69311,3.4737],[116.69306,3.47383],[116.69306,3.47383],[116.69295,3.47407],[116.69145,3.47755],[116.6903,3.48207],[116.68794,3.48799],[116.6878,3.48901],[116.68682,3.4922],[116.68633,3.49735],[116.68559,3.49931],[116.68518,3.50151],[116.68487,3.50316],[116.68659,3.5039],[116.68988,3.50531],[116.69162,3.50606],[116.6999,3.50961],[116.70758,3.5129],[116.7203,3.51835],[116.72387,3.51989],[116.72426,3.52005],[116.73875,3.5267],[116.7393,3.5265],[116.73931,3.5265],[116.73933,3.52651],[116.74055,3.52621],[116.74039,3.52627],[116.74037,3.52648],[116.74044,3.52662],[116.74056,3.52672],[116.74063,3.52686],[116.74068,3.52707],[116.74065,3.52729],[116.74056,3.52761],[116.74056,3.52776],[116.74062,3.52782],[116.74076,3.5279],[116.74084,3.52805],[116.74071,3.52829],[116.7406,3.52845],[116.74039,3.5286],[116.74029,3.52869],[116.74033,3.52881],[116.74035,3.52898],[116.74032,3.52909],[116.7402,3.52926],[116.74012,3.52945],[116.74012,3.52963],[116.74008,3.52969],[116.74368,3.53141],[116.76239,3.54338],[116.76636,3.54592],[116.77278,3.55003]]]]},"properties":{"kdprov":"65","kdkab":"03","kdkec":"010","kddesa":"002","kdsls":"0002","idsls":"65030100020002","nmprov":"KALIMANTAN UTARA","nmkab":"TANA TIDUNG","nmkec":"MURUK RIAN","nmdesa":"SEPUTUK","nmsls":"RT 002"}},{"type":"Feature","geometry":{"type":"MultiPolygon","coordinates":[[[[116.86306,3.54726],[116.86201,3.54234],[116.8609,3.53976],[116.8609,3.53976],[116.86102,3.53919],[116.8625,3.53864],[116.86284,3.53806],[116.86359,3.53676],[116.8636,3.53673],[116.86353,3.53455],[116.86419,3.53252],[116.86418,3.53252],[116.86418,3.53252],[116.86437,3.53251],[116.86501,3.53247],[116.86503,3.53246],[116.86604,3.53185],[116.86675,3.53158],[116.86695,3.53137],[116.86686,3.5309],[116.86686,3.53083],[116.86687,3.53038],[116.86711,3.52986],[116.86749,3.52968],[116.86793,3.52951],[116.86826,3.52917],[116.8683,3.5291],[116.86843,3.52881],[116.86843,3.5288],[116.86874,3.52855],[116.86906,3.5284],[116.86949,3.52812],[116.86967,3.52791],[116.86973,3.52779],[116.86981,3.52774],[116.86981,3.52773],[116.8698,3.52773],[116.86981,3.52773],[116.8698,3.52773],[116.86643,3.52506],[116.84882,3.51089],[116.84794,3.51017],[116.84691,3.50935],[116.84296,3.52835],[116.84329,3.52904],[116.84317,3.52951],[116.84307,3.53018],[116.84328,3.53049],[116.84331,3.53068],[116.84339,3.53077],[116.8434,3.53104],[116.84339,3.53121],[116.8435,3.53143],[116.84365,3.53154],[116.84374,3.53164],[116.84375,3.53181],[116.84436,3.56083],[116.8561,3.54971],[116.85777,3.54913],[116.86306,3.54726]]]]},"properties":{"kdprov":"65","kdkab":"03","kdkec":"010","kddesa":"006","kdsls":"0001","idsls":"65030100060001","nmprov":"KALIMANTAN UTARA","nmkab":"TANA TIDUNG","nmkec":"MURUK RIAN","nmdesa":"SAPARI","nmsls":"RT 001"}}]}