{"type":"FeatureCollection","features":[{"type":"Feature","geometry":{"type":"MultiPolygon","coordinates":[[[[116.97238,3.46612],[116.97225,3.46645],[116.97227,3.46645],[116.97278,3.46675],[116.97522,3.46814],[116.97524,3.46816],[116.97557,3.46835],[116.97654,3.4689],[116.97686,3.46908],[116.97725,3.46931],[116.97979,3.47076],[116.98008,3.47093],[116.98018,3.47077],[116.98036,3.47066],[116.98052,3.47059],[116.98069,3.47058],[116.98096,3.4705],[116.9811,3.47033],[116.9812,3.47021],[116.98139,3.46999],[116.98142,3.46996],[116.98152,3.46974],[116.98156,3.46965],[116.98193,3.46907],[116.98211,3.46877],[116.98218,3.46866],[116.98219,3.46864],[116.98228,3.46848],[116.9824,3.46796],[116.98248,3.46733],[116.98249,3.46697],[116.9825,3.46598],[116.98251,3.46573],[116.98254,3.46495],[116.98256,3.46449],[116.98257,3.46436],[116.98257,3.46431],[116.98257,3.46407],[116.98257,3.46387],[116.98257,3.46361],[116.98257,3.46356],[116.98254,3.46358],[116.98244,3.46365],[116.98231,3.46376],[116.9822,3.46385],[116.982,3.46401],[116.98163,3.46405],[116.98029,3.46467],[116.98002,3.4648],[116.97873,3.46539],[116.97469,3.46585],[116.97238,3.46612]]]]},"properties":{"kdprov":"65","kdkab":"03","kdkec":"030","kddesa":"002","kdsls":"0002","idsls":"65030300020002","nmprov":"KALIMANTAN UTARA","nmkab":"TANA TIDUNG","nmkec":"BETAYAU","nmdesa":"PERIUK","nmsls":"RT 002"}},{"type":"Feature","geometry":{"type":"MultiPolygon","coordinates":[[[[116.98471,3.46546],[116.98385,3.46358],[116.98383,3.46278],[116.98383,3.46278],[116.98383,3.46278],[116.98332,3.46289],[116.98308,3.46289],[116.98308,3.46289],[116.98258,3.46305],[116.98257,3.46311],[116.98257,3.46333],[116.98257,3.46356],[116.98257,3.46361],[116.98257,3.46387],[116.98257,3.46407],[116.98257,3.46431],[116.98257,3.46436],[116.98256,3.46449],[116.98254,3.46495],[116.98251,3.46573],[116.9825,3.46598],[116.98249,3.46697],[116.98248,3.46733],[116.9824,3.46796],[116.98228,3.46848],[116.98219,3.46864],[116.98218,3.46866],[116.98211,3.46877],[116.98193,3.46907],[116.98156,3.46965],[116.98152,3.46974],[116.98142,3.46996],[116.98139,3.46999],[116.9812,3.47021],[116.9811,3.47033],[116.98096,3.4705],[116.98069,3.47058],[116.98052,3.47059],[116.98036,3.47066],[116.98018,3.47077],[116.98008,3.47093],[116.98009,3.47093],[116.98009,3.47093],[116.98009,3.47094],[116.98078,3.47134],[116.98108,3.47151],[116.98188,3.47018],[116.98471,3.46546]]]]},"properties":{"kdprov":"65","kdkab":"03","kdkec":"030","kddesa":"001","kdsls":"0001","idsls":"65030300010001","nmprov":"KALIMANTAN UTARA","nmkab":"TANA TIDUNG","nmkec":"BETAYAU","nmdesa":"MENDUPO","nmsls":"RT 001"}},{"type":"Feature","geometry":{"type":"MultiPolygon","coordinates":[[[[117.00294,3.45908],[117.00287,3.45926],[117.00286,3.45928],[117.01131,3.45942],[117.00772,3.46609],[117.00681,3.46769],[117.00673,3.46785],[117.00636,3.46858],[117.00633,3.46863],[117.00679,3.46886],[117.0069,3.46891],[117.00703,3.46897],[117.0071,3.469],[117.00713,3.46901],[117.0073,3.46882],[117.00748,3.46851],[117.0076,3.4683],[117.00776,3.46801],[117.0079,3.46777],[117.00818,3.46723],[117.00855,3.46673],[117.0086,3.46667],[117.00896,3.46621],[117.00936,3.4657],[117.00952,3.46552],[117.0098,3.46521],[117.0103,3.46477],[117.01035,3.46472],[117.01055,3.46457],[117.01061,3.46447],[117.01074,3.46435],[117.01077,3.46427],[117.01083,3.4641],[117.01097,3.46374],[117.01102,3.46305],[117.01103,3.46268],[117.01104,3.46232],[117.01114,3.46199],[117.01127,3.46161],[117.0116,3.46151],[117.01185,3.46143],[117.01192,3.46141],[117.01254,3.46123],[117.01285,3.46118],[117.01326,3.46112],[117.0135,3.46107],[117.01363,3.46104],[117.01436,3.46083],[117.01472,3.46059],[117.01472,3.46059],[117.01472,3.46059],[117.01517,3.46014],[117.01545,3.45969],[117.0155,3.45957],[117.01551,3.45956],[117.01551,3.45955],[117.01574,3.45906],[117.01597,3.45834],[117.0161,3.45761],[117.01616,3.45692],[117.01607,3.45632],[117.01606,3.45624],[117.01583,3.45561],[117.01795,3.4566],[117.01929,3.45749],[117.01939,3.45867],[117.01948,3.45953],[117.02012,3.46044],[117.02058,3.46109],[117.02075,3.46132],[117.02173,3.46141],[117.02633,3.4535],[117.02895,3.44897],[117.02694,3.44859],[117.02402,3.44803],[117.02241,3.44772],[117.01959,3.44719],[117.01667,3.44663],[117.01503,3.44631],[117.01491,3.44629],[117.01491,3.44629],[117.01491,3.44629],[117.01489,3.44633],[117.01077,3.44487],[117.01051,3.44478],[117.00836,3.44401],[117.00294,3.45908]]]]},"properties":{"kdprov":"65","kdkab":"03","kdkec":"030","kddesa":"004","kdsls":"0004","idsls":"65030300040004","nmprov":"KALIMANTAN UTARA","nmkab":"TANA TIDUNG","nmkec":"BETAYAU","nmdesa":"KUJAU","nmsls":"RT 004"}},{"type":"Feature","geometry":{"type":"MultiPolygon","coordinates":[[[[116.97225,3.46645],[116.97238,3.46612],[116.97298,3.46472],[116.97337,3.4638],[116.97487,3.46372],[116.97593,3.46366],[116.97838,3.46353],[116.97824,3.46327],[116.97812,3.46255],[116.97811,3.4622],[116.97803,3.46206],[116.97806,3.46184],[116.97806,3.46183],[116.97801,3.46157],[116.97779,3.46111],[116.97771,3.46083],[116.9775,3.4599],[116.97743,3.45898],[116.97741,3.45876],[116.97755,3.45853],[116.97788,3.45821],[116.97865,3.45756],[116.97866,3.45741],[116.97861,3.45706],[116.97845,3.45694],[116.97845,3.45676],[116.97787,3.4563],[116.97787,3.4563],[116.97786,3.4563],[116.97743,3.45632],[116.97693,3.45644],[116.9764,3.45646],[116.9764,3.45646],[116.9764,3.45646],[116.97611,3.45633],[116.97581,3.45609],[116.97546,3.4556],[116.97474,3.45502],[116.97474,3.45502],[116.97373,3.455],[116.9735,3.45492],[116.97329,3.45476],[116.97299,3.45469],[116.9727,3.45454],[116.9725,3.45448],[116.97241,3.45436],[116.97207,3.45415],[116.97177,3.45408],[116.9716,3.45401],[116.97145,3.45385],[116.97127,3.45296],[116.97139,3.45266],[116.97138,3.45235],[116.9714,3.45205],[116.97137,3.45172],[116.97134,3.45148],[116.97128,3.45143],[116.97124,3.45136],[116.97018,3.44879],[116.97022,3.44847],[116.97031,3.4481],[116.97019,3.44768],[116.97018,3.44734],[116.97023,3.44706],[116.97011,3.44671],[116.97002,3.44653],[116.96979,3.44646],[116.96979,3.44646],[116.96978,3.44646],[116.9696,3.44648],[116.96918,3.44695],[116.9688,3.44711],[116.9688,3.44711],[116.9688,3.44711],[116.96856,3.44701],[116.9684,3.44684],[116.96835,3.44659],[116.96838,3.44647],[116.9685,3.44633],[116.96867,3.44623],[116.96905,3.4459],[116.96907,3.44579],[116.96906,3.44566],[116.96893,3.44534],[116.96862,3.4451],[116.96835,3.44472],[116.96833,3.44462],[116.9684,3.44444],[116.96849,3.44394],[116.96829,3.44361],[116.968,3.44343],[116.96754,3.44296],[116.9667,3.44136],[116.96664,3.44134],[116.96656,3.44129],[116.9663,3.44079],[116.96625,3.44053],[116.96616,3.44037],[116.9654,3.43966],[116.96533,3.4394],[116.96429,3.43831],[116.96315,3.43752],[116.96297,3.43712],[116.96292,3.43688],[116.96323,3.43616],[116.96359,3.43598],[116.96359,3.43598],[116.96401,3.43602],[116.96401,3.43602],[116.96401,3.43602],[116.96423,3.43592],[116.96432,3.43574],[116.96431,3.43563],[116.96431,3.43563],[116.964,3.43563],[116.96388,3.4356],[116.96383,3.43551],[116.9637,3.43523],[116.96366,3.43521],[116.96352,3.43512],[116.96298,3.43486],[116.96265,3.43484],[116.96227,3.43466],[116.96181,3.43426],[116.96181,3.43426],[116.96168,3.43431],[116.96132,3.43445],[116.96082,3.43476],[116.96082,3.43476],[116.96079,3.43474],[116.96063,3.43455],[116.9606,3.4332],[116.96048,3.43313],[116.96031,3.43302],[116.96032,3.43299],[116.96075,3.43294],[116.96041,3.4324],[116.95171,3.42585],[116.95171,3.42585],[116.94785,3.42275],[116.94479,3.42028],[116.94308,3.41904],[116.93815,3.41548],[116.93357,3.41402],[116.93357,3.41402],[116.93357,3.41402],[116.92933,3.41423],[116.92628,3.4147],[116.92218,3.40892],[116.92218,3.40892],[116.92218,3.40892],[116.92114,3.40931],[116.91856,3.40919],[116.91856,3.40919],[116.91856,3.40919],[116.91657,3.41048],[116.91632,3.41064],[116.91213,3.41073],[116.90963,3.40976],[116.9077,3.40763],[116.9077,3.40763],[116.90529,3.40779],[116.90337,3.40857],[116.90307,3.40869],[116.90307,3.40869],[116.90248,3.40869],[116.90173,3.40918],[116.90152,3.41017],[116.898,3.41025],[116.89736,3.40904],[116.89643,3.40866],[116.89643,3.40866],[116.89371,3.40915],[116.89071,3.41015],[116.89012,3.41107],[116.88962,3.41186],[116.88962,3.41186],[116.88962,3.41186],[116.88934,3.41186],[116.88921,3.41185],[116.88921,3.41185],[116.88899,3.41185],[116.88899,3.41185],[116.88886,3.41185],[116.88706,3.41158],[116.88706,3.41158],[116.88706,3.41158],[116.88527,3.41217],[116.88527,3.41217],[116.88455,3.4122],[116.88308,3.41226],[116.88049,3.41495],[116.87827,3.41611],[116.87819,3.41608],[116.87733,3.41576],[116.87717,3.41551],[116.87655,3.41454],[116.87655,3.41453],[116.87611,3.41342],[116.87605,3.41099],[116.87508,3.41027],[116.87508,3.41027],[116.87259,3.41029],[116.87259,3.41029],[116.87234,3.41029],[116.87234,3.41029],[116.87228,3.4104],[116.87148,3.4118],[116.86963,3.41362],[116.86872,3.41416],[116.86689,3.41354],[116.86689,3.41354],[116.86689,3.41354],[116.86684,3.41358],[116.86644,3.41404],[116.86644,3.41404],[116.86644,3.41404],[116.86543,3.4138],[116.86443,3.41304],[116.86443,3.41304],[116.86443,3.41304],[116.86375,3.41317],[116.86209,3.41394],[116.86181,3.41614],[116.86044,3.41723],[116.86044,3.41724],[116.86043,3.41725],[116.85938,3.4194],[116.8584,3.41939],[116.8584,3.41939],[116.85777,3.41999],[116.85764,3.42057],[116.85644,3.42033],[116.85516,3.41992],[116.85516,3.41992],[116.85516,3.41992],[116.85436,3.42111],[116.85436,3.42111],[116.85436,3.42112],[116.85292,3.4232],[116.85214,3.4241],[116.85214,3.4241],[116.85214,3.4241],[116.85038,3.42553],[116.84881,3.42593],[116.8488,3.42593],[116.8481,3.42549],[116.84726,3.42529],[116.84547,3.42387],[116.84546,3.42386],[116.84546,3.42386],[116.84412,3.42365],[116.84412,3.42365],[116.84412,3.42365],[116.84216,3.42569],[116.84039,3.42636],[116.83819,3.42628],[116.83696,3.42578],[116.83696,3.42578],[116.83696,3.42578],[116.83584,3.42585],[116.83481,3.42605],[116.83447,3.42709],[116.83325,3.42785],[116.83323,3.42786],[116.83319,3.42787],[116.83112,3.42866],[116.83074,3.42804],[116.8298,3.42729],[116.8298,3.42729],[116.82943,3.42741],[116.82896,3.42758],[116.82896,3.42758],[116.82818,3.42713],[116.82818,3.42713],[116.82818,3.42713],[116.82689,3.42716],[116.8259,3.42729],[116.82545,3.42781],[116.82515,3.4282],[116.82526,3.42902],[116.82526,3.42903],[116.82526,3.42905],[116.82495,3.4307],[116.82397,3.43209],[116.82397,3.43209],[116.82397,3.43209],[116.82438,3.43307],[116.82512,3.43413],[116.82538,3.43525],[116.82532,3.43715],[116.82478,3.43773],[116.82073,3.43796],[116.82073,3.43796],[116.82073,3.43796],[116.81996,3.43853],[116.81893,3.43946],[116.81872,3.44059],[116.81872,3.44059],[116.81872,3.44059],[116.81886,3.44072],[116.81899,3.44196],[116.8186,3.44318],[116.81754,3.44419],[116.81631,3.44479],[116.81631,3.44479],[116.81573,3.44618],[116.81648,3.44746],[116.81769,3.44871],[116.81868,3.44918],[116.81855,3.45019],[116.81855,3.45019],[116.81971,3.45292],[116.82203,3.45646],[116.8234,3.45724],[116.82446,3.45803],[116.82452,3.45815],[116.82436,3.4589],[116.82435,3.45891],[116.82436,3.45926],[116.8243,3.45931],[116.8242,3.46132],[116.8242,3.46134],[116.82421,3.46135],[116.82443,3.46249],[116.82512,3.46325],[116.82518,3.46461],[116.82492,3.4659],[116.82543,3.46646],[116.82633,3.46728],[116.82644,3.46846],[116.82644,3.46846],[116.82603,3.46983],[116.8259,3.47026],[116.82525,3.47111],[116.82525,3.47111],[116.82574,3.47184],[116.8271,3.47388],[116.82731,3.4741],[116.83007,3.47691],[116.83183,3.48065],[116.83415,3.47987],[116.83419,3.47985],[116.83491,3.47856],[116.83496,3.4783],[116.83499,3.47797],[116.83449,3.47723],[116.83465,3.47677],[116.8356,3.47382],[116.83569,3.47354],[116.83569,3.47354],[116.83569,3.47353],[116.83603,3.46911],[116.83478,3.466],[116.83477,3.4651],[116.83585,3.46365],[116.83586,3.46364],[116.83586,3.46363],[116.83645,3.46169],[116.8374,3.46041],[116.83827,3.45949],[116.83865,3.45851],[116.841,3.45477],[116.841,3.45477],[116.841,3.45476],[116.84211,3.45129],[116.84301,3.45009],[116.84485,3.44848],[116.84486,3.44848],[116.84487,3.44846],[116.8469,3.44618],[116.84812,3.44521],[116.85104,3.44352],[116.8519,3.44197],[116.8521,3.44102],[116.85233,3.44004],[116.85248,3.43891],[116.85347,3.43626],[116.8558,3.43428],[116.85716,3.43305],[116.85746,3.43176],[116.85813,3.431],[116.85863,3.43093],[116.85874,3.43043],[116.85895,3.43052],[116.86485,3.43051],[116.86679,3.43139],[116.86824,3.42975],[116.87099,3.4296],[116.87472,3.43073],[116.88069,3.4308],[116.8892,3.43544],[116.88947,3.43636],[116.89,3.4381],[116.89098,3.43914],[116.89407,3.43834],[116.89475,3.43748],[116.89533,3.4374],[116.89693,3.43927],[116.89741,3.43932],[116.8982,3.438],[116.90056,3.43954],[116.90225,3.43931],[116.90319,3.43775],[116.9011,3.43687],[116.90092,3.43559],[116.90196,3.43416],[116.90022,3.43291],[116.89919,3.43125],[116.90006,3.42926],[116.9008,3.42909],[116.90248,3.42825],[116.90297,3.4268],[116.90313,3.42636],[116.90321,3.42636],[116.90372,3.42633],[116.90606,3.4301],[116.90657,3.43073],[116.90725,3.43156],[116.90803,3.43157],[116.90864,3.43158],[116.91022,3.43346],[116.91134,3.43542],[116.91294,3.43584],[116.91424,3.43513],[116.91553,3.43542],[116.91595,3.43763],[116.91754,3.43866],[116.91819,3.44047],[116.92059,3.44267],[116.92148,3.44396],[116.92141,3.44476],[116.92046,3.44593],[116.91698,3.44595],[116.91623,3.44601],[116.91383,3.44599],[116.90976,3.44606],[116.90924,3.44604],[116.90924,3.44604],[116.9066,3.44728],[116.9066,3.44727],[116.90613,3.44843],[116.90656,3.45076],[116.91045,3.45287],[116.91415,3.45583],[116.91852,3.45704],[116.92562,3.4598],[116.92684,3.46182],[116.93031,3.46273],[116.93229,3.46609],[116.93317,3.46759],[116.93433,3.46958],[116.93482,3.47025],[116.93504,3.47057],[116.93435,3.47389],[116.93548,3.47692],[116.93695,3.47736],[116.93844,3.47598],[116.95274,3.46279],[116.95306,3.46283],[116.95308,3.46278],[116.95342,3.46269],[116.95366,3.4622],[116.95432,3.46172],[116.95486,3.46173],[116.95536,3.46147],[116.95614,3.4616],[116.95665,3.46175],[116.95719,3.46194],[116.95755,3.46258],[116.95774,3.46309],[116.95791,3.4634],[116.95858,3.46362],[116.96014,3.46329],[116.96277,3.4613],[116.9669,3.46338],[116.97167,3.46611],[116.97225,3.46645]]]]},"properties":{"kdprov":"65","kdkab":"03","kdkec":"030","kddesa":"002","kdsls":"2001","idsls":"65030300022001","nmprov":"KALIMANTAN UTARA","nmkab":"TANA TIDUNG","nmkec":"BETAYAU","nmdesa":"PERIUK","nmsls":"HUTAN DAN PERUSAHAAN"}},{"type":"Feature","geometry":{"type":"MultiPolygon","coordinates":[[[[116.83419,3.47985],[116.83415,3.47987],[116.83183,3.48065],[116.83184,3.48066],[116.83435,3.48214],[116.83781,3.48471],[116.83849,3.4865],[116.83901,3.48783],[116.83901,3.48784],[116.83901,3.48784],[116.83964,3.48949],[116.84082,3.49256],[116.84124,3.49364],[116.8413,3.49367],[116.84191,3.49397],[116.84481,3.49536],[116.84483,3.49536],[116.84621,3.49451],[116.84708,3.49305],[116.84929,3.49214],[116.84994,3.49171],[116.85058,3.49128],[116.85099,3.491],[116.85122,3.49084],[116.85241,3.48954],[116.85317,3.48899],[116.85388,3.48849],[116.85414,3.48729],[116.85666,3.48525],[116.85667,3.48525],[116.85914,3.48411],[116.86145,3.48403],[116.86145,3.48403],[116.86145,3.48403],[116.86147,3.48402],[116.86424,3.4831],[116.86646,3.48145],[116.86854,3.48009],[116.86855,3.48008],[116.86936,3.47937],[116.86938,3.47935],[116.87063,3.47814],[116.87179,3.47721],[116.87179,3.47721],[116.87182,3.47714],[116.87265,3.47542],[116.87761,3.47426],[116.87787,3.4742],[116.87944,3.47421],[116.87944,3.47421],[116.88197,3.47221],[116.88268,3.47239],[116.88348,3.47308],[116.88368,3.47324],[116.88373,3.47334],[116.88374,3.47334],[116.88374,3.47334],[116.88432,3.47382],[116.88476,3.47468],[116.88476,3.47468],[116.88521,3.47482],[116.88527,3.47484],[116.88573,3.475],[116.88753,3.47437],[116.88852,3.47414],[116.88894,3.47406],[116.89029,3.47395],[116.89158,3.47465],[116.8916,3.47465],[116.89161,3.47466],[116.89178,3.47465],[116.89298,3.47464],[116.89459,3.47455],[116.89639,3.47417],[116.89676,3.47401],[116.89695,3.47392],[116.89803,3.47384],[116.89988,3.47393],[116.89993,3.47393],[116.90018,3.47351],[116.90028,3.47334],[116.90065,3.47311],[116.9014,3.47267],[116.9014,3.47267],[116.9016,3.47281],[116.90238,3.47339],[116.90324,3.47395],[116.9037,3.47425],[116.90559,3.47479],[116.90759,3.47594],[116.90759,3.47595],[116.90759,3.47596],[116.9076,3.47596],[116.9076,3.47596],[116.90889,3.47806],[116.90927,3.47953],[116.90944,3.47972],[116.91027,3.48065],[116.91079,3.48089],[116.91122,3.48123],[116.91192,3.48151],[116.91211,3.48154],[116.91271,3.48165],[116.91308,3.4818],[116.91311,3.48182],[116.91324,3.48216],[116.91335,3.4825],[116.91379,3.48251],[116.9142,3.48245],[116.91441,3.48263],[116.91467,3.48295],[116.91508,3.48336],[116.91534,3.48385],[116.9154,3.48437],[116.9154,3.48522],[116.91527,3.48604],[116.91549,3.48677],[116.91593,3.48733],[116.91596,3.48767],[116.91588,3.48795],[116.91609,3.48849],[116.9164,3.48889],[116.91639,3.48889],[116.91541,3.48969],[116.91501,3.49001],[116.9152,3.49043],[116.9152,3.49043],[116.91619,3.49258],[116.91639,3.49303],[116.91664,3.49358],[116.9174,3.49523],[116.91831,3.49721],[116.91807,3.49813],[116.91807,3.49818],[116.91831,3.49727],[116.91896,3.49706],[116.92101,3.49617],[116.92226,3.4964],[116.92268,3.49802],[116.92304,3.49901],[116.92309,3.49913],[116.92341,3.49992],[116.92362,3.50018],[116.924,3.50048],[116.9242,3.50064],[116.92475,3.5009],[116.92503,3.50099],[116.92649,3.50146],[116.92717,3.5017],[116.92754,3.502],[116.92769,3.50232],[116.92785,3.50292],[116.92784,3.5031],[116.92783,3.50315],[116.92789,3.5038],[116.92817,3.50468],[116.92888,3.50499],[116.92903,3.50554],[116.92963,3.50563],[116.93006,3.50568],[116.93056,3.50572],[116.93056,3.50568],[116.93056,3.50566],[116.93056,3.50566],[116.93061,3.50566],[116.93067,3.50564],[116.93104,3.50553],[116.93211,3.50521],[116.9354,3.50422],[116.94156,3.50237],[116.9417,3.50248],[116.94372,3.50419],[116.95075,3.51013],[116.95347,3.50944],[116.97229,3.52093],[116.97266,3.52162],[116.97572,3.52728],[116.97581,3.52724],[116.97658,3.52688],[116.97694,3.52686],[116.97711,3.52698],[116.97746,3.527],[116.97811,3.52693],[116.97837,3.52688],[116.97869,3.52692],[116.97925,3.52726],[116.97972,3.52747],[116.98005,3.5275],[116.98064,3.52746],[116.9811,3.52737],[116.98148,3.5275],[116.98177,3.52784],[116.98201,3.5283],[116.98207,3.52927],[116.98217,3.52963],[116.98231,3.53],[116.98627,3.52308],[116.98648,3.52271],[116.98986,3.51682],[116.9917,3.51362],[116.9985,3.50171],[117.00075,3.49778],[117.00211,3.49536],[117.00339,3.49308],[117.00389,3.49219],[117.00494,3.49031],[117.00482,3.49],[117.0045,3.48965],[117.00443,3.48945],[117.00448,3.48902],[117.00478,3.48836],[117.00487,3.48802],[117.00484,3.48768],[117.00474,3.48741],[117.00444,3.4869],[117.00409,3.48657],[117.00378,3.48636],[117.0036,3.48634],[117.00349,3.48639],[117.00317,3.48651],[117.00302,3.48669],[117.00256,3.48731],[117.00195,3.48766],[117.00163,3.48753],[117.00134,3.48708],[117.00107,3.48638],[117.00085,3.48571],[117.00036,3.48538],[117.00031,3.48534],[117.00007,3.48514],[117.0,3.48508],[116.99978,3.48489],[116.99977,3.48489],[116.99964,3.48488],[116.99949,3.48488],[116.99935,3.48493],[116.99897,3.48507],[116.99872,3.48524],[116.99837,3.48542],[116.99799,3.48566],[116.99795,3.48567],[116.9978,3.48577],[116.99756,3.48569],[116.99733,3.48494],[116.99705,3.48384],[116.99682,3.48351],[116.99642,3.4831],[116.99611,3.48284],[116.99598,3.48253],[116.99597,3.48247],[116.99602,3.48225],[116.99656,3.48141],[116.99698,3.48094],[116.99707,3.48039],[116.99696,3.48021],[116.99663,3.47997],[116.99633,3.47988],[116.99616,3.47999],[116.99596,3.48011],[116.9954,3.48047],[116.99535,3.4805],[116.99525,3.48055],[116.99509,3.48051],[116.99508,3.4805],[116.99485,3.48022],[116.99481,3.47998],[116.99466,3.47911],[116.99457,3.47875],[116.99439,3.478],[116.99437,3.47786],[116.99427,3.47789],[116.99424,3.47789],[116.99376,3.47802],[116.99334,3.47812],[116.99313,3.47814],[116.99181,3.47828],[116.98987,3.48067],[116.98841,3.48169],[116.98791,3.48263],[116.9877,3.48257],[116.98733,3.48268],[116.98622,3.48333],[116.98551,3.48373],[116.98486,3.48427],[116.9846,3.48441],[116.98429,3.48434],[116.98404,3.48415],[116.98373,3.48353],[116.98345,3.48348],[116.98293,3.48384],[116.98243,3.48433],[116.98169,3.48467],[116.98072,3.48499],[116.97967,3.48551],[116.97958,3.48565],[116.97949,3.4862],[116.97931,3.48849],[116.97913,3.48912],[116.97882,3.48943],[116.97824,3.48957],[116.97745,3.48966],[116.97663,3.4902],[116.9755,3.4916],[116.97462,3.49215],[116.97318,3.49327],[116.97281,3.49357],[116.97259,3.49387],[116.97229,3.49512],[116.97118,3.4985],[116.97084,3.49923],[116.97024,3.50007],[116.97003,3.50014],[116.96964,3.50024],[116.96904,3.5003],[116.96869,3.50023],[116.9671,3.49927],[116.96649,3.49892],[116.96569,3.49813],[116.96542,3.49801],[116.96431,3.49845],[116.96396,3.49846],[116.96329,3.49817],[116.96307,3.49829],[116.96236,3.49901],[116.96194,3.49908],[116.96072,3.49937],[116.95951,3.49936],[116.95814,3.4992],[116.95758,3.49906],[116.95685,3.49909],[116.95629,3.49933],[116.95592,3.49989],[116.9559,3.50017],[116.95589,3.50056],[116.95572,3.50124],[116.9552,3.50193],[116.95464,3.50198],[116.95447,3.50198],[116.95432,3.50206],[116.95417,3.50229],[116.95402,3.5029],[116.9491,3.50001],[116.94911,3.49992],[116.94909,3.49996],[116.9467,3.49797],[116.94527,3.49675],[116.94396,3.49476],[116.94342,3.49393],[116.94116,3.4905],[116.93979,3.48993],[116.93784,3.48913],[116.93771,3.48636],[116.93765,3.48523],[116.93765,3.48522],[116.93237,3.48112],[116.93048,3.47923],[116.92866,3.47741],[116.92688,3.47503],[116.92573,3.4735],[116.92095,3.47097],[116.91909,3.46998],[116.91684,3.46704],[116.91342,3.46256],[116.91202,3.46221],[116.90876,3.46139],[116.9017,3.45963],[116.89667,3.45872],[116.89505,3.45843],[116.89193,3.45787],[116.88353,3.45709],[116.87728,3.45533],[116.87103,3.45592],[116.86361,3.45944],[116.86182,3.46027],[116.85929,3.46146],[116.85732,3.46235],[116.85209,3.46548],[116.85209,3.46549],[116.85208,3.46549],[116.85094,3.46702],[116.84522,3.47468],[116.8398,3.47724],[116.8342,3.47985],[116.8342,3.47985],[116.83419,3.47985]]]]},"properties":{"kdprov":"65","kdkab":"03","kdkec":"030","kddesa":"003","kdsls":"0001","idsls":"65030300030001","nmprov":"KALIMANTAN UTARA","nmkab":"TANA TIDUNG","nmkec":"BETAYAU","nmdesa":"BEBAKUNG","nmsls":"RT 001"}},{"type":"Feature","geometry":{"type":"MultiPolygon","coordinates":[[[[116.98495,3.46216],[116.98452,3.46228],[116.98446,3.46238],[116.98414,3.46262],[116.98385,3.46275],[116.98383,3.46278],[116.98385,3.46358],[116.98471,3.46546],[116.98489,3.46517],[116.98502,3.46496],[116.98547,3.4642],[116.98599,3.46333],[116.98554,3.46237],[116.98495,3.46216]]]]},"properties":{"kdprov":"65","kdkab":"03","kdkec":"030","kddesa":"001","kdsls":"0002","idsls":"65030300010002","nmprov":"KALIMANTAN UTARA","nmkab":"TANA TIDUNG","nmkec":"BETAYAU","nmdesa":"MENDUPO","nmsls":"RT 002"}},{"type":"Feature","geometry":{"type":"MultiPolygon","coordinates":[[[[116.98257,3.46311],[116.98249,3.46313],[116.98096,3.46339],[116.98052,3.46333],[116.98038,3.46325],[116.98032,3.46319],[116.98029,3.46318],[116.98029,3.46318],[116.98025,3.46312],[116.98021,3.46308],[116.98007,3.46286],[116.98003,3.46277],[116.98003,3.46277],[116.97995,3.46262],[116.97986,3.46254],[116.97981,3.46232],[116.9798,3.46229],[116.97976,3.46223],[116.97961,3.462],[116.9793,3.46166],[116.97905,3.46172],[116.97905,3.46172],[116.97903,3.46172],[116.97888,3.4619],[116.97884,3.46243],[116.97888,3.46297],[116.97884,3.46323],[116.97884,3.46323],[116.97882,3.46337],[116.97862,3.46361],[116.9784,3.46356],[116.97838,3.46353],[116.97593,3.46366],[116.97487,3.46372],[116.97337,3.4638],[116.97298,3.46472],[116.97238,3.46612],[116.97469,3.46585],[116.97873,3.46539],[116.98002,3.4648],[116.98029,3.46467],[116.98163,3.46405],[116.982,3.46401],[116.9822,3.46385],[116.98231,3.46376],[116.98244,3.46365],[116.98254,3.46358],[116.98257,3.46356],[116.98257,3.46333],[116.98257,3.46311]]]]},"properties":{"kdprov":"65","kdkab":"03","kdkec":"030","kddesa":"002","kdsls":"0001","idsls":"65030300020001","nmprov":"KALIMANTAN UTARA","nmkab":"TANA TIDUNG","nmkec":"BETAYAU","nmdesa":"PERIUK","nmsls":"RT 001"}},{"type":"Feature","geometry":{"type":"MultiPolygon","coordinates":[[[[116.98383,3.46278],[116.98385,3.46275],[116.98414,3.46262],[116.98446,3.46238],[116.98452,3.46228],[116.98495,3.46216],[116.9862,3.46197],[116.99006,3.46138],[116.99056,3.4613],[116.99167,3.46113],[116.99251,3.461],[116.99398,3.46078],[116.9949,3.46064],[116.99613,3.46044],[117.00279,3.45942],[117.00284,3.45928],[117.00287,3.45926],[117.00294,3.45908],[116.98881,3.43086],[116.98529,3.42384],[116.97987,3.41301],[116.97856,3.4104],[116.97674,3.40675],[116.97626,3.40584],[116.9746,3.40262],[116.97174,3.40134],[116.9696,3.40276],[116.9687,3.40337],[116.9672,3.40436],[116.96455,3.40325],[116.96061,3.40134],[116.95783,3.39828],[116.95553,3.39574],[116.9535,3.39471],[116.95261,3.39425],[116.95171,3.39379],[116.95104,3.39334],[116.94818,3.39335],[116.94806,3.39333],[116.94792,3.3933],[116.94553,3.39289],[116.94259,3.39205],[116.93917,3.39128],[116.93814,3.39096],[116.93729,3.3907],[116.937,3.39061],[116.93499,3.39014],[116.93455,3.3899],[116.93434,3.3898],[116.93416,3.38954],[116.93403,3.38909],[116.93399,3.38872],[116.93382,3.38834],[116.9336,3.38801],[116.9333,3.38769],[116.93309,3.3872],[116.93282,3.38655],[116.93261,3.38608],[116.93218,3.38582],[116.9317,3.38593],[116.93123,3.38627],[116.93064,3.38679],[116.93017,3.38718],[116.92978,3.38752],[116.92937,3.38797],[116.92896,3.3884],[116.92844,3.38876],[116.92812,3.38889],[116.92777,3.38874],[116.9274,3.38823],[116.92693,3.38789],[116.92661,3.38756],[116.92613,3.38711],[116.92574,3.38647],[116.92546,3.38613],[116.92516,3.38578],[116.9249,3.38549],[116.92473,3.38531],[116.92432,3.38501],[116.92386,3.38451],[116.9239,3.38408],[116.92392,3.38388],[116.92328,3.38408],[116.92292,3.38425],[116.92272,3.38454],[116.92267,3.3849],[116.92265,3.3853],[116.92257,3.38582],[116.92238,3.38634],[116.92219,3.3866],[116.92179,3.38685],[116.92128,3.38697],[116.92093,3.38712],[116.92088,3.38735],[116.92082,3.38762],[116.92088,3.38821],[116.92078,3.38871],[116.92074,3.38916],[116.92071,3.38948],[116.92083,3.3898],[116.92099,3.39008],[116.92105,3.3902],[116.92095,3.39068],[116.92067,3.39086],[116.92038,3.39091],[116.92005,3.39082],[116.91967,3.39068],[116.91949,3.39069],[116.91941,3.39058],[116.91906,3.39015],[116.91905,3.38945],[116.91878,3.38862],[116.9186,3.38835],[116.9184,3.38802],[116.91808,3.38808],[116.91768,3.38778],[116.91682,3.3876],[116.91647,3.3877],[116.91616,3.38734],[116.91599,3.38657],[116.91566,3.38598],[116.91543,3.38556],[116.91501,3.38544],[116.91481,3.3852],[116.9147,3.38492],[116.91439,3.38461],[116.91421,3.38452],[116.91383,3.38471],[116.91354,3.38473],[116.91329,3.38461],[116.91297,3.38457],[116.91271,3.3843],[116.9093,3.38761],[116.90881,3.38808],[116.90793,3.38893],[116.90756,3.38929],[116.90418,3.39256],[116.90355,3.39317],[116.90123,3.3955],[116.90006,3.39669],[116.895,3.39611],[116.88951,3.39531],[116.88416,3.39459],[116.88264,3.39454],[116.88216,3.39453],[116.8813,3.3945],[116.8806,3.39448],[116.87993,3.39446],[116.87939,3.39445],[116.87925,3.39442],[116.87662,3.39396],[116.87573,3.3938],[116.87361,3.39343],[116.86856,3.39228],[116.86408,3.39098],[116.86107,3.39055],[116.86003,3.3904],[116.85495,3.3904],[116.85396,3.3904],[116.84774,3.3904],[116.84355,3.39054],[116.84277,3.39047],[116.84266,3.39047],[116.8405,3.39028],[116.84023,3.39025],[116.83676,3.3891],[116.836,3.38887],[116.83478,3.3885],[116.83469,3.38848],[116.83231,3.38776],[116.8291,3.38664],[116.82419,3.38693],[116.82276,3.38684],[116.82086,3.38671],[116.8187,3.387],[116.81523,3.38527],[116.81176,3.38267],[116.81168,3.38257],[116.8103,3.38101],[116.81025,3.38095],[116.80858,3.37905],[116.80777,3.37863],[116.80765,3.37857],[116.80554,3.37746],[116.80237,3.37689],[116.79987,3.37624],[116.79987,3.37633],[116.79984,3.37695],[116.79948,3.37721],[116.79878,3.37721],[116.79813,3.37731],[116.79812,3.37731],[116.79735,3.37725],[116.79735,3.37726],[116.79733,3.37725],[116.79733,3.37725],[116.79597,3.37831],[116.79558,3.37839],[116.7951,3.37847],[116.79508,3.37854],[116.79508,3.37856],[116.79507,3.37857],[116.79506,3.37857],[116.79482,3.37949],[116.79442,3.38003],[116.79482,3.38253],[116.79465,3.38332],[116.79458,3.38365],[116.79446,3.38365],[116.79261,3.38362],[116.79246,3.3836],[116.79242,3.3836],[116.79242,3.3836],[116.79225,3.38364],[116.79208,3.38369],[116.79165,3.38377],[116.79055,3.38689],[116.79049,3.38704],[116.79086,3.38824],[116.79091,3.3885],[116.7906,3.39005],[116.7906,3.39005],[116.79061,3.39006],[116.79235,3.3911],[116.79274,3.39558],[116.79274,3.39558],[116.79094,3.39692],[116.79042,3.39754],[116.78981,3.39827],[116.7898,3.39827],[116.78848,3.39898],[116.78915,3.40074],[116.79086,3.40175],[116.79139,3.40207],[116.79284,3.40364],[116.79344,3.40429],[116.79356,3.40534],[116.79192,3.40569],[116.79133,3.40729],[116.79139,3.40969],[116.79103,3.41073],[116.79103,3.41073],[116.79094,3.41102],[116.79093,3.41104],[116.79096,3.41192],[116.79101,3.41316],[116.79152,3.41442],[116.79148,3.4154],[116.79144,3.41619],[116.79144,3.41619],[116.7913,3.41627],[116.79003,3.41706],[116.78827,3.41722],[116.78827,3.41722],[116.78815,3.41728],[116.78692,3.41789],[116.78545,3.41916],[116.7845,3.42116],[116.78443,3.42132],[116.78445,3.42139],[116.78706,3.42927],[116.78694,3.43095],[116.78627,3.43311],[116.78709,3.43468],[116.78709,3.43469],[116.78709,3.43469],[116.78807,3.43397],[116.82616,3.40627],[116.82616,3.40627],[116.83456,3.40016],[116.83457,3.40016],[116.83457,3.40016],[116.87254,3.4022],[116.87672,3.40242],[116.87672,3.40242],[116.88156,3.40268],[116.89587,3.40361],[116.90809,3.40441],[116.93252,3.406],[116.94831,3.41587],[116.94842,3.41857],[116.94829,3.42092],[116.94794,3.42149],[116.94822,3.42212],[116.94785,3.42275],[116.95171,3.42585],[116.95171,3.42585],[116.96041,3.4324],[116.96075,3.43294],[116.96032,3.43299],[116.96031,3.43302],[116.96048,3.43313],[116.9606,3.4332],[116.96063,3.43455],[116.96079,3.43474],[116.96082,3.43476],[116.96082,3.43476],[116.96132,3.43445],[116.96168,3.43431],[116.96181,3.43426],[116.96181,3.43426],[116.96227,3.43466],[116.96265,3.43484],[116.96298,3.43486],[116.96352,3.43512],[116.96366,3.43521],[116.9637,3.43523],[116.96383,3.43551],[116.96388,3.4356],[116.964,3.43563],[116.96431,3.43563],[116.96431,3.43563],[116.96432,3.43574],[116.96423,3.43592],[116.96401,3.43602],[116.96401,3.43602],[116.96401,3.43602],[116.96359,3.43598],[116.96359,3.43598],[116.96323,3.43616],[116.96292,3.43688],[116.96297,3.43712],[116.96315,3.43752],[116.96429,3.43831],[116.96533,3.4394],[116.9654,3.43966],[116.96616,3.44037],[116.96625,3.44053],[116.9663,3.44079],[116.96656,3.44129],[116.96664,3.44134],[116.9667,3.44136],[116.96754,3.44296],[116.968,3.44343],[116.96829,3.44361],[116.96849,3.44394],[116.9684,3.44444],[116.96833,3.44462],[116.96835,3.44472],[116.96862,3.4451],[116.96893,3.44534],[116.96906,3.44566],[116.96907,3.44579],[116.96905,3.4459],[116.96867,3.44623],[116.9685,3.44633],[116.96838,3.44647],[116.96835,3.44659],[116.9684,3.44684],[116.96856,3.44701],[116.9688,3.44711],[116.9688,3.44711],[116.9688,3.44711],[116.96918,3.44695],[116.9696,3.44648],[116.96978,3.44646],[116.96979,3.44646],[116.96979,3.44646],[116.97002,3.44653],[116.97011,3.44671],[116.97023,3.44706],[116.97018,3.44734],[116.97019,3.44768],[116.97031,3.4481],[116.97022,3.44847],[116.97018,3.44879],[116.97124,3.45136],[116.97128,3.45143],[116.97134,3.45148],[116.97137,3.45172],[116.9714,3.45205],[116.97138,3.45235],[116.97139,3.45266],[116.97127,3.45296],[116.97145,3.45385],[116.9716,3.45401],[116.97177,3.45408],[116.97207,3.45415],[116.97241,3.45436],[116.9725,3.45448],[116.9727,3.45454],[116.97299,3.45469],[116.97329,3.45476],[116.9735,3.45492],[116.97373,3.455],[116.97474,3.45502],[116.97474,3.45502],[116.97546,3.4556],[116.97581,3.45609],[116.97611,3.45633],[116.9764,3.45646],[116.9764,3.45646],[116.9764,3.45646],[116.97693,3.45644],[116.97743,3.45632],[116.97786,3.4563],[116.97787,3.4563],[116.97787,3.4563],[116.97845,3.45676],[116.97845,3.45694],[116.97861,3.45706],[116.97866,3.45741],[116.97865,3.45756],[116.97788,3.45821],[116.97755,3.45853],[116.97741,3.45876],[116.97743,3.45898],[116.9775,3.4599],[116.97771,3.46083],[116.97779,3.46111],[116.97801,3.46157],[116.97806,3.46183],[116.97806,3.46184],[116.97803,3.46206],[116.97811,3.4622],[116.97812,3.46255],[116.97824,3.46327],[116.97838,3.46353],[116.9784,3.46356],[116.97862,3.46361],[116.97882,3.46337],[116.97884,3.46323],[116.97884,3.46323],[116.97888,3.46297],[116.97884,3.46243],[116.97888,3.4619],[116.97903,3.46172],[116.97905,3.46172],[116.97905,3.46172],[116.9793,3.46166],[116.97961,3.462],[116.97976,3.46223],[116.9798,3.46229],[116.97981,3.46232],[116.97986,3.46254],[116.97995,3.46262],[116.98003,3.46277],[116.98003,3.46277],[116.98007,3.46286],[116.98021,3.46308],[116.98025,3.46312],[116.98029,3.46318],[116.98029,3.46318],[116.98032,3.46319],[116.98038,3.46325],[116.98052,3.46333],[116.98096,3.46339],[116.98249,3.46313],[116.98257,3.46311],[116.98258,3.46305],[116.98308,3.46289],[116.98308,3.46289],[116.98332,3.46289],[116.98383,3.46278],[116.98383,3.46278],[116.98383,3.46278]]]]},"properties":{"kdprov":"65","kdkab":"03","kdkec":"030","kddesa":"001","kdsls":"2001","idsls":"65030300012001","nmprov":"KALIMANTAN UTARA","nmkab":"TANA TIDUNG","nmkec":"BETAYAU","nmdesa":"MENDUPO","nmsls":"HUTAN"}},{"type":"Feature","geometry":{"type":"MultiPolygon","coordinates":[[[[117.00287,3.45926],[117.00284,3.45928],[117.00279,3.45942],[117.00154,3.46293],[117.00151,3.46297],[117.00147,3.46304],[117.0013,3.46334],[117.00011,3.46537],[116.99871,3.46767],[116.99885,3.47149],[116.99885,3.47157],[116.99885,3.47158],[116.99887,3.47208],[116.99888,3.47245],[117.0025,3.47058],[117.00551,3.46902],[117.00579,3.46887],[117.00633,3.46863],[117.00636,3.46858],[117.00673,3.46785],[117.00681,3.46769],[117.00772,3.46609],[117.01131,3.45942],[117.00286,3.45928],[117.00287,3.45926]]]]},"properties":{"kdprov":"65","kdkab":"03","kdkec":"030","kddesa":"004","kdsls":"0005","idsls":"65030300040005","nmprov":"KALIMANTAN UTARA","nmkab":"TANA TIDUNG","nmkec":"BETAYAU","nmdesa":"KUJAU","nmsls":"RT 005"}},{"type":"Feature","geometry":{"type":"MultiPolygon","coordinates":[[[[116.98599,3.46333],[116.98547,3.4642],[116.98502,3.46496],[116.98489,3.46517],[116.98471,3.46546],[116.98188,3.47018],[116.98108,3.47151],[116.98084,3.47191],[116.97915,3.47473],[116.97907,3.47484],[116.97902,3.47489],[116.97897,3.47494],[116.97865,3.47519],[116.97864,3.47519],[116.97856,3.47533],[116.9785,3.47548],[116.97845,3.47557],[116.97835,3.47582],[116.97823,3.47601],[116.97819,3.47614],[116.9654,3.48068],[116.96428,3.48108],[116.95612,3.48397],[116.95578,3.48396],[116.95563,3.4834],[116.95589,3.48284],[116.9554,3.48248],[116.95508,3.48202],[116.9546,3.48205],[116.95395,3.48048],[116.95404,3.47996],[116.95405,3.47959],[116.9539,3.47944],[116.95362,3.4796],[116.9533,3.47954],[116.95327,3.47914],[116.95304,3.47881],[116.95255,3.47891],[116.95231,3.47847],[116.9522,3.47821],[116.95181,3.4782],[116.95165,3.47812],[116.95066,3.47842],[116.94992,3.47845],[116.9497,3.47856],[116.94975,3.47902],[116.94937,3.47923],[116.94908,3.47903],[116.94854,3.47857],[116.94812,3.47897],[116.94808,3.47936],[116.94831,3.47941],[116.94824,3.47966],[116.94786,3.47952],[116.94752,3.47939],[116.94744,3.47975],[116.94733,3.47982],[116.94729,3.48001],[116.94753,3.48011],[116.94767,3.4804],[116.94712,3.48066],[116.94641,3.48066],[116.94597,3.48077],[116.94601,3.48103],[116.94566,3.48117],[116.9457,3.48137],[116.94555,3.48165],[116.945,3.4818],[116.94441,3.48186],[116.9445,3.48161],[116.94438,3.48157],[116.94419,3.48152],[116.94391,3.48156],[116.94375,3.48158],[116.94298,3.48178],[116.94295,3.48183],[116.94284,3.48186],[116.94224,3.48175],[116.94167,3.48179],[116.94169,3.482],[116.94191,3.48229],[116.94179,3.48245],[116.94137,3.48216],[116.94112,3.48212],[116.94103,3.4821],[116.94069,3.48249],[116.94051,3.4824],[116.94064,3.4822],[116.94039,3.48197],[116.94015,3.48168],[116.93991,3.48171],[116.93966,3.48147],[116.93948,3.48159],[116.93932,3.48164],[116.93922,3.48134],[116.93913,3.48103],[116.93898,3.48055],[116.93876,3.48064],[116.93862,3.48077],[116.93851,3.48096],[116.93816,3.48076],[116.93813,3.48043],[116.93803,3.48029],[116.93791,3.48022],[116.93793,3.48011],[116.93783,3.47995],[116.9376,3.48],[116.93741,3.47998],[116.93729,3.48006],[116.9373,3.4802],[116.93726,3.48023],[116.93717,3.48022],[116.93705,3.48021],[116.93682,3.48021],[116.93658,3.48011],[116.93649,3.48004],[116.93631,3.47991],[116.93617,3.47986],[116.93612,3.47971],[116.93622,3.47956],[116.93623,3.47955],[116.93626,3.47935],[116.93615,3.47926],[116.936,3.47932],[116.93594,3.47932],[116.93588,3.47921],[116.93585,3.479],[116.93574,3.4787],[116.93537,3.47876],[116.93528,3.47888],[116.93521,3.47898],[116.93511,3.47892],[116.9348,3.47877],[116.93445,3.47884],[116.93401,3.47906],[116.93387,3.47918],[116.93391,3.47932],[116.9341,3.47935],[116.93418,3.47953],[116.9342,3.47971],[116.93411,3.47984],[116.93386,3.48002],[116.9335,3.48007],[116.93315,3.48028],[116.93329,3.47876],[116.93425,3.47813],[116.93455,3.47794],[116.93646,3.47774],[116.93695,3.47736],[116.93548,3.47692],[116.93435,3.47389],[116.93504,3.47057],[116.93482,3.47025],[116.93433,3.46958],[116.93317,3.46759],[116.93229,3.46609],[116.93031,3.46273],[116.92684,3.46182],[116.92562,3.4598],[116.91852,3.45704],[116.91415,3.45583],[116.91045,3.45287],[116.90656,3.45076],[116.90613,3.44843],[116.9066,3.44727],[116.9066,3.44728],[116.90924,3.44604],[116.90924,3.44604],[116.90976,3.44606],[116.91383,3.44599],[116.91623,3.44601],[116.91698,3.44595],[116.92046,3.44593],[116.92141,3.44476],[116.92148,3.44396],[116.92059,3.44267],[116.91819,3.44047],[116.91754,3.43866],[116.91595,3.43763],[116.91553,3.43542],[116.91424,3.43513],[116.91294,3.43584],[116.91134,3.43542],[116.91022,3.43346],[116.90864,3.43158],[116.90803,3.43157],[116.90725,3.43156],[116.90657,3.43073],[116.90606,3.4301],[116.90372,3.42633],[116.90321,3.42636],[116.90313,3.42636],[116.90297,3.4268],[116.90248,3.42825],[116.9008,3.42909],[116.90006,3.42926],[116.89919,3.43125],[116.90022,3.43291],[116.90196,3.43416],[116.90092,3.43559],[116.9011,3.43687],[116.90319,3.43775],[116.90225,3.43931],[116.90056,3.43954],[116.8982,3.438],[116.89741,3.43932],[116.89693,3.43927],[116.89533,3.4374],[116.89475,3.43748],[116.89407,3.43834],[116.89098,3.43914],[116.89,3.4381],[116.88947,3.43636],[116.8892,3.43544],[116.88069,3.4308],[116.87472,3.43073],[116.87099,3.4296],[116.86824,3.42975],[116.86679,3.43139],[116.86485,3.43051],[116.85895,3.43052],[116.85874,3.43043],[116.85863,3.43093],[116.85813,3.431],[116.85746,3.43176],[116.85716,3.43305],[116.8558,3.43428],[116.85347,3.43626],[116.85248,3.43891],[116.85233,3.44004],[116.8521,3.44102],[116.8519,3.44197],[116.85104,3.44352],[116.84812,3.44521],[116.8469,3.44618],[116.84487,3.44846],[116.84486,3.44848],[116.84485,3.44848],[116.84301,3.45009],[116.84211,3.45129],[116.841,3.45476],[116.841,3.45477],[116.841,3.45477],[116.83865,3.45851],[116.83827,3.45949],[116.8374,3.46041],[116.83645,3.46169],[116.83586,3.46363],[116.83586,3.46364],[116.83585,3.46365],[116.83477,3.4651],[116.83478,3.466],[116.83603,3.46911],[116.83569,3.47353],[116.83569,3.47354],[116.83569,3.47354],[116.8356,3.47382],[116.83465,3.47677],[116.83449,3.47723],[116.83499,3.47797],[116.83496,3.4783],[116.83491,3.47856],[116.83419,3.47985],[116.8342,3.47985],[116.8342,3.47985],[116.8398,3.47724],[116.84522,3.47468],[116.85094,3.46702],[116.85208,3.46549],[116.85209,3.46549],[116.85209,3.46548],[116.85732,3.46235],[116.85929,3.46146],[116.86182,3.46027],[116.86361,3.45944],[116.87103,3.45592],[116.87728,3.45533],[116.88353,3.45709],[116.89193,3.45787],[116.89505,3.45843],[116.89667,3.45872],[116.9017,3.45963],[116.90876,3.46139],[116.91202,3.46221],[116.91342,3.46256],[116.91684,3.46704],[116.91909,3.46998],[116.92095,3.47097],[116.92573,3.4735],[116.92688,3.47503],[116.92866,3.47741],[116.93048,3.47923],[116.93237,3.48112],[116.93765,3.48522],[116.93765,3.48523],[116.93771,3.48636],[116.93784,3.48913],[116.93979,3.48993],[116.94116,3.4905],[116.94342,3.49393],[116.94396,3.49476],[116.94527,3.49675],[116.9467,3.49797],[116.94909,3.49996],[116.94911,3.49992],[116.9491,3.50001],[116.95402,3.5029],[116.95417,3.50229],[116.95432,3.50206],[116.95447,3.50198],[116.95464,3.50198],[116.9552,3.50193],[116.95572,3.50124],[116.95589,3.50056],[116.9559,3.50017],[116.95592,3.49989],[116.95629,3.49933],[116.95685,3.49909],[116.95758,3.49906],[116.95814,3.4992],[116.95951,3.49936],[116.96072,3.49937],[116.96194,3.49908],[116.96236,3.49901],[116.96307,3.49829],[116.96329,3.49817],[116.96396,3.49846],[116.96431,3.49845],[116.96542,3.49801],[116.96569,3.49813],[116.96649,3.49892],[116.9671,3.49927],[116.96869,3.50023],[116.96904,3.5003],[116.96964,3.50024],[116.97003,3.50014],[116.97024,3.50007],[116.97084,3.49923],[116.97118,3.4985],[116.97229,3.49512],[116.97259,3.49387],[116.97281,3.49357],[116.97318,3.49327],[116.97462,3.49215],[116.9755,3.4916],[116.97663,3.4902],[116.97745,3.48966],[116.97824,3.48957],[116.97882,3.48943],[116.97913,3.48912],[116.97931,3.48849],[116.97949,3.4862],[116.97958,3.48565],[116.97967,3.48551],[116.98072,3.48499],[116.98169,3.48467],[116.98243,3.48433],[116.98293,3.48384],[116.98345,3.48348],[116.98373,3.48353],[116.98404,3.48415],[116.98429,3.48434],[116.9846,3.48441],[116.98486,3.48427],[116.98551,3.48373],[116.98622,3.48333],[116.98733,3.48268],[116.9877,3.48257],[116.98791,3.48263],[116.98841,3.48169],[116.98987,3.48067],[116.99181,3.47828],[116.99313,3.47814],[116.99334,3.47812],[116.99376,3.47802],[116.99424,3.47789],[116.99427,3.47789],[116.99437,3.47786],[116.99426,3.47705],[116.99415,3.47633],[116.99402,3.47601],[116.99401,3.47599],[116.99372,3.47576],[116.99332,3.47543],[116.99325,3.47539],[116.99313,3.47531],[116.99283,3.47493],[116.99282,3.47492],[116.9927,3.47462],[116.9924,3.47427],[116.99229,3.47415],[116.99217,3.47402],[116.99208,3.47394],[116.99197,3.47384],[116.99172,3.47363],[116.99171,3.47326],[116.9919,3.47283],[116.99218,3.47255],[116.9926,3.47219],[116.99264,3.47206],[116.99265,3.47203],[116.99266,3.47199],[116.99249,3.4717],[116.99229,3.47157],[116.99195,3.47135],[116.99172,3.4712],[116.99143,3.47096],[116.99133,3.47059],[116.99118,3.47002],[116.99094,3.46966],[116.99067,3.46938],[116.9904,3.46933],[116.99027,3.46929],[116.99019,3.4691],[116.99033,3.46879],[116.99033,3.46879],[116.99056,3.46855],[116.99067,3.46847],[116.99077,3.46838],[116.99079,3.46833],[116.9911,3.46808],[116.99128,3.4679],[116.99143,3.46775],[116.99143,3.46764],[116.9913,3.46741],[116.99124,3.46736],[116.99111,3.46721],[116.9909,3.46719],[116.99053,3.46726],[116.99014,3.46719],[116.98961,3.46705],[116.98948,3.46714],[116.98935,3.46713],[116.98924,3.46732],[116.98916,3.46737],[116.98913,3.46739],[116.98904,3.46764],[116.9889,3.46802],[116.98904,3.46859],[116.98928,3.46945],[116.98918,3.46978],[116.98899,3.46995],[116.98881,3.47006],[116.98839,3.47007],[116.98812,3.46991],[116.98755,3.46934],[116.98753,3.46932],[116.98687,3.46851],[116.98658,3.46814],[116.98648,3.46743],[116.98649,3.46721],[116.9865,3.4668],[116.98647,3.46643],[116.98644,3.46617],[116.98611,3.46578],[116.98599,3.46529],[116.98603,3.46478],[116.98625,3.4642],[116.98608,3.46363],[116.98599,3.46333]]]]},"properties":{"kdprov":"65","kdkab":"03","kdkec":"030","kddesa":"003","kdsls":"0002","idsls":"65030300030002","nmprov":"KALIMANTAN UTARA","nmkab":"TANA TIDUNG","nmkec":"BETAYAU","nmdesa":"BEBAKUNG","nmsls":"RT 002"}},{"type":"Feature","geometry":{"type":"MultiPolygon","coordinates":[[[[117.05438,3.40586],[117.05414,3.40594],[117.04608,3.41959],[117.04297,3.42488],[117.042,3.42652],[117.03537,3.43794],[117.03272,3.4425],[117.02895,3.44897],[117.02633,3.4535],[117.02173,3.46141],[117.02187,3.46884],[117.02187,3.46892],[117.02188,3.469],[117.02188,3.46911],[117.02189,3.46969],[117.02189,3.46976],[117.0219,3.47049],[117.02191,3.47058],[117.02192,3.47137],[117.02192,3.47143],[117.02193,3.47139],[117.02202,3.47618],[117.02201,3.47628],[117.02202,3.47655],[117.02203,3.47729],[117.02204,3.4775],[117.02204,3.47771],[117.02205,3.47822],[117.02205,3.47824],[117.02207,3.47959],[117.02209,3.48032],[117.02209,3.48033],[117.0221,3.48076],[117.0221,3.48081],[117.0221,3.48099],[117.02211,3.48125],[117.02211,3.48125],[117.02213,3.48127],[117.02216,3.48131],[117.02216,3.48244],[117.02219,3.48322],[117.02235,3.48741],[117.02243,3.48956],[117.02029,3.49367],[117.02019,3.49385],[117.02017,3.49409],[117.02017,3.49409],[117.02017,3.49409],[117.02025,3.49414],[117.0203,3.49417],[117.02117,3.49502],[117.02179,3.49566],[117.02214,3.49634],[117.02226,3.49658],[117.02243,3.49691],[117.02276,3.49835],[117.02337,3.49844],[117.02346,3.49852],[117.02381,3.4983],[117.02391,3.49824],[117.02437,3.49804],[117.02564,3.49805],[117.02565,3.49805],[117.02653,3.49805],[117.02674,3.49805],[117.02711,3.49805],[117.02712,3.49805],[117.02763,3.49778],[117.02812,3.49752],[117.02862,3.4973],[117.02863,3.4973],[117.02901,3.49758],[117.02906,3.49762],[117.02936,3.49853],[117.02936,3.49861],[117.02941,3.49936],[117.0292,3.50026],[117.02908,3.50104],[117.02918,3.50121],[117.02954,3.5018],[117.03054,3.50233],[117.03176,3.5032],[117.03354,3.5048],[117.03463,3.50546],[117.03497,3.50594],[117.03449,3.5066],[117.03358,3.50695],[117.03246,3.50738],[117.03249,3.50823],[117.03297,3.50903],[117.03401,3.51012],[117.03494,3.51037],[117.03586,3.51031],[117.03788,3.50891],[117.03803,3.5088],[117.03915,3.50751],[117.03995,3.50676],[117.04062,3.50691],[117.04095,3.50731],[117.04095,3.50732],[117.04105,3.50846],[117.04281,3.50913],[117.04275,3.51032],[117.04309,3.51093],[117.04358,3.51138],[117.04415,3.51165],[117.04503,3.51191],[117.04504,3.51191],[117.04588,3.51191],[117.0464,3.51163],[117.04671,3.51146],[117.04709,3.51072],[117.04775,3.51044],[117.04793,3.51034],[117.04858,3.50997],[117.04964,3.50976],[117.04964,3.50976],[117.05042,3.50991],[117.05108,3.51051],[117.05149,3.51178],[117.05193,3.51279],[117.05206,3.51366],[117.05225,3.51396],[117.05199,3.51437],[117.05271,3.51506],[117.05336,3.51546],[117.05711,3.51822],[117.05891,3.5205],[117.05853,3.5228],[117.05807,3.52404],[117.05739,3.52521],[117.0552,3.52572],[117.05439,3.52671],[117.05486,3.52818],[117.05537,3.52907],[117.05758,3.53182],[117.05918,3.5344],[117.05918,3.5344],[117.05998,3.53432],[117.06182,3.53414],[117.07739,3.53265],[117.08212,3.53235],[117.08225,3.53234],[117.08225,3.53234],[117.08471,3.53276],[117.09383,3.5343],[117.10084,3.53511],[117.10122,3.53539],[117.10123,3.5354],[117.10124,3.5354],[117.10126,3.5354],[117.10126,3.5354],[117.10162,3.5352],[117.13479,3.51824],[117.15095,3.50998],[117.15095,3.50998],[117.15096,3.50998],[117.15096,3.50995],[117.15094,3.50464],[117.15074,3.50081],[117.1495,3.47772],[117.14857,3.46044],[117.14853,3.45974],[117.14853,3.4597],[117.14853,3.4597],[117.15155,3.45887],[117.15156,3.45887],[117.15158,3.45886],[117.15525,3.45621],[117.16111,3.45074],[117.16521,3.44761],[117.16844,3.44761],[117.17498,3.44771],[117.17954,3.44732],[117.17957,3.44732],[117.17959,3.44731],[117.17959,3.44731],[117.1824,3.44605],[117.18445,3.44341],[117.18524,3.43921],[117.18558,3.43086],[117.18641,3.42969],[117.18748,3.42777],[117.18703,3.42759],[117.1867,3.39976],[117.1866,3.39201],[117.18603,3.34468],[117.186,3.34516],[117.18587,3.34713],[117.18465,3.34881],[117.18278,3.35094],[117.18265,3.35105],[117.18231,3.35137],[117.17998,3.35347],[117.17652,3.3561],[117.17486,3.35762],[117.17266,3.35844],[117.17265,3.35845],[117.17016,3.35748],[117.17016,3.35748],[117.17005,3.35736],[117.17004,3.35734],[117.16907,3.35631],[117.16823,3.35541],[117.1656,3.35481],[117.16556,3.3548],[117.16534,3.35475],[117.16519,3.35472],[117.16413,3.3544],[117.16333,3.35416],[117.16243,3.35389],[117.16082,3.35375],[117.16039,3.35372],[117.15911,3.35361],[117.15565,3.35306],[117.15378,3.35288],[117.15364,3.35287],[117.15287,3.35279],[117.15199,3.3529],[117.15156,3.35296],[117.15156,3.35296],[117.1514,3.35298],[117.15139,3.35297],[117.15138,3.35298],[117.14861,3.35238],[117.1485,3.35236],[117.14832,3.35232],[117.14828,3.35229],[117.14796,3.35224],[117.1466,3.35203],[117.14616,3.35186],[117.14475,3.35128],[117.14458,3.35122],[117.14388,3.35093],[117.14279,3.35043],[117.14065,3.34945],[117.14028,3.34901],[117.13946,3.34804],[117.13939,3.34796],[117.13897,3.34746],[117.13882,3.34729],[117.13851,3.34692],[117.13573,3.34453],[117.13414,3.34398],[117.13394,3.34392],[117.13327,3.34369],[117.13327,3.34369],[117.1332,3.34369],[117.13046,3.34383],[117.12846,3.34393],[117.12837,3.34394],[117.12832,3.34394],[117.12822,3.34395],[117.12769,3.34423],[117.12611,3.34505],[117.1267,3.34608],[117.12692,3.34648],[117.12742,3.34857],[117.12772,3.34933],[117.12765,3.35364],[117.12765,3.35412],[117.12745,3.35494],[117.12723,3.35587],[117.12664,3.35713],[117.12528,3.35803],[117.12521,3.3611],[117.12264,3.36433],[117.12245,3.36441],[117.11751,3.36633],[117.11665,3.36795],[117.11446,3.36994],[117.11446,3.36994],[117.11228,3.36966],[117.11228,3.36966],[117.10866,3.37365],[117.10571,3.37575],[117.10752,3.37917],[117.10857,3.38668],[117.10714,3.38792],[117.10771,3.39011],[117.10885,3.39134],[117.10762,3.39477],[117.108,3.39581],[117.11009,3.396],[117.11028,3.40019],[117.11047,3.40556],[117.10961,3.40803],[117.10961,3.40803],[117.10382,3.40737],[117.10381,3.40737],[117.10257,3.40818],[117.09511,3.4086],[117.0904,3.40956],[117.08484,3.40989],[117.08156,3.4107],[117.07662,3.41093],[117.07661,3.41093],[117.0749,3.41046],[117.07488,3.41044],[117.07398,3.40955],[117.07388,3.40933],[117.07369,3.4089],[117.07314,3.40785],[117.07297,3.40752],[117.07214,3.40818],[117.07214,3.40818],[117.071,3.40799],[117.07035,3.4077],[117.06985,3.40707],[117.0693,3.40672],[117.06905,3.40656],[117.06818,3.40652],[117.06757,3.40775],[117.06754,3.40864],[117.06707,3.40873],[117.06671,3.4088],[117.06642,3.4086],[117.06642,3.4086],[117.06577,3.40817],[117.06504,3.40831],[117.0646,3.40896],[117.06373,3.41007],[117.06268,3.41098],[117.06262,3.41103],[117.06165,3.41197],[117.06175,3.41216],[117.05992,3.41161],[117.05888,3.41114],[117.05718,3.41036],[117.05536,3.40861],[117.05559,3.40716],[117.05563,3.4069],[117.05545,3.40675],[117.05483,3.40624],[117.05438,3.40586]]]]},"properties":{"kdprov":"65","kdkab":"03","kdkec":"030","kddesa":"006","kdsls":"2001","idsls":"65030300062001","nmprov":"KALIMANTAN UTARA","nmkab":"TANA TIDUNG","nmkec":"BETAYAU","nmdesa":"BUANG BARU","nmsls":"HUTAN/KAMP PERUSAHAAN"}},{"type":"Feature","geometry":{"type":"MultiPolygon","coordinates":[[[[117.02187,3.46884],[117.02173,3.46141],[117.02075,3.46132],[117.02058,3.46109],[117.02012,3.46044],[117.01948,3.45953],[117.01939,3.45867],[117.01929,3.45749],[117.01795,3.4566],[117.01583,3.45561],[117.01606,3.45624],[117.01607,3.45632],[117.01616,3.45692],[117.0161,3.45761],[117.01597,3.45834],[117.01574,3.45906],[117.01551,3.45955],[117.01551,3.45956],[117.0155,3.45957],[117.01545,3.45969],[117.01517,3.46014],[117.01472,3.46059],[117.01472,3.46059],[117.01472,3.46059],[117.01436,3.46083],[117.01363,3.46104],[117.0135,3.46107],[117.01365,3.46184],[117.01439,3.46551],[117.01452,3.46617],[117.01506,3.46883],[117.01506,3.46884],[117.01506,3.46884],[117.01736,3.46891],[117.01933,3.46888],[117.01979,3.46887],[117.02123,3.46885],[117.02187,3.46884]]]]},"properties":{"kdprov":"65","kdkab":"03","kdkec":"030","kddesa":"005","kdsls":"0002","idsls":"65030300050002","nmprov":"KALIMANTAN UTARA","nmkab":"TANA TIDUNG","nmkec":"BETAYAU","nmdesa":"MANING","nmsls":"RT 002"}},{"type":"Feature","geometry":{"type":"MultiPolygon","coordinates":[[[[117.02187,3.46884],[117.02123,3.46885],[117.01979,3.46887],[117.01933,3.46888],[117.01736,3.46891],[117.01506,3.46884],[117.01513,3.47441],[117.01516,3.47686],[117.01518,3.47822],[117.01514,3.48],[117.01751,3.47997],[117.01751,3.4804],[117.01751,3.4806],[117.01751,3.48088],[117.01749,3.48123],[117.01911,3.48124],[117.02057,3.48124],[117.02087,3.48124],[117.02192,3.48125],[117.02211,3.48125],[117.0221,3.48099],[117.0221,3.48081],[117.0221,3.48076],[117.02209,3.48033],[117.02209,3.48032],[117.02207,3.47959],[117.02205,3.47824],[117.02205,3.47822],[117.02204,3.47771],[117.02204,3.4775],[117.02203,3.47729],[117.02202,3.47655],[117.02201,3.47628],[117.02202,3.47618],[117.02193,3.47139],[117.02192,3.47143],[117.02192,3.47137],[117.02191,3.47058],[117.0219,3.47049],[117.02189,3.46976],[117.02189,3.46969],[117.02188,3.46911],[117.02188,3.469],[117.02187,3.46892],[117.02187,3.46884]]]]},"properties":{"kdprov":"65","kdkab":"03","kdkec":"030","kddesa":"005","kdsls":"0003","idsls":"65030300050003","nmprov":"KALIMANTAN UTARA","nmkab":"TANA TIDUNG","nmkec":"BETAYAU","nmdesa":"MANING","nmsls":"RT 003"}},{"type":"Feature","geometry":{"type":"MultiPolygon","coordinates":[[[[116.81604,3.47],[116.81605,3.47001],[116.81604,3.47001],[116.81604,3.47001],[116.81605,3.47001],[116.81605,3.47001],[116.81619,3.47003],[116.81619,3.47003],[116.82525,3.47111],[116.82525,3.47111],[116.8259,3.47026],[116.82603,3.46983],[116.82644,3.46846],[116.82644,3.46846],[116.82633,3.46728],[116.82543,3.46646],[116.82492,3.4659],[116.82518,3.46461],[116.82512,3.46325],[116.82443,3.46249],[116.82421,3.46135],[116.8242,3.46134],[116.8242,3.46132],[116.8243,3.45931],[116.82436,3.45926],[116.82435,3.45891],[116.82436,3.4589],[116.82452,3.45815],[116.82446,3.45803],[116.8234,3.45724],[116.82203,3.45646],[116.81971,3.45292],[116.81855,3.45019],[116.81855,3.45019],[116.81868,3.44918],[116.81769,3.44871],[116.81648,3.44746],[116.81573,3.44618],[116.81631,3.44479],[116.81631,3.44479],[116.81754,3.44419],[116.8186,3.44318],[116.81899,3.44196],[116.81886,3.44072],[116.81872,3.44059],[116.81872,3.44059],[116.81872,3.44059],[116.81893,3.43946],[116.81996,3.43853],[116.82073,3.43796],[116.82073,3.43796],[116.82073,3.43796],[116.82478,3.43773],[116.82532,3.43715],[116.82538,3.43525],[116.82512,3.43413],[116.82438,3.43307],[116.82397,3.43209],[116.82397,3.43209],[116.82397,3.43209],[116.82495,3.4307],[116.82526,3.42905],[116.82526,3.42903],[116.82526,3.42902],[116.82515,3.4282],[116.82545,3.42781],[116.8259,3.42729],[116.82689,3.42716],[116.82818,3.42713],[116.82818,3.42713],[116.82818,3.42713],[116.82896,3.42758],[116.82896,3.42758],[116.82943,3.42741],[116.8298,3.42729],[116.8298,3.42729],[116.83074,3.42804],[116.83112,3.42866],[116.83319,3.42787],[116.83323,3.42786],[116.83325,3.42785],[116.83447,3.42709],[116.83481,3.42605],[116.83584,3.42585],[116.83696,3.42578],[116.83696,3.42578],[116.83696,3.42578],[116.83819,3.42628],[116.84039,3.42636],[116.84216,3.42569],[116.84412,3.42365],[116.84412,3.42365],[116.84412,3.42365],[116.84546,3.42386],[116.84546,3.42386],[116.84547,3.42387],[116.84726,3.42529],[116.8481,3.42549],[116.8488,3.42593],[116.84881,3.42593],[116.85038,3.42553],[116.85214,3.4241],[116.85214,3.4241],[116.85214,3.4241],[116.85292,3.4232],[116.85436,3.42112],[116.85436,3.42111],[116.85436,3.42111],[116.85516,3.41992],[116.85516,3.41992],[116.85516,3.41992],[116.85644,3.42033],[116.85764,3.42057],[116.85777,3.41999],[116.8584,3.41939],[116.8584,3.41939],[116.85938,3.4194],[116.86043,3.41725],[116.86044,3.41724],[116.86044,3.41723],[116.86181,3.41614],[116.86209,3.41394],[116.86375,3.41317],[116.86443,3.41304],[116.86443,3.41304],[116.86443,3.41304],[116.86543,3.4138],[116.86644,3.41404],[116.86644,3.41404],[116.86644,3.41404],[116.86684,3.41358],[116.86689,3.41354],[116.86689,3.41354],[116.86689,3.41354],[116.86872,3.41416],[116.86963,3.41362],[116.87148,3.4118],[116.87228,3.4104],[116.87234,3.41029],[116.87234,3.41029],[116.87259,3.41029],[116.87259,3.41029],[116.87508,3.41027],[116.87508,3.41027],[116.87605,3.41099],[116.87611,3.41342],[116.87655,3.41453],[116.87655,3.41454],[116.87717,3.41551],[116.87733,3.41576],[116.87819,3.41608],[116.87827,3.41611],[116.88049,3.41495],[116.88308,3.41226],[116.88455,3.4122],[116.88527,3.41217],[116.88527,3.41217],[116.88706,3.41158],[116.88706,3.41158],[116.88706,3.41158],[116.88886,3.41185],[116.88899,3.41185],[116.88899,3.41185],[116.88921,3.41185],[116.88921,3.41185],[116.88934,3.41186],[116.88962,3.41186],[116.88962,3.41186],[116.88962,3.41186],[116.89012,3.41107],[116.89071,3.41015],[116.89371,3.40915],[116.89643,3.40866],[116.89643,3.40866],[116.89736,3.40904],[116.898,3.41025],[116.90152,3.41017],[116.90173,3.40918],[116.90248,3.40869],[116.90307,3.40869],[116.90307,3.40869],[116.90337,3.40857],[116.90529,3.40779],[116.9077,3.40763],[116.9077,3.40763],[116.90963,3.40976],[116.91213,3.41073],[116.91632,3.41064],[116.91657,3.41048],[116.91856,3.40919],[116.91856,3.40919],[116.91856,3.40919],[116.92114,3.40931],[116.92218,3.40892],[116.92218,3.40892],[116.92218,3.40892],[116.92628,3.4147],[116.92933,3.41423],[116.93357,3.41402],[116.93357,3.41402],[116.93357,3.41402],[116.93815,3.41548],[116.94308,3.41904],[116.94479,3.42028],[116.94785,3.42275],[116.94822,3.42212],[116.94794,3.42149],[116.94829,3.42092],[116.94842,3.41857],[116.94831,3.41587],[116.93252,3.406],[116.90809,3.40441],[116.89587,3.40361],[116.88156,3.40268],[116.87672,3.40242],[116.87672,3.40242],[116.87254,3.4022],[116.83457,3.40016],[116.83457,3.40016],[116.83456,3.40016],[116.82616,3.40627],[116.82616,3.40627],[116.78807,3.43397],[116.78709,3.43469],[116.78708,3.43469],[116.78616,3.43598],[116.78548,3.43811],[116.78593,3.43879],[116.788,3.44083],[116.78895,3.44311],[116.79079,3.44461],[116.79079,3.44461],[116.79079,3.44461],[116.79223,3.44437],[116.79223,3.44437],[116.79511,3.44772],[116.79551,3.4482],[116.79508,3.45103],[116.796,3.45202],[116.796,3.45202],[116.796,3.45203],[116.79637,3.4521],[116.79854,3.45254],[116.80337,3.45475],[116.80638,3.45576],[116.80833,3.45685],[116.80944,3.45804],[116.81108,3.45849],[116.81109,3.45849],[116.81114,3.45854],[116.81161,3.45895],[116.81161,3.45897],[116.81161,3.45897],[116.81176,3.46014],[116.81136,3.46103],[116.81136,3.46103],[116.81133,3.46108],[116.81121,3.46274],[116.8116,3.46357],[116.81178,3.46374],[116.81222,3.46415],[116.81223,3.46417],[116.81224,3.46418],[116.8123,3.46423],[116.81244,3.46435],[116.81255,3.46444],[116.81257,3.46446],[116.81257,3.46446],[116.81258,3.46446],[116.81268,3.46455],[116.81296,3.46482],[116.81364,3.46549],[116.81408,3.46595],[116.81429,3.46617],[116.81476,3.46639],[116.81543,3.4667],[116.81543,3.4667],[116.81587,3.46723],[116.81588,3.46724],[116.81589,3.46725],[116.81598,3.46802],[116.81599,3.46805],[116.81615,3.46831],[116.81634,3.46857],[116.81638,3.46863],[116.81638,3.46863],[116.81615,3.46918],[116.81604,3.4696],[116.81604,3.46962],[116.81604,3.47]]]]},"properties":{"kdprov":"65","kdkab":"03","kdkec":"030","kddesa":"001","kdsls":"2003","idsls":"65030300012003","nmprov":"KALIMANTAN UTARA","nmkab":"TANA TIDUNG","nmkec":"BETAYAU","nmdesa":"MENDUPO","nmsls":"HUTAN"}},{"type":"Feature","geometry":{"type":"MultiPolygon","coordinates":[[[[116.98108,3.47151],[116.98078,3.47134],[116.98009,3.47094],[116.98009,3.47093],[116.98009,3.47093],[116.98008,3.47093],[116.97979,3.47076],[116.97725,3.46931],[116.97686,3.46908],[116.97654,3.4689],[116.97557,3.46835],[116.97524,3.46816],[116.97522,3.46814],[116.97278,3.46675],[116.97227,3.46645],[116.97225,3.46645],[116.97167,3.46611],[116.9669,3.46338],[116.96277,3.4613],[116.96014,3.46329],[116.95858,3.46362],[116.95791,3.4634],[116.95774,3.46309],[116.95755,3.46258],[116.95719,3.46194],[116.95665,3.46175],[116.95614,3.4616],[116.95536,3.46147],[116.95486,3.46173],[116.95432,3.46172],[116.95366,3.4622],[116.95342,3.46269],[116.95308,3.46278],[116.95306,3.46283],[116.95274,3.46279],[116.93844,3.47598],[116.93695,3.47736],[116.93646,3.47774],[116.93455,3.47794],[116.93425,3.47813],[116.93329,3.47876],[116.93315,3.48028],[116.9335,3.48007],[116.93386,3.48002],[116.93411,3.47984],[116.9342,3.47971],[116.93418,3.47953],[116.9341,3.47935],[116.93391,3.47932],[116.93387,3.47918],[116.93401,3.47906],[116.93445,3.47884],[116.9348,3.47877],[116.93511,3.47892],[116.93521,3.47898],[116.93528,3.47888],[116.93537,3.47876],[116.93574,3.4787],[116.93585,3.479],[116.93588,3.47921],[116.93594,3.47932],[116.936,3.47932],[116.93615,3.47926],[116.93626,3.47935],[116.93623,3.47955],[116.93622,3.47956],[116.93612,3.47971],[116.93617,3.47986],[116.93631,3.47991],[116.93649,3.48004],[116.93658,3.48011],[116.93682,3.48021],[116.93705,3.48021],[116.93717,3.48022],[116.93726,3.48023],[116.9373,3.4802],[116.93729,3.48006],[116.93741,3.47998],[116.9376,3.48],[116.93783,3.47995],[116.93793,3.48011],[116.93791,3.48022],[116.93803,3.48029],[116.93813,3.48043],[116.93816,3.48076],[116.93851,3.48096],[116.93862,3.48077],[116.93876,3.48064],[116.93898,3.48055],[116.93913,3.48103],[116.93922,3.48134],[116.93932,3.48164],[116.93948,3.48159],[116.93966,3.48147],[116.93991,3.48171],[116.94015,3.48168],[116.94039,3.48197],[116.94064,3.4822],[116.94051,3.4824],[116.94069,3.48249],[116.94103,3.4821],[116.94112,3.48212],[116.94137,3.48216],[116.94179,3.48245],[116.94191,3.48229],[116.94169,3.482],[116.94167,3.48179],[116.94224,3.48175],[116.94284,3.48186],[116.94295,3.48183],[116.94298,3.48178],[116.94375,3.48158],[116.94391,3.48156],[116.94419,3.48152],[116.94438,3.48157],[116.9445,3.48161],[116.94441,3.48186],[116.945,3.4818],[116.94555,3.48165],[116.9457,3.48137],[116.94566,3.48117],[116.94601,3.48103],[116.94597,3.48077],[116.94641,3.48066],[116.94712,3.48066],[116.94767,3.4804],[116.94753,3.48011],[116.94729,3.48001],[116.94733,3.47982],[116.94744,3.47975],[116.94752,3.47939],[116.94786,3.47952],[116.94824,3.47966],[116.94831,3.47941],[116.94808,3.47936],[116.94812,3.47897],[116.94854,3.47857],[116.94908,3.47903],[116.94937,3.47923],[116.94975,3.47902],[116.9497,3.47856],[116.94992,3.47845],[116.95066,3.47842],[116.95165,3.47812],[116.95181,3.4782],[116.9522,3.47821],[116.95231,3.47847],[116.95255,3.47891],[116.95304,3.47881],[116.95327,3.47914],[116.9533,3.47954],[116.95362,3.4796],[116.9539,3.47944],[116.95405,3.47959],[116.95404,3.47996],[116.95395,3.48048],[116.9546,3.48205],[116.95508,3.48202],[116.9554,3.48248],[116.95589,3.48284],[116.95563,3.4834],[116.95578,3.48396],[116.95612,3.48397],[116.96428,3.48108],[116.9654,3.48068],[116.97819,3.47614],[116.97823,3.47601],[116.97835,3.47582],[116.97845,3.47557],[116.9785,3.47548],[116.97856,3.47533],[116.97864,3.47519],[116.97865,3.47519],[116.97897,3.47494],[116.97902,3.47489],[116.97907,3.47484],[116.97915,3.47473],[116.98084,3.47191],[116.98108,3.47151]]]]},"properties":{"kdprov":"65","kdkab":"03","kdkec":"030","kddesa":"001","kdsls":"2002","idsls":"65030300012002","nmprov":"KALIMANTAN UTARA","nmkab":"TANA TIDUNG","nmkec":"BETAYAU","nmdesa":"MENDUPO","nmsls":"HUTAN/KAMP PERUSAHAAN"}},{"type":"Feature","geometry":{"type":"MultiPolygon","coordinates":[[[[116.98495,3.46216],[116.98554,3.46237],[116.98599,3.46333],[116.98608,3.46363],[116.98625,3.4642],[116.98603,3.46478],[116.98599,3.46529],[116.98611,3.46578],[116.98644,3.46617],[116.98647,3.46643],[116.9865,3.4668],[116.98649,3.46721],[116.98648,3.46743],[116.98658,3.46814],[116.98687,3.46851],[116.98753,3.46932],[116.98755,3.46934],[116.98812,3.46991],[116.98839,3.47007],[116.98881,3.47006],[116.98899,3.46995],[116.98918,3.46978],[116.98928,3.46945],[116.98904,3.46859],[116.9889,3.46802],[116.98904,3.46764],[116.98913,3.46739],[116.98916,3.46737],[116.98924,3.46732],[116.98935,3.46713],[116.98948,3.46714],[116.98961,3.46705],[116.99014,3.46719],[116.99053,3.46726],[116.9909,3.46719],[116.99111,3.46721],[116.99124,3.46736],[116.9913,3.46741],[116.99143,3.46764],[116.99143,3.46775],[116.99128,3.4679],[116.9911,3.46808],[116.99079,3.46833],[116.99077,3.46838],[116.99067,3.46847],[116.99056,3.46855],[116.99033,3.46879],[116.99033,3.46879],[116.99019,3.4691],[116.99027,3.46929],[116.9904,3.46933],[116.99067,3.46938],[116.99094,3.46966],[116.99118,3.47002],[116.99133,3.47059],[116.99143,3.47096],[116.99172,3.4712],[116.99195,3.47135],[116.99229,3.47157],[116.99249,3.4717],[116.99266,3.47199],[116.99265,3.47203],[116.99297,3.47226],[116.99334,3.47231],[116.99427,3.47263],[116.99632,3.47334],[116.99635,3.47344],[116.99738,3.47304],[116.99887,3.47245],[116.99888,3.47245],[116.99887,3.47208],[116.99885,3.47158],[116.99885,3.47157],[116.99885,3.47149],[116.99871,3.46767],[117.00011,3.46537],[117.0013,3.46334],[117.00147,3.46304],[117.00151,3.46297],[117.00154,3.46293],[117.00279,3.45942],[116.99613,3.46044],[116.9949,3.46064],[116.99398,3.46078],[116.99251,3.461],[116.99167,3.46113],[116.99056,3.4613],[116.99006,3.46138],[116.9862,3.46197],[116.98495,3.46216]]]]},"properties":{"kdprov":"65","kdkab":"03","kdkec":"030","kddesa":"004","kdsls":"0002","idsls":"65030300040002","nmprov":"KALIMANTAN UTARA","nmkab":"TANA TIDUNG","nmkec":"BETAYAU","nmdesa":"KUJAU","nmsls":"RT 002"}},{"type":"Feature","geometry":{"type":"MultiPolygon","coordinates":[[[[116.99635,3.47344],[116.99632,3.47334],[116.99427,3.47263],[116.99334,3.47231],[116.99297,3.47226],[116.99265,3.47203],[116.99264,3.47206],[116.9926,3.47219],[116.99218,3.47255],[116.9919,3.47283],[116.99171,3.47326],[116.99172,3.47363],[116.99197,3.47384],[116.99208,3.47394],[116.99217,3.47402],[116.99229,3.47415],[116.9924,3.47427],[116.9927,3.47462],[116.99282,3.47492],[116.99283,3.47493],[116.99313,3.47531],[116.99325,3.47539],[116.99332,3.47543],[116.99372,3.47576],[116.99401,3.47599],[116.99402,3.47601],[116.9946,3.47462],[116.99489,3.47394],[116.99633,3.47345],[116.99635,3.47344]]]]},"properties":{"kdprov":"65","kdkab":"03","kdkec":"030","kddesa":"004","kdsls":"0001","idsls":"65030300040001","nmprov":"KALIMANTAN UTARA","nmkab":"TANA TIDUNG","nmkec":"BETAYAU","nmdesa":"KUJAU","nmsls":"RT 001"}},{"type":"Feature","geometry":{"type":"MultiPolygon","coordinates":[[[[117.00713,3.46901],[117.0071,3.469],[117.00703,3.46897],[117.0069,3.46891],[117.00679,3.46886],[117.00633,3.46863],[117.00579,3.46887],[117.00551,3.46902],[117.0025,3.47058],[116.99888,3.47245],[116.99887,3.47245],[116.99738,3.47304],[116.99635,3.47344],[116.99633,3.47345],[116.99489,3.47394],[116.9946,3.47462],[116.99402,3.47601],[116.99415,3.47633],[116.99426,3.47705],[116.99437,3.47786],[116.99439,3.478],[116.99457,3.47875],[116.99466,3.47911],[116.99481,3.47998],[116.99485,3.48022],[116.99508,3.4805],[116.99509,3.48051],[116.99525,3.48055],[116.99535,3.4805],[116.9954,3.48047],[116.99596,3.48011],[116.99616,3.47999],[116.99633,3.47988],[116.99663,3.47997],[116.99696,3.48021],[116.99707,3.48039],[116.99698,3.48094],[116.99656,3.48141],[116.99602,3.48225],[116.99597,3.48247],[116.99598,3.48253],[116.99611,3.48284],[116.99642,3.4831],[116.99682,3.48351],[116.99705,3.48384],[116.99733,3.48494],[116.99756,3.48569],[116.9978,3.48577],[116.99795,3.48567],[116.99799,3.48566],[116.99837,3.48542],[116.99872,3.48524],[116.99897,3.48507],[116.99935,3.48493],[116.99949,3.48488],[116.99964,3.48488],[116.99977,3.48489],[116.99978,3.48489],[116.99985,3.48478],[117.00035,3.48397],[117.00056,3.48362],[117.00102,3.48282],[117.00161,3.4815],[117.00184,3.48097],[117.00223,3.48006],[117.00239,3.47953],[117.0026,3.4789],[117.00281,3.47833],[117.00307,3.4777],[117.00332,3.47728],[117.00342,3.47711],[117.00366,3.47675],[117.00387,3.47624],[117.00396,3.4759],[117.00387,3.47522],[117.00359,3.4746],[117.00324,3.47399],[117.0029,3.47344],[117.00277,3.47279],[117.00278,3.47211],[117.00289,3.47181],[117.0029,3.47179],[117.00302,3.47147],[117.00345,3.47095],[117.00406,3.47056],[117.00467,3.47025],[117.00518,3.46994],[117.00562,3.46972],[117.00575,3.4697],[117.00622,3.46961],[117.00671,3.46941],[117.00676,3.46939],[117.00677,3.46938],[117.00685,3.46935],[117.00685,3.46935],[117.00692,3.46926],[117.00707,3.46909],[117.00708,3.46908],[117.00713,3.46901]]]]},"properties":{"kdprov":"65","kdkab":"03","kdkec":"030","kddesa":"004","kdsls":"0003","idsls":"65030300040003","nmprov":"KALIMANTAN UTARA","nmkab":"TANA TIDUNG","nmkec":"BETAYAU","nmdesa":"KUJAU","nmsls":"RT 003"}},{"type":"Feature","geometry":{"type":"MultiPolygon","coordinates":[[[[117.01692,3.4928],[117.01666,3.49259],[117.01619,3.49222],[117.01597,3.4921],[117.01509,3.49131],[117.01402,3.49185],[117.01284,3.49207],[117.01295,3.49242],[117.01306,3.49277],[117.01304,3.49292],[117.01301,3.49313],[117.01292,3.49373],[117.01428,3.49437],[117.01443,3.49442],[117.01469,3.49452],[117.01477,3.49454],[117.01495,3.4946],[117.01507,3.49461],[117.01517,3.49463],[117.01523,3.49462],[117.01563,3.49467],[117.01585,3.49469],[117.01592,3.49469],[117.01602,3.4947],[117.01643,3.49377],[117.01656,3.49351],[117.01656,3.49351],[117.01657,3.49351],[117.01662,3.4934],[117.01676,3.49312],[117.01681,3.49303],[117.01686,3.49293],[117.01692,3.4928]]]]},"properties":{"kdprov":"65","kdkab":"03","kdkec":"030","kddesa":"006","kdsls":"0002","idsls":"65030300060002","nmprov":"KALIMANTAN UTARA","nmkab":"TANA TIDUNG","nmkec":"BETAYAU","nmdesa":"BUANG BARU","nmsls":"RT 002"}},{"type":"Feature","geometry":{"type":"MultiPolygon","coordinates":[[[[117.02017,3.49409],[117.02017,3.49409],[117.02015,3.49408],[117.01998,3.49394],[117.01969,3.49383],[117.01775,3.49311],[117.01702,3.49284],[117.01692,3.4928],[117.01686,3.49293],[117.01681,3.49303],[117.01676,3.49312],[117.01662,3.4934],[117.01657,3.49351],[117.01656,3.49351],[117.01656,3.49351],[117.01643,3.49377],[117.01602,3.4947],[117.01592,3.49469],[117.01585,3.49469],[117.01563,3.49467],[117.01523,3.49462],[117.01517,3.49463],[117.01507,3.49461],[117.01495,3.4946],[117.01477,3.49454],[117.01469,3.49452],[117.01443,3.49442],[117.01428,3.49437],[117.01292,3.49373],[117.0129,3.49388],[117.012,3.49996],[117.01195,3.50004],[117.01189,3.5004],[117.01196,3.50045],[117.01201,3.5005],[117.01227,3.50075],[117.01243,3.50101],[117.01248,3.50108],[117.01254,3.50151],[117.01273,3.50189],[117.0131,3.50242],[117.0132,3.50274],[117.01366,3.5035],[117.01379,3.50387],[117.01386,3.50408],[117.01326,3.50551],[117.01322,3.50594],[117.01355,3.50639],[117.01361,3.50669],[117.01362,3.50676],[117.01367,3.50708],[117.01372,3.50736],[117.01361,3.50805],[117.01359,3.50805],[117.01358,3.50808],[117.01353,3.50825],[117.01328,3.50835],[117.01309,3.50847],[117.01306,3.50886],[117.01346,3.50941],[117.01352,3.50947],[117.01386,3.50962],[117.01408,3.51062],[117.01477,3.51233],[117.01479,3.51383],[117.01517,3.5145],[117.01512,3.51611],[117.01329,3.51602],[117.01115,3.51587],[117.01105,3.51597],[117.01118,3.51597],[117.01063,3.51783],[117.0105,3.51824],[117.01111,3.51918],[117.01061,3.52004],[117.01025,3.52108],[117.0103,3.52172],[117.01056,3.52206],[117.01128,3.52265],[117.01154,3.52313],[117.01106,3.52401],[117.01087,3.52512],[117.01092,3.52562],[117.01113,3.52622],[117.02045,3.52565],[117.02161,3.52664],[117.0216,3.52668],[117.02166,3.5275],[117.02181,3.5295],[117.02211,3.5297],[117.02877,3.5341],[117.02946,3.53456],[117.02945,3.5352],[117.02945,3.53745],[117.02945,3.5375],[117.03126,3.53731],[117.03373,3.53705],[117.03396,3.53702],[117.03809,3.53658],[117.0391,3.53648],[117.0422,3.53616],[117.04623,3.53574],[117.04624,3.53574],[117.05524,3.53481],[117.05918,3.5344],[117.05758,3.53182],[117.05537,3.52907],[117.05486,3.52818],[117.05439,3.52671],[117.0552,3.52572],[117.05739,3.52521],[117.05807,3.52404],[117.05853,3.5228],[117.05891,3.5205],[117.05711,3.51822],[117.05336,3.51546],[117.05271,3.51506],[117.05199,3.51437],[117.05225,3.51396],[117.05206,3.51366],[117.05193,3.51279],[117.05149,3.51178],[117.05108,3.51051],[117.05042,3.50991],[117.04964,3.50976],[117.04964,3.50976],[117.04858,3.50997],[117.04793,3.51034],[117.04775,3.51044],[117.04709,3.51072],[117.04671,3.51146],[117.0464,3.51163],[117.04588,3.51191],[117.04504,3.51191],[117.04503,3.51191],[117.04415,3.51165],[117.04358,3.51138],[117.04309,3.51093],[117.04275,3.51032],[117.04281,3.50913],[117.04105,3.50846],[117.04095,3.50732],[117.04095,3.50731],[117.04062,3.50691],[117.03995,3.50676],[117.03915,3.50751],[117.03803,3.5088],[117.03788,3.50891],[117.03586,3.51031],[117.03494,3.51037],[117.03401,3.51012],[117.03297,3.50903],[117.03249,3.50823],[117.03246,3.50738],[117.03358,3.50695],[117.03449,3.5066],[117.03497,3.50594],[117.03463,3.50546],[117.03354,3.5048],[117.03176,3.5032],[117.03054,3.50233],[117.02954,3.5018],[117.02918,3.50121],[117.02908,3.50104],[117.0292,3.50026],[117.02941,3.49936],[117.02936,3.49861],[117.02936,3.49853],[117.02906,3.49762],[117.02901,3.49758],[117.02863,3.4973],[117.02862,3.4973],[117.02812,3.49752],[117.02763,3.49778],[117.02712,3.49805],[117.02711,3.49805],[117.02674,3.49805],[117.02653,3.49805],[117.02565,3.49805],[117.02564,3.49805],[117.02437,3.49804],[117.02391,3.49824],[117.02381,3.4983],[117.02346,3.49852],[117.02337,3.49844],[117.02276,3.49835],[117.02243,3.49691],[117.02226,3.49658],[117.02214,3.49634],[117.02179,3.49566],[117.02117,3.49502],[117.0203,3.49417],[117.02025,3.49414],[117.02017,3.49409],[117.02017,3.49409],[117.02017,3.49409]]]]},"properties":{"kdprov":"65","kdkab":"03","kdkec":"030","kddesa":"006","kdsls":"0001","idsls":"65030300060001","nmprov":"KALIMANTAN UTARA","nmkab":"TANA TIDUNG","nmkec":"BETAYAU","nmdesa":"BUANG BARU","nmsls":"RT 001"}},{"type":"Feature","geometry":{"type":"MultiPolygon","coordinates":[[[[117.01292,3.49373],[117.01301,3.49313],[117.01304,3.49292],[117.01306,3.49277],[117.01305,3.49277],[117.01258,3.49298],[117.01192,3.49297],[117.01164,3.49296],[117.01072,3.49306],[117.0105,3.49311],[117.0102,3.49316],[117.01005,3.49319],[117.00934,3.49366],[117.00874,3.49383],[117.00782,3.49435],[117.00696,3.49481],[117.00695,3.49482],[117.0066,3.49487],[117.00608,3.49461],[117.006,3.49444],[117.0057,3.49382],[117.00547,3.49359],[117.00526,3.49347],[117.00494,3.49334],[117.00439,3.49336],[117.00415,3.49335],[117.00399,3.49331],[117.00352,3.49312],[117.00339,3.49308],[117.00211,3.49536],[117.00075,3.49778],[116.9985,3.50171],[116.9917,3.51362],[116.98986,3.51682],[116.98648,3.52271],[116.98728,3.52366],[116.98783,3.52308],[116.98823,3.52299],[116.9887,3.52265],[116.98889,3.5217],[116.99027,3.52046],[116.99103,3.52059],[116.99165,3.51975],[116.99342,3.51933],[116.99352,3.51873],[116.9935,3.51823],[116.99522,3.51809],[116.9979,3.51642],[117.0004,3.51447],[117.00261,3.51414],[117.00265,3.51416],[117.00451,3.51492],[117.00641,3.51521],[117.00863,3.51602],[117.01105,3.51597],[117.01115,3.51587],[117.01329,3.51602],[117.01512,3.51611],[117.01517,3.5145],[117.01479,3.51383],[117.01477,3.51233],[117.01408,3.51062],[117.01386,3.50962],[117.01352,3.50947],[117.01346,3.50941],[117.01306,3.50886],[117.01309,3.50847],[117.01328,3.50835],[117.01353,3.50825],[117.01358,3.50808],[117.01359,3.50805],[117.01361,3.50805],[117.01372,3.50736],[117.01367,3.50708],[117.01362,3.50676],[117.01361,3.50669],[117.01355,3.50639],[117.01322,3.50594],[117.01326,3.50551],[117.01386,3.50408],[117.01379,3.50387],[117.01366,3.5035],[117.0132,3.50274],[117.0131,3.50242],[117.01273,3.50189],[117.01254,3.50151],[117.01248,3.50108],[117.01243,3.50101],[117.01227,3.50075],[117.01201,3.5005],[117.01196,3.50045],[117.01189,3.5004],[117.01195,3.50004],[117.012,3.49996],[117.0129,3.49388],[117.01292,3.49373]]]]},"properties":{"kdprov":"65","kdkab":"03","kdkec":"030","kddesa":"006","kdsls":"0004","idsls":"65030300060004","nmprov":"KALIMANTAN UTARA","nmkab":"TANA TIDUNG","nmkec":"BETAYAU","nmdesa":"BUANG BARU","nmsls":"RT 004"}},{"type":"Feature","geometry":{"type":"MultiPolygon","coordinates":[[[[117.0135,3.46107],[117.01326,3.46112],[117.01285,3.46118],[117.01254,3.46123],[117.01192,3.46141],[117.01185,3.46143],[117.0116,3.46151],[117.01127,3.46161],[117.01114,3.46199],[117.01104,3.46232],[117.01103,3.46268],[117.01102,3.46305],[117.01097,3.46374],[117.01083,3.4641],[117.01077,3.46427],[117.01074,3.46435],[117.01061,3.46447],[117.01055,3.46457],[117.01035,3.46472],[117.0103,3.46477],[117.0098,3.46521],[117.00952,3.46552],[117.00936,3.4657],[117.00896,3.46621],[117.0086,3.46667],[117.00855,3.46673],[117.00818,3.46723],[117.0079,3.46777],[117.00776,3.46801],[117.0076,3.4683],[117.00748,3.46851],[117.0073,3.46882],[117.00713,3.46901],[117.00708,3.46908],[117.00707,3.46909],[117.00692,3.46926],[117.00685,3.46935],[117.00685,3.46935],[117.00677,3.46938],[117.00676,3.46939],[117.00671,3.46941],[117.00622,3.46961],[117.00575,3.4697],[117.00562,3.46972],[117.00518,3.46994],[117.00467,3.47025],[117.00406,3.47056],[117.00345,3.47095],[117.00302,3.47147],[117.0029,3.47179],[117.00289,3.47181],[117.00278,3.47211],[117.00277,3.47279],[117.0029,3.47344],[117.00324,3.47399],[117.00359,3.4746],[117.00387,3.47522],[117.00396,3.4759],[117.00387,3.47624],[117.00366,3.47675],[117.00342,3.47711],[117.00332,3.47728],[117.00307,3.4777],[117.00281,3.47833],[117.0026,3.4789],[117.00239,3.47953],[117.00223,3.48006],[117.00184,3.48097],[117.00161,3.4815],[117.00102,3.48282],[117.00056,3.48362],[117.00035,3.48397],[116.99985,3.48478],[116.99978,3.48489],[117.0,3.48508],[117.00007,3.48514],[117.00031,3.48534],[117.00036,3.48538],[117.00085,3.48571],[117.00107,3.48638],[117.00134,3.48708],[117.00163,3.48753],[117.00195,3.48766],[117.00256,3.48731],[117.00302,3.48669],[117.00317,3.48651],[117.00349,3.48639],[117.0036,3.48634],[117.00378,3.48636],[117.00409,3.48657],[117.00444,3.4869],[117.00474,3.48741],[117.00484,3.48768],[117.00487,3.48802],[117.00478,3.48836],[117.00448,3.48902],[117.00443,3.48945],[117.0045,3.48965],[117.00482,3.49],[117.00494,3.49031],[117.00852,3.48416],[117.0105,3.48066],[117.01085,3.48004],[117.01514,3.48],[117.01518,3.47822],[117.01516,3.47686],[117.01513,3.47441],[117.01506,3.46884],[117.01506,3.46884],[117.01506,3.46883],[117.01452,3.46617],[117.01439,3.46551],[117.01365,3.46184],[117.0135,3.46107]]]]},"properties":{"kdprov":"65","kdkab":"03","kdkec":"030","kddesa":"005","kdsls":"0001","idsls":"65030300050001","nmprov":"KALIMANTAN UTARA","nmkab":"TANA TIDUNG","nmkec":"BETAYAU","nmdesa":"MANING","nmsls":"RT 001"}},{"type":"Feature","geometry":{"type":"MultiPolygon","coordinates":[[[[116.98648,3.52271],[116.98627,3.52308],[116.98231,3.53],[116.98238,3.53177],[116.98276,3.53244],[116.98381,3.5334],[116.98495,3.53426],[116.98538,3.53517],[116.98543,3.53627],[116.98504,3.53776],[116.98566,3.53838],[116.9861,3.53899],[116.98638,3.53973],[117.01944,3.53625],[117.01949,3.53624],[117.01949,3.53624],[117.0201,3.53618],[117.02044,3.53615],[117.02357,3.53582],[117.02795,3.53536],[117.02945,3.5352],[117.02946,3.53456],[117.02877,3.5341],[117.02211,3.5297],[117.02181,3.5295],[117.02166,3.5275],[117.0216,3.52668],[117.02161,3.52664],[117.02045,3.52565],[117.01113,3.52622],[117.01092,3.52562],[117.01087,3.52512],[117.01106,3.52401],[117.01154,3.52313],[117.01128,3.52265],[117.01056,3.52206],[117.0103,3.52172],[117.01025,3.52108],[117.01061,3.52004],[117.01111,3.51918],[117.0105,3.51824],[117.01063,3.51783],[117.01118,3.51597],[117.01105,3.51597],[117.00863,3.51602],[117.00641,3.51521],[117.00451,3.51492],[117.00265,3.51416],[117.00261,3.51414],[117.0004,3.51447],[116.9979,3.51642],[116.99522,3.51809],[116.9935,3.51823],[116.99352,3.51873],[116.99342,3.51933],[116.99165,3.51975],[116.99103,3.52059],[116.99027,3.52046],[116.98889,3.5217],[116.9887,3.52265],[116.98823,3.52299],[116.98783,3.52308],[116.98728,3.52366],[116.98648,3.52271]]]]},"properties":{"kdprov":"65","kdkab":"03","kdkec":"030","kddesa":"006","kdsls":"0003","idsls":"65030300060003","nmprov":"KALIMANTAN UTARA","nmkab":"TANA TIDUNG","nmkec":"BETAYAU","nmdesa":"BUANG BARU","nmsls":"RT 003"}},{"type":"Feature","geometry":{"type":"MultiPolygon","coordinates":[[[[117.01491,3.44629],[117.01491,3.44629],[117.01499,3.44609],[117.0151,3.44584],[117.01518,3.44483],[117.01519,3.44468],[117.01527,3.44467],[117.01637,3.44502],[117.01686,3.44509],[117.01734,3.44434],[117.0177,3.44368],[117.02069,3.44151],[117.02172,3.44097],[117.02226,3.4402],[117.02262,3.43983],[117.02329,3.43951],[117.02437,3.43892],[117.02467,3.43913],[117.02564,3.43981],[117.0264,3.43961],[117.02839,3.43856],[117.02985,3.43718],[117.03145,3.4362],[117.03185,3.43565],[117.03168,3.43417],[117.0324,3.43365],[117.03333,3.43387],[117.03399,3.43386],[117.03462,3.43338],[117.03524,3.43231],[117.03551,3.43121],[117.03576,3.43084],[117.03615,3.43005],[117.03618,3.42968],[117.03575,3.42861],[117.03544,3.42781],[117.03542,3.42749],[117.03566,3.42711],[117.03578,3.42675],[117.03599,3.42578],[117.03593,3.42476],[117.03574,3.4242],[117.03583,3.42389],[117.03625,3.42355],[117.03692,3.42311],[117.03724,3.42238],[117.03826,3.42077],[117.03896,3.41854],[117.03901,3.4178],[117.03848,3.41673],[117.03832,3.41608],[117.03799,3.41561],[117.03725,3.41471],[117.03702,3.41433],[117.03673,3.41337],[117.03655,3.41262],[117.03643,3.41226],[117.0364,3.41173],[117.03653,3.41138],[117.03732,3.41044],[117.03801,3.40974],[117.03877,3.40864],[117.03917,3.40796],[117.03928,3.40768],[117.03932,3.40728],[117.03928,3.40673],[117.03923,3.40642],[117.03914,3.4063],[117.03927,3.40571],[117.03912,3.40557],[117.03901,3.40549],[117.03897,3.40552],[117.03893,3.40556],[117.03892,3.40556],[117.03892,3.40556],[117.03889,3.40608],[117.03725,3.4068],[117.03669,3.40677],[117.03554,3.40671],[117.03367,3.40617],[117.03279,3.40592],[117.03077,3.40534],[117.0273,3.40314],[117.02701,3.40296],[117.02523,3.40154],[117.0252,3.40152],[117.02512,3.40146],[117.02427,3.40079],[117.02382,3.40038],[117.02258,3.39928],[117.02114,3.398],[117.02111,3.39797],[117.02019,3.39716],[117.01844,3.39615],[117.01807,3.39594],[117.01788,3.39582],[117.01456,3.39391],[117.01319,3.39341],[117.01123,3.39268],[117.00995,3.39221],[117.00654,3.3917],[117.00262,3.39119],[117.00144,3.39182],[116.99254,3.39657],[116.98469,3.40076],[116.97823,3.40416],[116.97608,3.40325],[116.9746,3.40262],[116.97626,3.40584],[116.97674,3.40675],[116.97856,3.4104],[116.97987,3.41301],[116.98529,3.42384],[116.98881,3.43086],[117.00294,3.45908],[117.00836,3.44401],[117.01051,3.44478],[117.01077,3.44487],[117.01489,3.44633],[117.01491,3.44629]]]]},"properties":{"kdprov":"65","kdkab":"03","kdkec":"030","kddesa":"004","kdsls":"2002","idsls":"65030300042002","nmprov":"KALIMANTAN UTARA","nmkab":"TANA TIDUNG","nmkec":"BETAYAU","nmdesa":"KUJAU","nmsls":"HUTAN/KAMP PERUSAHAAN"}},{"type":"Feature","geometry":{"type":"MultiPolygon","coordinates":[[[[117.05414,3.40594],[117.05393,3.406],[117.0537,3.40608],[117.05325,3.40599],[117.05283,3.40575],[117.05242,3.40538],[117.0523,3.40529],[117.05191,3.40505],[117.05182,3.40501],[117.0512,3.40491],[117.0511,3.4049],[117.05047,3.40512],[117.04938,3.40599],[117.04869,3.40671],[117.04818,3.40693],[117.04768,3.4069],[117.04628,3.40638],[117.0457,3.40622],[117.04526,3.40596],[117.04471,3.40563],[117.04344,3.40487],[117.04191,3.40416],[117.0414,3.40393],[117.04117,3.40393],[117.04091,3.40395],[117.0408,3.40396],[117.0398,3.40477],[117.03901,3.40549],[117.03912,3.40557],[117.03927,3.40571],[117.03914,3.4063],[117.03923,3.40642],[117.03928,3.40673],[117.03932,3.40728],[117.03928,3.40768],[117.03917,3.40796],[117.03877,3.40864],[117.03801,3.40974],[117.03732,3.41044],[117.03653,3.41138],[117.0364,3.41173],[117.03643,3.41226],[117.03655,3.41262],[117.03673,3.41337],[117.03702,3.41433],[117.03725,3.41471],[117.03799,3.41561],[117.03832,3.41608],[117.03848,3.41673],[117.03901,3.4178],[117.03896,3.41854],[117.03826,3.42077],[117.03724,3.42238],[117.03692,3.42311],[117.03625,3.42355],[117.03583,3.42389],[117.03574,3.4242],[117.03593,3.42476],[117.03599,3.42578],[117.03578,3.42675],[117.03566,3.42711],[117.03542,3.42749],[117.03544,3.42781],[117.03575,3.42861],[117.03618,3.42968],[117.03615,3.43005],[117.03576,3.43084],[117.03551,3.43121],[117.03524,3.43231],[117.03462,3.43338],[117.03399,3.43386],[117.03333,3.43387],[117.0324,3.43365],[117.03168,3.43417],[117.03185,3.43565],[117.03145,3.4362],[117.02985,3.43718],[117.02839,3.43856],[117.0264,3.43961],[117.02564,3.43981],[117.02467,3.43913],[117.02437,3.43892],[117.02329,3.43951],[117.02262,3.43983],[117.02226,3.4402],[117.02172,3.44097],[117.02069,3.44151],[117.0177,3.44368],[117.01734,3.44434],[117.01686,3.44509],[117.01637,3.44502],[117.01527,3.44467],[117.01519,3.44468],[117.01518,3.44483],[117.0151,3.44584],[117.01499,3.44609],[117.01491,3.44629],[117.01491,3.44629],[117.01491,3.44629],[117.01491,3.44629],[117.01503,3.44631],[117.01667,3.44663],[117.01959,3.44719],[117.02241,3.44772],[117.02402,3.44803],[117.02694,3.44859],[117.02895,3.44897],[117.03272,3.4425],[117.03537,3.43794],[117.042,3.42652],[117.04297,3.42488],[117.04608,3.41959],[117.05414,3.40594]]]]},"properties":{"kdprov":"65","kdkab":"03","kdkec":"030","kddesa":"004","kdsls":"2001","idsls":"65030300042001","nmprov":"KALIMANTAN UTARA","nmkab":"TANA TIDUNG","nmkec":"BETAYAU","nmdesa":"KUJAU","nmsls":"HUTAN"}},{"type":"Feature","geometry":{"type":"MultiPolygon","coordinates":[[[[117.01306,3.49277],[117.01295,3.49242],[117.01284,3.49207],[117.01402,3.49185],[117.01509,3.49131],[117.01597,3.4921],[117.01619,3.49222],[117.01666,3.49259],[117.01692,3.4928],[117.01702,3.49284],[117.01775,3.49311],[117.01969,3.49383],[117.01998,3.49394],[117.02015,3.49408],[117.02017,3.49409],[117.02017,3.49409],[117.02019,3.49385],[117.02029,3.49367],[117.02243,3.48956],[117.02235,3.48741],[117.02219,3.48322],[117.02216,3.48244],[117.02216,3.48131],[117.02213,3.48127],[117.02211,3.48125],[117.02211,3.48125],[117.02192,3.48125],[117.02087,3.48124],[117.02057,3.48124],[117.01911,3.48124],[117.01749,3.48123],[117.01751,3.48088],[117.01751,3.4806],[117.01751,3.4804],[117.01751,3.47997],[117.01514,3.48],[117.01085,3.48004],[117.0105,3.48066],[117.00852,3.48416],[117.00494,3.49031],[117.00389,3.49219],[117.00339,3.49308],[117.00352,3.49312],[117.00399,3.49331],[117.00415,3.49335],[117.00439,3.49336],[117.00494,3.49334],[117.00526,3.49347],[117.00547,3.49359],[117.0057,3.49382],[117.006,3.49444],[117.00608,3.49461],[117.0066,3.49487],[117.00695,3.49482],[117.00696,3.49481],[117.00782,3.49435],[117.00874,3.49383],[117.00934,3.49366],[117.01005,3.49319],[117.0102,3.49316],[117.0105,3.49311],[117.01072,3.49306],[117.01164,3.49296],[117.01192,3.49297],[117.01258,3.49298],[117.01305,3.49277],[117.01306,3.49277]]],[[[117.12611,3.34505],[117.12564,3.3453],[117.12521,3.3457],[117.12505,3.34585],[117.12476,3.34612],[117.12469,3.34618],[117.12416,3.34668],[117.12395,3.34687],[117.12316,3.34726],[117.12311,3.34729],[117.12268,3.34751],[117.12263,3.34753],[117.12241,3.3476],[117.12181,3.34778],[117.12154,3.34786],[117.1211,3.34799],[117.12097,3.34803],[117.12096,3.34804],[117.12031,3.34823],[117.11945,3.3485],[117.11898,3.34847],[117.11702,3.34835],[117.11645,3.34832],[117.11612,3.3483],[117.11609,3.3483],[117.11603,3.34829],[117.11421,3.34923],[117.11392,3.35059],[117.11367,3.35182],[117.11352,3.35255],[117.11351,3.35271],[117.1135,3.35275],[117.11341,3.35392],[117.11332,3.35494],[117.11309,3.35774],[117.11301,3.35875],[117.11236,3.35976],[117.1108,3.36219],[117.11018,3.36219],[117.10619,3.36218],[117.10322,3.36298],[117.09993,3.362],[117.09887,3.3624],[117.09858,3.3625],[117.09828,3.36261],[117.0977,3.36283],[117.09753,3.36304],[117.09495,3.3664],[117.09471,3.36763],[117.09459,3.36793],[117.0945,3.36817],[117.09439,3.36847],[117.09392,3.36967],[117.09301,3.37267],[117.09351,3.37513],[117.0937,3.37597],[117.09371,3.37603],[117.09392,3.37697],[117.09325,3.37887],[117.09271,3.38042],[117.09255,3.38282],[117.09238,3.38519],[117.0923,3.38623],[117.09215,3.38811],[117.09141,3.38993],[117.09122,3.39038],[117.09108,3.39042],[117.09105,3.39051],[117.08942,3.39125],[117.08879,3.39154],[117.08702,3.39197],[117.08696,3.39197],[117.08454,3.39199],[117.08436,3.39194],[117.08253,3.39146],[117.08129,3.39118],[117.0794,3.39099],[117.07732,3.39105],[117.07581,3.39109],[117.07506,3.39111],[117.07138,3.3901],[117.07076,3.38993],[117.06965,3.38961],[117.06851,3.38907],[117.06775,3.38872],[117.06726,3.38849],[117.06724,3.38848],[117.06703,3.38839],[117.06684,3.3883],[117.06682,3.38829],[117.06674,3.3884],[117.06673,3.38843],[117.06667,3.38852],[117.0666,3.38863],[117.0665,3.389],[117.06681,3.38953],[117.06721,3.39042],[117.0673,3.39062],[117.06743,3.3923],[117.06725,3.39295],[117.06701,3.39317],[117.06654,3.39337],[117.06563,3.39343],[117.06501,3.3935],[117.0645,3.39367],[117.06431,3.39392],[117.06424,3.39437],[117.06424,3.3944],[117.06424,3.39443],[117.06424,3.39452],[117.06425,3.39484],[117.06462,3.39536],[117.0651,3.39602],[117.06512,3.39605],[117.0653,3.3967],[117.06535,3.39712],[117.06526,3.39752],[117.06516,3.39797],[117.06478,3.39933],[117.0634,3.4026],[117.0634,3.40261],[117.06308,3.40315],[117.0628,3.40334],[117.0623,3.40367],[117.0619,3.4038],[117.0619,3.4038],[117.06173,3.40385],[117.06107,3.40407],[117.06107,3.40407],[117.06086,3.40413],[117.06024,3.40423],[117.05957,3.40419],[117.05863,3.40398],[117.05791,3.40389],[117.05728,3.40399],[117.05658,3.40421],[117.05617,3.4045],[117.05584,3.40474],[117.05545,3.40501],[117.05438,3.40586],[117.05483,3.40624],[117.05545,3.40675],[117.05563,3.4069],[117.05559,3.40716],[117.05536,3.40861],[117.05718,3.41036],[117.05888,3.41114],[117.05992,3.41161],[117.06175,3.41216],[117.06165,3.41197],[117.06262,3.41103],[117.06268,3.41098],[117.06373,3.41007],[117.0646,3.40896],[117.06504,3.40831],[117.06577,3.40817],[117.06642,3.4086],[117.06642,3.4086],[117.06671,3.4088],[117.06707,3.40873],[117.06754,3.40864],[117.06757,3.40775],[117.06818,3.40652],[117.06905,3.40656],[117.0693,3.40672],[117.06985,3.40707],[117.07035,3.4077],[117.071,3.40799],[117.07214,3.40818],[117.07214,3.40818],[117.07297,3.40752],[117.07314,3.40785],[117.07369,3.4089],[117.07388,3.40933],[117.07398,3.40955],[117.07488,3.41044],[117.0749,3.41046],[117.07661,3.41093],[117.07662,3.41093],[117.08156,3.4107],[117.08484,3.40989],[117.0904,3.40956],[117.09511,3.4086],[117.10257,3.40818],[117.10381,3.40737],[117.10382,3.40737],[117.10961,3.40803],[117.10961,3.40803],[117.11047,3.40556],[117.11028,3.40019],[117.11009,3.396],[117.108,3.39581],[117.10762,3.39477],[117.10885,3.39134],[117.10771,3.39011],[117.10714,3.38792],[117.10857,3.38668],[117.10752,3.37917],[117.10571,3.37575],[117.10866,3.37365],[117.11228,3.36966],[117.11228,3.36966],[117.11446,3.36994],[117.11446,3.36994],[117.11665,3.36795],[117.11751,3.36633],[117.12245,3.36441],[117.12264,3.36433],[117.12521,3.3611],[117.12528,3.35803],[117.12664,3.35713],[117.12723,3.35587],[117.12745,3.35494],[117.12765,3.35412],[117.12765,3.35364],[117.12772,3.34933],[117.12742,3.34857],[117.12692,3.34648],[117.1267,3.34608],[117.12611,3.34505]]]]},"properties":{"kdprov":"65","kdkab":"03","kdkec":"030","kddesa":"006","kdsls":"0005","idsls":"65030300060005","nmprov":"KALIMANTAN UTARA","nmkab":"TANA TIDUNG","nmkec":"BETAYAU","nmdesa":"BUANG BARU","nmsls":"RT 005"}}]}