{"type":"FeatureCollection","features":[{"type":"Feature","geometry":{"type":"MultiPolygon","coordinates":[[[[115.73559,3.58403],[115.73049,3.57677],[115.72731,3.57429],[115.72673,3.57721],[115.72235,3.57767],[115.71889,3.57782],[115.71662,3.58008],[115.71376,3.58083],[115.71286,3.57932],[115.71165,3.58128],[115.70743,3.58098],[115.70592,3.58023],[115.70336,3.57736],[115.7014,3.57586],[115.70095,3.57676],[115.70019,3.57857],[115.69733,3.57736],[115.69718,3.57872],[115.69748,3.58098],[115.69461,3.58174],[115.6916,3.57948],[115.69115,3.58053],[115.69265,3.58249],[115.69356,3.58445],[115.69386,3.58686],[115.69421,3.58774],[115.69467,3.58826],[115.69518,3.5886],[115.69598,3.589],[115.6965,3.58951],[115.6969,3.5902],[115.69701,3.591],[115.69775,3.59214],[115.69861,3.5938],[115.69964,3.59511],[115.70038,3.59625],[115.70112,3.59751],[115.70175,3.59894],[115.70158,3.60036],[115.70141,3.60145],[115.70134,3.6018],[115.70118,3.6027],[115.70107,3.60333],[115.70107,3.60476],[115.70129,3.60585],[115.70138,3.60603],[115.70151,3.60625],[115.70148,3.60632],[115.70094,3.60644],[115.7009,3.60657],[115.7009,3.60674],[115.70079,3.60701],[115.70069,3.60719],[115.70064,3.60739],[115.70058,3.6076],[115.70056,3.60775],[115.70056,3.60775],[115.70053,3.60791],[115.70064,3.60801],[115.70086,3.60813],[115.70126,3.60826],[115.70149,3.60862],[115.70171,3.60896],[115.70189,3.60909],[115.70197,3.60922],[115.70201,3.60927],[115.7041,3.60849],[115.70467,3.60807],[115.70624,3.60792],[115.70824,3.60764],[115.70824,3.60592],[115.70824,3.60464],[115.70952,3.60321],[115.71067,3.60064],[115.71338,3.59879],[115.71338,3.5975],[115.71509,3.59607],[115.71524,3.59393],[115.71695,3.59179],[115.71923,3.59108],[115.72109,3.58951],[115.72152,3.58808],[115.72252,3.58665],[115.7248,3.58565],[115.72723,3.58679],[115.73037,3.58651],[115.73265,3.58594],[115.73559,3.58403]]]]},"properties":{"kdprov":"65","kdkab":"04","kdkec":"010","kddesa":"001","kdsls":"2001","idsls":"65040100012001","nmprov":"KALIMANTAN UTARA","nmkab":"NUNUKAN","nmkec":"KRAYAN SELATAN","nmdesa":"LONG PASIA","nmsls":"HUTAN"}},{"type":"Feature","geometry":{"type":"MultiPolygon","coordinates":[[[[115.752,3.56042],[115.75212,3.5603],[115.75244,3.55997],[115.7527,3.55972],[115.75302,3.5596],[115.75333,3.55948],[115.75362,3.55951],[115.75388,3.55935],[115.75414,3.55905],[115.75427,3.55882],[115.75458,3.55866],[115.7549,3.55861],[115.75508,3.55559],[115.75337,3.55045],[115.75303,3.54794],[115.75194,3.54377],[115.75149,3.5408],[115.75057,3.53629],[115.74892,3.53321],[115.7476,3.53092],[115.74652,3.52687],[115.74777,3.52258],[115.75029,3.51028],[115.75271,3.504],[115.75914,3.49514],[115.76314,3.48115],[115.77441,3.45388],[115.77955,3.44061],[115.78673,3.43216],[115.78367,3.43093],[115.77224,3.42808],[115.76403,3.42701],[115.74619,3.42665],[115.72549,3.42665],[115.70157,3.42701],[115.68837,3.42879],[115.67659,3.43058],[115.66624,3.43486],[115.65696,3.44021],[115.65638,3.44074],[115.66598,3.45675],[115.69781,3.50404],[115.73142,3.543],[115.74827,3.55751],[115.74993,3.55886],[115.752,3.56042]]]]},"properties":{"kdprov":"65","kdkab":"04","kdkec":"010","kddesa":"012","kdsls":"2001","idsls":"65040100122001","nmprov":"KALIMANTAN UTARA","nmkab":"NUNUKAN","nmkec":"KRAYAN SELATAN","nmdesa":"PA UPAN","nmsls":"HUTAN"}},{"type":"Feature","geometry":{"type":"MultiPolygon","coordinates":[[[[115.80565,3.55065],[115.80912,3.54717],[115.81173,3.54485],[115.81318,3.54223],[115.81144,3.54049],[115.80856,3.53729],[115.80827,3.53351],[115.80943,3.53061],[115.8103,3.52712],[115.81031,3.52654],[115.80829,3.52305],[115.80829,3.51986],[115.80974,3.5184],[115.8109,3.51579],[115.81119,3.51289],[115.81206,3.50853],[115.81439,3.50185],[115.81479,3.49278],[115.81189,3.49225],[115.81507,3.48697],[115.81722,3.48269],[115.81793,3.47484],[115.8165,3.46234],[115.81543,3.45306],[115.80758,3.44485],[115.80187,3.44057],[115.79259,3.4345],[115.78673,3.43216],[115.77955,3.44061],[115.77441,3.45388],[115.76314,3.48115],[115.75914,3.49514],[115.75271,3.504],[115.75029,3.51028],[115.74777,3.52258],[115.74652,3.52687],[115.7476,3.53092],[115.74892,3.53321],[115.75057,3.53629],[115.75149,3.5408],[115.75194,3.54377],[115.75303,3.54794],[115.75337,3.55045],[115.75508,3.55559],[115.7549,3.55861],[115.75538,3.55879],[115.75573,3.559],[115.75596,3.55924],[115.75618,3.55949],[115.75648,3.55973],[115.75673,3.55999],[115.75694,3.56025],[115.75754,3.56023],[115.75851,3.56074],[115.76079,3.56171],[115.76302,3.56183],[115.76685,3.56137],[115.76919,3.56154],[115.77222,3.56291],[115.77399,3.56422],[115.78001,3.56414],[115.78986,3.56171],[115.79215,3.55857],[115.79543,3.55543],[115.80057,3.55243],[115.80565,3.55065]]]]},"properties":{"kdprov":"65","kdkab":"04","kdkec":"010","kddesa":"003","kdsls":"2001","idsls":"65040100032001","nmprov":"KALIMANTAN UTARA","nmkab":"NUNUKAN","nmkec":"KRAYAN SELATAN","nmdesa":"PA IBANG","nmsls":"HUTAN"}},{"type":"Feature","geometry":{"type":"MultiPolygon","coordinates":[[[[115.82429,3.60366],[115.81591,3.59389],[115.80848,3.58884],[115.78211,3.57609],[115.75679,3.57188],[115.75352,3.57129],[115.74992,3.57057],[115.74657,3.56979],[115.74586,3.56956],[115.74572,3.56978],[115.74546,3.57023],[115.74543,3.57075],[115.74557,3.57146],[115.74591,3.57268],[115.7456,3.57308],[115.74522,3.57361],[115.745,3.57413],[115.74438,3.57508],[115.74393,3.57582],[115.74341,3.57639],[115.74317,3.57665],[115.74291,3.57684],[115.74305,3.57732],[115.74329,3.57737],[115.74374,3.57748],[115.74388,3.5777],[115.74386,3.57837],[115.74381,3.57882],[115.74334,3.57939],[115.74258,3.57986],[115.7417,3.57986],[115.74015,3.57955],[115.73993,3.57913],[115.74001,3.57877],[115.74032,3.5781],[115.7406,3.5776],[115.74084,3.57751],[115.74093,3.5771],[115.74101,3.57653],[115.74093,3.57629],[115.74017,3.57603],[115.73958,3.57599],[115.73955,3.5757],[115.7392,3.57565],[115.73905,3.57541],[115.73913,3.57508],[115.7392,3.57489],[115.73908,3.57453],[115.73877,3.57373],[115.73863,3.57334],[115.73846,3.57306],[115.73855,3.57268],[115.7387,3.5722],[115.7387,3.57182],[115.7386,3.57154],[115.73829,3.5712],[115.7381,3.57089],[115.73801,3.57058],[115.7386,3.57025],[115.73929,3.56994],[115.74053,3.56994],[115.74115,3.56992],[115.74134,3.56937],[115.7412,3.56866],[115.74065,3.56749],[115.74036,3.56685],[115.74051,3.56635],[115.74093,3.56573],[115.74189,3.56518],[115.74298,3.56499],[115.74348,3.56473],[115.74419,3.56409],[115.74453,3.56414],[115.74503,3.56464],[115.74534,3.56521],[115.74569,3.56604],[115.74626,3.5664],[115.74795,3.56573],[115.74876,3.56528],[115.74898,3.56506],[115.74942,3.56464],[115.74971,3.56424],[115.75002,3.56397],[115.74956,3.56376],[115.74932,3.56352],[115.74951,3.56322],[115.74992,3.56258],[115.75028,3.56204],[115.75067,3.56159],[115.75116,3.56113],[115.75168,3.56071],[115.752,3.56043],[115.752,3.56042],[115.74993,3.55886],[115.74827,3.55751],[115.73142,3.543],[115.69781,3.50404],[115.66598,3.45675],[115.65638,3.44074],[115.65339,3.44343],[115.65112,3.44846],[115.65092,3.44879],[115.65092,3.44879],[115.65073,3.44889],[115.65042,3.44905],[115.64919,3.44988],[115.64798,3.45054],[115.64708,3.45017],[115.64604,3.45032],[115.64532,3.45015],[115.64465,3.45014],[115.64384,3.45024],[115.64384,3.45024],[115.64389,3.45103],[115.64389,3.45103],[115.64241,3.45203],[115.64229,3.45199],[115.64191,3.45183],[115.64143,3.45225],[115.64142,3.45225],[115.64118,3.45289],[115.64105,3.45322],[115.64087,3.45364],[115.64071,3.45478],[115.64039,3.45529],[115.64039,3.45529],[115.63975,3.45578],[115.63871,3.45585],[115.63871,3.45585],[115.6384,3.4565],[115.63908,3.4581],[115.63889,3.45908],[115.6392,3.4601],[115.63962,3.46083],[115.63967,3.4617],[115.63967,3.4617],[115.6386,3.46211],[115.63711,3.46294],[115.63711,3.46294],[115.6364,3.46386],[115.63631,3.46446],[115.63568,3.46537],[115.63568,3.46537],[115.63489,3.46564],[115.63419,3.46548],[115.63336,3.46589],[115.63336,3.46589],[115.63269,3.46714],[115.63323,3.46758],[115.63464,3.46857],[115.63502,3.4695],[115.63485,3.46999],[115.63533,3.47154],[115.63581,3.47303],[115.63611,3.47436],[115.63611,3.47436],[115.63533,3.47484],[115.63532,3.47484],[115.63533,3.47493],[115.63535,3.47536],[115.63509,3.47632],[115.63509,3.47632],[115.63402,3.47691],[115.63232,3.47699],[115.63101,3.47689],[115.62998,3.47709],[115.62932,3.47745],[115.62932,3.47745],[115.62942,3.4779],[115.62916,3.4788],[115.62892,3.47997],[115.62872,3.48067],[115.62886,3.48174],[115.62853,3.48295],[115.62853,3.48295],[115.62765,3.48358],[115.62668,3.484],[115.62622,3.48443],[115.62622,3.48443],[115.62622,3.48537],[115.62646,3.48675],[115.62633,3.48798],[115.62609,3.48877],[115.62652,3.48951],[115.62723,3.49006],[115.62723,3.49006],[115.62655,3.49031],[115.62546,3.49039],[115.62468,3.49089],[115.62467,3.49089],[115.62414,3.49179],[115.62414,3.49251],[115.62423,3.49305],[115.62426,3.49323],[115.62394,3.49369],[115.62361,3.49468],[115.62332,3.49497],[115.62275,3.4957],[115.62246,3.49613],[115.62208,3.49675],[115.62208,3.49675],[115.62149,3.49726],[115.62149,3.49726],[115.62117,3.49784],[115.62109,3.49866],[115.62109,3.49866],[115.6204,3.499],[115.61977,3.4993],[115.61977,3.4993],[115.61962,3.5],[115.61962,3.5],[115.61962,3.5],[115.6196,3.5001],[115.6196,3.5001],[115.61904,3.50057],[115.6183,3.50125],[115.6183,3.50125],[115.61772,3.50212],[115.6179,3.50319],[115.6179,3.50319],[115.61702,3.50377],[115.61618,3.50382],[115.61516,3.50395],[115.61516,3.50395],[115.61472,3.50447],[115.61472,3.50447],[115.61444,3.50435],[115.61444,3.50435],[115.61399,3.5057],[115.61353,3.50638],[115.61348,3.50647],[115.61305,3.50711],[115.6126,3.50802],[115.6123,3.50858],[115.61216,3.50884],[115.61172,3.50931],[115.61169,3.50934],[115.61114,3.51006],[115.61113,3.51006],[115.6103,3.51062],[115.6103,3.51062],[115.61016,3.51182],[115.61019,3.51308],[115.6105,3.514],[115.61052,3.51455],[115.61038,3.5154],[115.61049,3.51598],[115.61087,3.51669],[115.61134,3.51745],[115.6117,3.51776],[115.61165,3.51861],[115.6283,3.52324],[115.67291,3.54608],[115.71539,3.565],[115.72731,3.57429],[115.73049,3.57677],[115.73559,3.58403],[115.73835,3.58796],[115.74822,3.59602],[115.77547,3.6183],[115.79748,3.62948],[115.81478,3.63386],[115.81545,3.6283],[115.81569,3.62351],[115.8176,3.6216],[115.8207,3.61873],[115.82237,3.61706],[115.82285,3.61371],[115.82404,3.61108],[115.82476,3.60749],[115.82429,3.60366]]]]},"properties":{"kdprov":"65","kdkab":"04","kdkec":"010","kddesa":"005","kdsls":"2001","idsls":"65040100052001","nmprov":"KALIMANTAN UTARA","nmkab":"NUNUKAN","nmkec":"KRAYAN SELATAN","nmdesa":"PA KABER","nmsls":"HUTAN"}},{"type":"Feature","geometry":{"type":"MultiPolygon","coordinates":[[[[115.75693,3.56025],[115.75694,3.56025],[115.75673,3.55999],[115.75648,3.55973],[115.75618,3.55949],[115.75596,3.55924],[115.75573,3.559],[115.75538,3.55879],[115.7549,3.55861],[115.75458,3.55866],[115.75427,3.55882],[115.75414,3.55905],[115.75388,3.55935],[115.75362,3.55951],[115.75386,3.55977],[115.75385,3.55977],[115.75386,3.55996],[115.75398,3.56009],[115.75376,3.56027],[115.75386,3.56045],[115.75433,3.56117],[115.75611,3.56028],[115.75693,3.56025]]]]},"properties":{"kdprov":"65","kdkab":"04","kdkec":"010","kddesa":"003","kdsls":"0001","idsls":"65040100030001","nmprov":"KALIMANTAN UTARA","nmkab":"NUNUKAN","nmkec":"KRAYAN SELATAN","nmdesa":"PA IBANG","nmsls":"RT 001"}},{"type":"Feature","geometry":{"type":"MultiPolygon","coordinates":[[[[115.75351,3.56081],[115.75353,3.56063],[115.7537,3.56053],[115.75386,3.56045],[115.75376,3.56027],[115.75398,3.56009],[115.75386,3.55996],[115.75385,3.55977],[115.75386,3.55977],[115.75362,3.55951],[115.75333,3.55948],[115.75302,3.5596],[115.7527,3.55972],[115.75244,3.55997],[115.75212,3.5603],[115.752,3.56042],[115.752,3.56043],[115.75216,3.56055],[115.75237,3.5607],[115.75236,3.56076],[115.75232,3.56086],[115.75233,3.56094],[115.7525,3.56106],[115.75257,3.56112],[115.75258,3.56112],[115.75265,3.5611],[115.7528,3.56134],[115.75331,3.56109],[115.75351,3.56081]]]]},"properties":{"kdprov":"65","kdkab":"04","kdkec":"010","kddesa":"012","kdsls":"0001","idsls":"65040100120001","nmprov":"KALIMANTAN UTARA","nmkab":"NUNUKAN","nmkec":"KRAYAN SELATAN","nmdesa":"PA UPAN","nmsls":"RT 001"}},{"type":"Feature","geometry":{"type":"MultiPolygon","coordinates":[[[[115.75693,3.56025],[115.75611,3.56028],[115.75433,3.56117],[115.75386,3.56045],[115.7537,3.56053],[115.75353,3.56063],[115.75351,3.56081],[115.75371,3.56109],[115.75392,3.56124],[115.75419,3.56129],[115.75438,3.56152],[115.75457,3.56183],[115.75467,3.56208],[115.75496,3.5619],[115.75514,3.56185],[115.75548,3.5628],[115.75613,3.56263],[115.75611,3.56161],[115.75634,3.56165],[115.7566,3.56161],[115.75691,3.56142],[115.75708,3.56133],[115.75718,3.5609],[115.7572,3.56055],[115.75693,3.56025]]]]},"properties":{"kdprov":"65","kdkab":"04","kdkec":"010","kddesa":"004","kdsls":"0001","idsls":"65040100040001","nmprov":"KALIMANTAN UTARA","nmkab":"NUNUKAN","nmkec":"KRAYAN SELATAN","nmdesa":"PA AMAI","nmsls":"RT 001"}},{"type":"Feature","geometry":{"type":"MultiPolygon","coordinates":[[[[115.752,3.56043],[115.75168,3.56071],[115.75116,3.56113],[115.75067,3.56159],[115.75028,3.56204],[115.74992,3.56258],[115.74951,3.56322],[115.74932,3.56352],[115.74956,3.56376],[115.75002,3.56397],[115.75032,3.56347],[115.75054,3.56312],[115.752,3.5622],[115.75283,3.56167],[115.75371,3.56109],[115.75351,3.56081],[115.75331,3.56109],[115.7528,3.56134],[115.75265,3.5611],[115.75258,3.56112],[115.75257,3.56112],[115.7525,3.56106],[115.75233,3.56094],[115.75232,3.56086],[115.75236,3.56076],[115.75237,3.5607],[115.75216,3.56055],[115.752,3.56043]]]]},"properties":{"kdprov":"65","kdkab":"04","kdkec":"010","kddesa":"005","kdsls":"0001","idsls":"65040100050001","nmprov":"KALIMANTAN UTARA","nmkab":"NUNUKAN","nmkec":"KRAYAN SELATAN","nmdesa":"PA KABER","nmsls":"RT 001"}},{"type":"Feature","geometry":{"type":"MultiPolygon","coordinates":[[[[115.74898,3.56506],[115.74937,3.56539],[115.75007,3.56586],[115.75104,3.56514],[115.75251,3.56387],[115.7534,3.5628],[115.75388,3.56242],[115.75422,3.56232],[115.75467,3.56208],[115.75457,3.56183],[115.75438,3.56152],[115.75419,3.56129],[115.75392,3.56124],[115.75371,3.56109],[115.75283,3.56167],[115.752,3.5622],[115.75054,3.56312],[115.75032,3.56347],[115.75002,3.56397],[115.74971,3.56424],[115.74942,3.56464],[115.74898,3.56506]]]]},"properties":{"kdprov":"65","kdkab":"04","kdkec":"010","kddesa":"011","kdsls":"0001","idsls":"65040100110001","nmprov":"KALIMANTAN UTARA","nmkab":"NUNUKAN","nmkec":"KRAYAN SELATAN","nmdesa":"LONG BIRAR","nmsls":"RT 001"}},{"type":"Feature","geometry":{"type":"MultiPolygon","coordinates":[[[[115.69748,3.60249],[115.69791,3.60208],[115.69881,3.60161],[115.70025,3.60162],[115.70118,3.60179],[115.70134,3.6018],[115.70141,3.60145],[115.70158,3.60036],[115.70175,3.59894],[115.70112,3.59751],[115.70038,3.59625],[115.69964,3.59511],[115.69861,3.5938],[115.69775,3.59214],[115.69701,3.591],[115.6969,3.5902],[115.6965,3.58951],[115.69598,3.589],[115.69518,3.5886],[115.69467,3.58826],[115.69421,3.58774],[115.69386,3.58686],[115.693,3.58639],[115.69249,3.58661],[115.69203,3.58673],[115.69175,3.5869],[115.69169,3.58804],[115.69192,3.58827],[115.69209,3.58884],[115.69198,3.5897],[115.69146,3.58976],[115.69032,3.58976],[115.68952,3.58976],[115.68923,3.59033],[115.68912,3.59101],[115.68906,3.59181],[115.68792,3.59141],[115.68689,3.59061],[115.68524,3.58958],[115.68427,3.58936],[115.68404,3.58998],[115.68278,3.59038],[115.6821,3.59084],[115.68307,3.59211],[115.6832,3.59261],[115.68316,3.59295],[115.68353,3.59312],[115.68387,3.59333],[115.68396,3.59364],[115.68425,3.59436],[115.68472,3.59527],[115.68535,3.59592],[115.68589,3.59653],[115.68619,3.59683],[115.68638,3.59731],[115.68648,3.5974],[115.68653,3.59769],[115.68653,3.59826],[115.68648,3.59904],[115.68655,3.5999],[115.68667,3.60129],[115.68678,3.60214],[115.68718,3.60275],[115.68802,3.60325],[115.68863,3.60334],[115.68966,3.60319],[115.69,3.60311],[115.69032,3.60258],[115.69084,3.60285],[115.69125,3.60308],[115.69211,3.60294],[115.69262,3.60275],[115.69323,3.60235],[115.6938,3.60243],[115.6942,3.60262],[115.69483,3.60287],[115.69537,3.60268],[115.69676,3.60224],[115.69748,3.60249]]]]},"properties":{"kdprov":"65","kdkab":"04","kdkec":"010","kddesa":"007","kdsls":"2001","idsls":"65040100072001","nmprov":"KALIMANTAN UTARA","nmkab":"NUNUKAN","nmkec":"KRAYAN SELATAN","nmdesa":"PA SING","nmsls":"HUTAN"}},{"type":"Feature","geometry":{"type":"MultiPolygon","coordinates":[[[[115.71079,3.61805],[115.71036,3.61819],[115.70896,3.61824],[115.70805,3.61885],[115.70625,3.61933],[115.70567,3.61996],[115.70606,3.62036],[115.7065,3.62099],[115.70668,3.621],[115.70682,3.62094],[115.70711,3.62098],[115.70732,3.62111],[115.70744,3.62125],[115.70753,3.62146],[115.70769,3.62161],[115.70789,3.62181],[115.70789,3.6221],[115.7078,3.62237],[115.70788,3.6225],[115.70881,3.62262],[115.70946,3.62363],[115.71012,3.6256],[115.71031,3.62628],[115.71077,3.6265],[115.71134,3.62702],[115.71174,3.62742],[115.71208,3.62788],[115.71248,3.62839],[115.71248,3.6289],[115.71248,3.62947],[115.71208,3.62999],[115.71179,3.6313],[115.71168,3.63336],[115.71168,3.63827],[115.71168,3.64118],[115.71082,3.64604],[115.71063,3.65358],[115.72256,3.64785],[115.73284,3.64557],[115.75207,3.64309],[115.77434,3.641],[115.79128,3.63985],[115.80638,3.63953],[115.81162,3.63691],[115.81472,3.63428],[115.81478,3.63386],[115.79748,3.62948],[115.77547,3.6183],[115.74822,3.59602],[115.7455,3.60478],[115.74265,3.61235],[115.73808,3.61692],[115.72908,3.62748],[115.72537,3.63162],[115.72294,3.63352],[115.72221,3.63292],[115.72066,3.63227],[115.71894,3.63239],[115.71775,3.63203],[115.71668,3.63048],[115.7162,3.62965],[115.71585,3.62912],[115.71537,3.62763],[115.71507,3.62674],[115.71412,3.62614],[115.71365,3.62454],[115.71305,3.62216],[115.7115,3.62019],[115.71079,3.61805]]]]},"properties":{"kdprov":"65","kdkab":"04","kdkec":"010","kddesa":"006","kdsls":"2001","idsls":"65040100062001","nmprov":"KALIMANTAN UTARA","nmkab":"NUNUKAN","nmkec":"KRAYAN SELATAN","nmdesa":"PA TERA","nmsls":"HUTAN"}},{"type":"Feature","geometry":{"type":"MultiPolygon","coordinates":[[[[115.69972,3.61176],[115.69969,3.61113],[115.6997,3.61111],[115.6996,3.61009],[115.69969,3.61002],[115.70065,3.60996],[115.70067,3.60984],[115.70067,3.60972],[115.70062,3.60958],[115.70062,3.60945],[115.70062,3.60922],[115.70065,3.60903],[115.70065,3.60885],[115.70054,3.60856],[115.70052,3.60845],[115.7005,3.60811],[115.70053,3.60791],[115.70056,3.60775],[115.70056,3.60775],[115.70058,3.6076],[115.70064,3.60739],[115.70069,3.60719],[115.70079,3.60701],[115.7009,3.60674],[115.7009,3.60657],[115.70094,3.60644],[115.70148,3.60632],[115.70151,3.60625],[115.70138,3.60603],[115.70129,3.60585],[115.70107,3.60476],[115.70107,3.60333],[115.70118,3.6027],[115.70134,3.6018],[115.70118,3.60179],[115.70025,3.60162],[115.69881,3.60161],[115.69791,3.60208],[115.69748,3.60249],[115.69809,3.60355],[115.69924,3.6061],[115.69944,3.60753],[115.69902,3.60878],[115.69879,3.61027],[115.69888,3.61184],[115.69972,3.61176]]]]},"properties":{"kdprov":"65","kdkab":"04","kdkec":"010","kddesa":"007","kdsls":"0001","idsls":"65040100070001","nmprov":"KALIMANTAN UTARA","nmkab":"NUNUKAN","nmkec":"KRAYAN SELATAN","nmdesa":"PA SING","nmsls":"RT 001"}},{"type":"Feature","geometry":{"type":"MultiPolygon","coordinates":[[[[115.70171,3.60896],[115.70149,3.60862],[115.70126,3.60826],[115.70086,3.60813],[115.70064,3.60801],[115.70053,3.60791],[115.7005,3.60811],[115.70052,3.60845],[115.70054,3.60856],[115.70065,3.60885],[115.70065,3.60903],[115.70062,3.60922],[115.70062,3.60945],[115.70062,3.60958],[115.70067,3.60972],[115.70067,3.60984],[115.70065,3.60996],[115.69969,3.61002],[115.6996,3.61009],[115.6997,3.61111],[115.69969,3.61113],[115.69972,3.61176],[115.70028,3.61171],[115.70024,3.6115],[115.70019,3.61138],[115.7002,3.61103],[115.70076,3.61099],[115.70075,3.61039],[115.70075,3.61027],[115.70076,3.61016],[115.70075,3.61008],[115.70077,3.60997],[115.70079,3.60986],[115.7009,3.60983],[115.70105,3.60982],[115.70121,3.60978],[115.70134,3.60967],[115.70139,3.60949],[115.70159,3.60911],[115.70171,3.60896]]]]},"properties":{"kdprov":"65","kdkab":"04","kdkec":"010","kddesa":"001","kdsls":"0001","idsls":"65040100010001","nmprov":"KALIMANTAN UTARA","nmkab":"NUNUKAN","nmkec":"KRAYAN SELATAN","nmdesa":"LONG PASIA","nmsls":"RT 001"}},{"type":"Feature","geometry":{"type":"MultiPolygon","coordinates":[[[[115.70224,3.61064],[115.70217,3.61043],[115.70199,3.61014],[115.7018,3.61008],[115.70134,3.60967],[115.70121,3.60978],[115.70105,3.60982],[115.7009,3.60983],[115.70079,3.60986],[115.70077,3.60997],[115.70075,3.61008],[115.70076,3.61016],[115.70075,3.61027],[115.70075,3.61039],[115.70076,3.61099],[115.70081,3.6112],[115.70112,3.61122],[115.70114,3.61144],[115.70118,3.61163],[115.70136,3.61181],[115.70143,3.61179],[115.70153,3.61163],[115.70167,3.61132],[115.70182,3.61094],[115.70196,3.61084],[115.70224,3.61064]]]]},"properties":{"kdprov":"65","kdkab":"04","kdkec":"010","kddesa":"002","kdsls":"0001","idsls":"65040100020001","nmprov":"KALIMANTAN UTARA","nmkab":"NUNUKAN","nmkec":"KRAYAN SELATAN","nmdesa":"LIANG LUNUK","nmsls":"RT 001"}},{"type":"Feature","geometry":{"type":"MultiPolygon","coordinates":[[[[115.66255,3.69414],[115.66524,3.69803],[115.66596,3.69482],[115.66572,3.69172],[115.665,3.68839],[115.66263,3.68506],[115.66072,3.68101],[115.66096,3.67673],[115.66286,3.67364],[115.66286,3.66579],[115.66167,3.66198],[115.66167,3.65746],[115.66667,3.65555],[115.67,3.65151],[115.67286,3.64627],[115.67333,3.64056],[115.67785,3.63699],[115.67904,3.6358],[115.67928,3.632],[115.68142,3.62581],[115.68356,3.62272],[115.69232,3.62143],[115.69365,3.62086],[115.69413,3.62039],[115.69447,3.61973],[115.69477,3.61919],[115.69516,3.61889],[115.69557,3.61854],[115.69605,3.61824],[115.69632,3.61797],[115.69712,3.61788],[115.69728,3.61779],[115.6971,3.61763],[115.69686,3.6174],[115.69673,3.61716],[115.69671,3.61678],[115.69667,3.61646],[115.69667,3.61624],[115.69678,3.61576],[115.69692,3.61527],[115.69695,3.615],[115.69696,3.61443],[115.69707,3.61387],[115.69716,3.61362],[115.6971,3.61351],[115.69695,3.6134],[115.69694,3.61317],[115.69648,3.61294],[115.69609,3.61248],[115.6957,3.61216],[115.69564,3.61164],[115.69566,3.6109],[115.69585,3.61056],[115.69618,3.61026],[115.69661,3.60996],[115.69682,3.60984],[115.69679,3.60962],[115.69676,3.60927],[115.6968,3.60874],[115.69688,3.60853],[115.69677,3.60808],[115.6967,3.60761],[115.69653,3.60725],[115.69594,3.6068],[115.69583,3.60641],[115.69615,3.60591],[115.6966,3.60555],[115.69672,3.60537],[115.69669,3.6052],[115.69664,3.60504],[115.69646,3.60493],[115.69639,3.60475],[115.69619,3.60435],[115.69597,3.60375],[115.69584,3.60343],[115.69562,3.60298],[115.69537,3.60268],[115.69483,3.60287],[115.6942,3.60262],[115.6938,3.60243],[115.69323,3.60235],[115.69262,3.60275],[115.69211,3.60294],[115.69125,3.60308],[115.69084,3.60285],[115.69032,3.60258],[115.69,3.60311],[115.68966,3.60319],[115.68863,3.60334],[115.68802,3.60325],[115.68718,3.60275],[115.68678,3.60214],[115.68667,3.60129],[115.68655,3.5999],[115.68648,3.59904],[115.68653,3.59826],[115.68653,3.59769],[115.68648,3.5974],[115.68638,3.59731],[115.68619,3.59683],[115.68589,3.59653],[115.68535,3.59592],[115.68472,3.59527],[115.68425,3.59436],[115.68396,3.59364],[115.68387,3.59333],[115.68353,3.59312],[115.68316,3.59295],[115.6832,3.59261],[115.68307,3.59211],[115.6821,3.59084],[115.68278,3.59038],[115.68404,3.58998],[115.68427,3.58936],[115.68524,3.58958],[115.68689,3.59061],[115.68792,3.59141],[115.68906,3.59181],[115.68912,3.59101],[115.68923,3.59033],[115.68952,3.58976],[115.69032,3.58976],[115.69146,3.58976],[115.69198,3.5897],[115.69209,3.58884],[115.69192,3.58827],[115.69169,3.58804],[115.69175,3.5869],[115.69203,3.58673],[115.69249,3.58661],[115.693,3.58639],[115.69386,3.58686],[115.69356,3.58445],[115.69265,3.58249],[115.69115,3.58053],[115.6916,3.57948],[115.69461,3.58174],[115.69748,3.58098],[115.69718,3.57872],[115.69733,3.57736],[115.70019,3.57857],[115.70095,3.57676],[115.7014,3.57586],[115.70336,3.57736],[115.70592,3.58023],[115.70743,3.58098],[115.71165,3.58128],[115.71286,3.57932],[115.71376,3.58083],[115.71662,3.58008],[115.71889,3.57782],[115.72235,3.57767],[115.72673,3.57721],[115.72731,3.57429],[115.71539,3.565],[115.67291,3.54608],[115.6283,3.52324],[115.61165,3.51861],[115.61163,3.51892],[115.61151,3.51923],[115.61159,3.52005],[115.61118,3.52086],[115.61061,3.52188],[115.61017,3.52271],[115.60972,3.5232],[115.60995,3.52389],[115.61058,3.52497],[115.61051,3.52539],[115.61047,3.52593],[115.61081,3.52643],[115.61126,3.52683],[115.61127,3.52683],[115.61136,3.52782],[115.61152,3.52815],[115.61169,3.52861],[115.61165,3.52898],[115.61195,3.52947],[115.61204,3.53065],[115.61289,3.53169],[115.61296,3.5325],[115.61298,3.53336],[115.61344,3.53426],[115.61368,3.5346],[115.61406,3.53499],[115.61404,3.53535],[115.61407,3.53643],[115.61422,3.5374],[115.61397,3.53806],[115.61381,3.53875],[115.61381,3.53875],[115.61344,3.53905],[115.61344,3.53906],[115.61355,3.53956],[115.61337,3.53999],[115.61349,3.54049],[115.61341,3.54084],[115.61331,3.54112],[115.61363,3.54188],[115.61392,3.54268],[115.61395,3.54305],[115.61395,3.54305],[115.61359,3.54336],[115.61269,3.54391],[115.61269,3.54391],[115.61294,3.54503],[115.61305,3.54564],[115.61277,3.54635],[115.61365,3.54738],[115.61341,3.54819],[115.61324,3.54885],[115.61332,3.54948],[115.61308,3.5502],[115.61276,3.55084],[115.61298,3.55182],[115.61299,3.55241],[115.61293,3.5532],[115.61279,3.55358],[115.61279,3.55358],[115.61207,3.55386],[115.61151,3.55424],[115.61151,3.55424],[115.61099,3.55492],[115.61099,3.55492],[115.61057,3.55533],[115.61057,3.55533],[115.61036,3.55565],[115.61024,3.55592],[115.61024,3.55592],[115.60971,3.5564],[115.60971,3.5564],[115.60968,3.5568],[115.60958,3.55719],[115.60949,3.55766],[115.60952,3.55806],[115.60937,3.5586],[115.60929,3.55919],[115.60909,3.55956],[115.60918,3.55977],[115.60918,3.56013],[115.60908,3.56066],[115.6085,3.56148],[115.6085,3.56148],[115.60822,3.56171],[115.60822,3.56171],[115.60822,3.56212],[115.60852,3.56263],[115.6082,3.56326],[115.60798,3.56366],[115.60813,3.5645],[115.60808,3.56489],[115.60774,3.56527],[115.60774,3.56527],[115.60698,3.56595],[115.60697,3.56595],[115.60691,3.56675],[115.60653,3.56738],[115.60653,3.56738],[115.60554,3.56792],[115.60554,3.56792],[115.60565,3.56858],[115.60555,3.56899],[115.60551,3.56983],[115.60506,3.57076],[115.60472,3.57137],[115.60485,3.57222],[115.60465,3.57313],[115.60459,3.57385],[115.60421,3.57489],[115.60455,3.57582],[115.60467,3.57651],[115.60473,3.57678],[115.60473,3.57678],[115.60384,3.57729],[115.60345,3.57737],[115.60286,3.57757],[115.60244,3.57752],[115.60227,3.57708],[115.60107,3.57685],[115.60068,3.57638],[115.60029,3.57609],[115.59971,3.5763],[115.59898,3.57654],[115.59879,3.5761],[115.59824,3.57597],[115.59712,3.57584],[115.59712,3.57584],[115.59699,3.57644],[115.59699,3.57644],[115.59629,3.57681],[115.59566,3.57661],[115.59477,3.57655],[115.59442,3.57654],[115.59404,3.57688],[115.59341,3.57688],[115.5928,3.57694],[115.5924,3.57689],[115.5924,3.57689],[115.59219,3.57742],[115.59193,3.57826],[115.59193,3.57826],[115.59159,3.57833],[115.5909,3.57837],[115.5905,3.57809],[115.59016,3.5781],[115.58936,3.57876],[115.58935,3.57876],[115.58967,3.57961],[115.58968,3.58021],[115.58976,3.58088],[115.58931,3.58173],[115.58899,3.58228],[115.58868,3.5828],[115.58892,3.58316],[115.58913,3.58365],[115.5891,3.58414],[115.5897,3.58478],[115.58986,3.58592],[115.58993,3.58628],[115.58993,3.58628],[115.58929,3.58673],[115.58866,3.58678],[115.58866,3.58678],[115.58862,3.58727],[115.5885,3.58748],[115.58846,3.58769],[115.5885,3.58797],[115.58843,3.58832],[115.58808,3.58875],[115.58808,3.58875],[115.58775,3.58902],[115.58743,3.58919],[115.58743,3.58919],[115.58714,3.58949],[115.58715,3.58977],[115.58702,3.59007],[115.58702,3.59007],[115.58662,3.59015],[115.58614,3.59035],[115.58587,3.59051],[115.58587,3.59051],[115.58537,3.59103],[115.58521,3.59137],[115.58485,3.59198],[115.58485,3.59198],[115.58462,3.59208],[115.58412,3.5925],[115.58412,3.5925],[115.58392,3.59288],[115.58392,3.59288],[115.58352,3.59298],[115.58303,3.59343],[115.58303,3.59343],[115.58281,3.59378],[115.58247,3.59424],[115.58247,3.59424],[115.58199,3.59452],[115.58199,3.59452],[115.58174,3.595],[115.58154,3.59532],[115.58154,3.59532],[115.58133,3.59544],[115.58133,3.59544],[115.58108,3.59574],[115.58108,3.59574],[115.58072,3.59609],[115.58072,3.59609],[115.58071,3.59659],[115.58062,3.59684],[115.58062,3.59731],[115.58062,3.59731],[115.58027,3.5976],[115.58026,3.5976],[115.58002,3.59808],[115.57978,3.5985],[115.57983,3.59884],[115.57996,3.59925],[115.57993,3.59978],[115.57967,3.60022],[115.57951,3.60065],[115.5794,3.60115],[115.57931,3.60158],[115.57943,3.60205],[115.57948,3.6024],[115.57932,3.60279],[115.5793,3.60324],[115.57941,3.60357],[115.57947,3.60401],[115.5794,3.60443],[115.5793,3.60484],[115.57931,3.60513],[115.57942,3.60553],[115.57936,3.6058],[115.57918,3.60612],[115.57918,3.60612],[115.57891,3.60631],[115.57891,3.60631],[115.57877,3.60668],[115.57878,3.60692],[115.57873,3.60724],[115.5787,3.60764],[115.57851,3.60785],[115.57855,3.6082],[115.57839,3.60838],[115.57839,3.6088],[115.57839,3.6088],[115.57792,3.60913],[115.57792,3.60913],[115.57783,3.60964],[115.57781,3.60985],[115.57762,3.61017],[115.57751,3.61052],[115.57754,3.61092],[115.57754,3.61092],[115.57669,3.61129],[115.57669,3.6113],[115.57739,3.61176],[115.57756,3.61212],[115.57789,3.61238],[115.57801,3.61289],[115.57823,3.61319],[115.57854,3.61352],[115.57857,3.61398],[115.57863,3.61436],[115.57871,3.61476],[115.57871,3.61513],[115.57888,3.61531],[115.5792,3.61568],[115.57956,3.6163],[115.57956,3.6163],[115.57915,3.61652],[115.57896,3.61654],[115.57896,3.61654],[115.57904,3.61693],[115.57916,3.61761],[115.57929,3.61805],[115.57943,3.61823],[115.57935,3.61862],[115.57918,3.61903],[115.57944,3.61933],[115.57971,3.61958],[115.58004,3.61982],[115.5799,3.62039],[115.57959,3.62087],[115.57943,3.62109],[115.57954,3.62151],[115.57949,3.62171],[115.57925,3.62213],[115.57905,3.62268],[115.57883,3.62299],[115.57858,3.62327],[115.5783,3.62377],[115.57809,3.62429],[115.57793,3.62446],[115.57762,3.62479],[115.57755,3.62514],[115.57758,3.62586],[115.57724,3.62623],[115.57709,3.62665],[115.57671,3.62707],[115.57662,3.62727],[115.57666,3.62767],[115.57675,3.62795],[115.57691,3.62818],[115.5769,3.6285],[115.57702,3.62869],[115.57727,3.62882],[115.57786,3.62879],[115.57837,3.62893],[115.57837,3.62893],[115.57875,3.62845],[115.57875,3.62845],[115.57932,3.62872],[115.57948,3.62877],[115.57955,3.62938],[115.57976,3.6295],[115.57992,3.62993],[115.58023,3.63015],[115.58028,3.63049],[115.58089,3.63083],[115.5809,3.6311],[115.58119,3.63147],[115.58153,3.63178],[115.58172,3.63187],[115.58167,3.63214],[115.58189,3.63265],[115.58195,3.63306],[115.58206,3.63334],[115.58228,3.634],[115.58212,3.63442],[115.58212,3.63443],[115.58183,3.63444],[115.58183,3.63444],[115.58168,3.63473],[115.58168,3.63473],[115.58136,3.63478],[115.58108,3.63499],[115.58108,3.63499],[115.58102,3.63526],[115.58102,3.63526],[115.58082,3.63545],[115.58082,3.63545],[115.58084,3.63567],[115.58081,3.63619],[115.58065,3.6364],[115.58076,3.63677],[115.58061,3.63745],[115.58061,3.63745],[115.58032,3.63761],[115.58032,3.63761],[115.58035,3.638],[115.58038,3.6383],[115.58052,3.63849],[115.58044,3.63873],[115.58025,3.63907],[115.58011,3.63924],[115.58011,3.63924],[115.57957,3.63962],[115.57905,3.64003],[115.57905,3.64003],[115.57911,3.64043],[115.57903,3.64076],[115.57875,3.64123],[115.57863,3.64164],[115.57844,3.64196],[115.57844,3.64196],[115.57814,3.64206],[115.57814,3.64206],[115.57761,3.64264],[115.57761,3.64264],[115.57724,3.64277],[115.57697,3.64274],[115.57662,3.64297],[115.57604,3.64299],[115.57569,3.64313],[115.57535,3.64306],[115.57534,3.64306],[115.57521,3.64337],[115.57506,3.64361],[115.57506,3.64361],[115.57461,3.64393],[115.5746,3.64393],[115.57445,3.64435],[115.57432,3.64473],[115.57432,3.64473],[115.57403,3.64492],[115.57403,3.64492],[115.57389,3.64523],[115.57389,3.64523],[115.57364,3.64521],[115.57339,3.64525],[115.57339,3.64525],[115.57327,3.64538],[115.57327,3.64538],[115.57304,3.64549],[115.57304,3.64549],[115.57292,3.64591],[115.5728,3.6461],[115.57265,3.6463],[115.57275,3.64657],[115.57295,3.64701],[115.57288,3.64754],[115.57291,3.64784],[115.57287,3.64816],[115.57245,3.64864],[115.57245,3.64864],[115.57221,3.64882],[115.57221,3.64882],[115.57234,3.64913],[115.57238,3.64952],[115.57258,3.65001],[115.5725,3.65031],[115.57244,3.65069],[115.57241,3.65119],[115.57242,3.65145],[115.57223,3.65171],[115.57213,3.65213],[115.57197,3.65231],[115.57215,3.65281],[115.57221,3.65301],[115.57234,3.65336],[115.57246,3.65357],[115.57245,3.65371],[115.57264,3.65397],[115.57283,3.65405],[115.57284,3.65428],[115.57279,3.65445],[115.57263,3.6548],[115.57271,3.6552],[115.57297,3.65563],[115.57292,3.65582],[115.57295,3.65587],[115.57306,3.65611],[115.5732,3.65639],[115.57331,3.65678],[115.57336,3.65708],[115.57321,3.65746],[115.57321,3.65746],[115.57301,3.65757],[115.57301,3.65757],[115.57291,3.65791],[115.57287,3.65818],[115.57283,3.6584],[115.57307,3.65868],[115.57317,3.65897],[115.57317,3.65922],[115.57342,3.65939],[115.57362,3.65975],[115.57355,3.66014],[115.57338,3.66042],[115.57323,3.66088],[115.57343,3.6612],[115.57346,3.66162],[115.57365,3.66198],[115.57364,3.6624],[115.57364,3.6627],[115.57365,3.66327],[115.57366,3.66392],[115.57363,3.66445],[115.57377,3.66496],[115.57388,3.66527],[115.57383,3.6657],[115.57379,3.66605],[115.57387,3.66646],[115.57396,3.66704],[115.5743,3.66739],[115.57456,3.66773],[115.57508,3.66797],[115.57533,3.66847],[115.5755,3.6689],[115.57582,3.66894],[115.5763,3.66929],[115.57606,3.66963],[115.57576,3.66996],[115.57571,3.67028],[115.57563,3.6706],[115.5828,3.67043],[115.59098,3.66953],[115.59739,3.6691],[115.59915,3.66853],[115.59948,3.66848],[115.5996,3.66844],[115.60114,3.66798],[115.60164,3.6681],[115.60174,3.66808],[115.60178,3.66813],[115.60308,3.66842],[115.60545,3.66894],[115.60719,3.66933],[115.60795,3.67025],[115.61054,3.67336],[115.61176,3.67487],[115.61323,3.67671],[115.61376,3.6799],[115.61428,3.68304],[115.61457,3.68477],[115.61501,3.68872],[115.61524,3.69081],[115.61686,3.69404],[115.61801,3.69634],[115.61927,3.69886],[115.6233,3.70356],[115.62867,3.70692],[115.63471,3.70692],[115.63546,3.706],[115.63655,3.70475],[115.63697,3.70426],[115.63814,3.70291],[115.63874,3.70222],[115.63941,3.69316],[115.64126,3.68891],[115.6438,3.68312],[115.64411,3.68242],[115.65111,3.6786],[115.65149,3.67839],[115.65619,3.6804],[115.65887,3.68309],[115.65944,3.68872],[115.65955,3.6898],[115.65982,3.69019],[115.66255,3.69414]]]]},"properties":{"kdprov":"65","kdkab":"04","kdkec":"010","kddesa":"017","kdsls":"2001","idsls":"65040100172001","nmprov":"KALIMANTAN UTARA","nmkab":"NUNUKAN","nmkec":"KRAYAN SELATAN","nmdesa":"LONG PUPUNG","nmsls":"HUTAN"}},{"type":"Feature","geometry":{"type":"MultiPolygon","coordinates":[[[[115.69916,3.61356],[115.69904,3.613],[115.69891,3.61235],[115.69888,3.61184],[115.69879,3.61027],[115.69902,3.60878],[115.69944,3.60753],[115.69924,3.6061],[115.69809,3.60355],[115.69748,3.60249],[115.69676,3.60224],[115.69537,3.60268],[115.69562,3.60298],[115.69584,3.60343],[115.69597,3.60375],[115.69619,3.60435],[115.69639,3.60475],[115.69646,3.60493],[115.69664,3.60504],[115.69669,3.6052],[115.69672,3.60537],[115.6966,3.60555],[115.69615,3.60591],[115.69583,3.60641],[115.69594,3.6068],[115.69653,3.60725],[115.6967,3.60761],[115.69677,3.60808],[115.69688,3.60853],[115.6968,3.60874],[115.69676,3.60927],[115.69679,3.60962],[115.69682,3.60984],[115.69661,3.60996],[115.69618,3.61026],[115.69585,3.61056],[115.69566,3.6109],[115.69564,3.61164],[115.6957,3.61216],[115.69609,3.61248],[115.69648,3.61294],[115.69694,3.61317],[115.69695,3.6134],[115.6971,3.61351],[115.69716,3.61362],[115.69707,3.61387],[115.69696,3.61443],[115.69695,3.615],[115.69692,3.61527],[115.69678,3.61576],[115.69667,3.61624],[115.69667,3.61646],[115.69671,3.61678],[115.69673,3.61716],[115.69686,3.6174],[115.6971,3.61763],[115.69728,3.61779],[115.69754,3.61764],[115.69822,3.61767],[115.69864,3.61779],[115.69879,3.61803],[115.69923,3.61797],[115.69971,3.61729],[115.69989,3.61672],[115.69986,3.61592],[115.69938,3.61464],[115.69916,3.61356]]]]},"properties":{"kdprov":"65","kdkab":"04","kdkec":"010","kddesa":"017","kdsls":"0001","idsls":"65040100170001","nmprov":"KALIMANTAN UTARA","nmkab":"NUNUKAN","nmkec":"KRAYAN SELATAN","nmdesa":"LONG PUPUNG","nmsls":"RT 001"}},{"type":"Feature","geometry":{"type":"MultiPolygon","coordinates":[[[[115.70711,3.62098],[115.70682,3.62094],[115.70668,3.621],[115.7065,3.62099],[115.70606,3.62036],[115.70567,3.61996],[115.70534,3.62],[115.70512,3.62034],[115.70462,3.62054],[115.70405,3.62056],[115.70335,3.62052],[115.70264,3.62029],[115.70179,3.62029],[115.70141,3.62036],[115.70108,3.62052],[115.70072,3.62022],[115.70057,3.61985],[115.7006,3.61912],[115.70059,3.61861],[115.70047,3.61821],[115.70059,3.61806],[115.70143,3.61814],[115.70154,3.61797],[115.70164,3.61764],[115.70199,3.61736],[115.70226,3.6172],[115.70241,3.61713],[115.70251,3.61713],[115.70266,3.61714],[115.70297,3.61714],[115.70314,3.61717],[115.70326,3.61718],[115.70339,3.61731],[115.70344,3.61753],[115.70344,3.61768],[115.70337,3.61787],[115.70324,3.61801],[115.70314,3.61827],[115.7032,3.61844],[115.70363,3.61847],[115.70386,3.61837],[115.70414,3.61816],[115.70427,3.61791],[115.70446,3.61781],[115.7046,3.61788],[115.70464,3.61803],[115.70464,3.6181],[115.70486,3.61831],[115.7051,3.61833],[115.70507,3.61817],[115.70526,3.61816],[115.70546,3.61821],[115.70551,3.61811],[115.7058,3.61711],[115.70578,3.6166],[115.70548,3.61624],[115.70454,3.6156],[115.70414,3.61539],[115.70379,3.61499],[115.7038,3.6147],[115.70394,3.61436],[115.70229,3.61423],[115.70144,3.61397],[115.70067,3.61377],[115.70041,3.61362],[115.69988,3.61365],[115.6994,3.61364],[115.6993,3.6136],[115.69916,3.61356],[115.69938,3.61464],[115.69986,3.61592],[115.69989,3.61672],[115.69971,3.61729],[115.69923,3.61797],[115.69879,3.61803],[115.69864,3.61779],[115.69822,3.61767],[115.69754,3.61764],[115.69728,3.61779],[115.69712,3.61788],[115.69632,3.61797],[115.69605,3.61824],[115.69557,3.61854],[115.69516,3.61889],[115.69477,3.61919],[115.69572,3.62],[115.69867,3.62129],[115.69998,3.62208],[115.70138,3.62249],[115.70256,3.6229],[115.70428,3.6224],[115.7054,3.62225],[115.70615,3.62212],[115.70684,3.62147],[115.70711,3.62098]]]]},"properties":{"kdprov":"65","kdkab":"04","kdkec":"010","kddesa":"010","kdsls":"0001","idsls":"65040100100001","nmprov":"KALIMANTAN UTARA","nmkab":"NUNUKAN","nmkec":"KRAYAN SELATAN","nmdesa":"PA URANG","nmsls":"RT 001"}},{"type":"Feature","geometry":{"type":"MultiPolygon","coordinates":[[[[115.70201,3.60927],[115.70197,3.60922],[115.70189,3.60909],[115.70171,3.60896],[115.70159,3.60911],[115.70139,3.60949],[115.70134,3.60967],[115.7018,3.61008],[115.70199,3.61014],[115.70217,3.61043],[115.70224,3.61064],[115.70244,3.61041],[115.70255,3.61009],[115.7024,3.60973],[115.70225,3.60955],[115.70201,3.60927]]]]},"properties":{"kdprov":"65","kdkab":"04","kdkec":"010","kddesa":"002","kdsls":"2001","idsls":"65040100022001","nmprov":"KALIMANTAN UTARA","nmkab":"NUNUKAN","nmkec":"KRAYAN SELATAN","nmdesa":"LIANG LUNUK","nmsls":"HUTAN"}},{"type":"Feature","geometry":{"type":"MultiPolygon","coordinates":[[[[115.74822,3.59602],[115.73835,3.58796],[115.73559,3.58403],[115.73265,3.58594],[115.73037,3.58651],[115.72723,3.58679],[115.7248,3.58565],[115.72252,3.58665],[115.72152,3.58808],[115.72109,3.58951],[115.71923,3.59108],[115.71695,3.59179],[115.71524,3.59393],[115.71509,3.59607],[115.71338,3.5975],[115.71338,3.59879],[115.71067,3.60064],[115.70952,3.60321],[115.70824,3.60464],[115.70824,3.60592],[115.70824,3.60764],[115.70624,3.60792],[115.70467,3.60807],[115.7041,3.60849],[115.70201,3.60927],[115.70225,3.60955],[115.7024,3.60973],[115.70255,3.61009],[115.70244,3.61041],[115.70224,3.61064],[115.70196,3.61084],[115.70182,3.61094],[115.70167,3.61132],[115.70153,3.61163],[115.70143,3.61179],[115.70136,3.61181],[115.70131,3.61196],[115.7012,3.61212],[115.70112,3.61222],[115.70125,3.61244],[115.70149,3.61263],[115.70152,3.61276],[115.70314,3.61303],[115.70724,3.61421],[115.7094,3.61623],[115.71049,3.61716],[115.71079,3.61805],[115.7115,3.62019],[115.71305,3.62216],[115.71365,3.62454],[115.71412,3.62614],[115.71507,3.62674],[115.71537,3.62763],[115.71585,3.62912],[115.7162,3.62965],[115.71668,3.63048],[115.71775,3.63203],[115.71894,3.63239],[115.72066,3.63227],[115.72221,3.63292],[115.72294,3.63352],[115.72537,3.63162],[115.72908,3.62748],[115.73808,3.61692],[115.74265,3.61235],[115.7455,3.60478],[115.74822,3.59602]]]]},"properties":{"kdprov":"65","kdkab":"04","kdkec":"010","kddesa":"008","kdsls":"2001","idsls":"65040100082001","nmprov":"KALIMANTAN UTARA","nmkab":"NUNUKAN","nmkec":"KRAYAN SELATAN","nmdesa":"LONG BUDUNG","nmsls":"HUTAN"}},{"type":"Feature","geometry":{"type":"MultiPolygon","coordinates":[[[[115.70029,3.61253],[115.70031,3.61224],[115.70031,3.61222],[115.70057,3.61218],[115.70079,3.61215],[115.70082,3.61212],[115.7008,3.61166],[115.70028,3.61171],[115.69972,3.61176],[115.69888,3.61184],[115.69891,3.61235],[115.69904,3.613],[115.69953,3.61279],[115.69977,3.61258],[115.69993,3.61253],[115.70029,3.61253]]]]},"properties":{"kdprov":"65","kdkab":"04","kdkec":"010","kddesa":"009","kdsls":"0001","idsls":"65040100090001","nmprov":"KALIMANTAN UTARA","nmkab":"NUNUKAN","nmkec":"KRAYAN SELATAN","nmdesa":"PA DALAN","nmsls":"RT 001"}},{"type":"Feature","geometry":{"type":"MultiPolygon","coordinates":[[[[115.75007,3.56586],[115.74937,3.56539],[115.74898,3.56506],[115.74876,3.56528],[115.74795,3.56573],[115.74626,3.5664],[115.74569,3.56604],[115.74534,3.56521],[115.74503,3.56464],[115.74453,3.56414],[115.74419,3.56409],[115.74348,3.56473],[115.74298,3.56499],[115.74189,3.56518],[115.74093,3.56573],[115.74051,3.56635],[115.74036,3.56685],[115.74065,3.56749],[115.7412,3.56866],[115.74134,3.56937],[115.74115,3.56992],[115.74053,3.56994],[115.73929,3.56994],[115.7386,3.57025],[115.73801,3.57058],[115.7381,3.57089],[115.73829,3.5712],[115.7386,3.57154],[115.7387,3.57182],[115.7387,3.5722],[115.73855,3.57268],[115.73846,3.57306],[115.73863,3.57334],[115.73877,3.57373],[115.73908,3.57453],[115.7392,3.57489],[115.73913,3.57508],[115.73905,3.57541],[115.7392,3.57565],[115.73955,3.5757],[115.73958,3.57599],[115.74017,3.57603],[115.74093,3.57629],[115.74101,3.57653],[115.74093,3.5771],[115.74084,3.57751],[115.7406,3.5776],[115.74032,3.5781],[115.74001,3.57877],[115.73993,3.57913],[115.74015,3.57955],[115.7417,3.57986],[115.74258,3.57986],[115.74334,3.57939],[115.74381,3.57882],[115.74386,3.57837],[115.74388,3.5777],[115.74374,3.57748],[115.74329,3.57737],[115.74305,3.57732],[115.74291,3.57684],[115.74317,3.57665],[115.74341,3.57639],[115.74393,3.57582],[115.74438,3.57508],[115.745,3.57413],[115.74522,3.57361],[115.7456,3.57308],[115.74591,3.57268],[115.74557,3.57146],[115.74543,3.57075],[115.74546,3.57023],[115.74572,3.56978],[115.74586,3.56956],[115.74602,3.56929],[115.74636,3.56902],[115.74663,3.5687],[115.74699,3.56859],[115.74752,3.5684],[115.74819,3.56807],[115.74925,3.56786],[115.74952,3.56701],[115.75007,3.56586]]]]},"properties":{"kdprov":"65","kdkab":"04","kdkec":"010","kddesa":"011","kdsls":"2001","idsls":"65040100112001","nmprov":"KALIMANTAN UTARA","nmkab":"NUNUKAN","nmkec":"KRAYAN SELATAN","nmdesa":"LONG BIRAR","nmsls":"HUTAN"}},{"type":"Feature","geometry":{"type":"MultiPolygon","coordinates":[[[[115.80565,3.55065],[115.80057,3.55243],[115.79543,3.55543],[115.79215,3.55857],[115.78986,3.56171],[115.78001,3.56414],[115.77399,3.56422],[115.77222,3.56291],[115.76919,3.56154],[115.76685,3.56137],[115.76302,3.56183],[115.76079,3.56171],[115.75851,3.56074],[115.75754,3.56023],[115.75694,3.56025],[115.75693,3.56025],[115.7572,3.56055],[115.75718,3.5609],[115.75708,3.56133],[115.75691,3.56142],[115.7566,3.56161],[115.75634,3.56165],[115.75611,3.56161],[115.75613,3.56263],[115.75548,3.5628],[115.75514,3.56185],[115.75496,3.5619],[115.75467,3.56208],[115.75422,3.56232],[115.75388,3.56242],[115.7534,3.5628],[115.75251,3.56387],[115.75104,3.56514],[115.75007,3.56586],[115.74952,3.56701],[115.74925,3.56786],[115.74819,3.56807],[115.74752,3.5684],[115.74699,3.56859],[115.74663,3.5687],[115.74636,3.56902],[115.74602,3.56929],[115.74586,3.56956],[115.74657,3.56979],[115.74992,3.57057],[115.75352,3.57129],[115.75679,3.57188],[115.78211,3.57609],[115.80848,3.58884],[115.81591,3.59389],[115.82429,3.60366],[115.82573,3.60055],[115.82645,3.59505],[115.82741,3.58859],[115.82301,3.58263],[115.82143,3.5825],[115.82014,3.58034],[115.81887,3.57775],[115.81823,3.57571],[115.81873,3.57283],[115.81644,3.57259],[115.8146,3.57173],[115.81321,3.57143],[115.81348,3.56268],[115.80853,3.55995],[115.80593,3.55385],[115.80565,3.55065]]]]},"properties":{"kdprov":"65","kdkab":"04","kdkec":"010","kddesa":"004","kdsls":"2001","idsls":"65040100042001","nmprov":"KALIMANTAN UTARA","nmkab":"NUNUKAN","nmkec":"KRAYAN SELATAN","nmdesa":"PA AMAI","nmsls":"HUTAN"}},{"type":"Feature","geometry":{"type":"MultiPolygon","coordinates":[[[[115.70567,3.61996],[115.70625,3.61933],[115.70805,3.61885],[115.70896,3.61824],[115.71036,3.61819],[115.71079,3.61805],[115.71049,3.61716],[115.7094,3.61623],[115.70724,3.61421],[115.70314,3.61303],[115.70152,3.61276],[115.70089,3.61266],[115.70029,3.61253],[115.69993,3.61253],[115.69977,3.61258],[115.69953,3.61279],[115.69904,3.613],[115.69916,3.61356],[115.6993,3.6136],[115.6994,3.61364],[115.69988,3.61365],[115.70041,3.61362],[115.70067,3.61377],[115.70144,3.61397],[115.70229,3.61423],[115.70394,3.61436],[115.7038,3.6147],[115.70379,3.61499],[115.70414,3.61539],[115.70454,3.6156],[115.70548,3.61624],[115.70578,3.6166],[115.7058,3.61711],[115.70551,3.61811],[115.70546,3.61821],[115.70526,3.61816],[115.70507,3.61817],[115.7051,3.61833],[115.70486,3.61831],[115.70464,3.6181],[115.70464,3.61803],[115.7046,3.61788],[115.70446,3.61781],[115.70427,3.61791],[115.70414,3.61816],[115.70386,3.61837],[115.70363,3.61847],[115.7032,3.61844],[115.70314,3.61827],[115.70324,3.61801],[115.70337,3.61787],[115.70344,3.61768],[115.70344,3.61753],[115.70339,3.61731],[115.70326,3.61718],[115.70314,3.61717],[115.70297,3.61714],[115.70266,3.61714],[115.70251,3.61713],[115.70241,3.61713],[115.70226,3.6172],[115.70199,3.61736],[115.70164,3.61764],[115.70154,3.61797],[115.70143,3.61814],[115.70059,3.61806],[115.70047,3.61821],[115.70059,3.61861],[115.7006,3.61912],[115.70057,3.61985],[115.70072,3.62022],[115.70108,3.62052],[115.70141,3.62036],[115.70179,3.62029],[115.70264,3.62029],[115.70335,3.62052],[115.70405,3.62056],[115.70462,3.62054],[115.70512,3.62034],[115.70534,3.62],[115.70567,3.61996]]]]},"properties":{"kdprov":"65","kdkab":"04","kdkec":"010","kddesa":"006","kdsls":"0001","idsls":"65040100060001","nmprov":"KALIMANTAN UTARA","nmkab":"NUNUKAN","nmkec":"KRAYAN SELATAN","nmdesa":"PA TERA","nmsls":"RT 001"}},{"type":"Feature","geometry":{"type":"MultiPolygon","coordinates":[[[[115.70152,3.61276],[115.70149,3.61263],[115.70125,3.61244],[115.70112,3.61222],[115.7012,3.61212],[115.70131,3.61196],[115.70136,3.61181],[115.70118,3.61163],[115.70114,3.61144],[115.70112,3.61122],[115.70081,3.6112],[115.70076,3.61099],[115.7002,3.61103],[115.70019,3.61138],[115.70024,3.6115],[115.70028,3.61171],[115.7008,3.61166],[115.70082,3.61212],[115.70079,3.61215],[115.70057,3.61218],[115.70031,3.61222],[115.70031,3.61224],[115.70029,3.61253],[115.70089,3.61266],[115.70152,3.61276]]]]},"properties":{"kdprov":"65","kdkab":"04","kdkec":"010","kddesa":"008","kdsls":"0001","idsls":"65040100080001","nmprov":"KALIMANTAN UTARA","nmkab":"NUNUKAN","nmkec":"KRAYAN SELATAN","nmdesa":"LONG BUDUNG","nmsls":"RT 001"}},{"type":"Feature","geometry":{"type":"MultiPolygon","coordinates":[[[[115.71063,3.65358],[115.71082,3.64604],[115.71168,3.64118],[115.71168,3.63827],[115.71168,3.63336],[115.71179,3.6313],[115.71208,3.62999],[115.71248,3.62947],[115.71248,3.6289],[115.71248,3.62839],[115.71208,3.62788],[115.71174,3.62742],[115.71134,3.62702],[115.71077,3.6265],[115.71031,3.62628],[115.71012,3.6256],[115.70946,3.62363],[115.70881,3.62262],[115.70788,3.6225],[115.7078,3.62237],[115.70789,3.6221],[115.70789,3.62181],[115.70769,3.62161],[115.70753,3.62146],[115.70744,3.62125],[115.70732,3.62111],[115.70711,3.62098],[115.70684,3.62147],[115.70615,3.62212],[115.7054,3.62225],[115.70428,3.6224],[115.70256,3.6229],[115.70138,3.62249],[115.69998,3.62208],[115.69867,3.62129],[115.69572,3.62],[115.69477,3.61919],[115.69447,3.61973],[115.69413,3.62039],[115.69365,3.62086],[115.69232,3.62143],[115.68356,3.62272],[115.68142,3.62581],[115.67928,3.632],[115.67904,3.6358],[115.67785,3.63699],[115.67333,3.64056],[115.67286,3.64627],[115.67,3.65151],[115.66667,3.65555],[115.66167,3.65746],[115.66167,3.66198],[115.66286,3.66579],[115.66286,3.67364],[115.66096,3.67673],[115.66072,3.68101],[115.66263,3.68506],[115.665,3.68839],[115.66572,3.69172],[115.66596,3.69482],[115.66524,3.69803],[115.66559,3.69853],[115.66634,3.69906],[115.67216,3.70313],[115.6722,3.70315],[115.6723,3.70323],[115.67278,3.70331],[115.67683,3.70398],[115.67831,3.70423],[115.68036,3.70457],[115.69177,3.70793],[115.69352,3.70844],[115.70251,3.69789],[115.70665,3.69161],[115.70985,3.67762],[115.71014,3.67316],[115.71063,3.65358]]]]},"properties":{"kdprov":"65","kdkab":"04","kdkec":"010","kddesa":"010","kdsls":"2001","idsls":"65040100102001","nmprov":"KALIMANTAN UTARA","nmkab":"NUNUKAN","nmkec":"KRAYAN SELATAN","nmdesa":"PA URANG","nmsls":"HUTAN"}},{"type":"Feature","geometry":{"type":"MultiPolygon","coordinates":[[[[115.80145,3.78054],[115.80155,3.77994],[115.80334,3.77486],[115.80513,3.77098],[115.80484,3.76709],[115.80604,3.7635],[115.80634,3.75871],[115.80677,3.75264],[115.80487,3.74585],[115.80309,3.74136],[115.80399,3.73478],[115.80379,3.73374],[115.80353,3.73241],[115.80249,3.72711],[115.80531,3.72545],[115.80766,3.7231],[115.80944,3.72133],[115.81101,3.71823],[115.81128,3.7178],[115.81391,3.71325],[115.81677,3.71206],[115.81844,3.70919],[115.81796,3.70632],[115.81701,3.70464],[115.81559,3.70272],[115.81011,3.70224],[115.80678,3.69912],[115.80424,3.69619],[115.80179,3.68978],[115.79894,3.68332],[115.80061,3.68069],[115.80133,3.67782],[115.80086,3.67159],[115.79991,3.66752],[115.8023,3.66298],[115.79897,3.65747],[115.79753,3.65602],[115.79741,3.65575],[115.79748,3.6556],[115.79969,3.65317],[115.80137,3.64766],[115.80376,3.64312],[115.80638,3.63953],[115.79128,3.63985],[115.77434,3.641],[115.75207,3.64309],[115.73284,3.64557],[115.72256,3.64785],[115.71063,3.65358],[115.71014,3.67316],[115.70985,3.67762],[115.70665,3.69161],[115.70251,3.69789],[115.69352,3.70844],[115.69509,3.7089],[115.70318,3.71128],[115.71325,3.71397],[115.71351,3.7141],[115.71701,3.71585],[115.72399,3.71934],[115.72426,3.71965],[115.72465,3.7201],[115.73272,3.72941],[115.73873,3.73877],[115.73876,3.73881],[115.73884,3.73891],[115.74455,3.74588],[115.7448,3.74619],[115.74578,3.74676],[115.74781,3.74795],[115.74855,3.74838],[115.75286,3.75089],[115.7551,3.75175],[115.75735,3.7526],[115.76695,3.75626],[115.76832,3.75732],[115.77015,3.75875],[115.77199,3.76018],[115.77299,3.76096],[115.77327,3.76253],[115.77352,3.76397],[115.7749,3.77174],[115.77501,3.77237],[115.77456,3.77815],[115.77434,3.7811],[115.77536,3.78314],[115.77638,3.78518],[115.77674,3.7859],[115.7771,3.78662],[115.77769,3.78781],[115.78072,3.79185],[115.78172,3.79318],[115.78172,3.80151],[115.78172,3.80179],[115.78172,3.8018],[115.78172,3.80202],[115.78172,3.80258],[115.78168,3.80285],[115.78098,3.80777],[115.78038,3.81198],[115.78021,3.81232],[115.77501,3.82272],[115.77408,3.82528],[115.77315,3.82784],[115.77284,3.82869],[115.77278,3.82885],[115.77276,3.82891],[115.77273,3.82897],[115.77232,3.8301],[115.77367,3.83547],[115.77529,3.83742],[115.77614,3.83844],[115.77699,3.83947],[115.77702,3.8395],[115.78033,3.84026],[115.78365,3.84103],[115.78575,3.84151],[115.78624,3.84188],[115.79129,3.84567],[115.7938,3.84755],[115.79674,3.84932],[115.79687,3.8494],[115.79701,3.84948],[115.79716,3.84957],[115.79742,3.8496],[115.79851,3.84972],[115.79828,3.84351],[115.79749,3.83911],[115.79749,3.83612],[115.79828,3.83148],[115.79907,3.82672],[115.79852,3.8233],[115.79889,3.8183],[115.79828,3.81189],[115.79871,3.80792],[115.79993,3.80408],[115.79993,3.79791],[115.80009,3.79282],[115.79996,3.79249],[115.79945,3.79011],[115.80065,3.78563],[115.80145,3.78054]]]]},"properties":{"kdprov":"65","kdkab":"04","kdkec":"010","kddesa":"009","kdsls":"2001","idsls":"65040100092001","nmprov":"KALIMANTAN UTARA","nmkab":"NUNUKAN","nmkec":"KRAYAN SELATAN","nmdesa":"PA DALAN","nmsls":"HUTAN"}}]}