{"type":"FeatureCollection","features":[{"type":"Feature","geometry":{"type":"MultiPolygon","coordinates":[[[[115.84025,3.60047],[115.84034,3.60037],[115.83894,3.59916],[115.83729,3.5976],[115.83659,3.59701],[115.83659,3.59664],[115.83677,3.59635],[115.83801,3.59636],[115.83955,3.59615],[115.84003,3.5963],[115.84065,3.59728],[115.84093,3.59717],[115.84204,3.59845],[115.84242,3.59835],[115.84402,3.59288],[115.84438,3.58996],[115.84474,3.58211],[115.84391,3.57509],[115.85268,3.54386],[115.86458,3.53122],[115.86621,3.52691],[115.86666,3.52215],[115.86562,3.51843],[115.86294,3.51501],[115.85803,3.50847],[115.85967,3.4985],[115.86398,3.44952],[115.85846,3.44438],[115.85199,3.43296],[115.84228,3.4202],[115.83886,3.41594],[115.83661,3.41594],[115.82876,3.41404],[115.82352,3.41023],[115.82033,3.40576],[115.81995,3.40524],[115.81948,3.40214],[115.81805,3.39738],[115.81614,3.39429],[115.81115,3.39096],[115.80686,3.38882],[115.79901,3.38787],[115.78902,3.3881],[115.7814,3.38644],[115.77617,3.38454],[115.77308,3.38192],[115.76832,3.37454],[115.7638,3.37073],[115.75809,3.36598],[115.75285,3.36479],[115.74524,3.3636],[115.73382,3.36169],[115.7281,3.3605],[115.72001,3.36003],[115.71502,3.35836],[115.71169,3.35384],[115.70907,3.34932],[115.70812,3.34004],[115.70788,3.32267],[115.70681,3.31696],[115.70502,3.31196],[115.70003,3.30875],[115.69539,3.30482],[115.68789,3.30232],[115.67754,3.30125],[115.66933,3.30268],[115.66398,3.30661],[115.65684,3.30982],[115.64649,3.31446],[115.63364,3.32231],[115.61865,3.33231],[115.60901,3.33909],[115.60223,3.35015],[115.58831,3.36764],[115.57867,3.38263],[115.57546,3.39048],[115.57368,3.39691],[115.5673,3.40664],[115.5669,3.40726],[115.56961,3.40854],[115.57089,3.41011],[115.57146,3.41283],[115.57218,3.41525],[115.57332,3.41583],[115.57561,3.41668],[115.57789,3.41939],[115.57846,3.42311],[115.57889,3.42982],[115.57775,3.4331],[115.57803,3.43553],[115.58074,3.43824],[115.58274,3.44038],[115.58246,3.44509],[115.58403,3.44866],[115.58503,3.4498],[115.58917,3.44952],[115.59231,3.44838],[115.59588,3.44666],[115.59702,3.44338],[115.59859,3.44209],[115.60045,3.44295],[115.60145,3.44566],[115.60302,3.44738],[115.60487,3.44766],[115.6073,3.44766],[115.61015,3.44623],[115.61173,3.44324],[115.61272,3.44067],[115.61415,3.43724],[115.61472,3.43424],[115.61458,3.4301],[115.61372,3.42896],[115.61472,3.42668],[115.61601,3.42482],[115.61672,3.42268],[115.61729,3.42039],[115.62129,3.4184],[115.62129,3.41568],[115.62101,3.41211],[115.62229,3.40997],[115.62486,3.40912],[115.62843,3.4104],[115.633,3.41311],[115.63857,3.41868],[115.64042,3.42054],[115.64099,3.42311],[115.64171,3.42482],[115.64428,3.42511],[115.64727,3.42753],[115.64884,3.42896],[115.64956,3.43153],[115.64913,3.43481],[115.64899,3.43653],[115.64942,3.43767],[115.65213,3.43681],[115.65456,3.43753],[115.65613,3.43853],[115.65696,3.44021],[115.66624,3.43486],[115.67659,3.43058],[115.68837,3.42879],[115.70157,3.42701],[115.72549,3.42665],[115.74619,3.42665],[115.76403,3.42701],[115.77224,3.42808],[115.78367,3.43093],[115.78673,3.43216],[115.79259,3.4345],[115.80187,3.44057],[115.80758,3.44485],[115.81543,3.45306],[115.8165,3.46234],[115.81793,3.47484],[115.81722,3.48269],[115.81507,3.48697],[115.81189,3.49225],[115.81479,3.49278],[115.81439,3.50185],[115.81206,3.50853],[115.81119,3.51289],[115.8109,3.51579],[115.80974,3.5184],[115.80829,3.51986],[115.80829,3.52305],[115.81031,3.52654],[115.8103,3.52712],[115.80943,3.53061],[115.80827,3.53351],[115.80856,3.53729],[115.81144,3.54049],[115.81318,3.54223],[115.81173,3.54485],[115.80912,3.54717],[115.80565,3.55065],[115.80593,3.55385],[115.80853,3.55995],[115.81348,3.56268],[115.81321,3.57143],[115.8146,3.57173],[115.81644,3.57259],[115.81873,3.57283],[115.81823,3.57571],[115.81887,3.57775],[115.82014,3.58034],[115.82143,3.5825],[115.82301,3.58263],[115.82741,3.58859],[115.82645,3.59505],[115.82573,3.60055],[115.82926,3.60105],[115.83426,3.60112],[115.83619,3.60118],[115.83749,3.60114],[115.83794,3.6011],[115.83895,3.60127],[115.83962,3.60114],[115.84006,3.6007],[115.84025,3.60047]]]]},"properties":{"kdprov":"65","kdkab":"04","kdkec":"011","kddesa":"001","kdsls":"2001","idsls":"65040110012001","nmprov":"KALIMANTAN UTARA","nmkab":"NUNUKAN","nmkec":"KRAYAN TENGAH","nmdesa":"TANG PAYE","nmsls":"HUTAN"}},{"type":"Feature","geometry":{"type":"MultiPolygon","coordinates":[[[[115.9402,3.60178],[115.94246,3.60008],[115.94671,3.60077],[115.95211,3.60178],[115.95218,3.60062],[115.95245,3.59643],[115.95678,3.58633],[115.95843,3.58026],[115.95894,3.57839],[115.9625,3.57341],[115.96436,3.57081],[115.96627,3.5682],[115.96811,3.56569],[115.96813,3.56566],[115.97186,3.56058],[115.97768,3.55264],[115.97756,3.55226],[115.97665,3.54954],[115.97638,3.54873],[115.97638,3.54873],[115.97407,3.54181],[115.97127,3.53284],[115.97011,3.52914],[115.96968,3.52774],[115.96806,3.52256],[115.96436,3.51887],[115.96231,3.51682],[115.96083,3.51534],[115.95477,3.51412],[115.95467,3.51411],[115.95459,3.51409],[115.95513,3.51284],[115.95725,3.50541],[115.95939,3.50089],[115.9601,3.49899],[115.95963,3.49685],[115.95701,3.49351],[115.95558,3.48995],[115.9532,3.48447],[115.95154,3.48186],[115.94654,3.47805],[115.94035,3.47424],[115.93575,3.47194],[115.93512,3.47162],[115.93155,3.47091],[115.9275,3.47115],[115.92322,3.47162],[115.91941,3.46996],[115.91656,3.46782],[115.91418,3.46496],[115.91251,3.46282],[115.90966,3.46211],[115.90561,3.45973],[115.90252,3.45711],[115.89966,3.45283],[115.89514,3.44474],[115.89015,3.43855],[115.88634,3.43355],[115.88444,3.42975],[115.88087,3.42332],[115.87849,3.41832],[115.86683,3.41071],[115.85969,3.41166],[115.85112,3.4138],[115.84208,3.41594],[115.83886,3.41594],[115.84228,3.4202],[115.85199,3.43296],[115.85846,3.44438],[115.86398,3.44952],[115.85967,3.4985],[115.85803,3.50847],[115.86294,3.51501],[115.86562,3.51843],[115.86666,3.52215],[115.86621,3.52691],[115.86458,3.53122],[115.85268,3.54386],[115.84391,3.57509],[115.84474,3.58211],[115.84438,3.58996],[115.84402,3.59288],[115.84242,3.59835],[115.84264,3.59867],[115.84275,3.59882],[115.84365,3.59922],[115.84403,3.59967],[115.84516,3.59993],[115.84596,3.60012],[115.84977,3.60134],[115.85141,3.60482],[115.85358,3.60499],[115.85472,3.60542],[115.85708,3.60513],[115.85972,3.60685],[115.86264,3.60899],[115.8645,3.60906],[115.86579,3.60892],[115.86786,3.6102],[115.86878,3.6117],[115.86878,3.61227],[115.86957,3.61134],[115.87035,3.61127],[115.87085,3.61227],[115.87121,3.61277],[115.87035,3.61427],[115.87021,3.61498],[115.87171,3.61606],[115.87464,3.61691],[115.87628,3.61698],[115.87921,3.6167],[115.88199,3.6157],[115.8822,3.6137],[115.88292,3.6117],[115.88413,3.61049],[115.88499,3.61077],[115.88556,3.61199],[115.88527,3.61356],[115.8877,3.61256],[115.89006,3.6097],[115.8917,3.60735],[115.89313,3.60549],[115.89462,3.60392],[115.89698,3.60156],[115.90233,3.59935],[115.9059,3.59778],[115.91882,3.59878],[115.92239,3.59914],[115.92361,3.60102],[115.92542,3.60117],[115.9313,3.60223],[115.93628,3.60253],[115.9402,3.60178]]]]},"properties":{"kdprov":"65","kdkab":"04","kdkec":"011","kddesa":"003","kdsls":"2001","idsls":"65040110032001","nmprov":"KALIMANTAN UTARA","nmkab":"NUNUKAN","nmkec":"KRAYAN TENGAH","nmdesa":"LONG RUNGAN","nmsls":"HUTAN"}},{"type":"Feature","geometry":{"type":"MultiPolygon","coordinates":[[[[115.84242,3.59835],[115.84204,3.59845],[115.84093,3.59717],[115.84065,3.59728],[115.84003,3.5963],[115.83955,3.59615],[115.83801,3.59636],[115.83677,3.59635],[115.83659,3.59664],[115.83659,3.59701],[115.83729,3.5976],[115.83894,3.59916],[115.84034,3.60037],[115.84055,3.60012],[115.84088,3.59986],[115.84227,3.59907],[115.84231,3.59905],[115.84264,3.59893],[115.84275,3.59882],[115.84264,3.59867],[115.84242,3.59835]]]]},"properties":{"kdprov":"65","kdkab":"04","kdkec":"011","kddesa":"001","kdsls":"0001","idsls":"65040110010001","nmprov":"KALIMANTAN UTARA","nmkab":"NUNUKAN","nmkec":"KRAYAN TENGAH","nmdesa":"TANG PAYE","nmsls":"RT 001"}},{"type":"Feature","geometry":{"type":"MultiPolygon","coordinates":[[[[115.94234,3.6318],[115.95028,3.62603],[115.95499,3.62131],[115.95557,3.62074],[115.95605,3.62025],[115.95582,3.61944],[115.95497,3.61644],[115.95461,3.6152],[115.95316,3.61157],[115.95284,3.61078],[115.95172,3.60798],[115.95172,3.60798],[115.95194,3.6045],[115.95194,3.6045],[115.95211,3.60178],[115.94671,3.60077],[115.94246,3.60008],[115.9402,3.60178],[115.93628,3.60253],[115.9313,3.60223],[115.92542,3.60117],[115.92361,3.60102],[115.92239,3.59914],[115.91882,3.59878],[115.9059,3.59778],[115.90233,3.59935],[115.89698,3.60156],[115.89462,3.60392],[115.89313,3.60549],[115.8917,3.60735],[115.89006,3.6097],[115.8877,3.61256],[115.88527,3.61356],[115.88556,3.61199],[115.88499,3.61077],[115.88413,3.61049],[115.88292,3.6117],[115.8822,3.6137],[115.88199,3.6157],[115.87921,3.6167],[115.87628,3.61698],[115.87464,3.61691],[115.87171,3.61606],[115.87021,3.61498],[115.87035,3.61427],[115.87121,3.61277],[115.87085,3.61227],[115.87035,3.61127],[115.86957,3.61134],[115.86878,3.61227],[115.86878,3.6117],[115.86786,3.6102],[115.86579,3.60892],[115.8645,3.60906],[115.86264,3.60899],[115.85972,3.60685],[115.85708,3.60513],[115.85472,3.60542],[115.85358,3.60499],[115.85141,3.60482],[115.84977,3.60134],[115.84596,3.60012],[115.84516,3.59993],[115.84478,3.60082],[115.84513,3.60207],[115.84478,3.60301],[115.84447,3.60374],[115.84407,3.60394],[115.84382,3.60342],[115.84351,3.60255],[115.84159,3.60249],[115.8401,3.60167],[115.84032,3.60125],[115.84041,3.60071],[115.84025,3.60047],[115.84006,3.6007],[115.83962,3.60114],[115.83895,3.60127],[115.83794,3.6011],[115.83749,3.60114],[115.83619,3.60118],[115.83426,3.60112],[115.82926,3.60105],[115.82573,3.60055],[115.82429,3.60366],[115.82476,3.60749],[115.82404,3.61108],[115.82285,3.61371],[115.82237,3.61706],[115.8207,3.61873],[115.8176,3.6216],[115.81569,3.62351],[115.81545,3.6283],[115.83046,3.62676],[115.8366,3.62624],[115.83903,3.62604],[115.85699,3.62664],[115.87817,3.62723],[115.89874,3.63364],[115.91928,3.63947],[115.93332,3.64263],[115.93448,3.63991],[115.93548,3.63758],[115.93559,3.63748],[115.93686,3.63641],[115.93691,3.63638],[115.94234,3.6318]]]]},"properties":{"kdprov":"65","kdkab":"04","kdkec":"011","kddesa":"002","kdsls":"2001","idsls":"65040110022001","nmprov":"KALIMANTAN UTARA","nmkab":"NUNUKAN","nmkec":"KRAYAN TENGAH","nmdesa":"LONG KELUPAN","nmsls":"HUTAN"}},{"type":"Feature","geometry":{"type":"MultiPolygon","coordinates":[[[[115.84516,3.59993],[115.84403,3.59967],[115.84325,3.6001],[115.84327,3.60012],[115.84345,3.60027],[115.84293,3.60068],[115.84314,3.60129],[115.84335,3.6021],[115.84269,3.60233],[115.84219,3.60234],[115.84194,3.60129],[115.84157,3.60061],[115.84132,3.60073],[115.8412,3.60067],[115.84088,3.60047],[115.84055,3.60012],[115.84034,3.60037],[115.84025,3.60047],[115.84041,3.60071],[115.84032,3.60125],[115.8401,3.60167],[115.84159,3.60249],[115.84351,3.60255],[115.84382,3.60342],[115.84407,3.60394],[115.84447,3.60374],[115.84478,3.60301],[115.84513,3.60207],[115.84478,3.60082],[115.84516,3.59993]]]]},"properties":{"kdprov":"65","kdkab":"04","kdkec":"011","kddesa":"002","kdsls":"0001","idsls":"65040110020001","nmprov":"KALIMANTAN UTARA","nmkab":"NUNUKAN","nmkec":"KRAYAN TENGAH","nmdesa":"LONG KELUPAN","nmsls":"RT 001"}},{"type":"Feature","geometry":{"type":"MultiPolygon","coordinates":[[[[115.84403,3.59967],[115.84365,3.59922],[115.84275,3.59882],[115.84264,3.59893],[115.84231,3.59905],[115.84227,3.59907],[115.84088,3.59986],[115.84055,3.60012],[115.84088,3.60047],[115.8412,3.60067],[115.84132,3.60073],[115.84157,3.60061],[115.84194,3.60129],[115.84219,3.60234],[115.84269,3.60233],[115.84335,3.6021],[115.84314,3.60129],[115.84293,3.60068],[115.84345,3.60027],[115.84327,3.60012],[115.84325,3.6001],[115.84403,3.59967]]]]},"properties":{"kdprov":"65","kdkab":"04","kdkec":"011","kddesa":"003","kdsls":"0001","idsls":"65040110030001","nmprov":"KALIMANTAN UTARA","nmkab":"NUNUKAN","nmkec":"KRAYAN TENGAH","nmdesa":"LONG RUNGAN","nmsls":"RT 001"}},{"type":"Feature","geometry":{"type":"MultiPolygon","coordinates":[[[[115.94038,3.7921],[115.94676,3.78571],[115.94759,3.78488],[115.92253,3.78235],[115.90788,3.78047],[115.89015,3.78058],[115.87445,3.78047],[115.85815,3.77963],[115.85489,3.77867],[115.85432,3.7785],[115.85292,3.77809],[115.85014,3.77554],[115.84172,3.77374],[115.82673,3.77041],[115.80972,3.77113],[115.80513,3.77098],[115.80334,3.77486],[115.80155,3.77994],[115.80145,3.78054],[115.82491,3.77988],[115.83439,3.78239],[115.84892,3.78646],[115.84968,3.78684],[115.85079,3.78667],[115.85112,3.78656],[115.8525,3.78732],[115.85304,3.78723],[115.85309,3.78722],[115.85462,3.7876],[115.86116,3.78973],[115.88486,3.7923],[115.90037,3.7942],[115.91293,3.79578],[115.9186,3.79649],[115.92081,3.79899],[115.9237,3.803],[115.92682,3.79818],[115.93369,3.7951],[115.93372,3.79509],[115.94038,3.7921]]]]},"properties":{"kdprov":"65","kdkab":"04","kdkec":"011","kddesa":"005","kdsls":"2001","idsls":"65040110052001","nmprov":"KALIMANTAN UTARA","nmkab":"NUNUKAN","nmkec":"KRAYAN TENGAH","nmdesa":"PA YALAU","nmsls":"HUTAN"}},{"type":"Feature","geometry":{"type":"MultiPolygon","coordinates":[[[[115.85017,3.7944],[115.84946,3.79435],[115.84865,3.79383],[115.84803,3.79315],[115.84763,3.79245],[115.84734,3.79195],[115.84696,3.79116],[115.84678,3.79074],[115.84654,3.79033],[115.84647,3.79015],[115.84746,3.78925],[115.84812,3.78844],[115.8485,3.78805],[115.85009,3.78775],[115.84982,3.78747],[115.84967,3.78738],[115.84967,3.78716],[115.84968,3.78684],[115.84892,3.78646],[115.83439,3.78239],[115.82491,3.77988],[115.80145,3.78054],[115.80065,3.78563],[115.79945,3.79011],[115.79996,3.79249],[115.80009,3.79282],[115.79993,3.79791],[115.79993,3.80408],[115.79871,3.80792],[115.79828,3.81189],[115.79889,3.8183],[115.79852,3.8233],[115.79907,3.82672],[115.79828,3.83148],[115.79749,3.83612],[115.79749,3.83911],[115.79828,3.84351],[115.79851,3.84972],[115.79855,3.84972],[115.8032,3.85024],[115.80567,3.84969],[115.80872,3.84901],[115.80924,3.8489],[115.80986,3.84905],[115.80992,3.84907],[115.81009,3.84911],[115.81353,3.84997],[115.81697,3.85083],[115.81998,3.85158],[115.82178,3.85229],[115.82365,3.85302],[115.83148,3.85608],[115.83542,3.85762],[115.84348,3.86299],[115.85073,3.87486],[115.85086,3.87508],[115.85117,3.87564],[115.85533,3.88312],[115.85619,3.88467],[115.85754,3.88709],[115.85758,3.88716],[115.8587,3.88882],[115.8587,3.88883],[115.86226,3.8941],[115.86817,3.90285],[115.86872,3.90368],[115.8757,3.91401],[115.88155,3.9223],[115.88289,3.9242],[115.88332,3.92481],[115.88373,3.92539],[115.88376,3.92542],[115.88832,3.92999],[115.89315,3.93482],[115.90181,3.93686],[115.90399,3.93737],[115.90496,3.93787],[115.9054,3.93825],[115.90558,3.93843],[115.90648,3.93919],[115.90927,3.94154],[115.91003,3.94409],[115.91062,3.94606],[115.9111,3.94766],[115.91128,3.94825],[115.91182,3.95527],[115.91195,3.95697],[115.91253,3.95772],[115.91261,3.95782],[115.91418,3.95984],[115.91653,3.958],[115.91805,3.95572],[115.91881,3.95495],[115.92148,3.95495],[115.92167,3.95286],[115.92205,3.95039],[115.92281,3.94696],[115.92262,3.94582],[115.92071,3.94506],[115.91672,3.94429],[115.91424,3.94182],[115.91272,3.93801],[115.91272,3.93611],[115.9112,3.93459],[115.9091,3.93097],[115.9091,3.92507],[115.90891,3.92259],[115.90568,3.9224],[115.90301,3.92088],[115.90168,3.91841],[115.90358,3.91574],[115.90434,3.91365],[115.90073,3.91155],[115.90111,3.90813],[115.89711,3.90641],[115.89464,3.90451],[115.89521,3.90051],[115.89502,3.89709],[115.89197,3.89423],[115.89045,3.89023],[115.89045,3.88395],[115.89064,3.87995],[115.88721,3.87557],[115.88531,3.8731],[115.8815,3.86853],[115.88131,3.86739],[115.8815,3.86453],[115.88017,3.86415],[115.87807,3.86472],[115.87922,3.86073],[115.87903,3.85863],[115.87674,3.85863],[115.87503,3.8573],[115.87541,3.8533],[115.87674,3.84835],[115.87334,3.84183],[115.87417,3.83993],[115.87399,3.83821],[115.87322,3.83684],[115.8715,3.83612],[115.87084,3.8338],[115.86918,3.83357],[115.86918,3.83226],[115.86989,3.82988],[115.86995,3.82768],[115.86858,3.82571],[115.86793,3.82637],[115.86596,3.82631],[115.86388,3.82452],[115.86042,3.82055],[115.85916,3.81986],[115.85836,3.81917],[115.85739,3.81792],[115.8563,3.81792],[115.85613,3.81837],[115.85505,3.81866],[115.85459,3.81786],[115.85459,3.81678],[115.85402,3.81632],[115.85282,3.81706],[115.85259,3.8186],[115.85099,3.81849],[115.85014,3.81752],[115.84985,3.81592],[115.84945,3.81512],[115.84905,3.81432],[115.84979,3.81335],[115.84968,3.81204],[115.849,3.81084],[115.8478,3.81078],[115.84625,3.81169],[115.84494,3.81284],[115.84386,3.81209],[115.84403,3.81032],[115.84551,3.81027],[115.84705,3.80941],[115.84837,3.80872],[115.84814,3.80724],[115.84762,3.80621],[115.8478,3.80541],[115.849,3.80495],[115.85077,3.80313],[115.85065,3.80164],[115.85019,3.80056],[115.84871,3.80056],[115.84745,3.79982],[115.84751,3.79902],[115.84934,3.79782],[115.85077,3.79627],[115.85017,3.7944]]]]},"properties":{"kdprov":"65","kdkab":"04","kdkec":"011","kddesa":"009","kdsls":"2001","idsls":"65040110092001","nmprov":"KALIMANTAN UTARA","nmkab":"NUNUKAN","nmkec":"KRAYAN TENGAH","nmdesa":"LONG RIAN","nmsls":"HUTAN"}},{"type":"Feature","geometry":{"type":"MultiPolygon","coordinates":[[[[115.85349,3.77165],[115.85342,3.7716],[115.8531,3.77134],[115.85326,3.77074],[115.85326,3.77048],[115.85336,3.77019],[115.85345,3.76982],[115.85341,3.76956],[115.85311,3.76881],[115.85319,3.76862],[115.85346,3.76798],[115.85343,3.76733],[115.85314,3.76649],[115.85329,3.76554],[115.85394,3.76521],[115.85596,3.7648],[115.85708,3.7617],[115.85711,3.76162],[115.85795,3.7557],[115.8564,3.74832],[115.85379,3.73773],[115.85412,3.72842],[115.83407,3.73101],[115.81875,3.73101],[115.80249,3.72711],[115.80353,3.73241],[115.80379,3.73374],[115.80399,3.73478],[115.80309,3.74136],[115.80487,3.74585],[115.80677,3.75264],[115.80634,3.75871],[115.80604,3.7635],[115.80484,3.76709],[115.80513,3.77098],[115.80972,3.77113],[115.82673,3.77041],[115.84172,3.77374],[115.85014,3.77554],[115.85292,3.77809],[115.85432,3.7785],[115.8542,3.77827],[115.85363,3.77705],[115.8528,3.77487],[115.85219,3.77373],[115.85209,3.77299],[115.85238,3.77256],[115.85308,3.77198],[115.85349,3.77165]]]]},"properties":{"kdprov":"65","kdkab":"04","kdkec":"011","kddesa":"006","kdsls":"2001","idsls":"65040110062001","nmprov":"KALIMANTAN UTARA","nmkab":"NUNUKAN","nmkec":"KRAYAN TENGAH","nmdesa":"LONG MUTAN","nmsls":"HUTAN"}},{"type":"Feature","geometry":{"type":"MultiPolygon","coordinates":[[[[115.92502,3.66464],[115.92971,3.65743],[115.93173,3.65449],[115.93246,3.65342],[115.93368,3.65165],[115.93342,3.64523],[115.93342,3.64521],[115.93332,3.64263],[115.91928,3.63947],[115.89874,3.63364],[115.87817,3.62723],[115.85699,3.62664],[115.83903,3.62604],[115.8366,3.62624],[115.8376,3.62792],[115.83879,3.62873],[115.83922,3.62954],[115.83979,3.63087],[115.84145,3.63297],[115.8425,3.63478],[115.84345,3.63744],[115.84345,3.63854],[115.84464,3.64187],[115.84402,3.64315],[115.84416,3.64582],[115.84297,3.64739],[115.84278,3.6491],[115.84302,3.65005],[115.84302,3.65086],[115.84217,3.65148],[115.84174,3.65315],[115.84112,3.65419],[115.84121,3.65505],[115.84212,3.65771],[115.84331,3.65938],[115.84416,3.66085],[115.84402,3.66195],[115.84293,3.66376],[115.84207,3.66461],[115.84069,3.66447],[115.83993,3.66471],[115.83888,3.66509],[115.83898,3.66566],[115.83988,3.66618],[115.84136,3.66723],[115.84136,3.66833],[115.84045,3.67013],[115.84031,3.67113],[115.84212,3.67142],[115.8434,3.6717],[115.84378,3.67266],[115.84364,3.67342],[115.84345,3.6747],[115.84435,3.67537],[115.84464,3.67589],[115.84507,3.67751],[115.84535,3.67899],[115.84535,3.68141],[115.84535,3.68265],[115.84892,3.68479],[115.85007,3.68765],[115.84959,3.68965],[115.85054,3.69131],[115.85159,3.69521],[115.85178,3.70007],[115.85121,3.70311],[115.84892,3.70497],[115.84847,3.70545],[115.84833,3.70635],[115.84836,3.70705],[115.84853,3.70747],[115.849,3.70765],[115.84976,3.70792],[115.85027,3.70841],[115.85025,3.70892],[115.84976,3.71037],[115.84968,3.71069],[115.84958,3.71106],[115.85007,3.71217],[115.85156,3.71317],[115.85242,3.71367],[115.85331,3.71442],[115.85362,3.71527],[115.85315,3.7165],[115.85215,3.71724],[115.85107,3.71744],[115.85045,3.71761],[115.84933,3.71775],[115.84584,3.72009],[115.84598,3.72055],[115.84598,3.72116],[115.8459,3.72167],[115.84751,3.72245],[115.85494,3.72292],[115.85584,3.72298],[115.85667,3.72334],[115.85816,3.72375],[115.85845,3.72494],[115.85899,3.72625],[115.8595,3.72759],[115.86143,3.72774],[115.86991,3.72848],[115.88448,3.72655],[115.9175,3.71703],[115.9216,3.71514],[115.92141,3.71445],[115.92055,3.71272],[115.91744,3.70651],[115.91506,3.69963],[115.91506,3.69962],[115.91419,3.69713],[115.91353,3.69494],[115.9132,3.69383],[115.91246,3.69136],[115.91202,3.68991],[115.91347,3.68436],[115.91419,3.68161],[115.91678,3.67902],[115.92033,3.67547],[115.92255,3.67035],[115.92255,3.67034],[115.92502,3.66464]]]]},"properties":{"kdprov":"65","kdkab":"04","kdkec":"011","kddesa":"007","kdsls":"2001","idsls":"65040110072001","nmprov":"KALIMANTAN UTARA","nmkab":"NUNUKAN","nmkec":"KRAYAN TENGAH","nmdesa":"TANG BADUI","nmsls":"HUTAN"}},{"type":"Feature","geometry":{"type":"MultiPolygon","coordinates":[[[[115.95858,3.95613],[115.96095,3.95228],[115.96297,3.94355],[115.96431,3.93482],[115.96767,3.93079],[115.9717,3.93147],[115.97841,3.93012],[115.97841,3.93012],[115.97948,3.92844],[115.9816,3.9251],[115.98297,3.92296],[115.98421,3.91311],[115.98602,3.89969],[115.98647,3.89501],[115.97845,3.8888],[115.96985,3.88202],[115.96538,3.87792],[115.96443,3.87704],[115.95327,3.8686],[115.94588,3.86121],[115.94015,3.85563],[115.93759,3.85277],[115.93533,3.85307],[115.93307,3.85322],[115.93141,3.85202],[115.93111,3.85066],[115.9287,3.84915],[115.92372,3.84644],[115.91844,3.84418],[115.91588,3.84312],[115.91452,3.84327],[115.91302,3.84418],[115.91121,3.84493],[115.90932,3.84465],[115.90928,3.84378],[115.90926,3.84337],[115.90925,3.8431],[115.90914,3.84077],[115.91009,3.84024],[115.91636,3.8368],[115.91636,3.8368],[115.92357,3.83535],[115.92431,3.83242],[115.92574,3.82669],[115.9241,3.82341],[115.92285,3.82092],[115.92285,3.81225],[115.92285,3.81039],[115.92285,3.80891],[115.92285,3.8081],[115.92285,3.80431],[115.92357,3.80321],[115.92362,3.80313],[115.9237,3.803],[115.92081,3.79899],[115.9186,3.79649],[115.91293,3.79578],[115.90037,3.7942],[115.88486,3.7923],[115.86116,3.78973],[115.85462,3.7876],[115.85309,3.78722],[115.85304,3.78723],[115.85312,3.78823],[115.85315,3.78999],[115.85279,3.79065],[115.8515,3.79093],[115.85017,3.79107],[115.85036,3.79212],[115.84986,3.79357],[115.84997,3.79376],[115.85017,3.7944],[115.85077,3.79627],[115.84934,3.79782],[115.84751,3.79902],[115.84745,3.79982],[115.84871,3.80056],[115.85019,3.80056],[115.85065,3.80164],[115.85077,3.80313],[115.849,3.80495],[115.8478,3.80541],[115.84762,3.80621],[115.84814,3.80724],[115.84837,3.80872],[115.84705,3.80941],[115.84551,3.81027],[115.84403,3.81032],[115.84386,3.81209],[115.84494,3.81284],[115.84625,3.81169],[115.8478,3.81078],[115.849,3.81084],[115.84968,3.81204],[115.84979,3.81335],[115.84905,3.81432],[115.84945,3.81512],[115.84985,3.81592],[115.85014,3.81752],[115.85099,3.81849],[115.85259,3.8186],[115.85282,3.81706],[115.85402,3.81632],[115.85459,3.81678],[115.85459,3.81786],[115.85505,3.81866],[115.85613,3.81837],[115.8563,3.81792],[115.85739,3.81792],[115.85836,3.81917],[115.85916,3.81986],[115.86042,3.82055],[115.86388,3.82452],[115.86596,3.82631],[115.86793,3.82637],[115.86858,3.82571],[115.86995,3.82768],[115.86989,3.82988],[115.86918,3.83226],[115.86918,3.83357],[115.87084,3.8338],[115.8715,3.83612],[115.87322,3.83684],[115.87399,3.83821],[115.87417,3.83993],[115.87334,3.84183],[115.87674,3.84835],[115.87541,3.8533],[115.87503,3.8573],[115.87674,3.85863],[115.87903,3.85863],[115.87922,3.86073],[115.87807,3.86472],[115.88017,3.86415],[115.8815,3.86453],[115.88131,3.86739],[115.8815,3.86853],[115.88531,3.8731],[115.88721,3.87557],[115.89064,3.87995],[115.89045,3.88395],[115.89045,3.89023],[115.89197,3.89423],[115.89502,3.89709],[115.89521,3.90051],[115.89464,3.90451],[115.89711,3.90641],[115.90111,3.90813],[115.90073,3.91155],[115.90434,3.91365],[115.90358,3.91574],[115.90168,3.91841],[115.90301,3.92088],[115.90568,3.9224],[115.90891,3.92259],[115.9091,3.92507],[115.9091,3.93097],[115.9112,3.93459],[115.91272,3.93611],[115.91272,3.93801],[115.91424,3.94182],[115.91672,3.94429],[115.92071,3.94506],[115.92262,3.94582],[115.92281,3.94696],[115.92205,3.95039],[115.92167,3.95286],[115.92148,3.95495],[115.91881,3.95495],[115.91805,3.95572],[115.91653,3.958],[115.91418,3.95984],[115.91665,3.96302],[115.91828,3.96558],[115.9206,3.96922],[115.92135,3.9704],[115.92233,3.97268],[115.92739,3.9845],[115.93124,3.99176],[115.93204,3.99328],[115.93343,3.99591],[115.94014,3.99591],[115.94309,3.99493],[115.9482,3.99322],[115.94836,3.9929],[115.94954,3.99054],[115.94977,3.98939],[115.95028,3.98685],[115.9529,3.97376],[115.95408,3.96814],[115.95558,3.961],[115.9583,3.95659],[115.95832,3.95655],[115.95844,3.95637],[115.95858,3.95613]]]]},"properties":{"kdprov":"65","kdkab":"04","kdkec":"011","kddesa":"010","kdsls":"2001","idsls":"65040110102001","nmprov":"KALIMANTAN UTARA","nmkab":"NUNUKAN","nmkec":"KRAYAN TENGAH","nmdesa":"BA LIKU","nmsls":"HUTAN"}},{"type":"Feature","geometry":{"type":"MultiPolygon","coordinates":[[[[115.85242,3.71367],[115.85234,3.71404],[115.85223,3.7143],[115.85194,3.71449],[115.85169,3.71456],[115.85155,3.71451],[115.8515,3.71454],[115.85148,3.71461],[115.85135,3.71461],[115.85128,3.71477],[115.85136,3.71492],[115.8514,3.71502],[115.85136,3.71508],[115.85096,3.71512],[115.85057,3.71507],[115.85052,3.71523],[115.85041,3.71537],[115.85033,3.71548],[115.85008,3.71535],[115.84959,3.71505],[115.84943,3.71522],[115.84922,3.71538],[115.84872,3.71577],[115.8476,3.7164],[115.84623,3.71752],[115.84514,3.71847],[115.84516,3.71884],[115.84527,3.71935],[115.84579,3.71994],[115.84584,3.72009],[115.84933,3.71775],[115.85045,3.71761],[115.85107,3.71744],[115.85215,3.71724],[115.85315,3.7165],[115.85362,3.71527],[115.85331,3.71442],[115.85242,3.71367]]]]},"properties":{"kdprov":"65","kdkab":"04","kdkec":"011","kddesa":"007","kdsls":"0001","idsls":"65040110070001","nmprov":"KALIMANTAN UTARA","nmkab":"NUNUKAN","nmkec":"KRAYAN TENGAH","nmdesa":"TANG BADUI","nmsls":"RT 001"}},{"type":"Feature","geometry":{"type":"MultiPolygon","coordinates":[[[[115.84986,3.79357],[115.84955,3.79298],[115.84869,3.79105],[115.84897,3.79063],[115.84979,3.7897],[115.84974,3.78926],[115.84989,3.78907],[115.85014,3.789],[115.85047,3.78876],[115.85029,3.78861],[115.85017,3.78873],[115.84994,3.78851],[115.85011,3.78838],[115.85004,3.7883],[115.84995,3.78813],[115.85009,3.78775],[115.8485,3.78805],[115.84812,3.78844],[115.84746,3.78925],[115.84647,3.79015],[115.84654,3.79033],[115.84678,3.79074],[115.84696,3.79116],[115.84734,3.79195],[115.84763,3.79245],[115.84803,3.79315],[115.84865,3.79383],[115.84946,3.79435],[115.85017,3.7944],[115.84997,3.79376],[115.84986,3.79357]]]]},"properties":{"kdprov":"65","kdkab":"04","kdkec":"011","kddesa":"009","kdsls":"0001","idsls":"65040110090001","nmprov":"KALIMANTAN UTARA","nmkab":"NUNUKAN","nmkec":"KRAYAN TENGAH","nmdesa":"LONG RIAN","nmsls":"RT 001 LONG RIAN"}},{"type":"Feature","geometry":{"type":"MultiPolygon","coordinates":[[[[115.85304,3.78723],[115.8525,3.78732],[115.85204,3.7874],[115.85168,3.78766],[115.85134,3.78779],[115.85096,3.78797],[115.85055,3.78826],[115.85018,3.78784],[115.85009,3.78775],[115.84995,3.78813],[115.85004,3.7883],[115.85011,3.78838],[115.84994,3.78851],[115.85017,3.78873],[115.85029,3.78861],[115.85047,3.78876],[115.85014,3.789],[115.84989,3.78907],[115.84974,3.78926],[115.84979,3.7897],[115.84897,3.79063],[115.84869,3.79105],[115.84955,3.79298],[115.84986,3.79357],[115.85036,3.79212],[115.85017,3.79107],[115.8515,3.79093],[115.85279,3.79065],[115.85315,3.78999],[115.85312,3.78823],[115.85304,3.78723]]]]},"properties":{"kdprov":"65","kdkab":"04","kdkec":"011","kddesa":"010","kdsls":"0001","idsls":"65040110100001","nmprov":"KALIMANTAN UTARA","nmkab":"NUNUKAN","nmkec":"KRAYAN TENGAH","nmdesa":"BA LIKU","nmsls":"RT 001"}},{"type":"Feature","geometry":{"type":"MultiPolygon","coordinates":[[[[115.8525,3.78732],[115.85112,3.78656],[115.85079,3.78667],[115.84968,3.78684],[115.84967,3.78716],[115.84967,3.78738],[115.84982,3.78747],[115.85009,3.78775],[115.85018,3.78784],[115.85055,3.78826],[115.85096,3.78797],[115.85134,3.78779],[115.85168,3.78766],[115.85204,3.7874],[115.8525,3.78732]]]]},"properties":{"kdprov":"65","kdkab":"04","kdkec":"011","kddesa":"005","kdsls":"0001","idsls":"65040110050001","nmprov":"KALIMANTAN UTARA","nmkab":"NUNUKAN","nmkec":"KRAYAN TENGAH","nmdesa":"PA YALAU","nmsls":"RT 001 DESA PA'YALAU"}},{"type":"Feature","geometry":{"type":"MultiPolygon","coordinates":[[[[115.85349,3.77165],[115.85308,3.77198],[115.85238,3.77256],[115.85209,3.77299],[115.85219,3.77373],[115.8528,3.77487],[115.85363,3.77705],[115.8542,3.77827],[115.85432,3.7785],[115.85489,3.77867],[115.85522,3.77739],[115.85543,3.77704],[115.85553,3.77697],[115.85573,3.77635],[115.85591,3.77476],[115.85618,3.77349],[115.85587,3.77367],[115.85572,3.77365],[115.85564,3.77358],[115.85514,3.77352],[115.85463,3.77329],[115.85429,3.773],[115.85408,3.77267],[115.85369,3.77248],[115.85348,3.77224],[115.85349,3.77221],[115.85351,3.77217],[115.85354,3.77217],[115.85362,3.77215],[115.85368,3.77203],[115.85365,3.77176],[115.85349,3.77165]]]]},"properties":{"kdprov":"65","kdkab":"04","kdkec":"011","kddesa":"006","kdsls":"0001","idsls":"65040110060001","nmprov":"KALIMANTAN UTARA","nmkab":"NUNUKAN","nmkec":"KRAYAN TENGAH","nmdesa":"LONG MUTAN","nmsls":"RT 001 DESA LONG MUTAN"}},{"type":"Feature","geometry":{"type":"MultiPolygon","coordinates":[[[[115.85319,3.76862],[115.8536,3.76873],[115.85387,3.76938],[115.85471,3.77027],[115.85538,3.77052],[115.85605,3.77031],[115.8567,3.77021],[115.85776,3.77049],[115.85831,3.77105],[115.8588,3.77128],[115.85883,3.77123],[115.85945,3.77057],[115.85997,3.76962],[115.86016,3.76852],[115.86011,3.76781],[115.8594,3.76714],[115.8583,3.76686],[115.85802,3.76619],[115.85816,3.76505],[115.85864,3.76405],[115.85907,3.76324],[115.85964,3.76305],[115.86035,3.76395],[115.86149,3.76543],[115.86302,3.76633],[115.86544,3.76652],[115.86782,3.76628],[115.86858,3.76586],[115.86863,3.76457],[115.86811,3.76329],[115.86639,3.76252],[115.86492,3.76134],[115.86335,3.76015],[115.86206,3.7591],[115.86192,3.75819],[115.86268,3.75691],[115.8633,3.75515],[115.86344,3.7541],[115.86492,3.75377],[115.86606,3.75391],[115.8672,3.75363],[115.86773,3.75248],[115.86763,3.75191],[115.86682,3.75134],[115.86511,3.75087],[115.86382,3.75044],[115.8633,3.7492],[115.86363,3.7483],[115.86506,3.74772],[115.86616,3.74582],[115.86649,3.7443],[115.86763,3.74268],[115.86915,3.74287],[115.8712,3.7433],[115.87201,3.74235],[115.87244,3.7412],[115.87225,3.74044],[115.87111,3.73963],[115.8693,3.73883],[115.8673,3.73816],[115.86549,3.73649],[115.86482,3.73521],[115.86387,3.7335],[115.86221,3.73235],[115.86145,3.73126],[115.86116,3.72993],[115.86135,3.72907],[115.86143,3.72774],[115.8595,3.72759],[115.85593,3.72818],[115.85412,3.72842],[115.85379,3.73773],[115.8564,3.74832],[115.85795,3.7557],[115.85711,3.76162],[115.85708,3.7617],[115.85596,3.7648],[115.85394,3.76521],[115.85329,3.76554],[115.85314,3.76649],[115.85343,3.76733],[115.85346,3.76798],[115.85319,3.76862]]]]},"properties":{"kdprov":"65","kdkab":"04","kdkec":"011","kddesa":"011","kdsls":"2001","idsls":"65040110112001","nmprov":"KALIMANTAN UTARA","nmkab":"NUNUKAN","nmkec":"KRAYAN TENGAH","nmdesa":"BINUANG","nmsls":"HUTAN"}},{"type":"Feature","geometry":{"type":"MultiPolygon","coordinates":[[[[115.85489,3.77867],[115.85671,3.77726],[115.85797,3.77607],[115.8585,3.77497],[115.85838,3.77314],[115.8579,3.77332],[115.85774,3.77339],[115.85775,3.77347],[115.85771,3.77353],[115.85763,3.7735],[115.85758,3.7734],[115.85739,3.77347],[115.85733,3.77343],[115.85725,3.7733],[115.85665,3.7733],[115.8564,3.77337],[115.85618,3.77349],[115.85591,3.77476],[115.85573,3.77635],[115.85553,3.77697],[115.85543,3.77704],[115.85522,3.77739],[115.85489,3.77867]]]]},"properties":{"kdprov":"65","kdkab":"04","kdkec":"011","kddesa":"004","kdsls":"0001","idsls":"65040110040001","nmprov":"KALIMANTAN UTARA","nmkab":"NUNUKAN","nmkec":"KRAYAN TENGAH","nmdesa":"PA MILAU","nmsls":"RT 001"}},{"type":"Feature","geometry":{"type":"MultiPolygon","coordinates":[[[[115.85242,3.71367],[115.85156,3.71317],[115.85007,3.71217],[115.84958,3.71106],[115.84968,3.71069],[115.84938,3.71097],[115.84924,3.71154],[115.84896,3.71199],[115.84843,3.71229],[115.84744,3.71286],[115.84804,3.71415],[115.84922,3.71538],[115.84943,3.71522],[115.84959,3.71505],[115.85008,3.71535],[115.85033,3.71548],[115.85041,3.71537],[115.85052,3.71523],[115.85057,3.71507],[115.85096,3.71512],[115.85136,3.71508],[115.8514,3.71502],[115.85136,3.71492],[115.85128,3.71477],[115.85135,3.71461],[115.85148,3.71461],[115.8515,3.71454],[115.85155,3.71451],[115.85169,3.71456],[115.85194,3.71449],[115.85223,3.7143],[115.85234,3.71404],[115.85242,3.71367]]]]},"properties":{"kdprov":"65","kdkab":"04","kdkec":"011","kddesa":"008","kdsls":"0001","idsls":"65040110080001","nmprov":"KALIMANTAN UTARA","nmkab":"NUNUKAN","nmkec":"KRAYAN TENGAH","nmdesa":"LONG PADI","nmsls":"RT 001 DESA LONG PADI"}},{"type":"Feature","geometry":{"type":"MultiPolygon","coordinates":[[[[115.85412,3.72842],[115.85593,3.72818],[115.8595,3.72759],[115.85899,3.72625],[115.85845,3.72494],[115.85816,3.72375],[115.85667,3.72334],[115.85584,3.72298],[115.85494,3.72292],[115.84751,3.72245],[115.8459,3.72167],[115.84598,3.72116],[115.84598,3.72055],[115.84584,3.72009],[115.84579,3.71994],[115.84527,3.71935],[115.84516,3.71884],[115.84514,3.71847],[115.84623,3.71752],[115.8476,3.7164],[115.84872,3.71577],[115.84922,3.71538],[115.84804,3.71415],[115.84744,3.71286],[115.84843,3.71229],[115.84896,3.71199],[115.84924,3.71154],[115.84938,3.71097],[115.84968,3.71069],[115.84976,3.71037],[115.85025,3.70892],[115.85027,3.70841],[115.84976,3.70792],[115.849,3.70765],[115.84853,3.70747],[115.84836,3.70705],[115.84833,3.70635],[115.84847,3.70545],[115.84892,3.70497],[115.85121,3.70311],[115.85178,3.70007],[115.85159,3.69521],[115.85054,3.69131],[115.84959,3.68965],[115.85007,3.68765],[115.84892,3.68479],[115.84535,3.68265],[115.84535,3.68141],[115.84535,3.67899],[115.84507,3.67751],[115.84464,3.67589],[115.84435,3.67537],[115.84345,3.6747],[115.84364,3.67342],[115.84378,3.67266],[115.8434,3.6717],[115.84212,3.67142],[115.84031,3.67113],[115.84045,3.67013],[115.84136,3.66833],[115.84136,3.66723],[115.83988,3.66618],[115.83898,3.66566],[115.83888,3.66509],[115.83993,3.66471],[115.84069,3.66447],[115.84207,3.66461],[115.84293,3.66376],[115.84402,3.66195],[115.84416,3.66085],[115.84331,3.65938],[115.84212,3.65771],[115.84121,3.65505],[115.84112,3.65419],[115.84174,3.65315],[115.84217,3.65148],[115.84302,3.65086],[115.84302,3.65005],[115.84278,3.6491],[115.84297,3.64739],[115.84416,3.64582],[115.84402,3.64315],[115.84464,3.64187],[115.84345,3.63854],[115.84345,3.63744],[115.8425,3.63478],[115.84145,3.63297],[115.83979,3.63087],[115.83922,3.62954],[115.83879,3.62873],[115.8376,3.62792],[115.8366,3.62624],[115.83046,3.62676],[115.81545,3.6283],[115.81478,3.63386],[115.81472,3.63428],[115.81162,3.63691],[115.80638,3.63953],[115.80376,3.64312],[115.80137,3.64766],[115.79969,3.65317],[115.79748,3.6556],[115.79741,3.65575],[115.79753,3.65602],[115.79897,3.65747],[115.8023,3.66298],[115.79991,3.66752],[115.80086,3.67159],[115.80133,3.67782],[115.80061,3.68069],[115.79894,3.68332],[115.80179,3.68978],[115.80424,3.69619],[115.80678,3.69912],[115.81011,3.70224],[115.81559,3.70272],[115.81701,3.70464],[115.81796,3.70632],[115.81844,3.70919],[115.81677,3.71206],[115.81391,3.71325],[115.81128,3.7178],[115.81101,3.71823],[115.80944,3.72133],[115.80766,3.7231],[115.80531,3.72545],[115.80249,3.72711],[115.81875,3.73101],[115.83407,3.73101],[115.85412,3.72842]]]]},"properties":{"kdprov":"65","kdkab":"04","kdkec":"011","kddesa":"008","kdsls":"2001","idsls":"65040110082001","nmprov":"KALIMANTAN UTARA","nmkab":"NUNUKAN","nmkec":"KRAYAN TENGAH","nmdesa":"LONG PADI","nmsls":"HUTAN"}},{"type":"Feature","geometry":{"type":"MultiPolygon","coordinates":[[[[115.92621,3.73913],[115.9261,3.73827],[115.9261,3.73827],[115.92591,3.73669],[115.92466,3.72636],[115.92277,3.71945],[115.9216,3.71514],[115.9175,3.71703],[115.88448,3.72655],[115.86991,3.72848],[115.86143,3.72774],[115.86135,3.72907],[115.86116,3.72993],[115.86145,3.73126],[115.86221,3.73235],[115.86387,3.7335],[115.86482,3.73521],[115.86549,3.73649],[115.8673,3.73816],[115.8693,3.73883],[115.87111,3.73963],[115.87225,3.74044],[115.87244,3.7412],[115.87201,3.74235],[115.8712,3.7433],[115.86915,3.74287],[115.86763,3.74268],[115.86649,3.7443],[115.86616,3.74582],[115.86506,3.74772],[115.86363,3.7483],[115.8633,3.7492],[115.86382,3.75044],[115.86511,3.75087],[115.86682,3.75134],[115.86763,3.75191],[115.86773,3.75248],[115.8672,3.75363],[115.86606,3.75391],[115.86492,3.75377],[115.86344,3.7541],[115.8633,3.75515],[115.86268,3.75691],[115.86192,3.75819],[115.86206,3.7591],[115.86335,3.76015],[115.86492,3.76134],[115.86639,3.76252],[115.86811,3.76329],[115.86863,3.76457],[115.86858,3.76586],[115.86782,3.76628],[115.86544,3.76652],[115.86302,3.76633],[115.86149,3.76543],[115.86035,3.76395],[115.85964,3.76305],[115.85907,3.76324],[115.85864,3.76405],[115.85816,3.76505],[115.85802,3.76619],[115.8583,3.76686],[115.8594,3.76714],[115.86011,3.76781],[115.86016,3.76852],[115.85997,3.76962],[115.85945,3.77057],[115.85883,3.77123],[115.8588,3.77128],[115.85826,3.77223],[115.85838,3.77314],[115.8585,3.77497],[115.85797,3.77607],[115.85671,3.77726],[115.85489,3.77867],[115.85815,3.77963],[115.87445,3.78047],[115.89015,3.78058],[115.90788,3.78047],[115.92253,3.78235],[115.94759,3.78488],[115.94789,3.78308],[115.94884,3.77725],[115.94828,3.77483],[115.94775,3.77255],[115.94415,3.76786],[115.94378,3.76028],[115.93801,3.75776],[115.93801,3.75776],[115.9326,3.75667],[115.9296,3.75414],[115.9279,3.7527],[115.9274,3.74866],[115.92633,3.74008],[115.92621,3.73913]]]]},"properties":{"kdprov":"65","kdkab":"04","kdkec":"011","kddesa":"004","kdsls":"2001","idsls":"65040110042001","nmprov":"KALIMANTAN UTARA","nmkab":"NUNUKAN","nmkec":"KRAYAN TENGAH","nmdesa":"PA MILAU","nmsls":"HUTAN"}},{"type":"Feature","geometry":{"type":"MultiPolygon","coordinates":[[[[115.85605,3.77031],[115.85538,3.77052],[115.85471,3.77027],[115.85387,3.76938],[115.8536,3.76873],[115.85319,3.76862],[115.85311,3.76881],[115.85341,3.76956],[115.85345,3.76982],[115.85336,3.77019],[115.85326,3.77048],[115.85326,3.77074],[115.8531,3.77134],[115.85342,3.7716],[115.85349,3.77165],[115.85365,3.77176],[115.85368,3.77203],[115.85362,3.77215],[115.85354,3.77217],[115.85351,3.77217],[115.85349,3.77221],[115.85348,3.77224],[115.85369,3.77248],[115.85408,3.77267],[115.85429,3.773],[115.85463,3.77329],[115.85514,3.77352],[115.85564,3.77358],[115.85572,3.77365],[115.85587,3.77367],[115.85618,3.77349],[115.8564,3.77337],[115.85665,3.7733],[115.85725,3.7733],[115.85733,3.77343],[115.85739,3.77347],[115.85758,3.7734],[115.85763,3.7735],[115.85771,3.77353],[115.85775,3.77347],[115.85774,3.77339],[115.8579,3.77332],[115.85838,3.77314],[115.85826,3.77223],[115.8588,3.77128],[115.85831,3.77105],[115.85776,3.77049],[115.8567,3.77021],[115.85609,3.7703],[115.85605,3.77031]]]]},"properties":{"kdprov":"65","kdkab":"04","kdkec":"011","kddesa":"011","kdsls":"0001","idsls":"65040110110001","nmprov":"KALIMANTAN UTARA","nmkab":"NUNUKAN","nmkec":"KRAYAN TENGAH","nmdesa":"BINUANG","nmsls":"RT 001 DESA BINUANG"}}]}