{"type":"FeatureCollection","features":[{"type":"Feature","geometry":{"type":"MultiPolygon","coordinates":[[[[115.62749,3.92451],[115.6273,3.92452],[115.62731,3.92454],[115.62762,3.92557],[115.62763,3.92556],[115.62774,3.92553],[115.62785,3.92548],[115.62788,3.92546],[115.62754,3.92449],[115.62749,3.92451]]]]},"properties":{"kdprov":"65","kdkab":"04","kdkec":"020","kddesa":"060","kdsls":"0001","idsls":"65040200600001","nmprov":"KALIMANTAN UTARA","nmkab":"NUNUKAN","nmkec":"KRAYAN","nmdesa":"BA SIKOR","nmsls":"RT 001"}},{"type":"Feature","geometry":{"type":"MultiPolygon","coordinates":[[[[115.7302,3.89427],[115.73038,3.8941],[115.72971,3.89339],[115.72866,3.89444],[115.72878,3.89468],[115.72897,3.8949],[115.72925,3.89523],[115.72942,3.89521],[115.72955,3.89501],[115.72965,3.89489],[115.7302,3.89427]]]]},"properties":{"kdprov":"65","kdkab":"04","kdkec":"020","kddesa":"010","kdsls":"0001","idsls":"65040200100001","nmprov":"KALIMANTAN UTARA","nmkab":"NUNUKAN","nmkec":"KRAYAN","nmdesa":"PA PUTUK","nmsls":"RT 001"}},{"type":"Feature","geometry":{"type":"MultiPolygon","coordinates":[[[[115.66667,3.91873],[115.66687,3.91841],[115.66696,3.91828],[115.66723,3.9179],[115.66757,3.91762],[115.66782,3.91734],[115.66766,3.91684],[115.66583,3.91826],[115.66559,3.91842],[115.66594,3.91893],[115.66582,3.9194],[115.66573,3.91981],[115.66549,3.92],[115.66519,3.92008],[115.66501,3.92058],[115.66496,3.9208],[115.6654,3.92129],[115.66577,3.92178],[115.66586,3.92191],[115.66622,3.92202],[115.66662,3.92192],[115.66668,3.92155],[115.66655,3.92101],[115.66628,3.92033],[115.66636,3.91976],[115.66648,3.91904],[115.66667,3.91873]]]]},"properties":{"kdprov":"65","kdkab":"04","kdkec":"020","kddesa":"041","kdsls":"0001","idsls":"65040200410001","nmprov":"KALIMANTAN UTARA","nmkab":"NUNUKAN","nmkec":"KRAYAN","nmdesa":"WA YANUD","nmsls":"RT 001"}},{"type":"Feature","geometry":{"type":"MultiPolygon","coordinates":[[[[115.67614,3.91746],[115.67603,3.91727],[115.67611,3.91643],[115.67636,3.91574],[115.67638,3.9149],[115.67667,3.91422],[115.67681,3.91363],[115.67678,3.91333],[115.67451,3.91452],[115.67319,3.91494],[115.6714,3.91498],[115.67001,3.91477],[115.66919,3.91484],[115.66751,3.91605],[115.66727,3.91623],[115.66717,3.91631],[115.66684,3.91663],[115.66652,3.91679],[115.66651,3.91679],[115.66621,3.91684],[115.66603,3.91686],[115.66583,3.91702],[115.66566,3.91709],[115.66555,3.91715],[115.6655,3.91716],[115.66546,3.91718],[115.66543,3.91721],[115.66579,3.91785],[115.66561,3.91801],[115.66583,3.91826],[115.66766,3.91684],[115.66782,3.91734],[115.66824,3.91715],[115.6691,3.91635],[115.66963,3.91599],[115.67008,3.91576],[115.67023,3.91546],[115.67014,3.91512],[115.67043,3.91507],[115.67066,3.91518],[115.67079,3.91525],[115.67103,3.91538],[115.67111,3.91539],[115.67219,3.91547],[115.67265,3.91563],[115.67357,3.91601],[115.67405,3.91673],[115.67472,3.91711],[115.67441,3.91739],[115.67424,3.91756],[115.67464,3.9181],[115.67527,3.91859],[115.67564,3.91904],[115.67602,3.91891],[115.67641,3.91845],[115.67657,3.9183],[115.67682,3.91802],[115.67684,3.91774],[115.67655,3.91761],[115.67614,3.91746]]]]},"properties":{"kdprov":"65","kdkab":"04","kdkec":"020","kddesa":"041","kdsls":"0002","idsls":"65040200410002","nmprov":"KALIMANTAN UTARA","nmkab":"NUNUKAN","nmkec":"KRAYAN","nmdesa":"WA YANUD","nmsls":"RT 002"}},{"type":"Feature","geometry":{"type":"MultiPolygon","coordinates":[[[[115.68488,3.95831],[115.6911,3.9549],[115.69708,3.9519],[115.70501,3.9475],[115.70502,3.94644],[115.70492,3.94321],[115.70482,3.94008],[115.70431,3.93797],[115.70368,3.93532],[115.70283,3.93177],[115.70179,3.92744],[115.70118,3.92366],[115.70106,3.92292],[115.70058,3.91995],[115.7012,3.91826],[115.70154,3.91734],[115.69721,3.91563],[115.69355,3.91349],[115.69326,3.91357],[115.69219,3.91368],[115.69111,3.9138],[115.69004,3.91386],[115.68928,3.91391],[115.689,3.91391],[115.68881,3.91358],[115.68879,3.91313],[115.68851,3.91313],[115.68792,3.91299],[115.6875,3.91298],[115.6873,3.91272],[115.68729,3.91235],[115.68716,3.91178],[115.68687,3.91159],[115.68621,3.91164],[115.68607,3.91165],[115.68569,3.91185],[115.68531,3.91173],[115.68505,3.9116],[115.68449,3.91142],[115.6841,3.91191],[115.68377,3.9122],[115.6832,3.91256],[115.6827,3.91305],[115.6825,3.9135],[115.68265,3.91407],[115.68224,3.91445],[115.68217,3.91452],[115.68209,3.91442],[115.68187,3.9135],[115.68167,3.91312],[115.68166,3.91266],[115.68161,3.91242],[115.68148,3.91226],[115.68137,3.91211],[115.68112,3.91219],[115.6807,3.91232],[115.68054,3.91209],[115.68049,3.9117],[115.67993,3.9119],[115.67942,3.91207],[115.67925,3.91192],[115.67929,3.91166],[115.67956,3.91138],[115.68017,3.9113],[115.68155,3.91081],[115.68229,3.91018],[115.6831,3.90913],[115.683,3.90841],[115.68344,3.90835],[115.68386,3.90864],[115.68418,3.90888],[115.68497,3.90905],[115.68537,3.90879],[115.68582,3.90878],[115.68589,3.90894],[115.68639,3.90896],[115.6867,3.90902],[115.68725,3.90871],[115.68763,3.90868],[115.6886,3.9087],[115.68913,3.9088],[115.68993,3.9088],[115.69039,3.90869],[115.6908,3.90844],[115.69049,3.90735],[115.69003,3.90578],[115.68914,3.9018],[115.68861,3.8987],[115.68847,3.89761],[115.68723,3.89778],[115.686,3.89795],[115.68337,3.89785],[115.67927,3.8977],[115.67641,3.89759],[115.67618,3.89761],[115.67578,3.89913],[115.67507,3.90213],[115.67493,3.90499],[115.6754,3.9097],[115.67621,3.91189],[115.67648,3.9127],[115.6765,3.91274],[115.67707,3.91317],[115.67709,3.91318],[115.67711,3.91318],[115.67713,3.91319],[115.67714,3.91319],[115.67714,3.9132],[115.67715,3.91322],[115.67731,3.91327],[115.67756,3.91313],[115.67768,3.91291],[115.67781,3.91278],[115.67791,3.91273],[115.67805,3.91273],[115.67811,3.91273],[115.67813,3.91275],[115.67954,3.91704],[115.67716,3.92856],[115.6765,3.93922],[115.67497,3.95131],[115.67335,3.96139],[115.67318,3.96479],[115.67328,3.96472],[115.67853,3.96173],[115.68488,3.95831]]]]},"properties":{"kdprov":"65","kdkab":"04","kdkec":"020","kddesa":"035","kdsls":"2001","idsls":"65040200352001","nmprov":"KALIMANTAN UTARA","nmkab":"NUNUKAN","nmkec":"KRAYAN","nmdesa":"LONG NAWANG","nmsls":"HUTAN"}},{"type":"Feature","geometry":{"type":"MultiPolygon","coordinates":[[[[115.62079,3.92326],[115.62143,3.9228],[115.62112,3.92259],[115.62114,3.92226],[115.62088,3.922],[115.62038,3.92168],[115.62014,3.92164],[115.62009,3.92129],[115.61979,3.92073],[115.61958,3.92046],[115.61901,3.92046],[115.61831,3.92039],[115.61802,3.92026],[115.61749,3.92054],[115.61738,3.92075],[115.61721,3.92074],[115.61705,3.92056],[115.61694,3.92049],[115.61661,3.92031],[115.61631,3.9204],[115.61585,3.92051],[115.61533,3.92115],[115.61485,3.92164],[115.61472,3.92199],[115.61478,3.92243],[115.61529,3.92283],[115.61594,3.92283],[115.61672,3.92268],[115.61741,3.92268],[115.61791,3.92392],[115.61781,3.92442],[115.61978,3.92399],[115.62036,3.92357],[115.62079,3.92326]]]]},"properties":{"kdprov":"65","kdkab":"04","kdkec":"020","kddesa":"033","kdsls":"0001","idsls":"65040200330001","nmprov":"KALIMANTAN UTARA","nmkab":"NUNUKAN","nmkec":"KRAYAN","nmdesa":"PA RUPAI","nmsls":"RT 001"}},{"type":"Feature","geometry":{"type":"MultiPolygon","coordinates":[[[[115.66496,3.9208],[115.66501,3.92058],[115.66519,3.92008],[115.66452,3.91932],[115.66435,3.91897],[115.66396,3.91832],[115.66383,3.9181],[115.66383,3.91809],[115.66383,3.91809],[115.66337,3.91823],[115.66306,3.91833],[115.66279,3.91846],[115.66251,3.91858],[115.66205,3.91951],[115.6619,3.91982],[115.66106,3.92057],[115.66089,3.92083],[115.66064,3.9212],[115.66005,3.92073],[115.66043,3.92001],[115.6612,3.91895],[115.66137,3.91859],[115.66169,3.91795],[115.66216,3.91732],[115.66225,3.9171],[115.66226,3.91707],[115.66306,3.91712],[115.66325,3.91757],[115.66385,3.91764],[115.66432,3.91723],[115.66428,3.91712],[115.66433,3.91678],[115.66437,3.91648],[115.66439,3.91629],[115.66441,3.91607],[115.66509,3.91581],[115.6652,3.91506],[115.66501,3.91427],[115.66495,3.91405],[115.6648,3.91271],[115.66362,3.90224],[115.66329,3.8993],[115.66323,3.89874],[115.66196,3.89886],[115.65707,3.89761],[115.6557,3.89699],[115.65257,3.89557],[115.64931,3.89408],[115.64587,3.89232],[115.64582,3.89229],[115.64355,3.89106],[115.64329,3.89091],[115.64309,3.89081],[115.64238,3.88998],[115.6418,3.8886],[115.64134,3.8875],[115.64117,3.88695],[115.64097,3.88635],[115.64053,3.88495],[115.63992,3.88341],[115.6396,3.88317],[115.63867,3.88246],[115.63833,3.88655],[115.63862,3.89191],[115.64591,3.90693],[115.64823,3.92153],[115.64844,3.92284],[115.64839,3.92311],[115.64636,3.93385],[115.64608,3.93482],[115.65102,3.93418],[115.65823,3.9314],[115.66273,3.93011],[115.66387,3.92612],[115.66496,3.9208]]]]},"properties":{"kdprov":"65","kdkab":"04","kdkec":"020","kddesa":"059","kdsls":"2001","idsls":"65040200592001","nmprov":"KALIMANTAN UTARA","nmkab":"NUNUKAN","nmkec":"KRAYAN","nmdesa":"LONG API","nmsls":"HUTAN"}},{"type":"Feature","geometry":{"type":"MultiPolygon","coordinates":[[[[115.63443,3.92461],[115.63446,3.92284],[115.63387,3.92067],[115.63276,3.92117],[115.63152,3.9216],[115.63,3.92298],[115.6289,3.92504],[115.62899,3.92518],[115.62924,3.92535],[115.62948,3.9256],[115.62969,3.92578],[115.63012,3.92588],[115.63041,3.9261],[115.63059,3.92621],[115.6306,3.92648],[115.63034,3.92692],[115.63019,3.92746],[115.6301,3.92776],[115.62994,3.92802],[115.62986,3.9282],[115.62953,3.92838],[115.62917,3.92839],[115.62904,3.92843],[115.62905,3.92851],[115.62908,3.92884],[115.62903,3.9292],[115.62937,3.92993],[115.63151,3.93264],[115.634,3.93444],[115.63431,3.93251],[115.63443,3.92461]]]]},"properties":{"kdprov":"65","kdkab":"04","kdkec":"020","kddesa":"057","kdsls":"2001","idsls":"65040200572001","nmprov":"KALIMANTAN UTARA","nmkab":"NUNUKAN","nmkec":"KRAYAN","nmdesa":"PA NADO","nmsls":"HUTAN"}},{"type":"Feature","geometry":{"type":"MultiPolygon","coordinates":[[[[115.62841,3.92837],[115.6283,3.92855],[115.62795,3.92936],[115.62759,3.92968],[115.62703,3.92935],[115.62634,3.92884],[115.62623,3.92841],[115.6266,3.92773],[115.62696,3.92719],[115.6271,3.92678],[115.62675,3.92662],[115.62652,3.92637],[115.62612,3.92596],[115.62602,3.92587],[115.62538,3.92597],[115.62369,3.92719],[115.61759,3.92887],[115.60693,3.9302],[115.59028,3.93153],[115.57635,3.93145],[115.57642,3.93159],[115.57669,3.932],[115.57688,3.93236],[115.57717,3.93275],[115.57757,3.93328],[115.57696,3.93351],[115.57815,3.93384],[115.57836,3.93399],[115.57862,3.93411],[115.57881,3.93441],[115.57905,3.93477],[115.57938,3.93519],[115.57946,3.93541],[115.57927,3.93598],[115.5795,3.93623],[115.57982,3.93695],[115.5801,3.93759],[115.58027,3.93787],[115.58044,3.93821],[115.58052,3.93854],[115.58078,3.93918],[115.58099,3.93957],[115.58113,3.94004],[115.58145,3.93995],[115.58174,3.93986],[115.58216,3.93983],[115.58246,3.93978],[115.58297,3.93952],[115.58345,3.93934],[115.58383,3.93921],[115.58451,3.93922],[115.58469,3.93966],[115.58503,3.94017],[115.58572,3.94029],[115.58596,3.94058],[115.58646,3.94066],[115.58676,3.94095],[115.58726,3.94121],[115.58764,3.94141],[115.58803,3.94157],[115.58849,3.94167],[115.58886,3.94181],[115.58926,3.94198],[115.58966,3.94222],[115.59001,3.94278],[115.5904,3.94308],[115.59089,3.94305],[115.59128,3.94271],[115.59203,3.94245],[115.59253,3.94212],[115.59306,3.94202],[115.5933,3.94186],[115.59368,3.94169],[115.59451,3.94142],[115.59487,3.9408],[115.59525,3.94023],[115.59561,3.93981],[115.59613,3.93954],[115.59698,3.93943],[115.59776,3.93921],[115.59815,3.9389],[115.59864,3.93866],[115.59919,3.93888],[115.5997,3.93884],[115.60024,3.9388],[115.60079,3.93866],[115.60138,3.9386],[115.60203,3.93841],[115.60291,3.93843],[115.60337,3.93832],[115.60385,3.93856],[115.60434,3.93865],[115.60496,3.93876],[115.60564,3.93874],[115.60607,3.93885],[115.60638,3.93873],[115.60678,3.9391],[115.60728,3.93943],[115.60768,3.93912],[115.60845,3.93918],[115.60911,3.93913],[115.60954,3.93917],[115.60994,3.93922],[115.61034,3.93929],[115.61083,3.93911],[115.61125,3.93908],[115.61182,3.93892],[115.61211,3.93859],[115.61247,3.93841],[115.61281,3.9383],[115.61305,3.93804],[115.61377,3.93771],[115.61417,3.93765],[115.61473,3.93736],[115.6154,3.93729],[115.61586,3.93688],[115.61636,3.93677],[115.61673,3.93657],[115.61733,3.93689],[115.61794,3.93712],[115.61857,3.93654],[115.61878,3.93715],[115.61886,3.93752],[115.61912,3.93799],[115.61942,3.93827],[115.6196,3.93872],[115.6201,3.93918],[115.62047,3.93962],[115.62078,3.9398],[115.62087,3.93986],[115.62123,3.94013],[115.62145,3.94023],[115.62174,3.94075],[115.62213,3.94108],[115.62247,3.94142],[115.62281,3.94168],[115.6234,3.9419],[115.62384,3.94227],[115.62435,3.94254],[115.62473,3.94268],[115.62522,3.94292],[115.62529,3.94322],[115.6256,3.94339],[115.62597,3.94319],[115.62644,3.9434],[115.62691,3.94386],[115.62698,3.9441],[115.62721,3.94462],[115.62743,3.94492],[115.62772,3.94532],[115.62803,3.9456],[115.62845,3.94594],[115.62889,3.94637],[115.62884,3.94685],[115.62896,3.94735],[115.62904,3.94767],[115.62931,3.94818],[115.62925,3.94865],[115.62938,3.94892],[115.63312,3.93994],[115.634,3.93444],[115.63151,3.93264],[115.62937,3.92993],[115.62903,3.9292],[115.62908,3.92884],[115.62905,3.92851],[115.62865,3.92856],[115.62841,3.92837]]]]},"properties":{"kdprov":"65","kdkab":"04","kdkec":"020","kddesa":"040","kdsls":"2001","idsls":"65040200402001","nmprov":"KALIMANTAN UTARA","nmkab":"NUNUKAN","nmkec":"KRAYAN","nmdesa":"BUDUK KINANGAN","nmsls":"HUTAN"}},{"type":"Feature","geometry":{"type":"MultiPolygon","coordinates":[[[[115.66306,3.91833],[115.66337,3.91823],[115.66383,3.91809],[115.66383,3.91809],[115.66383,3.9181],[115.66396,3.91832],[115.66435,3.91897],[115.66452,3.91932],[115.66519,3.92008],[115.66524,3.91954],[115.66507,3.91896],[115.66515,3.91891],[115.66522,3.91887],[115.66534,3.91878],[115.66525,3.91866],[115.66519,3.91848],[115.66507,3.91828],[115.66472,3.91769],[115.66476,3.91759],[115.66457,3.9173],[115.66438,3.91738],[115.66432,3.91723],[115.66385,3.91764],[115.66325,3.91757],[115.66306,3.91712],[115.66226,3.91707],[115.66225,3.9171],[115.66216,3.91732],[115.66169,3.91795],[115.66137,3.91859],[115.6612,3.91895],[115.66043,3.92001],[115.66005,3.92073],[115.66064,3.9212],[115.66089,3.92083],[115.66106,3.92057],[115.6619,3.91982],[115.66205,3.91951],[115.66251,3.91858],[115.66279,3.91846],[115.66306,3.91833]]]]},"properties":{"kdprov":"65","kdkab":"04","kdkec":"020","kddesa":"059","kdsls":"0002","idsls":"65040200590002","nmprov":"KALIMANTAN UTARA","nmkab":"NUNUKAN","nmkec":"KRAYAN","nmdesa":"LONG API","nmsls":"RT 002"}},{"type":"Feature","geometry":{"type":"MultiPolygon","coordinates":[[[[115.6289,3.92504],[115.62886,3.92512],[115.62886,3.92522],[115.62878,3.92538],[115.62876,3.9254],[115.62857,3.92556],[115.62844,3.92564],[115.62834,3.92567],[115.62829,3.92567],[115.62823,3.92566],[115.62821,3.92561],[115.6282,3.92556],[115.62816,3.92546],[115.6281,3.9254],[115.62806,3.92537],[115.62799,3.92539],[115.62793,3.92542],[115.62788,3.92546],[115.62785,3.92548],[115.62774,3.92553],[115.62763,3.92556],[115.62762,3.92557],[115.62765,3.92564],[115.62767,3.92568],[115.62764,3.9257],[115.62726,3.92572],[115.627,3.92571],[115.62698,3.92571],[115.6266,3.92577],[115.62602,3.92587],[115.62612,3.92596],[115.62652,3.92637],[115.62675,3.92662],[115.6271,3.92678],[115.6274,3.92691],[115.62767,3.92703],[115.62785,3.92699],[115.62789,3.92688],[115.62795,3.92675],[115.62798,3.92672],[115.62821,3.92646],[115.62845,3.92627],[115.62849,3.92605],[115.62856,3.9259],[115.62883,3.92586],[115.6289,3.92592],[115.62891,3.92608],[115.62892,3.92632],[115.62911,3.92647],[115.62954,3.92658],[115.62963,3.92678],[115.62951,3.92719],[115.62926,3.92756],[115.62908,3.92788],[115.62903,3.92833],[115.62904,3.92843],[115.62917,3.92839],[115.62953,3.92838],[115.62986,3.9282],[115.62994,3.92802],[115.6301,3.92776],[115.63019,3.92746],[115.63034,3.92692],[115.6306,3.92648],[115.63059,3.92621],[115.63041,3.9261],[115.63012,3.92588],[115.62969,3.92578],[115.62948,3.9256],[115.62924,3.92535],[115.62899,3.92518],[115.6289,3.92504]]]]},"properties":{"kdprov":"65","kdkab":"04","kdkec":"020","kddesa":"057","kdsls":"0001","idsls":"65040200570001","nmprov":"KALIMANTAN UTARA","nmkab":"NUNUKAN","nmkec":"KRAYAN","nmdesa":"PA NADO","nmsls":"RT 001"}},{"type":"Feature","geometry":{"type":"MultiPolygon","coordinates":[[[[115.6289,3.92504],[115.63,3.92298],[115.63152,3.9216],[115.63276,3.92117],[115.63387,3.92067],[115.63059,3.90871],[115.62382,3.89605],[115.6241,3.90495],[115.6238,3.91164],[115.6238,3.91685],[115.62246,3.92205],[115.62143,3.9228],[115.62079,3.92326],[115.62281,3.92378],[115.62702,3.92409],[115.62727,3.92412],[115.62758,3.92391],[115.62811,3.92392],[115.62822,3.92424],[115.62846,3.92479],[115.6287,3.92512],[115.62868,3.9253],[115.62876,3.9254],[115.62878,3.92538],[115.62886,3.92522],[115.62886,3.92512],[115.6289,3.92504]]]]},"properties":{"kdprov":"65","kdkab":"04","kdkec":"020","kddesa":"058","kdsls":"2001","idsls":"65040200582001","nmprov":"KALIMANTAN UTARA","nmkab":"NUNUKAN","nmkec":"KRAYAN","nmdesa":"LIANG TUER","nmsls":"HUTAN"}},{"type":"Feature","geometry":{"type":"MultiPolygon","coordinates":[[[[115.63864,3.9236],[115.63925,3.92278],[115.63958,3.9225],[115.63986,3.92232],[115.64031,3.92218],[115.64074,3.92203],[115.64122,3.92199],[115.64224,3.92164],[115.64298,3.92145],[115.64346,3.92168],[115.64338,3.9219],[115.64268,3.92208],[115.64236,3.9223],[115.64227,3.92268],[115.64227,3.92318],[115.64228,3.92346],[115.64229,3.92369],[115.64364,3.92361],[115.64516,3.92344],[115.64839,3.92311],[115.64844,3.92284],[115.64823,3.92153],[115.64591,3.90693],[115.63862,3.89191],[115.63833,3.88655],[115.63867,3.88246],[115.63881,3.88079],[115.63897,3.87894],[115.63769,3.87675],[115.63682,3.87525],[115.63481,3.87383],[115.6328,3.87242],[115.63248,3.8722],[115.63102,3.87125],[115.62769,3.86909],[115.62611,3.86805],[115.62454,3.86702],[115.62374,3.86658],[115.62294,3.86614],[115.62312,3.86582],[115.62228,3.86557],[115.62143,3.86532],[115.61904,3.86462],[115.61906,3.86472],[115.61895,3.8652],[115.6189,3.86565],[115.61888,3.86635],[115.6186,3.86673],[115.61868,3.86709],[115.61893,3.86763],[115.61919,3.86811],[115.61891,3.86851],[115.61892,3.86899],[115.6188,3.8694],[115.61867,3.86974],[115.61828,3.87012],[115.6181,3.87073],[115.61779,3.87124],[115.61764,3.87175],[115.61734,3.87235],[115.61721,3.87283],[115.61762,3.8731],[115.61787,3.87345],[115.61812,3.87375],[115.61814,3.87419],[115.61788,3.87467],[115.61753,3.87496],[115.61749,3.87526],[115.61708,3.87535],[115.6165,3.87533],[115.61598,3.87547],[115.61548,3.87555],[115.61487,3.87584],[115.6141,3.87609],[115.61365,3.87584],[115.6131,3.87597],[115.61276,3.87586],[115.61233,3.8759],[115.61204,3.87598],[115.61112,3.87644],[115.61102,3.87687],[115.61094,3.877],[115.61071,3.87723],[115.61047,3.87752],[115.61025,3.87788],[115.61691,3.88313],[115.62382,3.89605],[115.63059,3.90871],[115.63387,3.92067],[115.63446,3.92284],[115.63443,3.92461],[115.6359,3.92449],[115.63834,3.92384],[115.6386,3.92366],[115.63864,3.9236]]]]},"properties":{"kdprov":"65","kdkab":"04","kdkec":"020","kddesa":"034","kdsls":"2001","idsls":"65040200342001","nmprov":"KALIMANTAN UTARA","nmkab":"NUNUKAN","nmkec":"KRAYAN","nmdesa":"BUDUK TUMU","nmsls":"HUTAN"}},{"type":"Feature","geometry":{"type":"MultiPolygon","coordinates":[[[[115.62762,3.92557],[115.62731,3.92454],[115.6273,3.92452],[115.62749,3.92451],[115.62748,3.92448],[115.62746,3.92434],[115.6274,3.92417],[115.62729,3.92421],[115.62677,3.92429],[115.62661,3.92459],[115.62681,3.92524],[115.62704,3.92563],[115.627,3.92567],[115.627,3.92571],[115.62726,3.92572],[115.62764,3.9257],[115.62767,3.92568],[115.62765,3.92564],[115.62762,3.92557]]]]},"properties":{"kdprov":"65","kdkab":"04","kdkec":"020","kddesa":"060","kdsls":"0002","idsls":"65040200600002","nmprov":"KALIMANTAN UTARA","nmkab":"NUNUKAN","nmkec":"KRAYAN","nmdesa":"BA SIKOR","nmsls":"RT 002"}},{"type":"Feature","geometry":{"type":"MultiPolygon","coordinates":[[[[115.61781,3.92442],[115.61791,3.92392],[115.61741,3.92268],[115.61672,3.92268],[115.61594,3.92283],[115.61529,3.92283],[115.61478,3.92243],[115.61472,3.92199],[115.61485,3.92164],[115.61533,3.92115],[115.61585,3.92051],[115.61631,3.9204],[115.61661,3.92031],[115.61694,3.92049],[115.61705,3.92056],[115.61721,3.92074],[115.61738,3.92075],[115.61749,3.92054],[115.61802,3.92026],[115.61831,3.92039],[115.61901,3.92046],[115.61958,3.92046],[115.61979,3.92073],[115.62009,3.92129],[115.62014,3.92164],[115.62038,3.92168],[115.62088,3.922],[115.62114,3.92226],[115.62112,3.92259],[115.62143,3.9228],[115.62246,3.92205],[115.6238,3.91685],[115.6238,3.91164],[115.6241,3.90495],[115.62382,3.89605],[115.61691,3.88313],[115.61025,3.87788],[115.60983,3.87802],[115.60926,3.87799],[115.60873,3.8779],[115.6082,3.87762],[115.60776,3.87719],[115.6074,3.87672],[115.60721,3.8764],[115.6071,3.87598],[115.60676,3.87584],[115.60664,3.87567],[115.60658,3.87533],[115.60618,3.8752],[115.60589,3.87504],[115.60554,3.87498],[115.60529,3.8749],[115.60497,3.87503],[115.60453,3.8752],[115.60424,3.87527],[115.60413,3.87532],[115.60397,3.87579],[115.60383,3.87608],[115.60349,3.8762],[115.60308,3.87642],[115.60271,3.87686],[115.60175,3.87737],[115.60133,3.87745],[115.60082,3.87761],[115.60066,3.87795],[115.60048,3.87839],[115.60002,3.87855],[115.59953,3.87897],[115.59913,3.8793],[115.59879,3.87933],[115.59813,3.87919],[115.59783,3.87958],[115.59775,3.87986],[115.59744,3.87995],[115.59705,3.88063],[115.59727,3.8812],[115.5972,3.88191],[115.59681,3.88237],[115.59682,3.88275],[115.59684,3.88341],[115.59662,3.88397],[115.59666,3.88467],[115.59614,3.88466],[115.59606,3.885],[115.59645,3.88556],[115.59608,3.88628],[115.59645,3.88626],[115.59677,3.88655],[115.59706,3.88728],[115.59716,3.88778],[115.59731,3.88824],[115.59722,3.88872],[115.5973,3.88928],[115.59726,3.88963],[115.59718,3.88997],[115.59677,3.89049],[115.59625,3.89004],[115.59592,3.88987],[115.59529,3.88997],[115.59479,3.88998],[115.5944,3.89005],[115.59393,3.89006],[115.59368,3.89003],[115.5934,3.88996],[115.59314,3.8897],[115.59283,3.88914],[115.59267,3.8888],[115.59223,3.88851],[115.59166,3.88798],[115.59148,3.88763],[115.59102,3.88751],[115.59069,3.88756],[115.59006,3.88742],[115.58952,3.8869],[115.58932,3.88648],[115.5891,3.88615],[115.58883,3.88577],[115.58873,3.88523],[115.58851,3.88498],[115.58781,3.88513],[115.58725,3.88506],[115.58672,3.88496],[115.58642,3.885],[115.58597,3.88518],[115.58554,3.88542],[115.58538,3.88554],[115.58512,3.8854],[115.58479,3.88513],[115.58461,3.88549],[115.58436,3.8856],[115.58372,3.88588],[115.58315,3.88609],[115.5828,3.8866],[115.58253,3.88662],[115.58231,3.88686],[115.58186,3.88748],[115.58186,3.88789],[115.58168,3.8884],[115.58154,3.88886],[115.58131,3.88936],[115.58105,3.88974],[115.58064,3.89009],[115.58042,3.89036],[115.58002,3.89082],[115.57977,3.89101],[115.57953,3.89144],[115.57919,3.89189],[115.57914,3.89227],[115.57891,3.89267],[115.57865,3.8928],[115.57823,3.89306],[115.57747,3.89346],[115.57721,3.89349],[115.57713,3.89378],[115.57708,3.89448],[115.57708,3.89505],[115.57709,3.89564],[115.57707,3.89614],[115.57683,3.89667],[115.57668,3.89693],[115.57615,3.89747],[115.57623,3.89791],[115.57622,3.89833],[115.57625,3.8986],[115.57607,3.89889],[115.5758,3.89931],[115.57545,3.89994],[115.57531,3.90029],[115.57567,3.90062],[115.57576,3.90073],[115.57548,3.90102],[115.57515,3.90127],[115.5747,3.9017],[115.57448,3.9023],[115.57414,3.90258],[115.57394,3.90274],[115.57354,3.90266],[115.57334,3.90285],[115.57296,3.90308],[115.57277,3.90353],[115.57262,3.90382],[115.57246,3.90378],[115.57244,3.90379],[115.57948,3.90956],[115.58959,3.9167],[115.60372,3.9225],[115.61443,3.92518],[115.61781,3.92442]]]]},"properties":{"kdprov":"65","kdkab":"04","kdkec":"020","kddesa":"033","kdsls":"2001","idsls":"65040200332001","nmprov":"KALIMANTAN UTARA","nmkab":"NUNUKAN","nmkec":"KRAYAN","nmdesa":"PA RUPAI","nmsls":"HUTAN"}},{"type":"Feature","geometry":{"type":"MultiPolygon","coordinates":[[[[115.66583,3.91826],[115.66561,3.91801],[115.66579,3.91785],[115.66543,3.91721],[115.66532,3.91722],[115.66525,3.91722],[115.6652,3.91722],[115.66515,3.91709],[115.66513,3.91705],[115.66505,3.91697],[115.66494,3.91703],[115.66491,3.9168],[115.66505,3.91603],[115.66506,3.91596],[115.66509,3.91581],[115.66441,3.91607],[115.66439,3.91629],[115.66437,3.91648],[115.66433,3.91678],[115.66428,3.91712],[115.66432,3.91723],[115.66438,3.91738],[115.66457,3.9173],[115.66476,3.91759],[115.66472,3.91769],[115.66507,3.91828],[115.66519,3.91848],[115.66525,3.91866],[115.66534,3.91878],[115.66522,3.91887],[115.66515,3.91891],[115.66507,3.91896],[115.66524,3.91954],[115.66519,3.92008],[115.66549,3.92],[115.66573,3.91981],[115.66582,3.9194],[115.66594,3.91893],[115.66559,3.91842],[115.66583,3.91826]]]]},"properties":{"kdprov":"65","kdkab":"04","kdkec":"020","kddesa":"059","kdsls":"0001","idsls":"65040200590001","nmprov":"KALIMANTAN UTARA","nmkab":"NUNUKAN","nmkec":"KRAYAN","nmdesa":"LONG API","nmsls":"RT 001"}},{"type":"Feature","geometry":{"type":"MultiPolygon","coordinates":[[[[115.62876,3.9254],[115.62868,3.9253],[115.6287,3.92512],[115.62846,3.92479],[115.62822,3.92424],[115.62811,3.92392],[115.62758,3.92391],[115.62727,3.92412],[115.62729,3.92413],[115.6274,3.92417],[115.62746,3.92434],[115.62748,3.92448],[115.62754,3.92446],[115.62765,3.92438],[115.62784,3.92436],[115.62785,3.92441],[115.62802,3.92493],[115.62816,3.92543],[115.62816,3.92546],[115.6282,3.92556],[115.62821,3.92561],[115.62823,3.92566],[115.62829,3.92567],[115.62834,3.92567],[115.62844,3.92564],[115.62857,3.92556],[115.62876,3.9254]]]]},"properties":{"kdprov":"65","kdkab":"04","kdkec":"020","kddesa":"058","kdsls":"0002","idsls":"65040200580002","nmprov":"KALIMANTAN UTARA","nmkab":"NUNUKAN","nmkec":"KRAYAN","nmdesa":"LIANG TUER","nmsls":"RT 002"}},{"type":"Feature","geometry":{"type":"MultiPolygon","coordinates":[[[[115.64346,3.92168],[115.64298,3.92145],[115.64224,3.92164],[115.64122,3.92199],[115.64074,3.92203],[115.64031,3.92218],[115.64051,3.92227],[115.64054,3.9224],[115.64051,3.92254],[115.64045,3.92261],[115.64044,3.92267],[115.64046,3.92272],[115.64052,3.92277],[115.64066,3.9228],[115.64073,3.92284],[115.64079,3.92297],[115.64079,3.92312],[115.64086,3.92331],[115.64093,3.92337],[115.64107,3.92343],[115.64117,3.92345],[115.6412,3.9237],[115.64141,3.92388],[115.64166,3.9239],[115.64187,3.92392],[115.64229,3.92369],[115.64228,3.92346],[115.64227,3.92318],[115.64227,3.92268],[115.64236,3.9223],[115.64268,3.92208],[115.64338,3.9219],[115.64346,3.92168]]]]},"properties":{"kdprov":"65","kdkab":"04","kdkec":"020","kddesa":"034","kdsls":"0001","idsls":"65040200340001","nmprov":"KALIMANTAN UTARA","nmkab":"NUNUKAN","nmkec":"KRAYAN","nmdesa":"BUDUK TUMU","nmsls":"RT 001"}},{"type":"Feature","geometry":{"type":"MultiPolygon","coordinates":[[[[115.62602,3.92587],[115.6266,3.92577],[115.62698,3.92571],[115.627,3.92571],[115.627,3.92567],[115.62704,3.92563],[115.62681,3.92524],[115.62661,3.92459],[115.62677,3.92429],[115.62729,3.92421],[115.6274,3.92417],[115.62729,3.92413],[115.62727,3.92412],[115.62702,3.92409],[115.62281,3.92378],[115.62079,3.92326],[115.62036,3.92357],[115.61978,3.92399],[115.61781,3.92442],[115.61443,3.92518],[115.60372,3.9225],[115.58959,3.9167],[115.57948,3.90956],[115.57244,3.90379],[115.57206,3.90409],[115.57182,3.90405],[115.57135,3.9042],[115.57103,3.90413],[115.57087,3.90441],[115.5706,3.90464],[115.57033,3.90476],[115.5697,3.90516],[115.56953,3.90573],[115.56926,3.90613],[115.56906,3.90628],[115.56854,3.90658],[115.56829,3.90682],[115.56814,3.90716],[115.56799,3.90742],[115.56753,3.90758],[115.56718,3.90786],[115.56683,3.9081],[115.56653,3.90828],[115.56642,3.90879],[115.5662,3.90908],[115.56611,3.9093],[115.5658,3.90951],[115.56559,3.90968],[115.56532,3.9098],[115.56497,3.91051],[115.56442,3.91087],[115.56443,3.91118],[115.56427,3.91139],[115.56382,3.9118],[115.56362,3.91208],[115.56335,3.91236],[115.56315,3.91255],[115.56288,3.91271],[115.56276,3.91294],[115.5624,3.91329],[115.56213,3.91371],[115.56184,3.91407],[115.56162,3.91437],[115.56125,3.91481],[115.56087,3.91547],[115.5605,3.91574],[115.56032,3.91576],[115.56017,3.91624],[115.56008,3.91653],[115.55983,3.91682],[115.55994,3.91725],[115.55975,3.91752],[115.55952,3.91777],[115.55994,3.91769],[115.56008,3.9176],[115.56052,3.91704],[115.56082,3.91732],[115.5609,3.91782],[115.56125,3.91809],[115.56173,3.91813],[115.56221,3.91835],[115.56279,3.91861],[115.56334,3.91857],[115.5639,3.91856],[115.56464,3.91865],[115.56545,3.91873],[115.56581,3.91896],[115.56648,3.91928],[115.56736,3.91908],[115.56774,3.91928],[115.56777,3.91962],[115.56774,3.92009],[115.56812,3.92071],[115.56852,3.92102],[115.56875,3.92155],[115.56922,3.92166],[115.56962,3.922],[115.57006,3.92223],[115.57002,3.92251],[115.5701,3.92305],[115.57034,3.92343],[115.57065,3.92358],[115.5708,3.9239],[115.57099,3.92429],[115.57127,3.9243],[115.57164,3.92424],[115.5717,3.92452],[115.57183,3.9248],[115.57211,3.92521],[115.57256,3.92561],[115.57308,3.92616],[115.57342,3.92673],[115.57354,3.92704],[115.57374,3.92725],[115.57391,3.92738],[115.57386,3.92789],[115.57386,3.92805],[115.57408,3.92856],[115.57453,3.92899],[115.57478,3.92934],[115.57492,3.92982],[115.57526,3.93043],[115.57573,3.93074],[115.57599,3.93097],[115.57623,3.93125],[115.57635,3.93145],[115.59028,3.93153],[115.60693,3.9302],[115.61759,3.92887],[115.62369,3.92719],[115.62538,3.92597],[115.62602,3.92587]]]]},"properties":{"kdprov":"65","kdkab":"04","kdkec":"020","kddesa":"060","kdsls":"2001","idsls":"65040200602001","nmprov":"KALIMANTAN UTARA","nmkab":"NUNUKAN","nmkec":"KRAYAN","nmdesa":"BA SIKOR","nmsls":"HUTAN"}},{"type":"Feature","geometry":{"type":"MultiPolygon","coordinates":[[[[115.64005,3.92384],[115.64033,3.92357],[115.64061,3.92364],[115.64072,3.92398],[115.64087,3.92429],[115.64101,3.92429],[115.64148,3.92408],[115.64166,3.9239],[115.64141,3.92388],[115.6412,3.9237],[115.64117,3.92345],[115.64107,3.92343],[115.64093,3.92337],[115.64086,3.92331],[115.64079,3.92312],[115.64079,3.92297],[115.64073,3.92284],[115.64066,3.9228],[115.64052,3.92277],[115.64046,3.92272],[115.64044,3.92267],[115.64045,3.92261],[115.64051,3.92254],[115.64054,3.9224],[115.64051,3.92227],[115.64031,3.92218],[115.63986,3.92232],[115.63958,3.9225],[115.63925,3.92278],[115.63864,3.9236],[115.63879,3.92392],[115.63901,3.92426],[115.63943,3.9243],[115.63984,3.92406],[115.64005,3.92384]]]]},"properties":{"kdprov":"65","kdkab":"04","kdkec":"020","kddesa":"061","kdsls":"0001","idsls":"65040200610001","nmprov":"KALIMANTAN UTARA","nmkab":"NUNUKAN","nmkec":"KRAYAN","nmdesa":"LONG BERAYANG","nmsls":"RT 001"}},{"type":"Feature","geometry":{"type":"MultiPolygon","coordinates":[[[[115.62816,3.92546],[115.62816,3.92543],[115.62802,3.92493],[115.62785,3.92441],[115.62784,3.92436],[115.62765,3.92438],[115.62754,3.92446],[115.62748,3.92448],[115.62749,3.92451],[115.62754,3.92449],[115.62788,3.92546],[115.62793,3.92542],[115.62799,3.92539],[115.62806,3.92537],[115.6281,3.9254],[115.62816,3.92546]]]]},"properties":{"kdprov":"65","kdkab":"04","kdkec":"020","kddesa":"058","kdsls":"0001","idsls":"65040200580001","nmprov":"KALIMANTAN UTARA","nmkab":"NUNUKAN","nmkec":"KRAYAN","nmdesa":"LIANG TUER","nmsls":"RT 001"}},{"type":"Feature","geometry":{"type":"MultiPolygon","coordinates":[[[[115.62767,3.92703],[115.6274,3.92691],[115.6271,3.92678],[115.62696,3.92719],[115.6266,3.92773],[115.62623,3.92841],[115.62634,3.92884],[115.62703,3.92935],[115.62759,3.92968],[115.62795,3.92936],[115.6283,3.92855],[115.62841,3.92837],[115.62865,3.92856],[115.62905,3.92851],[115.62904,3.92843],[115.62903,3.92833],[115.62908,3.92788],[115.62926,3.92756],[115.62951,3.92719],[115.62963,3.92678],[115.62954,3.92658],[115.62911,3.92647],[115.62892,3.92632],[115.62891,3.92608],[115.6289,3.92592],[115.62883,3.92586],[115.62856,3.9259],[115.62849,3.92605],[115.62845,3.92627],[115.62821,3.92646],[115.62798,3.92672],[115.62795,3.92675],[115.62789,3.92688],[115.62785,3.92699],[115.62767,3.92703]]]]},"properties":{"kdprov":"65","kdkab":"04","kdkec":"020","kddesa":"040","kdsls":"0001","idsls":"65040200400001","nmprov":"KALIMANTAN UTARA","nmkab":"NUNUKAN","nmkec":"KRAYAN","nmdesa":"BUDUK KINANGAN","nmsls":"RT 001"}},{"type":"Feature","geometry":{"type":"MultiPolygon","coordinates":[[[[115.74573,3.81684],[115.74557,3.81673],[115.74545,3.81664],[115.74551,3.81634],[115.74551,3.81614],[115.7458,3.81608],[115.74597,3.81584],[115.74606,3.81548],[115.74615,3.81525],[115.74544,3.81557],[115.74462,3.81577],[115.74381,3.81613],[115.74327,3.81626],[115.74239,3.81666],[115.74229,3.81695],[115.74255,3.81713],[115.74259,3.81748],[115.74269,3.81785],[115.74276,3.81813],[115.74312,3.818],[115.74381,3.81778],[115.74458,3.81745],[115.74522,3.81704],[115.74573,3.81684]]]]},"properties":{"kdprov":"65","kdkab":"04","kdkec":"020","kddesa":"020","kdsls":"0001","idsls":"65040200200001","nmprov":"KALIMANTAN UTARA","nmkab":"NUNUKAN","nmkec":"KRAYAN","nmdesa":"PA PADI","nmsls":"RT 001"}},{"type":"Feature","geometry":{"type":"MultiPolygon","coordinates":[[[[115.74618,3.8167],[115.74656,3.81576],[115.74652,3.81573],[115.74642,3.81564],[115.74637,3.81557],[115.74633,3.81555],[115.74632,3.81554],[115.74632,3.81554],[115.7463,3.81551],[115.7463,3.81548],[115.74629,3.81547],[115.74632,3.81542],[115.74635,3.81534],[115.74635,3.81523],[115.74635,3.81522],[115.74615,3.81525],[115.74606,3.81548],[115.74597,3.81584],[115.7458,3.81608],[115.74551,3.81614],[115.74551,3.81634],[115.74545,3.81664],[115.74557,3.81673],[115.74573,3.81684],[115.74618,3.8167]]]]},"properties":{"kdprov":"65","kdkab":"04","kdkec":"020","kddesa":"020","kdsls":"0002","idsls":"65040200200002","nmprov":"KALIMANTAN UTARA","nmkab":"NUNUKAN","nmkec":"KRAYAN","nmdesa":"PA PADI","nmsls":"RT 002"}},{"type":"Feature","geometry":{"type":"MultiPolygon","coordinates":[[[[115.77273,3.82897],[115.77276,3.82891],[115.77278,3.82885],[115.77284,3.82869],[115.77315,3.82784],[115.77408,3.82528],[115.77501,3.82272],[115.78021,3.81232],[115.78038,3.81198],[115.78098,3.80777],[115.78168,3.80285],[115.78172,3.80258],[115.78172,3.80202],[115.78172,3.8018],[115.78172,3.80179],[115.78172,3.80151],[115.78172,3.79318],[115.78072,3.79185],[115.77769,3.78781],[115.7771,3.78662],[115.77674,3.7859],[115.77638,3.78518],[115.77536,3.78314],[115.77434,3.7811],[115.77456,3.77815],[115.77501,3.77237],[115.7749,3.77174],[115.77352,3.76397],[115.77327,3.76253],[115.77299,3.76096],[115.77199,3.76018],[115.77015,3.75875],[115.76832,3.75732],[115.76695,3.75626],[115.75735,3.7526],[115.7551,3.75175],[115.75286,3.75089],[115.74855,3.74838],[115.74781,3.74795],[115.74779,3.74799],[115.74777,3.74798],[115.74777,3.74799],[115.74777,3.74799],[115.74661,3.75378],[115.7459,3.76365],[115.74483,3.77007],[115.74442,3.77252],[115.74379,3.77634],[115.74195,3.78124],[115.74167,3.78198],[115.74466,3.7915],[115.74525,3.80147],[115.74418,3.8091],[115.74632,3.81512],[115.74635,3.81522],[115.74635,3.81523],[115.74673,3.81523],[115.7474,3.8152],[115.74746,3.8154],[115.74744,3.81578],[115.74747,3.816],[115.74747,3.81604],[115.74756,3.81627],[115.74788,3.81653],[115.74788,3.81656],[115.74791,3.81672],[115.74759,3.81689],[115.74742,3.81698],[115.74727,3.81705],[115.74751,3.81708],[115.75431,3.82036],[115.76159,3.82422],[115.77232,3.8301],[115.77273,3.82897]]]]},"properties":{"kdprov":"65","kdkab":"04","kdkec":"020","kddesa":"011","kdsls":"2001","idsls":"65040200112001","nmprov":"KALIMANTAN UTARA","nmkab":"NUNUKAN","nmkec":"KRAYAN","nmdesa":"CINGLAT","nmsls":"HUTAN"}},{"type":"Feature","geometry":{"type":"MultiPolygon","coordinates":[[[[115.80212,3.89152],[115.79391,3.88035],[115.78278,3.86379],[115.75051,3.84566],[115.74506,3.84232],[115.72893,3.88558],[115.72814,3.88809],[115.72803,3.88843],[115.72806,3.88927],[115.72812,3.89091],[115.72924,3.89247],[115.72955,3.89286],[115.72968,3.89308],[115.72971,3.89315],[115.72971,3.89315],[115.72976,3.89264],[115.72981,3.8921],[115.73019,3.89171],[115.73095,3.89136],[115.73099,3.89134],[115.73171,3.89086],[115.73241,3.8903],[115.73304,3.89003],[115.73309,3.89001],[115.73325,3.88998],[115.73376,3.88989],[115.73382,3.89004],[115.73397,3.89046],[115.73385,3.89066],[115.73413,3.89096],[115.73471,3.89113],[115.73485,3.89139],[115.73432,3.89164],[115.73413,3.89191],[115.73416,3.89193],[115.73443,3.89196],[115.73464,3.89199],[115.73464,3.89215],[115.73452,3.89238],[115.73441,3.89259],[115.73433,3.89271],[115.73444,3.89285],[115.7344,3.89297],[115.73413,3.89301],[115.7338,3.89309],[115.73351,3.89337],[115.73331,3.89351],[115.73295,3.89342],[115.73266,3.89342],[115.7325,3.89351],[115.73221,3.89365],[115.73186,3.8939],[115.73161,3.89454],[115.73155,3.89493],[115.73114,3.89513],[115.73121,3.89545],[115.73102,3.89568],[115.73084,3.89584],[115.73089,3.89628],[115.73106,3.89677],[115.73079,3.89716],[115.73058,3.89762],[115.73054,3.89794],[115.73037,3.89809],[115.75122,3.91572],[115.76393,3.92058],[115.77039,3.92166],[115.77191,3.92029],[115.77789,3.91467],[115.77952,3.91285],[115.79306,3.90386],[115.80098,3.89291],[115.80212,3.89152]]]]},"properties":{"kdprov":"65","kdkab":"04","kdkec":"020","kddesa":"022","kdsls":"2001","idsls":"65040200222001","nmprov":"KALIMANTAN UTARA","nmkab":"NUNUKAN","nmkec":"KRAYAN","nmdesa":"WA LAYA","nmsls":"HUTAN"}},{"type":"Feature","geometry":{"type":"MultiPolygon","coordinates":[[[[115.72193,3.8968],[115.7222,3.89635],[115.72314,3.89637],[115.72386,3.89616],[115.72394,3.89561],[115.72411,3.89465],[115.72417,3.89387],[115.72449,3.89299],[115.72494,3.89194],[115.72545,3.89118],[115.72533,3.89052],[115.7255,3.89007],[115.72622,3.88911],[115.72702,3.8886],[115.72814,3.88809],[115.72893,3.88558],[115.74506,3.84232],[115.7291,3.83253],[115.71725,3.8198],[115.71495,3.82833],[115.71157,3.84129],[115.71132,3.84231],[115.70648,3.86151],[115.70571,3.86456],[115.70451,3.86768],[115.70255,3.87278],[115.70216,3.87379],[115.69985,3.88108],[115.69897,3.88292],[115.69888,3.88313],[115.70611,3.88807],[115.71154,3.89293],[115.71425,3.90116],[115.71966,3.90023],[115.72179,3.89885],[115.72167,3.89844],[115.72193,3.8968]]]]},"properties":{"kdprov":"65","kdkab":"04","kdkec":"020","kddesa":"021","kdsls":"2001","idsls":"65040200212001","nmprov":"KALIMANTAN UTARA","nmkab":"NUNUKAN","nmkec":"KRAYAN","nmdesa":"LIANG BIADUNG","nmsls":"HUTAN"}},{"type":"Feature","geometry":{"type":"MultiPolygon","coordinates":[[[[115.74788,3.81653],[115.74756,3.81627],[115.74747,3.81604],[115.74747,3.816],[115.74744,3.81578],[115.74746,3.8154],[115.7474,3.8152],[115.74673,3.81523],[115.74635,3.81523],[115.74635,3.81534],[115.74632,3.81542],[115.74629,3.81547],[115.7463,3.81548],[115.7463,3.81551],[115.74632,3.81554],[115.74632,3.81554],[115.74633,3.81555],[115.74637,3.81557],[115.74642,3.81564],[115.74652,3.81573],[115.74656,3.81576],[115.74618,3.8167],[115.7462,3.81693],[115.74642,3.81702],[115.74706,3.81703],[115.74708,3.81703],[115.74711,3.81703],[115.74727,3.81705],[115.74742,3.81698],[115.74759,3.81689],[115.74791,3.81672],[115.74788,3.81656],[115.74788,3.81653]]]]},"properties":{"kdprov":"65","kdkab":"04","kdkec":"020","kddesa":"011","kdsls":"0001","idsls":"65040200110001","nmprov":"KALIMANTAN UTARA","nmkab":"NUNUKAN","nmkec":"KRAYAN","nmdesa":"CINGLAT","nmsls":"RT 001"}},{"type":"Feature","geometry":{"type":"MultiPolygon","coordinates":[[[[115.82364,3.85304],[115.82364,3.85304],[115.82365,3.85302],[115.82178,3.85229],[115.81998,3.85158],[115.81697,3.85083],[115.81353,3.84997],[115.81009,3.84911],[115.80992,3.84907],[115.80986,3.84905],[115.80924,3.8489],[115.80872,3.84901],[115.80567,3.84969],[115.8032,3.85024],[115.79855,3.84972],[115.79851,3.84972],[115.79742,3.8496],[115.79716,3.84957],[115.79701,3.84948],[115.79687,3.8494],[115.79674,3.84932],[115.7938,3.84755],[115.79129,3.84567],[115.78624,3.84188],[115.78575,3.84151],[115.78365,3.84103],[115.78033,3.84026],[115.77702,3.8395],[115.77699,3.83947],[115.77614,3.83844],[115.77529,3.83742],[115.77367,3.83547],[115.77232,3.8301],[115.76159,3.82422],[115.75431,3.82036],[115.74751,3.81708],[115.74727,3.81705],[115.74711,3.81703],[115.74708,3.81703],[115.74706,3.81703],[115.74642,3.81702],[115.7462,3.81693],[115.74618,3.8167],[115.74573,3.81684],[115.74522,3.81704],[115.74458,3.81745],[115.74381,3.81778],[115.74312,3.818],[115.74276,3.81813],[115.74269,3.81785],[115.74259,3.81748],[115.74255,3.81713],[115.74229,3.81695],[115.74239,3.81666],[115.74327,3.81626],[115.74381,3.81613],[115.74462,3.81577],[115.74544,3.81557],[115.74615,3.81525],[115.74635,3.81522],[115.74632,3.81512],[115.74418,3.8091],[115.74525,3.80147],[115.74466,3.7915],[115.74167,3.78198],[115.74188,3.78482],[115.74219,3.78916],[115.74238,3.79185],[115.74167,3.7982],[115.73998,3.80159],[115.73885,3.80384],[115.73615,3.80708],[115.73533,3.80807],[115.72609,3.81252],[115.72486,3.81329],[115.72339,3.81421],[115.72193,3.81512],[115.72009,3.81696],[115.71725,3.8198],[115.7291,3.83253],[115.74506,3.84232],[115.75051,3.84566],[115.78278,3.86379],[115.79391,3.88035],[115.80212,3.89152],[115.80814,3.88422],[115.8099,3.87926],[115.80993,3.87876],[115.81042,3.87213],[115.81588,3.86338],[115.81608,3.86306],[115.82286,3.85589],[115.82362,3.85311],[115.82364,3.85305],[115.82364,3.85304]]]]},"properties":{"kdprov":"65","kdkab":"04","kdkec":"020","kddesa":"020","kdsls":"2001","idsls":"65040200202001","nmprov":"KALIMANTAN UTARA","nmkab":"NUNUKAN","nmkec":"KRAYAN","nmdesa":"PA PADI","nmsls":"HUTAN"}},{"type":"Feature","geometry":{"type":"MultiPolygon","coordinates":[[[[115.77039,3.92166],[115.76393,3.92058],[115.75122,3.91572],[115.73037,3.89809],[115.73014,3.8979],[115.72997,3.89799],[115.72989,3.89803],[115.72974,3.8982],[115.72956,3.89866],[115.7292,3.89911],[115.72879,3.89936],[115.72848,3.89907],[115.72781,3.89908],[115.72778,3.89911],[115.72778,3.89918],[115.72772,3.89929],[115.7275,3.89934],[115.72748,3.89934],[115.72699,3.89963],[115.72675,3.89973],[115.72672,3.89976],[115.72676,3.90219],[115.72676,3.90222],[115.72781,3.90564],[115.72952,3.90869],[115.73419,3.91221],[115.73539,3.91399],[115.73657,3.91573],[115.73682,3.91792],[115.73685,3.91821],[115.73619,3.92125],[115.73417,3.92537],[115.73464,3.92603],[115.73492,3.9266],[115.73549,3.92756],[115.73596,3.92803],[115.73653,3.92851],[115.73686,3.92875],[115.73719,3.92899],[115.73776,3.92956],[115.73861,3.93041],[115.73936,3.93061],[115.74013,3.93089],[115.74041,3.93118],[115.74078,3.93165],[115.74117,3.93194],[115.74158,3.93206],[115.74183,3.93213],[115.74249,3.93223],[115.74315,3.93242],[115.74389,3.93264],[115.74386,3.93272],[115.74564,3.93217],[115.76541,3.92599],[115.76569,3.9259],[115.76804,3.92378],[115.77039,3.92166]]]]},"properties":{"kdprov":"65","kdkab":"04","kdkec":"020","kddesa":"028","kdsls":"2001","idsls":"65040200282001","nmprov":"KALIMANTAN UTARA","nmkab":"NUNUKAN","nmkec":"KRAYAN","nmdesa":"PA TERUTUN","nmsls":"HUTAN"}},{"type":"Feature","geometry":{"type":"MultiPolygon","coordinates":[[[[115.71545,3.90481],[115.71425,3.90116],[115.71154,3.89293],[115.70611,3.88807],[115.69888,3.88313],[115.69647,3.88818],[115.6936,3.89242],[115.69676,3.89459],[115.6984,3.89691],[115.69929,3.90069],[115.69956,3.90234],[115.69975,3.90246],[115.70025,3.90246],[115.70039,3.90234],[115.70067,3.90239],[115.70124,3.90259],[115.70158,3.90263],[115.70194,3.90274],[115.70219,3.90292],[115.70241,3.90319],[115.70281,3.90318],[115.70338,3.90327],[115.70381,3.9037],[115.70356,3.90403],[115.70336,3.90436],[115.70296,3.90445],[115.70242,3.90453],[115.70225,3.90451],[115.70221,3.90459],[115.70205,3.90504],[115.70195,3.90541],[115.70188,3.9059],[115.70198,3.90593],[115.70209,3.90602],[115.70227,3.90613],[115.70249,3.90623],[115.70261,3.90637],[115.70263,3.90655],[115.70284,3.90667],[115.70303,3.90679],[115.70347,3.90688],[115.70348,3.90718],[115.70286,3.90729],[115.70255,3.90764],[115.70236,3.90746],[115.70201,3.90723],[115.70162,3.90691],[115.70117,3.9067],[115.70088,3.90676],[115.70081,3.90679],[115.70077,3.90697],[115.70078,3.90723],[115.70047,3.90768],[115.7001,3.9079],[115.69952,3.90822],[115.69944,3.90832],[115.69937,3.9084],[115.69925,3.90872],[115.69989,3.90984],[115.70069,3.91144],[115.70291,3.91247],[115.70363,3.91326],[115.70451,3.9151],[115.70674,3.91604],[115.71095,3.9178],[115.71283,3.91859],[115.71426,3.91969],[115.71528,3.92047],[115.71673,3.92158],[115.71658,3.91387],[115.71601,3.90654],[115.71545,3.90481]]]]},"properties":{"kdprov":"65","kdkab":"04","kdkec":"020","kddesa":"029","kdsls":"2001","idsls":"65040200292001","nmprov":"KALIMANTAN UTARA","nmkab":"NUNUKAN","nmkec":"KRAYAN","nmdesa":"LONG BAWAN","nmsls":"HUTAN"}},{"type":"Feature","geometry":{"type":"MultiPolygon","coordinates":[[[[115.72971,3.89339],[115.73038,3.8941],[115.73038,3.8941],[115.73039,3.89411],[115.73039,3.89412],[115.73082,3.89369],[115.73145,3.89316],[115.73266,3.89249],[115.73416,3.89193],[115.73413,3.89191],[115.73432,3.89164],[115.73485,3.89139],[115.73471,3.89113],[115.73413,3.89096],[115.73385,3.89066],[115.73397,3.89046],[115.73382,3.89004],[115.73376,3.88989],[115.73325,3.88998],[115.73309,3.89001],[115.73304,3.89003],[115.73241,3.8903],[115.73171,3.89086],[115.73099,3.89134],[115.73095,3.89136],[115.73019,3.89171],[115.72981,3.8921],[115.72976,3.89264],[115.72971,3.89315],[115.72971,3.89315],[115.72949,3.89338],[115.72926,3.89332],[115.72894,3.89365],[115.72866,3.89391],[115.72847,3.89408],[115.72856,3.89425],[115.72866,3.89444],[115.72971,3.89339]]]]},"properties":{"kdprov":"65","kdkab":"04","kdkec":"020","kddesa":"022","kdsls":"0002","idsls":"65040200220002","nmprov":"KALIMANTAN UTARA","nmkab":"NUNUKAN","nmkec":"KRAYAN","nmdesa":"WA LAYA","nmsls":"RT 002"}},{"type":"Feature","geometry":{"type":"MultiPolygon","coordinates":[[[[115.73416,3.89193],[115.73266,3.89249],[115.73145,3.89316],[115.73082,3.89369],[115.73039,3.89412],[115.73041,3.89414],[115.73106,3.89466],[115.73091,3.89487],[115.73053,3.89499],[115.73029,3.89506],[115.73017,3.89509],[115.72988,3.89517],[115.72986,3.89522],[115.73019,3.89544],[115.7302,3.89543],[115.73045,3.89556],[115.73061,3.89573],[115.73084,3.89584],[115.73102,3.89568],[115.73121,3.89545],[115.73114,3.89513],[115.73155,3.89493],[115.73161,3.89454],[115.73186,3.8939],[115.73221,3.89365],[115.7325,3.89351],[115.73266,3.89342],[115.73295,3.89342],[115.73331,3.89351],[115.73351,3.89337],[115.7338,3.89309],[115.73413,3.89301],[115.7344,3.89297],[115.73444,3.89285],[115.73433,3.89271],[115.73441,3.89259],[115.73452,3.89238],[115.73464,3.89215],[115.73464,3.89199],[115.73443,3.89196],[115.73416,3.89193]]]]},"properties":{"kdprov":"65","kdkab":"04","kdkec":"020","kddesa":"022","kdsls":"0001","idsls":"65040200220001","nmprov":"KALIMANTAN UTARA","nmkab":"NUNUKAN","nmkec":"KRAYAN","nmdesa":"WA LAYA","nmsls":"RT 001"}},{"type":"Feature","geometry":{"type":"MultiPolygon","coordinates":[[[[115.69543,3.90614],[115.69564,3.90605],[115.69592,3.90588],[115.69605,3.90576],[115.69589,3.90575],[115.69461,3.90475],[115.69381,3.9041],[115.69346,3.90391],[115.69349,3.90339],[115.69362,3.90253],[115.69155,3.89991],[115.69103,3.89928],[115.69056,3.89852],[115.69025,3.89791],[115.69039,3.89785],[115.69082,3.89753],[115.69117,3.89781],[115.69159,3.8982],[115.69212,3.89887],[115.69247,3.89863],[115.69251,3.89832],[115.69311,3.89798],[115.69358,3.89866],[115.69393,3.89905],[115.69446,3.89937],[115.69505,3.89919],[115.69576,3.89991],[115.6962,3.90035],[115.69663,3.90062],[115.69688,3.90054],[115.69714,3.90062],[115.69707,3.9011],[115.69719,3.90164],[115.69716,3.9021],[115.69715,3.90276],[115.69737,3.90315],[115.69747,3.90356],[115.6982,3.90378],[115.69863,3.90385],[115.69901,3.90384],[115.69979,3.90377],[115.69956,3.90234],[115.69929,3.90069],[115.6984,3.89691],[115.69676,3.89459],[115.6936,3.89242],[115.69349,3.89258],[115.6931,3.89315],[115.69089,3.89651],[115.69033,3.89736],[115.68847,3.89761],[115.68861,3.8987],[115.68914,3.9018],[115.69003,3.90578],[115.69049,3.90735],[115.69186,3.90731],[115.69362,3.90692],[115.69543,3.90614]]]]},"properties":{"kdprov":"65","kdkab":"04","kdkec":"020","kddesa":"063","kdsls":"2001","idsls":"65040200632001","nmprov":"KALIMANTAN UTARA","nmkab":"NUNUKAN","nmkec":"KRAYAN","nmdesa":"LIANG BUTAN","nmsls":"HUTAN"}},{"type":"Feature","geometry":{"type":"MultiPolygon","coordinates":[[[[115.72971,3.89315],[115.72968,3.89308],[115.72955,3.89286],[115.72924,3.89247],[115.72917,3.89253],[115.72907,3.89257],[115.72874,3.89269],[115.72828,3.8928],[115.72803,3.89284],[115.72797,3.89285],[115.72794,3.89286],[115.72782,3.89295],[115.72756,3.89297],[115.72744,3.89298],[115.72778,3.89318],[115.72811,3.89359],[115.72823,3.89372],[115.72838,3.89391],[115.72847,3.89408],[115.72866,3.89391],[115.72894,3.89365],[115.72926,3.89332],[115.72949,3.89338],[115.72971,3.89315]]]]},"properties":{"kdprov":"65","kdkab":"04","kdkec":"020","kddesa":"010","kdsls":"2001","idsls":"65040200102001","nmprov":"KALIMANTAN UTARA","nmkab":"NUNUKAN","nmkec":"KRAYAN","nmdesa":"PA PUTUK","nmsls":"HUTAN"}},{"type":"Feature","geometry":{"type":"MultiPolygon","coordinates":[[[[115.72796,3.8945],[115.72813,3.89439],[115.72818,3.89417],[115.72811,3.89393],[115.72823,3.89372],[115.72811,3.89359],[115.72778,3.89318],[115.72744,3.89298],[115.72736,3.89299],[115.72716,3.893],[115.72683,3.89316],[115.72664,3.89346],[115.72676,3.8936],[115.72714,3.89403],[115.72739,3.89426],[115.72751,3.89438],[115.72782,3.89459],[115.72787,3.89465],[115.72796,3.8945]]]]},"properties":{"kdprov":"65","kdkab":"04","kdkec":"020","kddesa":"009","kdsls":"2001","idsls":"65040200092001","nmprov":"KALIMANTAN UTARA","nmkab":"NUNUKAN","nmkec":"KRAYAN","nmdesa":"PA MATUNG","nmsls":"HUTAN"}},{"type":"Feature","geometry":{"type":"MultiPolygon","coordinates":[[[[115.72986,3.89522],[115.72988,3.89517],[115.73017,3.89509],[115.73029,3.89506],[115.73053,3.89499],[115.73091,3.89487],[115.73106,3.89466],[115.73041,3.89414],[115.73039,3.89412],[115.73039,3.89411],[115.73038,3.8941],[115.73038,3.8941],[115.7302,3.89427],[115.72965,3.89489],[115.72955,3.89501],[115.72942,3.89521],[115.72925,3.89523],[115.72897,3.8949],[115.72878,3.89468],[115.72866,3.89444],[115.72856,3.89425],[115.72847,3.89408],[115.72838,3.89391],[115.72823,3.89372],[115.72811,3.89393],[115.72818,3.89417],[115.72813,3.89439],[115.72796,3.8945],[115.72787,3.89465],[115.72809,3.89496],[115.72811,3.89503],[115.72812,3.89504],[115.72819,3.89514],[115.72833,3.89521],[115.72832,3.89524],[115.72836,3.89528],[115.72844,3.89536],[115.72858,3.8955],[115.72873,3.89565],[115.72876,3.89569],[115.72881,3.89577],[115.72891,3.89582],[115.72907,3.8959],[115.7292,3.8961],[115.72931,3.89627],[115.72941,3.89626],[115.72945,3.89619],[115.72979,3.89542],[115.72986,3.89522]]]]},"properties":{"kdprov":"65","kdkab":"04","kdkec":"020","kddesa":"009","kdsls":"0001","idsls":"65040200090001","nmprov":"KALIMANTAN UTARA","nmkab":"NUNUKAN","nmkec":"KRAYAN","nmdesa":"PA MATUNG","nmsls":"RT 001"}},{"type":"Feature","geometry":{"type":"MultiPolygon","coordinates":[[[[115.73084,3.89584],[115.73061,3.89573],[115.73045,3.89556],[115.7302,3.89543],[115.73019,3.89544],[115.72986,3.89522],[115.72979,3.89542],[115.72945,3.89619],[115.72941,3.89626],[115.72931,3.89627],[115.7293,3.8963],[115.72931,3.89633],[115.72941,3.89638],[115.7302,3.89683],[115.73021,3.89708],[115.73018,3.89724],[115.73,3.89778],[115.73014,3.8979],[115.73037,3.89809],[115.73054,3.89794],[115.73058,3.89762],[115.73079,3.89716],[115.73106,3.89677],[115.73089,3.89628],[115.73084,3.89584]]]]},"properties":{"kdprov":"65","kdkab":"04","kdkec":"020","kddesa":"022","kdsls":"0003","idsls":"65040200220003","nmprov":"KALIMANTAN UTARA","nmkab":"NUNUKAN","nmkec":"KRAYAN","nmdesa":"WA LAYA","nmsls":"RT 003"}},{"type":"Feature","geometry":{"type":"MultiPolygon","coordinates":[[[[115.73419,3.91221],[115.72952,3.90869],[115.72781,3.90564],[115.72676,3.90222],[115.72676,3.90219],[115.72672,3.89976],[115.72672,3.89975],[115.72659,3.89966],[115.72623,3.89929],[115.72581,3.89881],[115.72562,3.89837],[115.72563,3.89795],[115.72581,3.89739],[115.72605,3.89674],[115.72657,3.89662],[115.72678,3.89654],[115.72684,3.89645],[115.72644,3.89655],[115.72643,3.89651],[115.7264,3.89645],[115.7264,3.89644],[115.72602,3.89653],[115.72395,3.90014],[115.72023,3.90338],[115.71545,3.90481],[115.71601,3.90654],[115.71658,3.91387],[115.71673,3.92158],[115.71785,3.92249],[115.71834,3.92289],[115.71918,3.92305],[115.71936,3.92308],[115.71945,3.92351],[115.71946,3.9236],[115.71978,3.92354],[115.72016,3.92335],[115.72034,3.92325],[115.72054,3.92306],[115.72073,3.92287],[115.7212,3.9224],[115.72148,3.92211],[115.72182,3.92205],[115.72243,3.92193],[115.72281,3.92202],[115.72394,3.92264],[115.72404,3.92269],[115.72508,3.9226],[115.72565,3.9225],[115.72659,3.92241],[115.72745,3.9226],[115.72745,3.9226],[115.7282,3.9227],[115.72925,3.92298],[115.72991,3.92327],[115.73067,3.92356],[115.73132,3.92386],[115.7317,3.92403],[115.73237,3.92432],[115.73303,3.9246],[115.7337,3.92499],[115.73417,3.92537],[115.73619,3.92125],[115.73685,3.91821],[115.73682,3.91792],[115.73657,3.91573],[115.73539,3.91399],[115.73419,3.91221]]]]},"properties":{"kdprov":"65","kdkab":"04","kdkec":"020","kddesa":"023","kdsls":"2001","idsls":"65040200232001","nmprov":"KALIMANTAN UTARA","nmkab":"NUNUKAN","nmkec":"KRAYAN","nmdesa":"LONG MATUNG","nmsls":"HUTAN"}},{"type":"Feature","geometry":{"type":"MultiPolygon","coordinates":[[[[115.69212,3.89887],[115.69159,3.8982],[115.69117,3.89781],[115.69082,3.89753],[115.69039,3.89785],[115.69025,3.89791],[115.69056,3.89852],[115.69103,3.89928],[115.69155,3.89991],[115.69362,3.90253],[115.69349,3.90339],[115.69455,3.9034],[115.69521,3.90354],[115.69569,3.90363],[115.696,3.90359],[115.69574,3.90273],[115.69562,3.90249],[115.6953,3.9021],[115.69399,3.90074],[115.69299,3.89975],[115.69212,3.89887]]]]},"properties":{"kdprov":"65","kdkab":"04","kdkec":"020","kddesa":"063","kdsls":"0005","idsls":"65040200630005","nmprov":"KALIMANTAN UTARA","nmkab":"NUNUKAN","nmkec":"KRAYAN","nmdesa":"LIANG BUTAN","nmsls":"RT 005"}},{"type":"Feature","geometry":{"type":"MultiPolygon","coordinates":[[[[115.67648,3.9127],[115.67621,3.91189],[115.6754,3.9097],[115.67493,3.90499],[115.67507,3.90213],[115.67578,3.89913],[115.67618,3.89761],[115.67342,3.89785],[115.66626,3.89848],[115.66323,3.89874],[115.66329,3.8993],[115.66362,3.90224],[115.6648,3.91271],[115.66495,3.91405],[115.66501,3.91427],[115.6652,3.91506],[115.66598,3.91501],[115.66639,3.91549],[115.66678,3.91555],[115.66742,3.9151],[115.66787,3.91502],[115.66858,3.91477],[115.67061,3.91432],[115.67183,3.91405],[115.67378,3.91373],[115.67492,3.91329],[115.67561,3.91294],[115.67648,3.9127]]]]},"properties":{"kdprov":"65","kdkab":"04","kdkec":"020","kddesa":"053","kdsls":"2001","idsls":"65040200532001","nmprov":"KALIMANTAN UTARA","nmkab":"NUNUKAN","nmkec":"KRAYAN","nmdesa":"PA SIRE","nmsls":"HUTAN"}},{"type":"Feature","geometry":{"type":"MultiPolygon","coordinates":[[[[115.69619,3.90408],[115.69654,3.90407],[115.69687,3.90408],[115.69703,3.90408],[115.69746,3.90409],[115.69747,3.90356],[115.69737,3.90315],[115.69715,3.90276],[115.69716,3.9021],[115.69719,3.90164],[115.69707,3.9011],[115.69714,3.90062],[115.69688,3.90054],[115.69663,3.90062],[115.6962,3.90035],[115.69576,3.89991],[115.69505,3.89919],[115.69446,3.89937],[115.69393,3.89905],[115.69358,3.89866],[115.69311,3.89798],[115.69251,3.89832],[115.69247,3.89863],[115.69212,3.89887],[115.69299,3.89975],[115.69399,3.90074],[115.6953,3.9021],[115.69562,3.90249],[115.69574,3.90273],[115.696,3.90359],[115.69619,3.90408]]]]},"properties":{"kdprov":"65","kdkab":"04","kdkec":"020","kddesa":"063","kdsls":"0004","idsls":"65040200630004","nmprov":"KALIMANTAN UTARA","nmkab":"NUNUKAN","nmkec":"KRAYAN","nmdesa":"LIANG BUTAN","nmsls":"RT 004"}},{"type":"Feature","geometry":{"type":"MultiPolygon","coordinates":[[[[115.69956,3.90234],[115.69979,3.90377],[115.69983,3.90405],[115.69998,3.9038],[115.70024,3.90374],[115.70084,3.90372],[115.70087,3.90371],[115.70128,3.90369],[115.70172,3.90366],[115.70207,3.90385],[115.70235,3.9043],[115.70225,3.90451],[115.70242,3.90453],[115.70296,3.90445],[115.70336,3.90436],[115.70356,3.90403],[115.70381,3.9037],[115.70338,3.90327],[115.70281,3.90318],[115.70241,3.90319],[115.70219,3.90292],[115.70194,3.90274],[115.70158,3.90263],[115.70124,3.90259],[115.70067,3.90239],[115.70039,3.90234],[115.70025,3.90246],[115.69975,3.90246],[115.69956,3.90234]]]]},"properties":{"kdprov":"65","kdkab":"04","kdkec":"020","kddesa":"029","kdsls":"0004","idsls":"65040200290004","nmprov":"KALIMANTAN UTARA","nmkab":"NUNUKAN","nmkec":"KRAYAN","nmdesa":"LONG BAWAN","nmsls":"RT 004"}},{"type":"Feature","geometry":{"type":"MultiPolygon","coordinates":[[[[115.70225,3.90451],[115.70235,3.9043],[115.70207,3.90385],[115.70172,3.90366],[115.70128,3.90369],[115.70087,3.90371],[115.70088,3.90399],[115.70093,3.90442],[115.70098,3.90495],[115.70109,3.90538],[115.70108,3.9054],[115.70154,3.90556],[115.70165,3.90587],[115.70177,3.90587],[115.70188,3.9059],[115.70195,3.90541],[115.70205,3.90504],[115.70221,3.90459],[115.70225,3.90451]]]]},"properties":{"kdprov":"65","kdkab":"04","kdkec":"020","kddesa":"029","kdsls":"0002","idsls":"65040200290002","nmprov":"KALIMANTAN UTARA","nmkab":"NUNUKAN","nmkec":"KRAYAN","nmdesa":"LONG BAWAN","nmsls":"RT 002"}},{"type":"Feature","geometry":{"type":"MultiPolygon","coordinates":[[[[115.70087,3.90371],[115.70084,3.90372],[115.70024,3.90374],[115.69998,3.9038],[115.69983,3.90405],[115.69983,3.90407],[115.69982,3.90411],[115.69981,3.90417],[115.69979,3.90422],[115.69976,3.90429],[115.69968,3.90436],[115.69959,3.90447],[115.69959,3.90448],[115.69955,3.90466],[115.69957,3.90477],[115.69955,3.90487],[115.69954,3.90492],[115.69951,3.90515],[115.69951,3.90519],[115.70033,3.90528],[115.70109,3.90538],[115.70098,3.90495],[115.70093,3.90442],[115.70088,3.90399],[115.70087,3.90371]]]]},"properties":{"kdprov":"65","kdkab":"04","kdkec":"020","kddesa":"029","kdsls":"0003","idsls":"65040200290003","nmprov":"KALIMANTAN UTARA","nmkab":"NUNUKAN","nmkec":"KRAYAN","nmdesa":"LONG BAWAN","nmsls":"RT 003"}},{"type":"Feature","geometry":{"type":"MultiPolygon","coordinates":[[[[115.69755,3.90586],[115.69735,3.90584],[115.69732,3.9057],[115.69733,3.90531],[115.69739,3.90501],[115.69738,3.90501],[115.69732,3.905],[115.69722,3.90497],[115.69707,3.90491],[115.69659,3.90482],[115.69632,3.90482],[115.69617,3.9049],[115.69613,3.90509],[115.69616,3.90526],[115.69627,3.90561],[115.69611,3.90571],[115.69605,3.90576],[115.69592,3.90588],[115.69564,3.90605],[115.69543,3.90614],[115.69605,3.90679],[115.6962,3.90683],[115.69629,3.90681],[115.69655,3.90681],[115.69687,3.90685],[115.69699,3.90705],[115.69732,3.90747],[115.69745,3.90706],[115.69751,3.90661],[115.69754,3.9059],[115.69755,3.90586]]]]},"properties":{"kdprov":"65","kdkab":"04","kdkec":"020","kddesa":"025","kdsls":"0001","idsls":"65040200250001","nmprov":"KALIMANTAN UTARA","nmkab":"NUNUKAN","nmkec":"KRAYAN","nmdesa":"LONG KATUNG","nmsls":"RT 001"}},{"type":"Feature","geometry":{"type":"MultiPolygon","coordinates":[[[[115.6995,3.90525],[115.6995,3.90525],[115.6995,3.90525],[115.69946,3.90525],[115.69919,3.90513],[115.69853,3.9051],[115.69805,3.90503],[115.69747,3.90499],[115.6974,3.905],[115.6974,3.90501],[115.69739,3.90501],[115.69733,3.90531],[115.69732,3.9057],[115.69735,3.90584],[115.69755,3.90586],[115.69824,3.90594],[115.69869,3.90604],[115.69907,3.90606],[115.69943,3.90617],[115.69954,3.90613],[115.69965,3.90587],[115.69962,3.90556],[115.69948,3.90532],[115.6995,3.90525]]]]},"properties":{"kdprov":"65","kdkab":"04","kdkec":"020","kddesa":"025","kdsls":"0002","idsls":"65040200250002","nmprov":"KALIMANTAN UTARA","nmkab":"NUNUKAN","nmkec":"KRAYAN","nmdesa":"LONG KATUNG","nmsls":"RT 002"}},{"type":"Feature","geometry":{"type":"MultiPolygon","coordinates":[[[[115.70188,3.9059],[115.70177,3.90587],[115.70165,3.90587],[115.70154,3.90556],[115.70108,3.9054],[115.70109,3.90538],[115.70033,3.90528],[115.69951,3.90519],[115.6995,3.90525],[115.6995,3.90525],[115.69948,3.90532],[115.69962,3.90556],[115.69965,3.90587],[115.69954,3.90613],[115.70011,3.90619],[115.70068,3.90628],[115.70091,3.90639],[115.70081,3.90679],[115.70088,3.90676],[115.70117,3.9067],[115.70162,3.90691],[115.70201,3.90723],[115.70236,3.90746],[115.70255,3.90764],[115.70286,3.90729],[115.70348,3.90718],[115.70347,3.90688],[115.70303,3.90679],[115.70284,3.90667],[115.70263,3.90655],[115.70261,3.90637],[115.70249,3.90623],[115.70227,3.90613],[115.70209,3.90602],[115.70198,3.90593],[115.70188,3.9059]]]]},"properties":{"kdprov":"65","kdkab":"04","kdkec":"020","kddesa":"029","kdsls":"0001","idsls":"65040200290001","nmprov":"KALIMANTAN UTARA","nmkab":"NUNUKAN","nmkec":"KRAYAN","nmdesa":"LONG BAWAN","nmsls":"RT 001"}},{"type":"Feature","geometry":{"type":"MultiPolygon","coordinates":[[[[115.70077,3.90697],[115.70081,3.90679],[115.70091,3.90639],[115.70068,3.90628],[115.70011,3.90619],[115.69954,3.90613],[115.69943,3.90617],[115.69907,3.90606],[115.69869,3.90604],[115.69824,3.90594],[115.69755,3.90586],[115.69754,3.9059],[115.69751,3.90661],[115.69745,3.90706],[115.69732,3.90747],[115.69789,3.90732],[115.69822,3.90747],[115.69839,3.90782],[115.69846,3.9081],[115.6986,3.90815],[115.69879,3.90819],[115.69926,3.90826],[115.69944,3.90832],[115.69952,3.90822],[115.7001,3.9079],[115.70047,3.90768],[115.70078,3.90723],[115.70077,3.90697]]]]},"properties":{"kdprov":"65","kdkab":"04","kdkec":"020","kddesa":"025","kdsls":"0003","idsls":"65040200250003","nmprov":"KALIMANTAN UTARA","nmkab":"NUNUKAN","nmkec":"KRAYAN","nmdesa":"LONG KATUNG","nmsls":"RT 003"}},{"type":"Feature","geometry":{"type":"MultiPolygon","coordinates":[[[[115.67001,3.91477],[115.6714,3.91498],[115.67319,3.91494],[115.67451,3.91452],[115.67678,3.91333],[115.67698,3.91323],[115.67708,3.9132],[115.6771,3.91319],[115.67711,3.91319],[115.67712,3.91321],[115.67714,3.91322],[115.67715,3.91322],[115.67714,3.9132],[115.67714,3.91319],[115.67713,3.91319],[115.67711,3.91318],[115.67709,3.91318],[115.67707,3.91317],[115.6765,3.91274],[115.67648,3.9127],[115.67561,3.91294],[115.67492,3.91329],[115.67378,3.91373],[115.67183,3.91405],[115.67061,3.91432],[115.66858,3.91477],[115.66787,3.91502],[115.66742,3.9151],[115.66678,3.91555],[115.66639,3.91549],[115.66598,3.91501],[115.6652,3.91506],[115.66509,3.91581],[115.66506,3.91596],[115.66505,3.91603],[115.66545,3.91599],[115.66576,3.91602],[115.6659,3.91603],[115.66617,3.91619],[115.66635,3.91638],[115.66641,3.91635],[115.66644,3.91633],[115.6665,3.91643],[115.66653,3.91648],[115.66656,3.91653],[115.66659,3.91658],[115.66662,3.91665],[115.66654,3.91669],[115.66648,3.91672],[115.66652,3.91679],[115.66684,3.91663],[115.66717,3.91631],[115.66727,3.91623],[115.66751,3.91605],[115.66919,3.91484],[115.67001,3.91477]]]]},"properties":{"kdprov":"65","kdkab":"04","kdkec":"020","kddesa":"053","kdsls":"0001","idsls":"65040200530001","nmprov":"KALIMANTAN UTARA","nmkab":"NUNUKAN","nmkec":"KRAYAN","nmdesa":"PA SIRE","nmsls":"RT 001"}},{"type":"Feature","geometry":{"type":"MultiPolygon","coordinates":[[[[115.69355,3.91349],[115.69164,3.91225],[115.69125,3.912],[115.69105,3.91175],[115.69103,3.91155],[115.69102,3.91144],[115.69104,3.91134],[115.69109,3.91132],[115.69129,3.91141],[115.69137,3.9114],[115.69128,3.9113],[115.69116,3.91128],[115.69098,3.91131],[115.69092,3.91142],[115.69063,3.91143],[115.69007,3.9114],[115.68938,3.91141],[115.68874,3.91144],[115.68789,3.91138],[115.68733,3.91132],[115.68679,3.91104],[115.6864,3.91073],[115.68598,3.91047],[115.68569,3.91022],[115.68539,3.91019],[115.68441,3.91024],[115.68393,3.91036],[115.68344,3.91056],[115.6822,3.91104],[115.68049,3.9117],[115.68054,3.91209],[115.6807,3.91232],[115.68112,3.91219],[115.68137,3.91211],[115.68148,3.91226],[115.68161,3.91242],[115.68166,3.91266],[115.68167,3.91312],[115.68187,3.9135],[115.68209,3.91442],[115.68217,3.91452],[115.68224,3.91445],[115.68265,3.91407],[115.6825,3.9135],[115.6827,3.91305],[115.6832,3.91256],[115.68377,3.9122],[115.6841,3.91191],[115.68449,3.91142],[115.68505,3.9116],[115.68531,3.91173],[115.68569,3.91185],[115.68607,3.91165],[115.68621,3.91164],[115.68687,3.91159],[115.68716,3.91178],[115.68729,3.91235],[115.6873,3.91272],[115.6875,3.91298],[115.68792,3.91299],[115.68851,3.91313],[115.68879,3.91313],[115.68881,3.91358],[115.689,3.91391],[115.68928,3.91391],[115.69004,3.91386],[115.69111,3.9138],[115.69219,3.91368],[115.69326,3.91357],[115.69355,3.91349]]]]},"properties":{"kdprov":"65","kdkab":"04","kdkec":"020","kddesa":"035","kdsls":"0001","idsls":"65040200350001","nmprov":"KALIMANTAN UTARA","nmkab":"NUNUKAN","nmkec":"KRAYAN","nmdesa":"LONG NAWANG","nmsls":"RT 001"}},{"type":"Feature","geometry":{"type":"MultiPolygon","coordinates":[[[[115.69954,3.90492],[115.69934,3.90491],[115.69935,3.90472],[115.69887,3.9047],[115.69839,3.90468],[115.69798,3.90467],[115.69766,3.90464],[115.69742,3.90464],[115.69737,3.90495],[115.6974,3.905],[115.69747,3.90499],[115.69805,3.90503],[115.69853,3.9051],[115.69919,3.90513],[115.69946,3.90525],[115.6995,3.90525],[115.6995,3.90525],[115.69951,3.90519],[115.69951,3.90515],[115.69954,3.90492]]]]},"properties":{"kdprov":"65","kdkab":"04","kdkec":"020","kddesa":"063","kdsls":"0001","idsls":"65040200630001","nmprov":"KALIMANTAN UTARA","nmkab":"NUNUKAN","nmkec":"KRAYAN","nmdesa":"LIANG BUTAN","nmsls":"RT 001"}},{"type":"Feature","geometry":{"type":"MultiPolygon","coordinates":[[[[115.72723,3.89779],[115.72717,3.89799],[115.72685,3.89837],[115.72768,3.89905],[115.72788,3.89904],[115.72791,3.89907],[115.72794,3.89907],[115.72814,3.89896],[115.72826,3.89883],[115.72832,3.89874],[115.72852,3.89864],[115.7286,3.89835],[115.72847,3.89817],[115.7285,3.89777],[115.72869,3.89747],[115.72854,3.89733],[115.72826,3.89743],[115.7281,3.8975],[115.72781,3.89755],[115.72756,3.89775],[115.72723,3.89779]]]]},"properties":{"kdprov":"65","kdkab":"04","kdkec":"020","kddesa":"023","kdsls":"0001","idsls":"65040200230001","nmprov":"KALIMANTAN UTARA","nmkab":"NUNUKAN","nmkec":"KRAYAN","nmdesa":"LONG MATUNG","nmsls":"RT 001"}},{"type":"Feature","geometry":{"type":"MultiPolygon","coordinates":[[[[115.72602,3.89653],[115.72577,3.89653],[115.72566,3.89637],[115.72547,3.8963],[115.72537,3.8962],[115.72518,3.89589],[115.72498,3.89634],[115.72473,3.89703],[115.72434,3.89743],[115.72287,3.89816],[115.72179,3.89885],[115.71966,3.90023],[115.71425,3.90116],[115.71545,3.90481],[115.72023,3.90338],[115.72395,3.90014],[115.72602,3.89653]]]]},"properties":{"kdprov":"65","kdkab":"04","kdkec":"020","kddesa":"024","kdsls":"2001","idsls":"65040200242001","nmprov":"KALIMANTAN UTARA","nmkab":"NUNUKAN","nmkec":"KRAYAN","nmdesa":"LONG RUPAN","nmsls":"HUTAN"}},{"type":"Feature","geometry":{"type":"MultiPolygon","coordinates":[[[[115.72703,3.89635],[115.72696,3.89645],[115.72684,3.89645],[115.72678,3.89654],[115.72657,3.89662],[115.72605,3.89674],[115.72581,3.89739],[115.72563,3.89795],[115.72562,3.89837],[115.72581,3.89881],[115.72623,3.89929],[115.72659,3.89966],[115.72672,3.89975],[115.72672,3.89976],[115.72675,3.89973],[115.72699,3.89963],[115.72748,3.89934],[115.7275,3.89934],[115.72772,3.89929],[115.72778,3.89918],[115.72778,3.89911],[115.72781,3.89908],[115.72791,3.89907],[115.72788,3.89904],[115.72768,3.89905],[115.72685,3.89837],[115.72717,3.89799],[115.72723,3.89779],[115.72708,3.89764],[115.72699,3.89753],[115.72721,3.89728],[115.72762,3.89679],[115.72772,3.89667],[115.72806,3.89643],[115.72781,3.8962],[115.72771,3.89626],[115.7276,3.89632],[115.72733,3.8964],[115.7271,3.89637],[115.72703,3.89635]]]]},"properties":{"kdprov":"65","kdkab":"04","kdkec":"020","kddesa":"023","kdsls":"0002","idsls":"65040200230002","nmprov":"KALIMANTAN UTARA","nmkab":"NUNUKAN","nmkec":"KRAYAN","nmdesa":"LONG MATUNG","nmsls":"RT 002"}},{"type":"Feature","geometry":{"type":"MultiPolygon","coordinates":[[[[115.72684,3.89645],[115.72696,3.89645],[115.72703,3.89635],[115.7271,3.89637],[115.72733,3.8964],[115.7276,3.89632],[115.72771,3.89626],[115.72781,3.8962],[115.72781,3.8962],[115.72771,3.8961],[115.72842,3.89537],[115.72844,3.89536],[115.72836,3.89528],[115.72832,3.89524],[115.72833,3.89521],[115.72819,3.89514],[115.72812,3.89504],[115.72811,3.89503],[115.72809,3.89496],[115.72786,3.89516],[115.72749,3.89552],[115.72714,3.89524],[115.72683,3.89506],[115.72664,3.89505],[115.72629,3.89513],[115.7261,3.89524],[115.72549,3.89563],[115.72525,3.89574],[115.72518,3.89589],[115.72537,3.8962],[115.72547,3.8963],[115.72566,3.89637],[115.72577,3.89653],[115.72602,3.89653],[115.7264,3.89644],[115.7264,3.89645],[115.72643,3.89651],[115.72644,3.89655],[115.72684,3.89645]]]]},"properties":{"kdprov":"65","kdkab":"04","kdkec":"020","kddesa":"024","kdsls":"0001","idsls":"65040200240001","nmprov":"KALIMANTAN UTARA","nmkab":"NUNUKAN","nmkec":"KRAYAN","nmdesa":"LONG RUPAN","nmsls":"RT 001"}},{"type":"Feature","geometry":{"type":"MultiPolygon","coordinates":[[[[115.72473,3.89703],[115.72498,3.89634],[115.72518,3.89589],[115.72525,3.89574],[115.72549,3.89563],[115.7261,3.89524],[115.72629,3.89513],[115.72664,3.89505],[115.72683,3.89506],[115.72714,3.89524],[115.72749,3.89552],[115.72786,3.89516],[115.72809,3.89496],[115.72787,3.89465],[115.72782,3.89459],[115.72751,3.89438],[115.72739,3.89426],[115.72714,3.89403],[115.72676,3.8936],[115.72664,3.89346],[115.72683,3.89316],[115.72716,3.893],[115.72736,3.89299],[115.72744,3.89298],[115.72756,3.89297],[115.72782,3.89295],[115.72794,3.89286],[115.72797,3.89285],[115.72803,3.89284],[115.72828,3.8928],[115.72874,3.89269],[115.72907,3.89257],[115.72917,3.89253],[115.72924,3.89247],[115.72812,3.89091],[115.72806,3.88927],[115.72803,3.88843],[115.72814,3.88809],[115.72702,3.8886],[115.72622,3.88911],[115.7255,3.89007],[115.72533,3.89052],[115.72545,3.89118],[115.72494,3.89194],[115.72449,3.89299],[115.72417,3.89387],[115.72411,3.89465],[115.72394,3.89561],[115.72386,3.89616],[115.72314,3.89637],[115.7222,3.89635],[115.72193,3.8968],[115.72167,3.89844],[115.72179,3.89885],[115.72287,3.89816],[115.72434,3.89743],[115.72473,3.89703]]]]},"properties":{"kdprov":"65","kdkab":"04","kdkec":"020","kddesa":"021","kdsls":"0001","idsls":"65040200210001","nmprov":"KALIMANTAN UTARA","nmkab":"NUNUKAN","nmkec":"KRAYAN","nmdesa":"LIANG BIADUNG","nmsls":"RT 001"}},{"type":"Feature","geometry":{"type":"MultiPolygon","coordinates":[[[[115.66543,3.91721],[115.66546,3.91718],[115.6655,3.91716],[115.66555,3.91715],[115.66566,3.91709],[115.66583,3.91702],[115.66603,3.91686],[115.66621,3.91684],[115.66651,3.91679],[115.66652,3.91679],[115.66648,3.91672],[115.66654,3.91669],[115.66662,3.91665],[115.66659,3.91658],[115.66656,3.91653],[115.66653,3.91648],[115.6665,3.91643],[115.66644,3.91633],[115.66641,3.91635],[115.66635,3.91638],[115.66617,3.91619],[115.6659,3.91603],[115.66576,3.91602],[115.66545,3.91599],[115.66505,3.91603],[115.66491,3.9168],[115.66494,3.91703],[115.66505,3.91697],[115.66513,3.91705],[115.66515,3.91709],[115.6652,3.91722],[115.66525,3.91722],[115.66532,3.91722],[115.66543,3.91721]]]]},"properties":{"kdprov":"65","kdkab":"04","kdkec":"020","kddesa":"053","kdsls":"0002","idsls":"65040200530002","nmprov":"KALIMANTAN UTARA","nmkab":"NUNUKAN","nmkec":"KRAYAN","nmdesa":"PA SIRE","nmsls":"RT 002"}},{"type":"Feature","geometry":{"type":"MultiPolygon","coordinates":[[[[115.69983,3.90405],[115.69979,3.90377],[115.69901,3.90384],[115.69863,3.90385],[115.6982,3.90378],[115.69747,3.90356],[115.69746,3.90409],[115.69746,3.90435],[115.69742,3.90464],[115.69766,3.90464],[115.69798,3.90467],[115.69839,3.90468],[115.69887,3.9047],[115.69935,3.90472],[115.69934,3.90491],[115.69954,3.90492],[115.69955,3.90487],[115.69957,3.90477],[115.69955,3.90466],[115.69959,3.90448],[115.69959,3.90447],[115.69968,3.90436],[115.69976,3.90429],[115.69979,3.90422],[115.69981,3.90417],[115.69982,3.90411],[115.69983,3.90407],[115.69983,3.90405]]]]},"properties":{"kdprov":"65","kdkab":"04","kdkec":"020","kddesa":"063","kdsls":"0002","idsls":"65040200630002","nmprov":"KALIMANTAN UTARA","nmkab":"NUNUKAN","nmkec":"KRAYAN","nmdesa":"LIANG BUTAN","nmsls":"RT 002"}},{"type":"Feature","geometry":{"type":"MultiPolygon","coordinates":[[[[115.69739,3.90501],[115.6974,3.90501],[115.6974,3.905],[115.69737,3.90495],[115.69742,3.90464],[115.69746,3.90435],[115.69746,3.90409],[115.69703,3.90408],[115.69687,3.90408],[115.69654,3.90407],[115.69619,3.90408],[115.696,3.90359],[115.69569,3.90363],[115.69521,3.90354],[115.69455,3.9034],[115.69349,3.90339],[115.69346,3.90391],[115.69381,3.9041],[115.69461,3.90475],[115.69589,3.90575],[115.69605,3.90576],[115.69611,3.90571],[115.69627,3.90561],[115.69616,3.90526],[115.69613,3.90509],[115.69617,3.9049],[115.69632,3.90482],[115.69659,3.90482],[115.69707,3.90491],[115.69722,3.90497],[115.69732,3.905],[115.69738,3.90501],[115.69739,3.90501]]]]},"properties":{"kdprov":"65","kdkab":"04","kdkec":"020","kddesa":"063","kdsls":"0003","idsls":"65040200630003","nmprov":"KALIMANTAN UTARA","nmkab":"NUNUKAN","nmkec":"KRAYAN","nmdesa":"LIANG BUTAN","nmsls":"RT 003"}},{"type":"Feature","geometry":{"type":"MultiPolygon","coordinates":[[[[115.72857,3.89737],[115.72902,3.89686],[115.7293,3.89641],[115.72931,3.89633],[115.7293,3.8963],[115.72931,3.89627],[115.7292,3.8961],[115.72907,3.8959],[115.72891,3.89582],[115.72881,3.89577],[115.72876,3.89569],[115.72873,3.89565],[115.72858,3.8955],[115.72844,3.89536],[115.72842,3.89537],[115.72771,3.8961],[115.72781,3.8962],[115.72781,3.8962],[115.72806,3.89643],[115.72772,3.89667],[115.72762,3.89679],[115.72721,3.89728],[115.72699,3.89753],[115.72708,3.89764],[115.72723,3.89779],[115.72756,3.89775],[115.72781,3.89755],[115.7281,3.8975],[115.72826,3.89743],[115.72854,3.89733],[115.72857,3.89737]]]]},"properties":{"kdprov":"65","kdkab":"04","kdkec":"020","kddesa":"028","kdsls":"0001","idsls":"65040200280001","nmprov":"KALIMANTAN UTARA","nmkab":"NUNUKAN","nmkec":"KRAYAN","nmdesa":"PA TERUTUN","nmsls":"RT 001"}},{"type":"Feature","geometry":{"type":"MultiPolygon","coordinates":[[[[115.70451,3.9151],[115.70363,3.91326],[115.70291,3.91247],[115.70069,3.91144],[115.69989,3.90984],[115.69925,3.90872],[115.69937,3.9084],[115.69944,3.90832],[115.69926,3.90826],[115.69879,3.90819],[115.6986,3.90815],[115.69846,3.9081],[115.69839,3.90782],[115.69822,3.90747],[115.69789,3.90732],[115.69732,3.90747],[115.69699,3.90705],[115.69687,3.90685],[115.69655,3.90681],[115.69629,3.90681],[115.6962,3.90683],[115.69605,3.90679],[115.69543,3.90614],[115.69362,3.90692],[115.69186,3.90731],[115.69049,3.90735],[115.6908,3.90844],[115.69093,3.90887],[115.6914,3.9105],[115.69145,3.91099],[115.69152,3.91111],[115.69153,3.91128],[115.69142,3.91139],[115.69137,3.9114],[115.69129,3.91141],[115.69109,3.91132],[115.69104,3.91134],[115.69102,3.91144],[115.69103,3.91155],[115.69105,3.91175],[115.69125,3.912],[115.69164,3.91225],[115.69196,3.91206],[115.69233,3.9121],[115.69259,3.9121],[115.69257,3.91151],[115.69281,3.9112],[115.69312,3.91112],[115.69387,3.91103],[115.6946,3.91101],[115.69492,3.91099],[115.69525,3.91094],[115.69554,3.91091],[115.69583,3.91098],[115.69589,3.91119],[115.69585,3.91163],[115.6958,3.91183],[115.69562,3.912],[115.69553,3.91226],[115.69554,3.91246],[115.69579,3.91264],[115.69592,3.91277],[115.69627,3.91283],[115.69644,3.91304],[115.69653,3.91296],[115.69662,3.9129],[115.69677,3.91269],[115.69693,3.91233],[115.697,3.91213],[115.69709,3.91213],[115.6972,3.91227],[115.69744,3.9125],[115.6977,3.91264],[115.69794,3.91278],[115.69824,3.91278],[115.69851,3.91278],[115.69879,3.91258],[115.69905,3.91232],[115.69931,3.91191],[115.69946,3.91154],[115.69966,3.91128],[115.69993,3.91141],[115.70036,3.91178],[115.70082,3.91229],[115.70107,3.91264],[115.70129,3.91292],[115.70119,3.91319],[115.7009,3.91348],[115.70047,3.9138],[115.70012,3.91404],[115.69982,3.91411],[115.69971,3.91436],[115.69989,3.91461],[115.70023,3.91488],[115.70051,3.91493],[115.70066,3.91461],[115.70081,3.91431],[115.70101,3.914],[115.70133,3.91404],[115.70162,3.91448],[115.70187,3.91473],[115.70227,3.91457],[115.70247,3.91457],[115.70292,3.91511],[115.70436,3.91504],[115.70451,3.9151]]]]},"properties":{"kdprov":"65","kdkab":"04","kdkec":"020","kddesa":"025","kdsls":"0004","idsls":"65040200250004","nmprov":"KALIMANTAN UTARA","nmkab":"NUNUKAN","nmkec":"KRAYAN","nmdesa":"LONG KATUNG","nmsls":"RT 004"}},{"type":"Feature","geometry":{"type":"MultiPolygon","coordinates":[[[[115.6908,3.90844],[115.69039,3.90869],[115.68993,3.9088],[115.68913,3.9088],[115.6886,3.9087],[115.68763,3.90868],[115.68725,3.90871],[115.6867,3.90902],[115.68639,3.90896],[115.68589,3.90894],[115.68582,3.90878],[115.68537,3.90879],[115.68497,3.90905],[115.68418,3.90888],[115.68386,3.90864],[115.68344,3.90835],[115.683,3.90841],[115.6831,3.90913],[115.68229,3.91018],[115.68155,3.91081],[115.68017,3.9113],[115.67956,3.91138],[115.67929,3.91166],[115.67925,3.91192],[115.67942,3.91207],[115.67993,3.9119],[115.68049,3.9117],[115.6822,3.91104],[115.68344,3.91056],[115.68393,3.91036],[115.68441,3.91024],[115.68539,3.91019],[115.68569,3.91022],[115.68598,3.91047],[115.6864,3.91073],[115.68679,3.91104],[115.68733,3.91132],[115.68789,3.91138],[115.68874,3.91144],[115.68938,3.91141],[115.69007,3.9114],[115.69063,3.91143],[115.69092,3.91142],[115.69098,3.91131],[115.69116,3.91128],[115.69128,3.9113],[115.69137,3.9114],[115.69142,3.91139],[115.69153,3.91128],[115.69152,3.91111],[115.69145,3.91099],[115.6914,3.9105],[115.69093,3.90887],[115.6908,3.90844]]]]},"properties":{"kdprov":"65","kdkab":"04","kdkec":"020","kddesa":"035","kdsls":"0002","idsls":"65040200350002","nmprov":"KALIMANTAN UTARA","nmkab":"NUNUKAN","nmkec":"KRAYAN","nmdesa":"LONG NAWANG","nmsls":"RT 002"}},{"type":"Feature","geometry":{"type":"MultiPolygon","coordinates":[[[[115.70287,3.91517],[115.70292,3.91511],[115.70247,3.91457],[115.70227,3.91457],[115.70187,3.91473],[115.70162,3.91448],[115.70133,3.91404],[115.70101,3.914],[115.70081,3.91431],[115.70066,3.91461],[115.70051,3.91493],[115.70023,3.91488],[115.69989,3.91461],[115.69971,3.91436],[115.69982,3.91411],[115.70012,3.91404],[115.70047,3.9138],[115.7009,3.91348],[115.70119,3.91319],[115.70129,3.91292],[115.70107,3.91264],[115.70082,3.91229],[115.70036,3.91178],[115.69993,3.91141],[115.69966,3.91128],[115.69946,3.91154],[115.69931,3.91191],[115.69905,3.91232],[115.69879,3.91258],[115.69851,3.91278],[115.69824,3.91278],[115.69794,3.91278],[115.6977,3.91264],[115.69744,3.9125],[115.6972,3.91227],[115.69709,3.91213],[115.697,3.91213],[115.69693,3.91233],[115.69677,3.91269],[115.69662,3.9129],[115.69653,3.91296],[115.69644,3.91304],[115.69627,3.91283],[115.69592,3.91277],[115.69579,3.91264],[115.69554,3.91246],[115.69553,3.91226],[115.69562,3.912],[115.6958,3.91183],[115.69585,3.91163],[115.69589,3.91119],[115.69583,3.91098],[115.69554,3.91091],[115.69525,3.91094],[115.69492,3.91099],[115.6946,3.91101],[115.69387,3.91103],[115.69312,3.91112],[115.69281,3.9112],[115.69257,3.91151],[115.69259,3.9121],[115.69233,3.9121],[115.69196,3.91206],[115.69164,3.91225],[115.69355,3.91349],[115.69721,3.91563],[115.70154,3.91734],[115.70194,3.91625],[115.70287,3.91517]]]]},"properties":{"kdprov":"65","kdkab":"04","kdkec":"020","kddesa":"025","kdsls":"2001","idsls":"65040200252001","nmprov":"KALIMANTAN UTARA","nmkab":"NUNUKAN","nmkec":"KRAYAN","nmdesa":"LONG KATUNG","nmsls":"HUTAN"}},{"type":"Feature","geometry":{"type":"MultiPolygon","coordinates":[[[[115.65115,3.97634],[115.6535,3.97607],[115.65833,3.97412],[115.66168,3.97211],[115.6673,3.96869],[115.67318,3.96479],[115.67335,3.96139],[115.67497,3.95131],[115.6765,3.93922],[115.67716,3.92856],[115.67954,3.91704],[115.67813,3.91275],[115.67811,3.91273],[115.67805,3.91273],[115.67791,3.91273],[115.67781,3.91278],[115.67768,3.91291],[115.67756,3.91313],[115.67731,3.91327],[115.67715,3.91322],[115.67714,3.91322],[115.67712,3.91321],[115.67711,3.91319],[115.6771,3.91319],[115.67708,3.9132],[115.67698,3.91323],[115.67678,3.91333],[115.67681,3.91363],[115.67667,3.91422],[115.67638,3.9149],[115.67636,3.91574],[115.67611,3.91643],[115.67603,3.91727],[115.67614,3.91746],[115.67655,3.91761],[115.67684,3.91774],[115.67682,3.91802],[115.67657,3.9183],[115.67641,3.91845],[115.67602,3.91891],[115.67564,3.91904],[115.67527,3.91859],[115.67464,3.9181],[115.67424,3.91756],[115.67441,3.91739],[115.67472,3.91711],[115.67405,3.91673],[115.67357,3.91601],[115.67265,3.91563],[115.67219,3.91547],[115.67111,3.91539],[115.67103,3.91538],[115.67079,3.91525],[115.67066,3.91518],[115.67043,3.91507],[115.67014,3.91512],[115.67023,3.91546],[115.67008,3.91576],[115.66963,3.91599],[115.6691,3.91635],[115.66824,3.91715],[115.66782,3.91734],[115.66757,3.91762],[115.66723,3.9179],[115.66696,3.91828],[115.66687,3.91841],[115.66667,3.91873],[115.66648,3.91904],[115.66636,3.91976],[115.66628,3.92033],[115.66655,3.92101],[115.66668,3.92155],[115.66662,3.92192],[115.66622,3.92202],[115.66586,3.92191],[115.66577,3.92178],[115.6654,3.92129],[115.66496,3.9208],[115.66387,3.92612],[115.66273,3.93011],[115.65823,3.9314],[115.65102,3.93418],[115.64608,3.93482],[115.64234,3.94782],[115.63658,3.95917],[115.63718,3.95895],[115.63753,3.95909],[115.63792,3.95905],[115.6383,3.95901],[115.63841,3.95934],[115.63838,3.95969],[115.63853,3.95991],[115.63891,3.95973],[115.63924,3.96016],[115.63962,3.96039],[115.63944,3.9608],[115.63934,3.96138],[115.63988,3.96158],[115.64032,3.96184],[115.64089,3.96154],[115.6411,3.96179],[115.64131,3.9625],[115.6412,3.96285],[115.64159,3.96325],[115.64165,3.96371],[115.64187,3.96434],[115.64194,3.96482],[115.6416,3.96534],[115.64167,3.96589],[115.64142,3.96641],[115.64168,3.96701],[115.6414,3.96724],[115.64174,3.9677],[115.64188,3.96846],[115.64213,3.96926],[115.64163,3.96955],[115.64157,3.96976],[115.64146,3.97026],[115.64172,3.97047],[115.64227,3.97067],[115.64264,3.97082],[115.64295,3.97124],[115.64322,3.97157],[115.64388,3.97159],[115.64419,3.97178],[115.64425,3.97215],[115.64437,3.97281],[115.64469,3.97334],[115.64496,3.97375],[115.64508,3.97401],[115.64518,3.97443],[115.64513,3.9748],[115.64528,3.97508],[115.64581,3.97545],[115.64582,3.9759],[115.64586,3.97627],[115.64612,3.97674],[115.64661,3.9767],[115.64657,3.97716],[115.64655,3.97747],[115.64686,3.97784],[115.64743,3.97729],[115.64807,3.97668],[115.6488,3.9766],[115.65115,3.97634]]]]},"properties":{"kdprov":"65","kdkab":"04","kdkec":"020","kddesa":"041","kdsls":"2001","idsls":"65040200412001","nmprov":"KALIMANTAN UTARA","nmkab":"NUNUKAN","nmkec":"KRAYAN","nmdesa":"WA YANUD","nmsls":"HUTAN"}},{"type":"Feature","geometry":{"type":"MultiPolygon","coordinates":[[[[115.63658,3.95917],[115.64234,3.94782],[115.64608,3.93482],[115.64636,3.93385],[115.64839,3.92311],[115.64516,3.92344],[115.64364,3.92361],[115.64229,3.92369],[115.64187,3.92392],[115.64166,3.9239],[115.64148,3.92408],[115.64101,3.92429],[115.64087,3.92429],[115.64072,3.92398],[115.64061,3.92364],[115.64033,3.92357],[115.64005,3.92384],[115.63984,3.92406],[115.63943,3.9243],[115.63901,3.92426],[115.63879,3.92392],[115.63864,3.9236],[115.6386,3.92366],[115.63834,3.92384],[115.6359,3.92449],[115.63443,3.92461],[115.63431,3.93251],[115.634,3.93444],[115.63312,3.93994],[115.62938,3.94892],[115.6295,3.94917],[115.62969,3.94949],[115.62977,3.94973],[115.62988,3.95009],[115.6302,3.95047],[115.63043,3.95098],[115.63057,3.95126],[115.63081,3.95167],[115.63119,3.95185],[115.63137,3.952],[115.6317,3.95233],[115.6319,3.95284],[115.63215,3.95324],[115.63238,3.95383],[115.63251,3.95422],[115.63276,3.95434],[115.63316,3.9547],[115.63323,3.95532],[115.63329,3.95574],[115.63357,3.95612],[115.63397,3.95645],[115.63385,3.95698],[115.63348,3.95711],[115.63378,3.95767],[115.63417,3.95764],[115.63468,3.95759],[115.63511,3.9576],[115.6354,3.9578],[115.63578,3.9581],[115.6361,3.95834],[115.63642,3.95886],[115.63658,3.95917]]]]},"properties":{"kdprov":"65","kdkab":"04","kdkec":"020","kddesa":"061","kdsls":"2001","idsls":"65040200612001","nmprov":"KALIMANTAN UTARA","nmkab":"NUNUKAN","nmkec":"KRAYAN","nmdesa":"LONG BERAYANG","nmsls":"HUTAN"}},{"type":"Feature","geometry":{"type":"MultiPolygon","coordinates":[[[[115.72931,3.89633],[115.7293,3.89641],[115.72902,3.89686],[115.72857,3.89737],[115.72869,3.89747],[115.7285,3.89777],[115.72847,3.89817],[115.7286,3.89835],[115.72852,3.89864],[115.72832,3.89874],[115.72826,3.89883],[115.72814,3.89896],[115.72794,3.89907],[115.72791,3.89907],[115.72781,3.89908],[115.72848,3.89907],[115.72879,3.89936],[115.7292,3.89911],[115.72956,3.89866],[115.72974,3.8982],[115.72989,3.89803],[115.72997,3.89799],[115.73014,3.8979],[115.73,3.89778],[115.73018,3.89724],[115.73021,3.89708],[115.7302,3.89683],[115.72941,3.89638],[115.72931,3.89633]]]]},"properties":{"kdprov":"65","kdkab":"04","kdkec":"020","kddesa":"028","kdsls":"0002","idsls":"65040200280002","nmprov":"KALIMANTAN UTARA","nmkab":"NUNUKAN","nmkec":"KRAYAN","nmdesa":"PA TERUTUN","nmsls":"RT 002"}}]}