{"type":"FeatureCollection","features":[{"type":"Feature","geometry":{"type":"MultiPolygon","coordinates":[[[[115.77247,4.01159],[115.77241,4.01183],[115.77246,4.01251],[115.77236,4.01287],[115.77283,4.01295],[115.77369,4.01323],[115.77429,4.01346],[115.77461,4.01371],[115.7747,4.01321],[115.7751,4.01291],[115.7756,4.01289],[115.77465,4.01216],[115.77391,4.01199],[115.77311,4.01178],[115.77247,4.01159]]]]},"properties":{"kdprov":"65","kdkab":"04","kdkec":"021","kddesa":"015","kdsls":"0003","idsls":"65040210150003","nmprov":"KALIMANTAN UTARA","nmkab":"NUNUKAN","nmkec":"KRAYAN TIMUR","nmdesa":"PA RAYE","nmsls":"RT 003"}},{"type":"Feature","geometry":{"type":"MultiPolygon","coordinates":[[[[115.74823,3.93643],[115.74804,3.9361],[115.74748,3.93608],[115.747,3.93627],[115.74658,3.93621],[115.7461,3.93608],[115.7457,3.93552],[115.74535,3.93487],[115.74469,3.93426],[115.7444,3.93431],[115.74405,3.93477],[115.7437,3.93506],[115.7436,3.9353],[115.74375,3.93545],[115.74401,3.93576],[115.74388,3.93617],[115.74367,3.93636],[115.74336,3.9365],[115.74321,3.9367],[115.74305,3.93737],[115.74303,3.93792],[115.74279,3.93839],[115.74261,3.93871],[115.7423,3.93921],[115.7425,3.93908],[115.74321,3.9388],[115.7441,3.93889],[115.74483,3.93901],[115.74558,3.939],[115.74588,3.93876],[115.74648,3.93834],[115.74726,3.93756],[115.74778,3.93696],[115.74818,3.9366],[115.74823,3.93643]]]]},"properties":{"kdprov":"65","kdkab":"04","kdkec":"021","kddesa":"007","kdsls":"0001","idsls":"65040210070001","nmprov":"KALIMANTAN UTARA","nmkab":"NUNUKAN","nmkec":"KRAYAN TIMUR","nmdesa":"PA MELADE","nmsls":"RT 001"}},{"type":"Feature","geometry":{"type":"MultiPolygon","coordinates":[[[[115.7471,3.93986],[115.74729,3.93954],[115.74749,3.93902],[115.7476,3.93868],[115.74815,3.93798],[115.74805,3.93772],[115.74793,3.93757],[115.74872,3.93651],[115.74873,3.93622],[115.74884,3.93581],[115.74897,3.93569],[115.74875,3.93534],[115.74848,3.9356],[115.74841,3.93597],[115.74835,3.93651],[115.74816,3.93685],[115.74743,3.93772],[115.74711,3.93808],[115.74672,3.93843],[115.74649,3.93872],[115.74611,3.939],[115.74588,3.93891],[115.74515,3.93933],[115.74529,3.93947],[115.74567,3.93947],[115.74595,3.93957],[115.74627,3.93982],[115.74684,3.93954],[115.7471,3.93986],[115.7471,3.93986]]]]},"properties":{"kdprov":"65","kdkab":"04","kdkec":"021","kddesa":"003","kdsls":"0001","idsls":"65040210030001","nmprov":"KALIMANTAN UTARA","nmkab":"NUNUKAN","nmkec":"KRAYAN TIMUR","nmdesa":"PA KEBUAN","nmsls":"RT 001"}},{"type":"Feature","geometry":{"type":"MultiPolygon","coordinates":[[[[115.73483,4.00842],[115.73411,4.0036],[115.73455,3.99608],[115.73506,3.98742],[115.73474,3.98137],[115.73425,3.97213],[115.73351,3.95795],[115.73315,3.95126],[115.72937,3.94386],[115.72887,3.94287],[115.72737,3.94609],[115.72652,3.94771],[115.72471,3.95009],[115.72233,3.95142],[115.72105,3.95251],[115.7206,3.95279],[115.71915,3.95317],[115.7188,3.95368],[115.71858,3.95399],[115.719,3.95388],[115.71924,3.95379],[115.71938,3.95389],[115.71938,3.95412],[115.71909,3.95427],[115.71907,3.95455],[115.71933,3.95472],[115.71934,3.95477],[115.71945,3.95512],[115.71958,3.95533],[115.71984,3.95561],[115.71983,3.95602],[115.71972,3.95665],[115.71967,3.95698],[115.71949,3.95701],[115.71923,3.95701],[115.71874,3.95691],[115.71797,3.95701],[115.71756,3.95702],[115.71766,3.9571],[115.71788,3.95767],[115.71809,3.95842],[115.71838,3.95892],[115.71791,3.96052],[115.71738,3.96152],[115.71641,3.96242],[115.7152,3.96331],[115.71503,3.96361],[115.71469,3.96374],[115.71412,3.96422],[115.71324,3.96433],[115.71269,3.96424],[115.71187,3.96424],[115.71136,3.96437],[115.71085,3.96464],[115.71058,3.96492],[115.71005,3.9658],[115.70955,3.96717],[115.70946,3.9685],[115.70934,3.97031],[115.70908,3.97227],[115.70873,3.97933],[115.70835,3.98163],[115.69973,4.01406],[115.69378,4.02268],[115.68961,4.05659],[115.68471,4.06581],[115.67514,4.07908],[115.67484,4.07974],[115.67471,4.08044],[115.67461,4.0809],[115.67489,4.08157],[115.67522,4.08188],[115.67564,4.08231],[115.67566,4.0828],[115.67613,4.08361],[115.67646,4.08429],[115.67663,4.08473],[115.67696,4.08505],[115.67717,4.08544],[115.67726,4.08582],[115.67719,4.08628],[115.67725,4.08646],[115.67748,4.08682],[115.67767,4.08724],[115.67775,4.08745],[115.67751,4.08776],[115.67728,4.08797],[115.67747,4.08842],[115.67768,4.08859],[115.67784,4.08874],[115.6781,4.08889],[115.67823,4.08916],[115.67841,4.08966],[115.67802,4.09013],[115.67774,4.09038],[115.67751,4.09094],[115.67735,4.09137],[115.67733,4.09187],[115.67719,4.09234],[115.67742,4.09291],[115.67784,4.09342],[115.67736,4.0943],[115.67708,4.09448],[115.67688,4.09482],[115.67663,4.09525],[115.67654,4.09563],[115.67659,4.09589],[115.67614,4.09643],[115.67595,4.09712],[115.6761,4.09745],[115.67643,4.09782],[115.67664,4.0981],[115.67685,4.09835],[115.67695,4.09869],[115.67703,4.09914],[115.67713,4.09947],[115.6772,4.10015],[115.67736,4.10035],[115.67739,4.10066],[115.67759,4.10095],[115.67793,4.10149],[115.67838,4.10187],[115.67866,4.10223],[115.67891,4.10248],[115.67927,4.10282],[115.67936,4.1035],[115.67941,4.10411],[115.67905,4.10471],[115.67874,4.10513],[115.67839,4.10535],[115.67837,4.10571],[115.6784,4.10636],[115.67595,4.11334],[115.67642,4.11397],[115.67754,4.1146],[115.67801,4.11677],[115.67716,4.11725],[115.67694,4.11822],[115.67691,4.12187],[115.67636,4.12323],[115.67717,4.12399],[115.6777,4.12507],[115.67954,4.12541],[115.68842,4.11782],[115.7065,4.11211],[115.72268,4.1083],[115.74077,4.09973],[115.75124,4.07594],[115.75314,4.06166],[115.74933,4.04929],[115.74267,4.03787],[115.73696,4.02264],[115.73483,4.00842]]]]},"properties":{"kdprov":"65","kdkab":"04","kdkec":"021","kddesa":"008","kdsls":"2001","idsls":"65040210082001","nmprov":"KALIMANTAN UTARA","nmkab":"NUNUKAN","nmkec":"KRAYAN TIMUR","nmdesa":"LONG SEPAYANG","nmsls":"HUTAN"}},{"type":"Feature","geometry":{"type":"MultiPolygon","coordinates":[[[[115.76298,3.96465],[115.76277,3.96422],[115.76249,3.96333],[115.76225,3.963],[115.76176,3.96234],[115.76155,3.96192],[115.76197,3.96167],[115.76232,3.96118],[115.76263,3.96086],[115.76277,3.96041],[115.76318,3.96017],[115.7636,3.96009],[115.76405,3.96009],[115.7637,3.95781],[115.76283,3.95507],[115.76163,3.9524],[115.75937,3.95306],[115.7533,3.95532],[115.74926,3.95675],[115.74652,3.95639],[115.74231,3.95746],[115.74117,3.95817],[115.73998,3.95794],[115.73774,3.95784],[115.73674,3.95789],[115.73469,3.95789],[115.73351,3.95795],[115.73425,3.97213],[115.73641,3.97204],[115.74719,3.97196],[115.74995,3.97167],[115.75165,3.97116],[115.75257,3.9703],[115.75325,3.96923],[115.7537,3.96819],[115.75379,3.96718],[115.75498,3.96608],[115.7559,3.96557],[115.75665,3.9653],[115.75733,3.96551],[115.75795,3.96554],[115.75836,3.96518],[115.75891,3.96498],[115.76035,3.96451],[115.76115,3.96448],[115.76212,3.96446],[115.76297,3.96465],[115.76298,3.96465]]]]},"properties":{"kdprov":"65","kdkab":"04","kdkec":"021","kddesa":"014","kdsls":"2001","idsls":"65040210142001","nmprov":"KALIMANTAN UTARA","nmkab":"NUNUKAN","nmkec":"KRAYAN TIMUR","nmdesa":"PA RANGEB","nmsls":"HUTAN"}},{"type":"Feature","geometry":{"type":"MultiPolygon","coordinates":[[[[115.71756,3.95702],[115.7171,3.95668],[115.71674,3.95649],[115.71664,3.95627],[115.71638,3.95613],[115.71609,3.95599],[115.71561,3.95589],[115.71572,3.95534],[115.71565,3.95511],[115.7155,3.95491],[115.7156,3.95462],[115.71588,3.95478],[115.71606,3.95485],[115.71614,3.95478],[115.71616,3.95462],[115.71621,3.95431],[115.71638,3.95404],[115.71663,3.95352],[115.71674,3.95312],[115.71708,3.95284],[115.71748,3.95275],[115.71782,3.9525],[115.71797,3.95242],[115.71818,3.95242],[115.7183,3.95254],[115.71834,3.95287],[115.71842,3.95341],[115.7188,3.95368],[115.71915,3.95317],[115.7206,3.95279],[115.72105,3.95251],[115.72233,3.95142],[115.72471,3.95009],[115.72652,3.94771],[115.72737,3.94609],[115.72887,3.94287],[115.72655,3.93834],[115.72446,3.939],[115.72369,3.939],[115.7217,3.93853],[115.719,3.939],[115.71827,3.93834],[115.71702,3.93774],[115.71565,3.93774],[115.71506,3.93828],[115.71411,3.9384],[115.71304,3.9384],[115.71094,3.9411],[115.70989,3.94262],[115.70818,3.94557],[115.70501,3.9475],[115.69708,3.9519],[115.6911,3.9549],[115.68488,3.95831],[115.67853,3.96173],[115.67328,3.96472],[115.67318,3.96479],[115.6673,3.96869],[115.66168,3.97211],[115.65833,3.97412],[115.6535,3.97607],[115.65115,3.97634],[115.6488,3.9766],[115.64807,3.97668],[115.64743,3.97729],[115.64686,3.97784],[115.6469,3.97789],[115.6473,3.97825],[115.64682,3.97867],[115.64672,3.9791],[115.6467,3.97949],[115.64653,3.97986],[115.64655,3.98006],[115.64648,3.98031],[115.64658,3.98076],[115.64706,3.98125],[115.64724,3.98175],[115.64749,3.98195],[115.64766,3.98271],[115.64772,3.98329],[115.64792,3.98391],[115.64805,3.98417],[115.64868,3.98471],[115.64884,3.9851],[115.64921,3.98509],[115.6493,3.98559],[115.64964,3.98607],[115.64991,3.9866],[115.65047,3.98701],[115.65034,3.98752],[115.65005,3.98805],[115.64974,3.98844],[115.64959,3.98868],[115.64969,3.98897],[115.64985,3.98946],[115.65001,3.9899],[115.64978,3.99019],[115.64975,3.99069],[115.64999,3.99122],[115.64999,3.99154],[115.64994,3.99186],[115.64988,3.99226],[115.65009,3.99291],[115.64998,3.99335],[115.64976,3.99375],[115.65025,3.99386],[115.65039,3.99443],[115.65067,3.99484],[115.65086,3.99526],[115.65095,3.99569],[115.6511,3.99632],[115.65087,3.99656],[115.65071,3.99668],[115.65041,3.99678],[115.65007,3.99703],[115.65,3.99755],[115.65,3.99785],[115.65025,3.99815],[115.6502,3.99852],[115.65021,3.99898],[115.6505,3.99968],[115.65066,4.0],[115.6507,4.00008],[115.65055,4.00056],[115.65079,4.00092],[115.65051,4.00125],[115.65038,4.00166],[115.64998,4.00196],[115.65032,4.00253],[115.65002,4.00274],[115.64961,4.00286],[115.64958,4.00345],[115.64983,4.00388],[115.65036,4.00431],[115.65025,4.00462],[115.65017,4.00508],[115.65003,4.00572],[115.65015,4.00611],[115.65009,4.00654],[115.65023,4.00737],[115.65049,4.00807],[115.65036,4.00859],[115.65013,4.009],[115.64994,4.0093],[115.64991,4.00981],[115.6507,4.01022],[115.65106,4.01027],[115.65138,4.01093],[115.65174,4.01137],[115.6518,4.01171],[115.65174,4.01244],[115.65184,4.01268],[115.65189,4.01287],[115.65209,4.01341],[115.65206,4.01403],[115.65237,4.01429],[115.65246,4.01447],[115.65237,4.01475],[115.65209,4.01487],[115.65202,4.01515],[115.65184,4.01549],[115.65171,4.01567],[115.65148,4.01603],[115.65138,4.0163],[115.65125,4.01664],[115.65105,4.01694],[115.6511,4.01717],[115.65119,4.0175],[115.65144,4.01764],[115.65179,4.01778],[115.65221,4.01784],[115.65255,4.01798],[115.65274,4.01821],[115.65316,4.01856],[115.65344,4.0192],[115.65348,4.01966],[115.65351,4.0203],[115.65357,4.02065],[115.65369,4.02105],[115.65392,4.02136],[115.65387,4.02199],[115.65373,4.02236],[115.65389,4.02291],[115.65434,4.02302],[115.65442,4.02336],[115.65441,4.02389],[115.65458,4.02434],[115.65463,4.02487],[115.65449,4.02573],[115.65432,4.02627],[115.65435,4.02714],[115.65467,4.02773],[115.65491,4.02827],[115.65474,4.0285],[115.65434,4.02882],[115.65432,4.02922],[115.6544,4.02959],[115.65425,4.03],[115.65434,4.03039],[115.65429,4.03088],[115.65432,4.0313],[115.65432,4.03154],[115.65395,4.032],[115.65354,4.03234],[115.65329,4.03245],[115.65312,4.03289],[115.6534,4.03304],[115.65377,4.03341],[115.65415,4.03367],[115.65415,4.03368],[115.65435,4.03428],[115.65411,4.03455],[115.65403,4.03507],[115.65429,4.03522],[115.65479,4.03506],[115.65552,4.03539],[115.65572,4.03557],[115.65617,4.03572],[115.65649,4.03627],[115.65679,4.03658],[115.65738,4.0364],[115.65777,4.03665],[115.65829,4.03698],[115.65848,4.03728],[115.65876,4.03765],[115.65901,4.03804],[115.65936,4.03857],[115.65945,4.03902],[115.65972,4.03978],[115.65987,4.04019],[115.66032,4.04062],[115.66041,4.04098],[115.66035,4.04156],[115.66071,4.04212],[115.66088,4.04269],[115.66122,4.04312],[115.66126,4.04338],[115.66161,4.04394],[115.66174,4.04452],[115.66184,4.04494],[115.66198,4.04581],[115.66171,4.04597],[115.66174,4.04633],[115.66162,4.04668],[115.66184,4.047],[115.66232,4.04734],[115.66198,4.04754],[115.66169,4.0479],[115.66183,4.04844],[115.66175,4.04904],[115.66181,4.04933],[115.6619,4.04969],[115.66204,4.05017],[115.66228,4.05033],[115.66237,4.05079],[115.66272,4.05133],[115.66265,4.0517],[115.6625,4.05226],[115.66268,4.05282],[115.66284,4.05316],[115.66317,4.05351],[115.6635,4.05359],[115.66367,4.05416],[115.66384,4.05451],[115.66397,4.05488],[115.66406,4.05519],[115.66401,4.0557],[115.66455,4.05595],[115.66487,4.05637],[115.665,4.05725],[115.6651,4.05746],[115.66498,4.05785],[115.66483,4.05854],[115.66458,4.05876],[115.66427,4.05931],[115.66425,4.05962],[115.66449,4.05986],[115.66465,4.0599],[115.66496,4.06001],[115.66516,4.06026],[115.6656,4.06062],[115.66583,4.06086],[115.66601,4.0611],[115.66614,4.06154],[115.66667,4.06165],[115.667,4.06204],[115.66723,4.06226],[115.66751,4.06252],[115.66741,4.06309],[115.66725,4.06367],[115.66694,4.06373],[115.66766,4.06393],[115.66697,4.0643],[115.66706,4.06455],[115.66743,4.06506],[115.6677,4.06504],[115.66811,4.06543],[115.66835,4.06552],[115.66878,4.06581],[115.66865,4.06654],[115.669,4.06689],[115.66925,4.06712],[115.66952,4.06739],[115.66963,4.06719],[115.66994,4.06805],[115.67,4.06819],[115.67011,4.06844],[115.66989,4.06851],[115.6703,4.06886],[115.67054,4.06931],[115.67038,4.06997],[115.67082,4.0706],[115.67127,4.07085],[115.67182,4.07148],[115.67161,4.07178],[115.67122,4.072],[115.6709,4.07254],[115.67108,4.07302],[115.67106,4.0735],[115.67119,4.07409],[115.67136,4.07448],[115.67147,4.07478],[115.67156,4.07511],[115.6717,4.07529],[115.67193,4.07585],[115.67197,4.07627],[115.67217,4.0766],[115.67229,4.07711],[115.67265,4.07717],[115.67306,4.07712],[115.67324,4.07733],[115.67374,4.07785],[115.67418,4.07819],[115.67458,4.07845],[115.67494,4.0786],[115.67514,4.07908],[115.68471,4.06581],[115.68961,4.05659],[115.69378,4.02268],[115.69973,4.01406],[115.70835,3.98163],[115.70873,3.97933],[115.70908,3.97227],[115.70934,3.97031],[115.70946,3.9685],[115.70955,3.96717],[115.71005,3.9658],[115.71058,3.96492],[115.71085,3.96464],[115.71136,3.96437],[115.71187,3.96424],[115.71269,3.96424],[115.71324,3.96433],[115.71412,3.96422],[115.71469,3.96374],[115.71503,3.96361],[115.7152,3.96331],[115.71641,3.96242],[115.71738,3.96152],[115.71791,3.96052],[115.71838,3.95892],[115.71809,3.95842],[115.71788,3.95767],[115.71766,3.9571],[115.71756,3.95702]]]]},"properties":{"kdprov":"65","kdkab":"04","kdkec":"021","kddesa":"004","kdsls":"2001","idsls":"65040210042001","nmprov":"KALIMANTAN UTARA","nmkab":"NUNUKAN","nmkec":"KRAYAN TIMUR","nmdesa":"PA BETUNG","nmsls":"HUTAN"}},{"type":"Feature","geometry":{"type":"MultiPolygon","coordinates":[[[[115.85403,3.95719],[115.85477,3.95885],[115.85482,3.95904],[115.85571,3.95865],[115.85745,3.95938],[115.85762,3.95686],[115.85577,3.95641],[115.85403,3.95719]]]]},"properties":{"kdprov":"65","kdkab":"04","kdkec":"021","kddesa":"006","kdsls":"0001","idsls":"65040210060001","nmprov":"KALIMANTAN UTARA","nmkab":"NUNUKAN","nmkec":"KRAYAN TIMUR","nmdesa":"WA YAGUNG","nmsls":"RT 001"}},{"type":"Feature","geometry":{"type":"MultiPolygon","coordinates":[[[[115.76589,3.96655],[115.76577,3.96652],[115.7653,3.96633],[115.7651,3.96617],[115.76463,3.96617],[115.7641,3.96609],[115.76408,3.96609],[115.76307,3.96633],[115.76279,3.96623],[115.76291,3.96667],[115.76306,3.96719],[115.76313,3.96762],[115.76362,3.96786],[115.76409,3.96811],[115.76468,3.9687],[115.765,3.9689],[115.76501,3.96888],[115.76477,3.96856],[115.76489,3.96816],[115.76526,3.96764],[115.76577,3.96695],[115.76589,3.96655]]]]},"properties":{"kdprov":"65","kdkab":"04","kdkec":"021","kddesa":"013","kdsls":"0001","idsls":"65040210130001","nmprov":"KALIMANTAN UTARA","nmkab":"NUNUKAN","nmkec":"KRAYAN TIMUR","nmdesa":"PA LIDUNG","nmsls":"RT 001"}},{"type":"Feature","geometry":{"type":"MultiPolygon","coordinates":[[[[115.77012,3.97282],[115.77002,3.97267],[115.76946,3.97185],[115.76948,3.97142],[115.76928,3.97069],[115.76903,3.97007],[115.76877,3.96944],[115.76846,3.96861],[115.76822,3.96779],[115.7678,3.96751],[115.76772,3.96786],[115.76772,3.96821],[115.76782,3.96885],[115.76801,3.96961],[115.76782,3.9703],[115.76776,3.97038],[115.76751,3.97076],[115.76699,3.97093],[115.76629,3.97131],[115.76563,3.97152],[115.76524,3.97227],[115.76518,3.97261],[115.76572,3.97282],[115.76652,3.97323],[115.76716,3.97361],[115.76752,3.97368],[115.76776,3.97344],[115.76815,3.97303],[115.76836,3.97289],[115.76859,3.97289],[115.76934,3.9728],[115.76975,3.97282],[115.77012,3.97282]]]]},"properties":{"kdprov":"65","kdkab":"04","kdkec":"021","kddesa":"011","kdsls":"0001","idsls":"65040210110001","nmprov":"KALIMANTAN UTARA","nmkab":"NUNUKAN","nmkec":"KRAYAN TIMUR","nmdesa":"LONG NUAT","nmsls":"RT 001"}},{"type":"Feature","geometry":{"type":"MultiPolygon","coordinates":[[[[115.87854,4.2811],[115.87934,4.27999],[115.87934,4.27998],[115.88007,4.27893],[115.88058,4.2782],[115.88108,4.27746],[115.88113,4.2774],[115.88116,4.27734],[115.88129,4.27715],[115.88142,4.27694],[115.8819,4.27624],[115.88191,4.27623],[115.88246,4.2754],[115.88263,4.27518],[115.88309,4.27454],[115.88342,4.27409],[115.88365,4.27379],[115.88386,4.27351],[115.88425,4.273],[115.88472,4.27239],[115.88523,4.27172],[115.88671,4.2699],[115.88756,4.26885],[115.88756,4.26885],[115.88756,4.26885],[115.8877,4.26788],[115.88784,4.26682],[115.88863,4.26096],[115.8888,4.25974],[115.88929,4.25611],[115.88947,4.25482],[115.8895,4.2546],[115.88951,4.25447],[115.88953,4.25436],[115.88952,4.25432],[115.88951,4.2542],[115.88948,4.25387],[115.88947,4.25375],[115.88942,4.2532],[115.88895,4.24811],[115.88854,4.24371],[115.88854,4.2437],[115.88854,4.24369],[115.889,4.24223],[115.88966,4.2401],[115.89012,4.23862],[115.89055,4.23724],[115.89228,4.23321],[115.89245,4.23279],[115.8943,4.22837],[115.89439,4.22815],[115.89447,4.22796],[115.89468,4.22753],[115.89475,4.22738],[115.89483,4.22722],[115.89495,4.22613],[115.89532,4.22299],[115.89564,4.22021],[115.89584,4.21846],[115.89584,4.21845],[115.89585,4.21843],[115.89593,4.21812],[115.89598,4.21795],[115.89733,4.21293],[115.89735,4.21288],[115.90036,4.20705],[115.90037,4.20705],[115.90037,4.20705],[115.90049,4.2045],[115.9006,4.20224],[115.90062,4.20169],[115.90062,4.20168],[115.90289,4.19656],[115.90347,4.19529],[115.90349,4.19525],[115.90479,4.19357],[115.90649,4.19137],[115.91437,4.18108],[115.91488,4.17996],[115.91573,4.17806],[115.91573,4.17806],[115.91683,4.17559],[115.91764,4.1737],[115.91764,4.1737],[115.91807,4.17268],[115.91851,4.17164],[115.9186,4.17144],[115.91936,4.16972],[115.92005,4.16804],[115.92103,4.16716],[115.92329,4.16513],[115.92524,4.16338],[115.92527,4.16334],[115.92528,4.16333],[115.92555,4.16301],[115.9257,4.16283],[115.92593,4.16255],[115.92608,4.16238],[115.92726,4.16106],[115.92727,4.16106],[115.92738,4.16092],[115.93387,4.15353],[115.93513,4.15132],[115.93895,4.14464],[115.93896,4.14463],[115.93896,4.14462],[115.94375,4.14001],[115.94541,4.13841],[115.94671,4.13714],[115.94704,4.13682],[115.94732,4.13653],[115.94908,4.13477],[115.95106,4.13278],[115.95168,4.13228],[115.95261,4.13154],[115.95306,4.13118],[115.95714,4.12795],[115.95785,4.1276],[115.95851,4.12727],[115.96399,4.1245],[115.96551,4.12365],[115.96612,4.1233],[115.9667,4.12298],[115.96701,4.12279],[115.96747,4.1225],[115.96786,4.12226],[115.96802,4.12217],[115.96891,4.12165],[115.9691,4.12155],[115.96921,4.12148],[115.96977,4.12116],[115.97087,4.12056],[115.97093,4.12053],[115.97093,4.12053],[115.97145,4.12037],[115.97198,4.1202],[115.96959,4.1055],[115.95293,4.066],[115.92361,4.03467],[115.88441,4.01009],[115.8615,4.00044],[115.84537,3.99064],[115.83937,3.97978],[115.83705,3.98032],[115.83527,3.98151],[115.83438,3.98225],[115.83393,3.98493],[115.8317,3.98419],[115.83185,3.98672],[115.83051,3.9888],[115.82932,3.99103],[115.82828,3.99118],[115.8253,3.98984],[115.82382,3.98731],[115.8204,3.98865],[115.8204,3.99028],[115.82144,3.99266],[115.81906,3.99385],[115.81817,3.99608],[115.81549,3.99832],[115.81192,3.99832],[115.81237,4.0001],[115.81162,4.00055],[115.80642,3.99921],[115.80538,3.99638],[115.8021,3.99742],[115.80285,3.99936],[115.8027,4.00055],[115.80121,4.00278],[115.80151,4.00426],[115.80121,4.00664],[115.80062,4.00754],[115.79779,4.00768],[115.79541,4.00813],[115.79303,4.01006],[115.79214,4.01096],[115.79065,4.0114],[115.78887,4.01006],[115.78694,4.00768],[115.77801,4.00218],[115.77517,4.00209],[115.76849,4.00188],[115.75615,4.00144],[115.75516,4.00162],[115.74425,4.00367],[115.73483,4.00842],[115.73696,4.02264],[115.74267,4.03787],[115.74933,4.04929],[115.75314,4.06166],[115.75124,4.07594],[115.74077,4.09973],[115.72268,4.1083],[115.7065,4.11211],[115.68842,4.11782],[115.67954,4.12541],[115.68017,4.1263],[115.68021,4.12712],[115.6795,4.12773],[115.67995,4.12828],[115.68011,4.12861],[115.6815,4.12823],[115.68295,4.12887],[115.68345,4.12901],[115.68354,4.12974],[115.6844,4.13068],[115.68458,4.13106],[115.68502,4.13196],[115.68526,4.13268],[115.68524,4.13361],[115.68433,4.1358],[115.68359,4.13599],[115.68348,4.13656],[115.68337,4.1371],[115.68298,4.13834],[115.68242,4.13873],[115.6815,4.13964],[115.68109,4.14001],[115.68115,4.14009],[115.68182,4.14102],[115.68293,4.14182],[115.68384,4.14287],[115.68417,4.14352],[115.68403,4.14401],[115.68371,4.14489],[115.68383,4.14545],[115.68312,4.14573],[115.68302,4.1463],[115.68243,4.14649],[115.68316,4.14701],[115.68326,4.14835],[115.68291,4.15008],[115.68244,4.15104],[115.68259,4.15205],[115.68233,4.15255],[115.68198,4.15312],[115.68248,4.15434],[115.68299,4.1544],[115.68311,4.15538],[115.68312,4.15546],[115.68301,4.15621],[115.68372,4.15668],[115.68359,4.15756],[115.68364,4.15813],[115.68387,4.15896],[115.68406,4.15974],[115.68357,4.16048],[115.68432,4.16132],[115.68509,4.16243],[115.68541,4.1627],[115.68626,4.16308],[115.68679,4.1635],[115.68778,4.16379],[115.68867,4.16499],[115.68948,4.16528],[115.68957,4.16586],[115.68859,4.167],[115.68851,4.16774],[115.6885,4.16924],[115.6885,4.17029],[115.6887,4.17069],[115.68924,4.17116],[115.68987,4.17199],[115.69062,4.17285],[115.69046,4.1737],[115.69028,4.17489],[115.69155,4.17561],[115.69234,4.17631],[115.69385,4.17732],[115.69499,4.17805],[115.69506,4.17896],[115.69519,4.17961],[115.69633,4.17985],[115.69755,4.1802],[115.69779,4.18115],[115.69752,4.18176],[115.69765,4.1824],[115.69836,4.18328],[115.69842,4.1846],[115.6978,4.18497],[115.69763,4.18562],[115.69853,4.1865],[115.6988,4.18705],[115.6991,4.18739],[115.70012,4.18781],[115.70044,4.18811],[115.70059,4.18888],[115.70074,4.18952],[115.7016,4.19025],[115.70198,4.19089],[115.7028,4.19142],[115.70327,4.19194],[115.70368,4.19209],[115.7038,4.19368],[115.70355,4.19429],[115.70406,4.19438],[115.70412,4.19474],[115.70415,4.19516],[115.70522,4.19506],[115.70626,4.19513],[115.70737,4.1941],[115.70873,4.1936],[115.70958,4.19336],[115.71001,4.19327],[115.71065,4.19257],[115.71194,4.19223],[115.71267,4.19242],[115.71348,4.19253],[115.7144,4.19285],[115.71665,4.19395],[115.71739,4.19437],[115.71835,4.19386],[115.71918,4.19427],[115.7199,4.1957],[115.72026,4.19296],[115.72194,4.19255],[115.72329,4.19164],[115.72514,4.19059],[115.72613,4.19019],[115.72775,4.18951],[115.72799,4.18937],[115.72896,4.18879],[115.72917,4.18966],[115.72951,4.19021],[115.7298,4.19067],[115.73054,4.19228],[115.73041,4.19391],[115.73078,4.19524],[115.73078,4.19568],[115.73148,4.19637],[115.73193,4.19789],[115.73221,4.1985],[115.7324,4.19935],[115.73346,4.20265],[115.73334,4.20323],[115.73394,4.20457],[115.7334,4.2047],[115.73342,4.20777],[115.73333,4.20852],[115.73466,4.20971],[115.7366,4.2103],[115.7374,4.21001],[115.73842,4.21025],[115.73897,4.21051],[115.74018,4.21159],[115.74117,4.21188],[115.74183,4.21252],[115.74239,4.21304],[115.74324,4.21359],[115.74512,4.2136],[115.74511,4.21209],[115.74551,4.21179],[115.74626,4.21115],[115.74675,4.2104],[115.74702,4.21044],[115.74789,4.21057],[115.74865,4.21045],[115.74956,4.21092],[115.75,4.21099],[115.75219,4.21134],[115.753,4.21155],[115.75304,4.21158],[115.75351,4.21199],[115.75422,4.21274],[115.75421,4.21312],[115.75413,4.21364],[115.75464,4.21423],[115.75547,4.21482],[115.75573,4.21545],[115.75664,4.21694],[115.75738,4.21771],[115.75763,4.21828],[115.75757,4.21885],[115.75731,4.21945],[115.7577,4.21989],[115.75771,4.22042],[115.75813,4.221],[115.75804,4.22158],[115.75867,4.22187],[115.75955,4.2226],[115.75984,4.22333],[115.75978,4.22365],[115.76002,4.22371],[115.75987,4.22403],[115.75987,4.22438],[115.75991,4.2247],[115.75976,4.22509],[115.75972,4.2255],[115.76002,4.22623],[115.76018,4.22674],[115.76037,4.22761],[115.76044,4.22799],[115.76042,4.22824],[115.76069,4.22881],[115.76096,4.22871],[115.76129,4.22962],[115.76145,4.22993],[115.76187,4.23005],[115.76224,4.22996],[115.76274,4.23039],[115.76277,4.23062],[115.763,4.23075],[115.76376,4.23124],[115.76386,4.23211],[115.76422,4.23226],[115.76441,4.23258],[115.76465,4.23336],[115.76456,4.23358],[115.76478,4.23374],[115.76461,4.23396],[115.76471,4.2343],[115.76457,4.23459],[115.76474,4.23476],[115.76497,4.23471],[115.76525,4.23493],[115.76548,4.23543],[115.76561,4.23587],[115.76541,4.23657],[115.76571,4.2371],[115.76601,4.23769],[115.76635,4.23829],[115.76623,4.23884],[115.76623,4.23894],[115.76619,4.23959],[115.7663,4.24011],[115.7663,4.2405],[115.76612,4.24105],[115.76608,4.24177],[115.76615,4.24233],[115.7662,4.24269],[115.76643,4.2434],[115.76664,4.2438],[115.76704,4.24451],[115.76771,4.24488],[115.76809,4.24462],[115.76855,4.24437],[115.76925,4.24433],[115.76989,4.2442],[115.77053,4.2442],[115.77078,4.24448],[115.77117,4.24481],[115.77141,4.24491],[115.77201,4.2447],[115.77228,4.24441],[115.77328,4.24435],[115.77397,4.24369],[115.77441,4.24365],[115.77467,4.2433],[115.7752,4.24332],[115.77565,4.24327],[115.77588,4.24325],[115.77638,4.24262],[115.77672,4.24221],[115.77717,4.24202],[115.7775,4.24222],[115.77838,4.2421],[115.77934,4.2423],[115.78024,4.24216],[115.78076,4.2422],[115.7812,4.24265],[115.78166,4.24297],[115.78168,4.24296],[115.78281,4.24206],[115.78345,4.24195],[115.78419,4.24188],[115.78457,4.24173],[115.7849,4.24155],[115.78515,4.24141],[115.7857,4.24156],[115.78647,4.24147],[115.78673,4.24129],[115.78765,4.24121],[115.78806,4.24079],[115.78835,4.24069],[115.78874,4.24094],[115.78941,4.24118],[115.78961,4.24112],[115.79004,4.24108],[115.79034,4.24109],[115.79092,4.24079],[115.79109,4.24057],[115.79115,4.23999],[115.79134,4.23977],[115.79149,4.23967],[115.79186,4.23921],[115.79219,4.2389],[115.79259,4.2387],[115.79294,4.23853],[115.79308,4.23812],[115.79373,4.23808],[115.79396,4.2381],[115.79429,4.23813],[115.79458,4.23822],[115.79491,4.23804],[115.79549,4.23816],[115.79604,4.23795],[115.79637,4.23822],[115.79689,4.23812],[115.79715,4.23785],[115.79729,4.23769],[115.79724,4.237],[115.79731,4.23652],[115.79751,4.23584],[115.79784,4.23548],[115.79787,4.23526],[115.79821,4.23501],[115.79826,4.23472],[115.79822,4.23438],[115.79799,4.23417],[115.79783,4.23368],[115.79799,4.23314],[115.79831,4.23297],[115.79844,4.23247],[115.7986,4.2322],[115.79841,4.23186],[115.7985,4.23159],[115.79861,4.23084],[115.799,4.23042],[115.79868,4.22985],[115.79856,4.22953],[115.79852,4.22867],[115.79894,4.22812],[115.79902,4.22768],[115.79918,4.22747],[115.79913,4.22718],[115.79922,4.22663],[115.7992,4.22628],[115.7993,4.22576],[115.79962,4.22526],[115.80004,4.22509],[115.80038,4.2248],[115.80065,4.22414],[115.80106,4.22369],[115.80145,4.22255],[115.80136,4.22185],[115.80139,4.2216],[115.80173,4.22126],[115.80205,4.22086],[115.80215,4.22045],[115.80246,4.22036],[115.80262,4.22049],[115.8027,4.22034],[115.80289,4.22025],[115.80325,4.22033],[115.80335,4.22052],[115.80352,4.22063],[115.8037,4.2208],[115.80376,4.22127],[115.80384,4.22148],[115.8044,4.22175],[115.80453,4.22196],[115.80513,4.22237],[115.80518,4.22239],[115.80576,4.22264],[115.80611,4.22294],[115.8064,4.22303],[115.80716,4.22345],[115.80732,4.22367],[115.8075,4.22384],[115.80783,4.22403],[115.80813,4.22394],[115.80845,4.22426],[115.8088,4.22446],[115.80912,4.2245],[115.81009,4.22507],[115.81014,4.22538],[115.81037,4.22587],[115.81027,4.22637],[115.81057,4.22659],[115.81061,4.22662],[115.81106,4.22661],[115.81158,4.22645],[115.81169,4.22616],[115.81196,4.22587],[115.81238,4.2255],[115.81327,4.22532],[115.81376,4.22571],[115.81445,4.22544],[115.81487,4.22565],[115.81522,4.22538],[115.81569,4.22558],[115.81616,4.22578],[115.81638,4.22562],[115.81674,4.22557],[115.81708,4.22535],[115.81748,4.22504],[115.81783,4.22499],[115.81784,4.22455],[115.81814,4.22452],[115.81964,4.22494],[115.81985,4.22517],[115.8195,4.22553],[115.81958,4.22596],[115.81984,4.22608],[115.82014,4.22626],[115.82019,4.22651],[115.82096,4.22685],[115.82166,4.2276],[115.82188,4.22816],[115.82214,4.22876],[115.82235,4.22889],[115.8231,4.22914],[115.82367,4.22986],[115.82423,4.23014],[115.82453,4.23092],[115.82491,4.23111],[115.82564,4.23156],[115.82691,4.23221],[115.82702,4.2325],[115.82777,4.2329],[115.82846,4.23323],[115.82878,4.23362],[115.82915,4.23377],[115.82945,4.23408],[115.82977,4.23419],[115.83001,4.2344],[115.82999,4.23465],[115.83019,4.23487],[115.82891,4.23546],[115.82891,4.23571],[115.82891,4.23585],[115.82843,4.23655],[115.82786,4.23738],[115.82778,4.2381],[115.82765,4.23905],[115.8278,4.23951],[115.82779,4.23986],[115.82738,4.24055],[115.82758,4.24099],[115.82788,4.24152],[115.82792,4.24204],[115.82778,4.24257],[115.82762,4.243],[115.82697,4.24381],[115.82698,4.24417],[115.82716,4.2443],[115.8271,4.24554],[115.82687,4.24583],[115.82669,4.24607],[115.82703,4.24645],[115.82702,4.24699],[115.82742,4.24738],[115.82724,4.2478],[115.82726,4.24816],[115.82757,4.24822],[115.82751,4.24861],[115.8274,4.24897],[115.82764,4.24931],[115.82831,4.24964],[115.82843,4.25],[115.82843,4.25],[115.82864,4.25012],[115.82878,4.25024],[115.82894,4.25091],[115.82927,4.25136],[115.82954,4.25145],[115.82986,4.25176],[115.82945,4.25253],[115.82957,4.25301],[115.82922,4.25284],[115.82858,4.25291],[115.82822,4.25361],[115.82775,4.25414],[115.82787,4.25444],[115.82801,4.25459],[115.82766,4.25508],[115.82775,4.25578],[115.82749,4.25585],[115.82771,4.25618],[115.82725,4.25704],[115.82744,4.25764],[115.82716,4.25774],[115.82643,4.25779],[115.82664,4.25826],[115.82648,4.2585],[115.82631,4.25914],[115.82608,4.25962],[115.82608,4.25985],[115.82554,4.26017],[115.8256,4.2604],[115.82543,4.26071],[115.82557,4.26094],[115.82543,4.26107],[115.82556,4.26168],[115.8259,4.26223],[115.82618,4.26282],[115.82743,4.26306],[115.82768,4.26294],[115.82788,4.26313],[115.82818,4.26315],[115.82881,4.26293],[115.82918,4.2629],[115.82931,4.26312],[115.83027,4.26351],[115.83096,4.26322],[115.83146,4.26344],[115.83182,4.264],[115.83247,4.26428],[115.83253,4.2647],[115.83285,4.26462],[115.83331,4.2647],[115.83367,4.2645],[115.83434,4.26502],[115.83499,4.26565],[115.8355,4.26581],[115.83629,4.26516],[115.83707,4.26482],[115.83765,4.265],[115.83808,4.26469],[115.83849,4.26478],[115.83889,4.26503],[115.83909,4.26544],[115.83962,4.26556],[115.84004,4.26588],[115.84016,4.26634],[115.84023,4.26663],[115.84047,4.26693],[115.84077,4.26751],[115.84163,4.26785],[115.8423,4.26841],[115.84283,4.26902],[115.8429,4.26931],[115.84305,4.26901],[115.84357,4.26903],[115.844,4.26875],[115.84433,4.26871],[115.8447,4.26884],[115.8449,4.26922],[115.84531,4.26928],[115.84579,4.26916],[115.84605,4.2689],[115.84628,4.26914],[115.84642,4.27005],[115.84692,4.27038],[115.84711,4.27088],[115.84753,4.27115],[115.84773,4.27161],[115.84825,4.27193],[115.84866,4.27249],[115.84907,4.27249],[115.84933,4.27268],[115.84968,4.27306],[115.84959,4.27322],[115.84953,4.27346],[115.84969,4.27376],[115.8497,4.27422],[115.84951,4.2745],[115.84984,4.27501],[115.84967,4.2764],[115.84932,4.27726],[115.84945,4.27788],[115.84985,4.27801],[115.8501,4.27835],[115.85072,4.27889],[115.85079,4.2792],[115.85109,4.27955],[115.85157,4.27983],[115.85203,4.28002],[115.85255,4.28012],[115.85306,4.28048],[115.85339,4.28054],[115.85398,4.28106],[115.85467,4.2808],[115.85509,4.28043],[115.85594,4.28035],[115.85676,4.28018],[115.85745,4.27975],[115.85806,4.28001],[115.85934,4.28],[115.85969,4.27973],[115.86011,4.27994],[115.86083,4.28004],[115.86152,4.28023],[115.86157,4.28096],[115.86158,4.28132],[115.86198,4.28176],[115.86278,4.28215],[115.86345,4.28268],[115.86359,4.28329],[115.8638,4.28339],[115.86397,4.28419],[115.86448,4.28473],[115.86448,4.28509],[115.86493,4.28513],[115.86511,4.28518],[115.86625,4.28519],[115.8667,4.28582],[115.8668,4.28606],[115.86745,4.28618],[115.86833,4.28603],[115.86908,4.28605],[115.87025,4.28574],[115.87127,4.28558],[115.87196,4.28611],[115.8725,4.28667],[115.87233,4.28759],[115.87212,4.28798],[115.87212,4.28818],[115.87245,4.2884],[115.87297,4.28869],[115.87309,4.28895],[115.87323,4.28878],[115.87588,4.28489],[115.8764,4.28413],[115.87712,4.28307],[115.87716,4.28302],[115.87716,4.28302],[115.87734,4.28276],[115.87854,4.2811]],[[115.7756,4.01289],[115.7751,4.01291],[115.7747,4.01321],[115.77461,4.01371],[115.77429,4.01346],[115.77369,4.01323],[115.77283,4.01295],[115.77236,4.01287],[115.77246,4.01251],[115.77241,4.01183],[115.77247,4.01159],[115.77245,4.01158],[115.77244,4.01088],[115.77267,4.01052],[115.77322,4.01054],[115.77371,4.0101],[115.77409,4.00947],[115.77403,4.00906],[115.7744,4.00909],[115.77515,4.00944],[115.77551,4.00969],[115.77593,4.00982],[115.77633,4.01199],[115.77625,4.01196],[115.77634,4.01221],[115.77659,4.01242],[115.77691,4.01316],[115.77693,4.01371],[115.77662,4.01402],[115.77635,4.01382],[115.77563,4.01291],[115.7756,4.01289]]]]},"properties":{"kdprov":"65","kdkab":"04","kdkec":"021","kddesa":"015","kdsls":"2001","idsls":"65040210152001","nmprov":"KALIMANTAN UTARA","nmkab":"NUNUKAN","nmkec":"KRAYAN TIMUR","nmdesa":"PA RAYE","nmsls":"HUTAN"}},{"type":"Feature","geometry":{"type":"MultiPolygon","coordinates":[[[[115.765,3.9689],[115.76468,3.9687],[115.76409,3.96811],[115.76362,3.96786],[115.76313,3.96762],[115.76306,3.96719],[115.76291,3.96667],[115.76279,3.96623],[115.76253,3.96614],[115.76233,3.96594],[115.76193,3.9662],[115.76141,3.96636],[115.76049,3.96693],[115.759,3.96824],[115.75836,3.96911],[115.75693,3.97083],[115.75546,3.97392],[115.75422,3.97716],[115.75132,3.97906],[115.73942,3.98134],[115.73474,3.98137],[115.73506,3.98742],[115.73455,3.99608],[115.7435,3.995],[115.75266,3.98989],[115.75956,3.98334],[115.76087,3.97549],[115.76092,3.97392],[115.76178,3.97268],[115.76275,3.97197],[115.76397,3.97126],[115.76449,3.96985],[115.765,3.9689]]]]},"properties":{"kdprov":"65","kdkab":"04","kdkec":"021","kddesa":"013","kdsls":"2001","idsls":"65040210132001","nmprov":"KALIMANTAN UTARA","nmkab":"NUNUKAN","nmkec":"KRAYAN TIMUR","nmdesa":"PA LIDUNG","nmsls":"HUTAN"}},{"type":"Feature","geometry":{"type":"MultiPolygon","coordinates":[[[[115.98201,4.11877],[115.98201,4.11877],[115.98263,4.11877],[115.98265,4.11877],[115.98278,4.11877],[115.98849,4.11876],[115.99487,4.11879],[115.99488,4.11879],[115.99847,4.11771],[116.00034,4.11715],[116.00168,4.11675],[116.00919,4.11081],[116.00919,4.1108],[116.0092,4.1108],[116.00978,4.11046],[116.01177,4.10929],[116.01342,4.10832],[116.01495,4.10742],[116.01874,4.10679],[116.01878,4.10678],[116.0223,4.10612],[116.02999,4.10583],[116.03005,4.10583],[116.03005,4.10583],[116.03057,4.10591],[116.03696,4.10687],[116.04156,4.10597],[116.04333,4.10562],[116.04333,4.10562],[116.04333,4.10562],[116.03898,4.10126],[116.03765,4.0986],[116.03727,4.09593],[116.03841,4.09365],[116.03993,4.09136],[116.03936,4.08851],[116.03841,4.08622],[116.03869,4.08391],[116.04129,4.08171],[116.04263,4.08038],[116.0432,4.07524],[116.04502,4.07198],[116.04853,4.06572],[116.04891,4.06344],[116.04667,4.05806],[116.04661,4.05793],[116.04605,4.05659],[116.04548,4.05373],[116.047,4.04821],[116.04711,4.04793],[116.04853,4.04402],[116.04758,4.03584],[116.04624,4.02803],[116.04783,4.02422],[116.04904,4.0203],[116.04843,4.01306],[116.051,4.0102],[116.05492,4.00869],[116.05778,4.00794],[116.05869,4.00718],[116.05944,4.00371],[116.06034,3.99919],[116.06261,3.99422],[116.06261,3.99165],[116.06155,3.98894],[116.05914,3.98577],[116.05808,3.98261],[116.05793,3.97989],[116.05929,3.96919],[116.06019,3.96331],[116.06215,3.95637],[116.06472,3.95034],[116.06924,3.94235],[116.07045,3.93934],[116.06969,3.93255],[116.06894,3.9223],[116.06849,3.91552],[116.06788,3.90919],[116.06818,3.90436],[116.06939,3.90044],[116.06999,3.89788],[116.06954,3.89592],[116.06894,3.8929],[116.06894,3.89125],[116.06743,3.89019],[116.06592,3.89094],[116.06306,3.8917],[116.05703,3.8923],[116.05486,3.89281],[116.05446,3.8929],[116.05145,3.89456],[116.04949,3.89878],[116.04632,3.90316],[116.0424,3.90783],[116.03788,3.90828],[116.03471,3.90873],[116.0326,3.91084],[116.02808,3.91341],[116.02401,3.9125],[116.01979,3.91145],[116.01512,3.91009],[116.00999,3.90753],[116.00728,3.90783],[116.00532,3.90632],[116.002,3.90542],[115.99989,3.90542],[115.99567,3.90346],[115.99371,3.90029],[115.98979,3.89803],[115.98737,3.89562],[115.98647,3.89501],[115.98602,3.89969],[115.98421,3.91311],[115.98297,3.92296],[115.9816,3.9251],[115.97948,3.92844],[115.97841,3.93012],[115.97841,3.93012],[115.9717,3.93147],[115.96767,3.93079],[115.96431,3.93482],[115.96297,3.94355],[115.96095,3.95228],[115.95858,3.95613],[115.95844,3.95637],[115.95832,3.95655],[115.9583,3.95659],[115.95558,3.961],[115.95408,3.96814],[115.9529,3.97376],[115.95028,3.98685],[115.94977,3.98939],[115.94954,3.99054],[115.94836,3.9929],[115.9482,3.99322],[115.94309,3.99493],[115.94014,3.99591],[115.93343,3.99591],[115.93204,3.99328],[115.93124,3.99176],[115.92739,3.9845],[115.92233,3.97268],[115.92135,3.9704],[115.9206,3.96922],[115.91828,3.96558],[115.91665,3.96302],[115.91418,3.95984],[115.91261,3.95782],[115.91253,3.95772],[115.91195,3.95697],[115.91182,3.95527],[115.91128,3.94825],[115.9111,3.94766],[115.91062,3.94606],[115.91003,3.94409],[115.90927,3.94154],[115.90648,3.93919],[115.90558,3.93843],[115.9054,3.93825],[115.90496,3.93787],[115.90329,3.9392],[115.89872,3.94091],[115.89073,3.9411],[115.88178,3.94015],[115.87683,3.93729],[115.86979,3.93558],[115.8635,3.93329],[115.85722,3.93577],[115.85303,3.93939],[115.84732,3.94091],[115.84384,3.94457],[115.84352,3.94491],[115.84278,3.94604],[115.83971,3.95081],[115.83362,3.95271],[115.83057,3.95271],[115.82315,3.95595],[115.82048,3.95595],[115.83572,3.97315],[115.83937,3.97978],[115.84537,3.99064],[115.8615,4.00044],[115.88441,4.01009],[115.92361,4.03467],[115.95293,4.066],[115.96959,4.1055],[115.97198,4.1202],[115.97554,4.1191],[115.97666,4.11904],[115.97871,4.11893],[115.98163,4.11879],[115.98201,4.11877],[115.98201,4.11877]],[[115.85482,3.95904],[115.8523,3.95938],[115.85185,3.95759],[115.85258,3.95675],[115.85403,3.95719],[115.85577,3.95641],[115.85762,3.95686],[115.85745,3.95938],[115.85571,3.95865],[115.85482,3.95904]]]]},"properties":{"kdprov":"65","kdkab":"04","kdkec":"021","kddesa":"006","kdsls":"2001","idsls":"65040210062001","nmprov":"KALIMANTAN UTARA","nmkab":"NUNUKAN","nmkec":"KRAYAN TIMUR","nmdesa":"WA YAGUNG","nmsls":"HUTAN"}},{"type":"Feature","geometry":{"type":"MultiPolygon","coordinates":[[[[115.77012,3.97282],[115.76975,3.97282],[115.76934,3.9728],[115.76859,3.97289],[115.76836,3.97289],[115.76815,3.97303],[115.76776,3.97344],[115.76752,3.97368],[115.76716,3.97361],[115.76652,3.97323],[115.76572,3.97282],[115.76518,3.97261],[115.76453,3.97667],[115.76453,3.97917],[115.76196,3.99457],[115.75516,4.00162],[115.75615,4.00144],[115.76849,4.00188],[115.77517,4.00209],[115.77517,4.00114],[115.77517,3.99983],[115.77517,3.99894],[115.77562,3.99769],[115.77618,3.99581],[115.77594,3.99486],[115.77591,3.9923],[115.7766,3.99055],[115.77725,3.98912],[115.77701,3.98862],[115.77577,3.989],[115.77413,3.98936],[115.77101,3.98927],[115.77077,3.98743],[115.77074,3.98591],[115.77285,3.98653],[115.77502,3.98641],[115.776,3.98558],[115.77693,3.9827],[115.77725,3.98124],[115.77654,3.98044],[115.77618,3.98056],[115.77523,3.98139],[115.77419,3.98264],[115.77342,3.98392],[115.77172,3.9841],[115.77148,3.98335],[115.77199,3.98148],[115.77324,3.98094],[115.77377,3.98014],[115.77345,3.97946],[115.77229,3.97969],[115.77115,3.98005],[115.7705,3.98073],[115.76943,3.98085],[115.76875,3.98041],[115.76892,3.97969],[115.76982,3.97963],[115.77115,3.97922],[115.77175,3.97859],[115.77118,3.97734],[115.77011,3.97636],[115.77025,3.97488],[115.77068,3.97364],[115.77012,3.97282]]]]},"properties":{"kdprov":"65","kdkab":"04","kdkec":"021","kddesa":"011","kdsls":"2001","idsls":"65040210112001","nmprov":"KALIMANTAN UTARA","nmkab":"NUNUKAN","nmkec":"KRAYAN TIMUR","nmdesa":"LONG NUAT","nmsls":"HUTAN"}},{"type":"Feature","geometry":{"type":"MultiPolygon","coordinates":[[[[115.8204,3.98865],[115.80618,3.97738],[115.79571,3.9732],[115.77189,3.96931],[115.77184,3.9697],[115.77177,3.97024],[115.77156,3.97079],[115.77135,3.97143],[115.77093,3.97195],[115.77047,3.97241],[115.77002,3.97267],[115.77012,3.97282],[115.77068,3.97364],[115.77025,3.97488],[115.77011,3.97636],[115.77118,3.97734],[115.77175,3.97859],[115.77115,3.97922],[115.76982,3.97963],[115.76892,3.97969],[115.76875,3.98041],[115.76943,3.98085],[115.7705,3.98073],[115.77115,3.98005],[115.77229,3.97969],[115.77345,3.97946],[115.77377,3.98014],[115.77324,3.98094],[115.77199,3.98148],[115.77148,3.98335],[115.77172,3.9841],[115.77342,3.98392],[115.77419,3.98264],[115.77523,3.98139],[115.77618,3.98056],[115.77654,3.98044],[115.77725,3.98124],[115.77693,3.9827],[115.776,3.98558],[115.77502,3.98641],[115.77285,3.98653],[115.77074,3.98591],[115.77077,3.98743],[115.77101,3.98927],[115.77413,3.98936],[115.77577,3.989],[115.77701,3.98862],[115.77725,3.98912],[115.7766,3.99055],[115.77591,3.9923],[115.77594,3.99486],[115.77618,3.99581],[115.77562,3.99769],[115.77517,3.99894],[115.77517,3.99983],[115.77517,4.00114],[115.77517,4.00209],[115.77801,4.00218],[115.78694,4.00768],[115.78887,4.01006],[115.79065,4.0114],[115.79214,4.01096],[115.79303,4.01006],[115.79541,4.00813],[115.79779,4.00768],[115.80062,4.00754],[115.80121,4.00664],[115.80151,4.00426],[115.80121,4.00278],[115.8027,4.00055],[115.80285,3.99936],[115.8021,3.99742],[115.80538,3.99638],[115.80642,3.99921],[115.81162,4.00055],[115.81237,4.0001],[115.81192,3.99832],[115.81549,3.99832],[115.81817,3.99608],[115.81906,3.99385],[115.82144,3.99266],[115.8204,3.99028],[115.8204,3.98865]]]]},"properties":{"kdprov":"65","kdkab":"04","kdkec":"021","kddesa":"016","kdsls":"2001","idsls":"65040210162001","nmprov":"KALIMANTAN UTARA","nmkab":"NUNUKAN","nmkec":"KRAYAN TIMUR","nmdesa":"PA PALA","nmsls":"HUTAN"}},{"type":"Feature","geometry":{"type":"MultiPolygon","coordinates":[[[[115.77625,4.01196],[115.77516,4.01161],[115.77451,4.01129],[115.77358,4.01083],[115.77322,4.01055],[115.77322,4.01054],[115.77267,4.01052],[115.77244,4.01088],[115.77245,4.01158],[115.77247,4.01159],[115.77311,4.01178],[115.77391,4.01199],[115.77465,4.01216],[115.7756,4.01289],[115.77563,4.01291],[115.77635,4.01382],[115.77662,4.01402],[115.77693,4.01371],[115.77691,4.01316],[115.77659,4.01242],[115.77634,4.01221],[115.77625,4.01196]]]]},"properties":{"kdprov":"65","kdkab":"04","kdkec":"021","kddesa":"015","kdsls":"0002","idsls":"65040210150002","nmprov":"KALIMANTAN UTARA","nmkab":"NUNUKAN","nmkec":"KRAYAN TIMUR","nmdesa":"PA RAYE","nmsls":"RT 002"}},{"type":"Feature","geometry":{"type":"MultiPolygon","coordinates":[[[[115.75516,4.00162],[115.76196,3.99457],[115.76453,3.97917],[115.76453,3.97667],[115.76518,3.97261],[115.76524,3.97227],[115.76563,3.97152],[115.76629,3.97131],[115.76699,3.97093],[115.76751,3.97076],[115.76776,3.97038],[115.76724,3.97026],[115.76669,3.96997],[115.76644,3.9698],[115.76623,3.96918],[115.76612,3.96812],[115.76641,3.96728],[115.7668,3.96698],[115.76589,3.96655],[115.76577,3.96695],[115.76526,3.96764],[115.76489,3.96816],[115.76477,3.96856],[115.76501,3.96888],[115.765,3.9689],[115.76449,3.96985],[115.76397,3.97126],[115.76275,3.97197],[115.76178,3.97268],[115.76092,3.97392],[115.76087,3.97549],[115.75956,3.98334],[115.75266,3.98989],[115.7435,3.995],[115.73455,3.99608],[115.73411,4.0036],[115.73483,4.00842],[115.74425,4.00367],[115.75516,4.00162]]]]},"properties":{"kdprov":"65","kdkab":"04","kdkec":"021","kddesa":"017","kdsls":"2001","idsls":"65040210172001","nmprov":"KALIMANTAN UTARA","nmkab":"NUNUKAN","nmkec":"KRAYAN TIMUR","nmdesa":"SINAR BARU","nmsls":"HUTAN"}},{"type":"Feature","geometry":{"type":"MultiPolygon","coordinates":[[[[115.77322,4.01054],[115.77322,4.01055],[115.77358,4.01083],[115.77451,4.01129],[115.77516,4.01161],[115.77625,4.01196],[115.77633,4.01199],[115.77593,4.00982],[115.77551,4.00969],[115.77515,4.00944],[115.7744,4.00909],[115.77403,4.00906],[115.77409,4.00947],[115.77371,4.0101],[115.77322,4.01054]]]]},"properties":{"kdprov":"65","kdkab":"04","kdkec":"021","kddesa":"015","kdsls":"0001","idsls":"65040210150001","nmprov":"KALIMANTAN UTARA","nmkab":"NUNUKAN","nmkec":"KRAYAN TIMUR","nmdesa":"PA RAYE","nmsls":"RT 001"}},{"type":"Feature","geometry":{"type":"MultiPolygon","coordinates":[[[[115.7423,3.93921],[115.74261,3.93871],[115.74279,3.93839],[115.74303,3.93792],[115.74305,3.93737],[115.74321,3.9367],[115.74336,3.9365],[115.74367,3.93636],[115.74388,3.93617],[115.74401,3.93576],[115.74375,3.93545],[115.7436,3.9353],[115.7437,3.93506],[115.74405,3.93477],[115.7444,3.93431],[115.74469,3.93426],[115.74535,3.93487],[115.7457,3.93552],[115.7461,3.93608],[115.74658,3.93621],[115.747,3.93627],[115.74748,3.93608],[115.74804,3.9361],[115.74823,3.93643],[115.74837,3.93597],[115.74835,3.93565],[115.74855,3.93515],[115.74888,3.93485],[115.75002,3.93439],[115.75345,3.93325],[115.76059,3.93142],[115.76801,3.92891],[115.78577,3.916],[115.79788,3.90801],[115.80856,3.8995],[115.81587,3.88762],[115.82536,3.86776],[115.83148,3.85608],[115.82365,3.85302],[115.82364,3.85304],[115.82364,3.85304],[115.82364,3.85305],[115.82362,3.85311],[115.82286,3.85589],[115.81608,3.86306],[115.81588,3.86338],[115.81042,3.87213],[115.80993,3.87876],[115.8099,3.87926],[115.80814,3.88422],[115.80212,3.89152],[115.80098,3.89291],[115.79306,3.90386],[115.77952,3.91285],[115.77789,3.91467],[115.77191,3.92029],[115.77039,3.92166],[115.76804,3.92378],[115.76569,3.9259],[115.76541,3.92599],[115.74564,3.93217],[115.74386,3.93272],[115.7413,3.93348],[115.73597,3.93472],[115.73045,3.937],[115.72655,3.93834],[115.72887,3.94287],[115.72937,3.94386],[115.73285,3.94248],[115.73879,3.94282],[115.73946,3.94277],[115.74038,3.9422],[115.74053,3.94179],[115.74107,3.94177],[115.74126,3.94115],[115.74162,3.94044],[115.74217,3.9393],[115.7423,3.93921]]]]},"properties":{"kdprov":"65","kdkab":"04","kdkec":"021","kddesa":"007","kdsls":"2001","idsls":"65040210072001","nmprov":"KALIMANTAN UTARA","nmkab":"NUNUKAN","nmkec":"KRAYAN TIMUR","nmdesa":"PA MELADE","nmsls":"HUTAN"}},{"type":"Feature","geometry":{"type":"MultiPolygon","coordinates":[[[[115.7471,3.93986],[115.74684,3.93954],[115.74627,3.93982],[115.74595,3.93957],[115.74567,3.93947],[115.74529,3.93947],[115.74515,3.93933],[115.74588,3.93891],[115.74611,3.939],[115.74649,3.93872],[115.74672,3.93843],[115.74711,3.93808],[115.74743,3.93772],[115.74816,3.93685],[115.74835,3.93651],[115.74841,3.93597],[115.74848,3.9356],[115.74875,3.93534],[115.74897,3.93569],[115.74951,3.93518],[115.7514,3.93486],[115.75738,3.93384],[115.76799,3.93298],[115.77485,3.93241],[115.78417,3.92851],[115.80297,3.91742],[115.81653,3.90733],[115.83847,3.88163],[115.85117,3.87564],[115.85086,3.87508],[115.85073,3.87486],[115.84348,3.86299],[115.83542,3.85762],[115.83148,3.85608],[115.82536,3.86776],[115.81587,3.88762],[115.80856,3.8995],[115.79788,3.90801],[115.78577,3.916],[115.76801,3.92891],[115.76059,3.93142],[115.75345,3.93325],[115.75002,3.93439],[115.74888,3.93485],[115.74855,3.93515],[115.74835,3.93565],[115.74837,3.93597],[115.74823,3.93643],[115.74818,3.9366],[115.74778,3.93696],[115.74726,3.93756],[115.74648,3.93834],[115.74588,3.93876],[115.74558,3.939],[115.74483,3.93901],[115.7441,3.93889],[115.74321,3.9388],[115.7425,3.93908],[115.7423,3.93921],[115.74217,3.9393],[115.74162,3.94044],[115.74126,3.94115],[115.74107,3.94177],[115.74053,3.94179],[115.74038,3.9422],[115.73946,3.94277],[115.73879,3.94282],[115.73285,3.94248],[115.72937,3.94386],[115.73315,3.95126],[115.73666,3.94993],[115.73845,3.94951],[115.73958,3.94868],[115.74107,3.94815],[115.74303,3.94731],[115.74362,3.9463],[115.74535,3.94353],[115.74635,3.94134],[115.74649,3.94102],[115.747,3.94004],[115.7471,3.93986]]]]},"properties":{"kdprov":"65","kdkab":"04","kdkec":"021","kddesa":"003","kdsls":"2001","idsls":"65040210032001","nmprov":"KALIMANTAN UTARA","nmkab":"NUNUKAN","nmkec":"KRAYAN TIMUR","nmdesa":"PA KEBUAN","nmsls":"HUTAN"}},{"type":"Feature","geometry":{"type":"MultiPolygon","coordinates":[[[[115.76163,3.9524],[115.76877,3.95032],[115.77805,3.9464],[115.78923,3.94152],[115.80363,3.93474],[115.84265,3.90261],[115.85288,3.89833],[115.86226,3.8941],[115.8587,3.88883],[115.8587,3.88882],[115.85758,3.88716],[115.85754,3.88709],[115.85619,3.88467],[115.85533,3.88312],[115.85117,3.87564],[115.83847,3.88163],[115.81653,3.90733],[115.80297,3.91742],[115.78417,3.92851],[115.77485,3.93241],[115.76799,3.93298],[115.75738,3.93384],[115.7514,3.93486],[115.75132,3.93513],[115.75084,3.93539],[115.75013,3.93581],[115.75,3.93615],[115.75041,3.93643],[115.75069,3.93635],[115.75084,3.93665],[115.75084,3.93675],[115.75066,3.93696],[115.75052,3.93724],[115.75041,3.93735],[115.75038,3.93765],[115.7506,3.93763],[115.75081,3.93749],[115.75097,3.93719],[115.75139,3.93712],[115.75132,3.93747],[115.75073,3.93779],[115.75037,3.93801],[115.74992,3.93808],[115.74946,3.93849],[115.74934,3.93868],[115.74925,3.93885],[115.74926,3.939],[115.74943,3.93909],[115.74965,3.93928],[115.74962,3.9394],[115.74962,3.93961],[115.74971,3.93991],[115.74974,3.94033],[115.74951,3.94046],[115.74913,3.94042],[115.7488,3.94047],[115.74853,3.94089],[115.74828,3.94112],[115.74821,3.94101],[115.74792,3.94075],[115.74773,3.9406],[115.74765,3.94036],[115.74751,3.94022],[115.74729,3.94003],[115.7471,3.93986],[115.7471,3.93986],[115.747,3.94004],[115.74649,3.94102],[115.74635,3.94134],[115.74535,3.94353],[115.74362,3.9463],[115.74303,3.94731],[115.74107,3.94815],[115.73958,3.94868],[115.73845,3.94951],[115.73666,3.94993],[115.73315,3.95126],[115.73351,3.95795],[115.73469,3.95789],[115.73674,3.95789],[115.73774,3.95784],[115.73998,3.95794],[115.74117,3.95817],[115.74231,3.95746],[115.74652,3.95639],[115.74926,3.95675],[115.7533,3.95532],[115.75937,3.95306],[115.76163,3.9524]]]]},"properties":{"kdprov":"65","kdkab":"04","kdkec":"021","kddesa":"010","kdsls":"2001","idsls":"65040210102001","nmprov":"KALIMANTAN UTARA","nmkab":"NUNUKAN","nmkec":"KRAYAN TIMUR","nmdesa":"PA PAWAN","nmsls":"HUTAN"}},{"type":"Feature","geometry":{"type":"MultiPolygon","coordinates":[[[[115.7698,3.96345],[115.7707,3.96285],[115.78232,3.95971],[115.79678,3.958],[115.81087,3.95638],[115.82048,3.95595],[115.81725,3.95404],[115.81325,3.95138],[115.80811,3.94319],[115.80526,3.93729],[115.80363,3.93474],[115.78923,3.94152],[115.77805,3.9464],[115.76877,3.95032],[115.76163,3.9524],[115.76283,3.95507],[115.7637,3.95781],[115.76405,3.96009],[115.76414,3.96072],[115.7639,3.96263],[115.76394,3.9637],[115.76399,3.96389],[115.76402,3.96392],[115.76464,3.96359],[115.76542,3.96348],[115.76554,3.96399],[115.76589,3.96441],[115.76632,3.96477],[115.76687,3.96498],[115.76739,3.96511],[115.76766,3.96485],[115.7698,3.96345]]]]},"properties":{"kdprov":"65","kdkab":"04","kdkec":"021","kddesa":"009","kdsls":"2001","idsls":"65040210092001","nmprov":"KALIMANTAN UTARA","nmkab":"NUNUKAN","nmkec":"KRAYAN TIMUR","nmdesa":"PA UMUNG","nmsls":"HUTAN"}},{"type":"Feature","geometry":{"type":"MultiPolygon","coordinates":[[[[115.83937,3.97978],[115.83572,3.97315],[115.82048,3.95595],[115.81087,3.95638],[115.79678,3.958],[115.78232,3.95971],[115.7707,3.96285],[115.7698,3.96345],[115.77015,3.96347],[115.77064,3.9636],[115.77091,3.96394],[115.7712,3.96441],[115.77143,3.965],[115.77134,3.9655],[115.77115,3.96606],[115.77088,3.9666],[115.77059,3.96706],[115.77035,3.96739],[115.77011,3.96765],[115.77011,3.96801],[115.77021,3.96841],[115.77042,3.96874],[115.77048,3.96904],[115.77077,3.96912],[115.77189,3.96931],[115.79571,3.9732],[115.80618,3.97738],[115.8204,3.98865],[115.82382,3.98731],[115.8253,3.98984],[115.82828,3.99118],[115.82932,3.99103],[115.83051,3.9888],[115.83185,3.98672],[115.8317,3.98419],[115.83393,3.98493],[115.83438,3.98225],[115.83527,3.98151],[115.83705,3.98032],[115.83937,3.97978]]]]},"properties":{"kdprov":"65","kdkab":"04","kdkec":"021","kddesa":"012","kdsls":"2001","idsls":"65040210122001","nmprov":"KALIMANTAN UTARA","nmkab":"NUNUKAN","nmkec":"KRAYAN TIMUR","nmdesa":"LONG TENEM","nmsls":"HUTAN"}},{"type":"Feature","geometry":{"type":"MultiPolygon","coordinates":[[[[115.84278,3.94604],[115.83944,3.94516],[115.83883,3.94398],[115.83846,3.94197],[115.83853,3.94158],[115.83991,3.94138],[115.84012,3.9419],[115.84076,3.94251],[115.84132,3.94305],[115.8423,3.94345],[115.84384,3.94457],[115.84732,3.94091],[115.85303,3.93939],[115.85722,3.93577],[115.8635,3.93329],[115.86979,3.93558],[115.87683,3.93729],[115.88178,3.94015],[115.89073,3.9411],[115.89872,3.94091],[115.90329,3.9392],[115.90496,3.93787],[115.90399,3.93737],[115.90181,3.93686],[115.89315,3.93482],[115.88832,3.92999],[115.88376,3.92542],[115.88373,3.92539],[115.88332,3.92481],[115.88289,3.9242],[115.88155,3.9223],[115.8757,3.91401],[115.86872,3.90368],[115.86817,3.90285],[115.86226,3.8941],[115.85288,3.89833],[115.84265,3.90261],[115.80363,3.93474],[115.80526,3.93729],[115.80811,3.94319],[115.81325,3.95138],[115.81725,3.95404],[115.82048,3.95595],[115.82315,3.95595],[115.83057,3.95271],[115.83362,3.95271],[115.83971,3.95081],[115.84278,3.94604]]]]},"properties":{"kdprov":"65","kdkab":"04","kdkec":"021","kddesa":"005","kdsls":"2001","idsls":"65040210052001","nmprov":"KALIMANTAN UTARA","nmkab":"NUNUKAN","nmkec":"KRAYAN TIMUR","nmdesa":"BUNGAYAN","nmsls":"HUTAN"}},{"type":"Feature","geometry":{"type":"MultiPolygon","coordinates":[[[[115.84384,3.94457],[115.8423,3.94345],[115.84132,3.94305],[115.84076,3.94251],[115.84012,3.9419],[115.83991,3.94138],[115.83853,3.94158],[115.83846,3.94197],[115.83883,3.94398],[115.83944,3.94516],[115.84278,3.94604],[115.84352,3.94491],[115.84384,3.94457]]]]},"properties":{"kdprov":"65","kdkab":"04","kdkec":"021","kddesa":"005","kdsls":"0001","idsls":"65040210050001","nmprov":"KALIMANTAN UTARA","nmkab":"NUNUKAN","nmkec":"KRAYAN TIMUR","nmdesa":"BUNGAYAN","nmsls":"RT 001"}},{"type":"Feature","geometry":{"type":"MultiPolygon","coordinates":[[[[115.85482,3.95904],[115.85477,3.95885],[115.85403,3.95719],[115.85258,3.95675],[115.85185,3.95759],[115.8523,3.95938],[115.85482,3.95904]]]]},"properties":{"kdprov":"65","kdkab":"04","kdkec":"021","kddesa":"006","kdsls":"0002","idsls":"65040210060002","nmprov":"KALIMANTAN UTARA","nmkab":"NUNUKAN","nmkec":"KRAYAN TIMUR","nmdesa":"WA YAGUNG","nmsls":"RT 002"}},{"type":"Feature","geometry":{"type":"MultiPolygon","coordinates":[[[[115.71858,3.95399],[115.7188,3.95368],[115.71842,3.95341],[115.71834,3.95287],[115.7183,3.95254],[115.71818,3.95242],[115.71797,3.95242],[115.71782,3.9525],[115.71748,3.95275],[115.71708,3.95284],[115.71674,3.95312],[115.71663,3.95352],[115.71638,3.95404],[115.71621,3.95431],[115.71616,3.95462],[115.71614,3.95478],[115.71606,3.95485],[115.71588,3.95478],[115.7156,3.95462],[115.7155,3.95491],[115.71565,3.95511],[115.71572,3.95534],[115.71561,3.95589],[115.71609,3.95599],[115.71638,3.95613],[115.71664,3.95627],[115.71659,3.95617],[115.71643,3.95588],[115.71644,3.95555],[115.71659,3.95521],[115.71671,3.95503],[115.71686,3.9548],[115.71722,3.95475],[115.71777,3.95468],[115.71828,3.95452],[115.71845,3.95423],[115.71857,3.95402],[115.71858,3.95399]]]]},"properties":{"kdprov":"65","kdkab":"04","kdkec":"021","kddesa":"004","kdsls":"0001","idsls":"65040210040001","nmprov":"KALIMANTAN UTARA","nmkab":"NUNUKAN","nmkec":"KRAYAN TIMUR","nmdesa":"PA BETUNG","nmsls":"RT 001"}},{"type":"Feature","geometry":{"type":"MultiPolygon","coordinates":[[[[115.71858,3.95399],[115.71857,3.95402],[115.71845,3.95423],[115.71828,3.95452],[115.71777,3.95468],[115.71722,3.95475],[115.71686,3.9548],[115.71671,3.95503],[115.71659,3.95521],[115.71644,3.95555],[115.71643,3.95588],[115.71659,3.95617],[115.71664,3.95627],[115.71674,3.95649],[115.7171,3.95668],[115.71756,3.95702],[115.71797,3.95701],[115.71874,3.95691],[115.71923,3.95701],[115.71949,3.95701],[115.71967,3.95698],[115.71972,3.95665],[115.71983,3.95602],[115.71984,3.95561],[115.71958,3.95533],[115.71945,3.95512],[115.71934,3.95477],[115.71933,3.95472],[115.71907,3.95455],[115.71909,3.95427],[115.71938,3.95412],[115.71938,3.95389],[115.71924,3.95379],[115.719,3.95388],[115.71858,3.95399]]]]},"properties":{"kdprov":"65","kdkab":"04","kdkec":"021","kddesa":"008","kdsls":"0001","idsls":"65040210080001","nmprov":"KALIMANTAN UTARA","nmkab":"NUNUKAN","nmkec":"KRAYAN TIMUR","nmdesa":"LONG SEPAYANG","nmsls":"RT 001"}},{"type":"Feature","geometry":{"type":"MultiPolygon","coordinates":[[[[115.76487,3.9648],[115.76511,3.96476],[115.76521,3.96463],[115.76519,3.96451],[115.76509,3.96437],[115.76498,3.96426],[115.76483,3.96418],[115.76466,3.96416],[115.76449,3.96417],[115.76427,3.96407],[115.76402,3.96392],[115.76399,3.96389],[115.76394,3.9637],[115.7639,3.96263],[115.76414,3.96072],[115.76405,3.96009],[115.7636,3.96009],[115.76318,3.96017],[115.76277,3.96041],[115.76263,3.96086],[115.76232,3.96118],[115.76197,3.96167],[115.76155,3.96192],[115.76176,3.96234],[115.76225,3.963],[115.76249,3.96333],[115.76277,3.96422],[115.76298,3.96465],[115.76307,3.96468],[115.76344,3.96481],[115.76381,3.96485],[115.764,3.96491],[115.76417,3.96487],[115.76442,3.96483],[115.76461,3.96481],[115.76479,3.96481],[115.76487,3.9648]]]]},"properties":{"kdprov":"65","kdkab":"04","kdkec":"021","kddesa":"014","kdsls":"0001","idsls":"65040210140001","nmprov":"KALIMANTAN UTARA","nmkab":"NUNUKAN","nmkec":"KRAYAN TIMUR","nmdesa":"PA RANGEB","nmsls":"RT 001"}},{"type":"Feature","geometry":{"type":"MultiPolygon","coordinates":[[[[115.7698,3.96345],[115.76766,3.96485],[115.76739,3.96511],[115.76647,3.96598],[115.76589,3.96655],[115.7668,3.96698],[115.76749,3.9673],[115.7678,3.96751],[115.76822,3.96779],[115.76937,3.96855],[115.77004,3.96892],[115.77048,3.96904],[115.77042,3.96874],[115.77021,3.96841],[115.77011,3.96801],[115.77011,3.96765],[115.77035,3.96739],[115.77059,3.96706],[115.77088,3.9666],[115.77115,3.96606],[115.77134,3.9655],[115.77143,3.965],[115.7712,3.96441],[115.77091,3.96394],[115.77064,3.9636],[115.77015,3.96347],[115.7698,3.96345]]]]},"properties":{"kdprov":"65","kdkab":"04","kdkec":"021","kddesa":"012","kdsls":"0001","idsls":"65040210120001","nmprov":"KALIMANTAN UTARA","nmkab":"NUNUKAN","nmkec":"KRAYAN TIMUR","nmdesa":"LONG TENEM","nmsls":"RT 001"}},{"type":"Feature","geometry":{"type":"MultiPolygon","coordinates":[[[[115.76739,3.96511],[115.76687,3.96498],[115.76632,3.96477],[115.76589,3.96441],[115.76554,3.96399],[115.76542,3.96348],[115.76464,3.96359],[115.76402,3.96392],[115.76427,3.96407],[115.76449,3.96417],[115.76466,3.96416],[115.76483,3.96418],[115.76498,3.96426],[115.76509,3.96437],[115.76519,3.96451],[115.76521,3.96463],[115.76511,3.96476],[115.76487,3.9648],[115.76497,3.96513],[115.76499,3.96552],[115.76499,3.96588],[115.7651,3.96617],[115.7653,3.96633],[115.76577,3.96652],[115.76589,3.96655],[115.76647,3.96598],[115.76739,3.96511]]]]},"properties":{"kdprov":"65","kdkab":"04","kdkec":"021","kddesa":"009","kdsls":"0001","idsls":"65040210090001","nmprov":"KALIMANTAN UTARA","nmkab":"NUNUKAN","nmkec":"KRAYAN TIMUR","nmdesa":"PA UMUNG","nmsls":"RT 001"}},{"type":"Feature","geometry":{"type":"MultiPolygon","coordinates":[[[[115.71918,3.92305],[115.71834,3.92289],[115.71785,3.92249],[115.71673,3.92158],[115.71528,3.92047],[115.71426,3.91969],[115.71283,3.91859],[115.71095,3.9178],[115.70674,3.91604],[115.70451,3.9151],[115.70436,3.91504],[115.70292,3.91511],[115.70287,3.91517],[115.70307,3.91552],[115.70345,3.91653],[115.70383,3.9173],[115.7041,3.91799],[115.70426,3.91857],[115.70461,3.91959],[115.70489,3.9203],[115.70533,3.92082],[115.70573,3.92137],[115.70598,3.92186],[115.70654,3.92305],[115.70685,3.92371],[115.70698,3.9242],[115.70731,3.92421],[115.70833,3.9241],[115.70878,3.92351],[115.71023,3.92224],[115.71096,3.92229],[115.71146,3.92249],[115.71211,3.92239],[115.71244,3.92217],[115.71282,3.92224],[115.71327,3.92253],[115.71352,3.9227],[115.71386,3.92298],[115.71405,3.92318],[115.71489,3.92337],[115.71555,3.92361],[115.7165,3.92371],[115.71727,3.92369],[115.71806,3.92372],[115.71864,3.92365],[115.71891,3.92343],[115.71918,3.92305]]]]},"properties":{"kdprov":"65","kdkab":"04","kdkec":"021","kddesa":"001","kdsls":"0002","idsls":"65040210010002","nmprov":"KALIMANTAN UTARA","nmkab":"NUNUKAN","nmkec":"KRAYAN TIMUR","nmdesa":"KAMPUNG BARU","nmsls":"RT 002"}},{"type":"Feature","geometry":{"type":"MultiPolygon","coordinates":[[[[115.70698,3.9242],[115.70685,3.92371],[115.70654,3.92305],[115.70598,3.92186],[115.70573,3.92137],[115.70533,3.92082],[115.70489,3.9203],[115.70461,3.91959],[115.70426,3.91857],[115.7041,3.91799],[115.70383,3.9173],[115.70345,3.91653],[115.70307,3.91552],[115.70287,3.91517],[115.70194,3.91625],[115.70154,3.91734],[115.7012,3.91826],[115.70058,3.91995],[115.70106,3.92292],[115.70118,3.92366],[115.70175,3.9241],[115.70188,3.92461],[115.70252,3.92479],[115.70305,3.92448],[115.70368,3.92475],[115.70389,3.925],[115.7042,3.92552],[115.70444,3.9257],[115.70503,3.92601],[115.70525,3.92588],[115.70568,3.92556],[115.70557,3.9252],[115.70573,3.92483],[115.70602,3.92445],[115.70654,3.92444],[115.70699,3.92422],[115.70698,3.9242]]]]},"properties":{"kdprov":"65","kdkab":"04","kdkec":"021","kddesa":"001","kdsls":"0001","idsls":"65040210010001","nmprov":"KALIMANTAN UTARA","nmkab":"NUNUKAN","nmkec":"KRAYAN TIMUR","nmdesa":"KAMPUNG BARU","nmsls":"RT 001"}},{"type":"Feature","geometry":{"type":"MultiPolygon","coordinates":[[[[115.72655,3.93834],[115.73045,3.937],[115.73597,3.93472],[115.7413,3.93348],[115.74386,3.93272],[115.74389,3.93264],[115.74315,3.93242],[115.74249,3.93223],[115.74183,3.93213],[115.74158,3.93206],[115.74117,3.93194],[115.74078,3.93165],[115.74041,3.93118],[115.74013,3.93089],[115.73936,3.93061],[115.73861,3.93041],[115.73776,3.92956],[115.73719,3.92899],[115.73686,3.92875],[115.73653,3.92851],[115.73596,3.92803],[115.73549,3.92756],[115.73492,3.9266],[115.73464,3.92603],[115.73417,3.92537],[115.7337,3.92499],[115.73303,3.9246],[115.73237,3.92432],[115.7317,3.92403],[115.73132,3.92386],[115.73067,3.92356],[115.72991,3.92327],[115.72925,3.92298],[115.7282,3.9227],[115.72745,3.9226],[115.72745,3.9226],[115.72659,3.92241],[115.72565,3.9225],[115.72508,3.9226],[115.72404,3.92269],[115.72394,3.92264],[115.72281,3.92202],[115.72243,3.92193],[115.72182,3.92205],[115.72148,3.92211],[115.7212,3.9224],[115.72073,3.92287],[115.72054,3.92306],[115.72034,3.92325],[115.72016,3.92335],[115.71978,3.92354],[115.71946,3.9236],[115.71945,3.92351],[115.71936,3.92308],[115.71918,3.92305],[115.71891,3.92343],[115.71864,3.92365],[115.71806,3.92372],[115.71727,3.92369],[115.7165,3.92371],[115.71555,3.92361],[115.71489,3.92337],[115.71405,3.92318],[115.71386,3.92298],[115.71352,3.9227],[115.71327,3.92253],[115.71282,3.92224],[115.71244,3.92217],[115.71211,3.92239],[115.71146,3.92249],[115.71096,3.92229],[115.71023,3.92224],[115.70878,3.92351],[115.70833,3.9241],[115.70731,3.92421],[115.70698,3.9242],[115.70699,3.92422],[115.70654,3.92444],[115.70602,3.92445],[115.70573,3.92483],[115.70557,3.9252],[115.70568,3.92556],[115.70525,3.92588],[115.70503,3.92601],[115.70444,3.9257],[115.7042,3.92552],[115.70389,3.925],[115.70368,3.92475],[115.70305,3.92448],[115.70252,3.92479],[115.70188,3.92461],[115.70175,3.9241],[115.70118,3.92366],[115.70179,3.92744],[115.70283,3.93177],[115.70368,3.93532],[115.70431,3.93797],[115.70482,3.94008],[115.70492,3.94321],[115.70502,3.94644],[115.70501,3.9475],[115.70818,3.94557],[115.70989,3.94262],[115.71094,3.9411],[115.71304,3.9384],[115.71411,3.9384],[115.71506,3.93828],[115.71565,3.93774],[115.71702,3.93774],[115.71827,3.93834],[115.719,3.939],[115.7217,3.93853],[115.72369,3.939],[115.72446,3.939],[115.72655,3.93834]]]]},"properties":{"kdprov":"65","kdkab":"04","kdkec":"021","kddesa":"001","kdsls":"2001","idsls":"65040210012001","nmprov":"KALIMANTAN UTARA","nmkab":"NUNUKAN","nmkec":"KRAYAN TIMUR","nmdesa":"KAMPUNG BARU","nmsls":"HUTAN"}},{"type":"Feature","geometry":{"type":"MultiPolygon","coordinates":[[[[115.7514,3.93486],[115.74951,3.93518],[115.74897,3.93569],[115.74884,3.93581],[115.74873,3.93622],[115.74872,3.93651],[115.74793,3.93757],[115.74805,3.93772],[115.74815,3.93798],[115.7476,3.93868],[115.74749,3.93902],[115.74729,3.93954],[115.7471,3.93986],[115.74729,3.94003],[115.74751,3.94022],[115.74765,3.94036],[115.74773,3.9406],[115.74792,3.94075],[115.74821,3.94101],[115.74828,3.94112],[115.74853,3.94089],[115.7488,3.94047],[115.74913,3.94042],[115.74951,3.94046],[115.74974,3.94033],[115.74971,3.93991],[115.74962,3.93961],[115.74962,3.9394],[115.74965,3.93928],[115.74943,3.93909],[115.74926,3.939],[115.74925,3.93885],[115.74934,3.93868],[115.74946,3.93849],[115.74992,3.93808],[115.75037,3.93801],[115.75073,3.93779],[115.75132,3.93747],[115.75139,3.93712],[115.75097,3.93719],[115.75081,3.93749],[115.7506,3.93763],[115.75038,3.93765],[115.75041,3.93735],[115.75052,3.93724],[115.75066,3.93696],[115.75084,3.93675],[115.75084,3.93665],[115.75069,3.93635],[115.75041,3.93643],[115.75,3.93615],[115.75013,3.93581],[115.75084,3.93539],[115.75132,3.93513],[115.7514,3.93486]]]]},"properties":{"kdprov":"65","kdkab":"04","kdkec":"021","kddesa":"010","kdsls":"0001","idsls":"65040210100001","nmprov":"KALIMANTAN UTARA","nmkab":"NUNUKAN","nmkec":"KRAYAN TIMUR","nmdesa":"PA PAWAN","nmsls":"RT 001"}},{"type":"Feature","geometry":{"type":"MultiPolygon","coordinates":[[[[115.76279,3.96623],[115.76307,3.96633],[115.76408,3.96609],[115.7641,3.96609],[115.76413,3.96578],[115.76405,3.96533],[115.7638,3.96532],[115.76349,3.96513],[115.7632,3.96499],[115.76307,3.96468],[115.76298,3.96465],[115.76297,3.96465],[115.76212,3.96446],[115.76115,3.96448],[115.76035,3.96451],[115.75891,3.96498],[115.75836,3.96518],[115.75795,3.96554],[115.75733,3.96551],[115.75665,3.9653],[115.7559,3.96557],[115.75498,3.96608],[115.75379,3.96718],[115.7537,3.96819],[115.75325,3.96923],[115.75257,3.9703],[115.75165,3.97116],[115.74995,3.97167],[115.74719,3.97196],[115.73641,3.97204],[115.73425,3.97213],[115.73474,3.98137],[115.73942,3.98134],[115.75132,3.97906],[115.75422,3.97716],[115.75546,3.97392],[115.75693,3.97083],[115.75836,3.96911],[115.759,3.96824],[115.76049,3.96693],[115.76141,3.96636],[115.76193,3.9662],[115.76233,3.96594],[115.76253,3.96614],[115.76279,3.96623]]]]},"properties":{"kdprov":"65","kdkab":"04","kdkec":"021","kddesa":"002","kdsls":"2001","idsls":"65040210022001","nmprov":"KALIMANTAN UTARA","nmkab":"NUNUKAN","nmkec":"KRAYAN TIMUR","nmdesa":"LONG UMUNG","nmsls":"HUTAN"}},{"type":"Feature","geometry":{"type":"MultiPolygon","coordinates":[[[[115.76307,3.96468],[115.7632,3.96499],[115.76349,3.96513],[115.7638,3.96532],[115.76405,3.96533],[115.76413,3.96578],[115.7641,3.96609],[115.76463,3.96617],[115.7651,3.96617],[115.76499,3.96588],[115.76499,3.96552],[115.76497,3.96513],[115.76487,3.9648],[115.76479,3.96481],[115.76461,3.96481],[115.76442,3.96483],[115.76417,3.96487],[115.764,3.96491],[115.76381,3.96485],[115.76344,3.96481],[115.76307,3.96468]]]]},"properties":{"kdprov":"65","kdkab":"04","kdkec":"021","kddesa":"002","kdsls":"0001","idsls":"65040210020001","nmprov":"KALIMANTAN UTARA","nmkab":"NUNUKAN","nmkec":"KRAYAN TIMUR","nmdesa":"LONG UMUNG","nmsls":"RT 001"}},{"type":"Feature","geometry":{"type":"MultiPolygon","coordinates":[[[[115.7668,3.96698],[115.76641,3.96728],[115.76612,3.96812],[115.76623,3.96918],[115.76644,3.9698],[115.76669,3.96997],[115.76724,3.97026],[115.76776,3.97038],[115.76782,3.9703],[115.76801,3.96961],[115.76782,3.96885],[115.76772,3.96821],[115.76772,3.96786],[115.7678,3.96751],[115.76749,3.9673],[115.7668,3.96698]]]]},"properties":{"kdprov":"65","kdkab":"04","kdkec":"021","kddesa":"017","kdsls":"0001","idsls":"65040210170001","nmprov":"KALIMANTAN UTARA","nmkab":"NUNUKAN","nmkec":"KRAYAN TIMUR","nmdesa":"SINAR BARU","nmsls":"RT 001"}},{"type":"Feature","geometry":{"type":"MultiPolygon","coordinates":[[[[115.77189,3.96931],[115.77077,3.96912],[115.77048,3.96904],[115.77004,3.96892],[115.76937,3.96855],[115.76822,3.96779],[115.76846,3.96861],[115.76877,3.96944],[115.76903,3.97007],[115.76928,3.97069],[115.76948,3.97142],[115.76946,3.97185],[115.77002,3.97267],[115.77047,3.97241],[115.77093,3.97195],[115.77135,3.97143],[115.77156,3.97079],[115.77177,3.97024],[115.77184,3.9697],[115.77189,3.96931]]]]},"properties":{"kdprov":"65","kdkab":"04","kdkec":"021","kddesa":"016","kdsls":"0001","idsls":"65040210160001","nmprov":"KALIMANTAN UTARA","nmkab":"NUNUKAN","nmkec":"KRAYAN TIMUR","nmdesa":"PA PALA","nmsls":"RT 001"}}]}