{"type":"FeatureCollection","features":[{"type":"Feature","geometry":{"type":"MultiPolygon","coordinates":[[[[116.65974,3.8736],[116.66016,3.87415],[116.6614,3.87492],[116.66214,3.87345],[116.66215,3.87292],[116.66146,3.87285],[116.66032,3.87286],[116.65974,3.8736]]]]},"properties":{"kdprov":"65","kdkab":"04","kdkec":"030","kddesa":"002","kdsls":"0001","idsls":"65040300020001","nmprov":"KALIMANTAN UTARA","nmkab":"NUNUKAN","nmkec":"LUMBIS OGONG","nmdesa":"SUYADON","nmsls":"RT 001"}},{"type":"Feature","geometry":{"type":"MultiPolygon","coordinates":[[[[116.55223,3.92821],[116.55213,3.92813],[116.54901,3.92537],[116.52978,3.90691],[116.50066,3.88121],[116.49131,3.86656],[116.48846,3.8687],[116.48575,3.87113],[116.48146,3.8767],[116.47965,3.87826],[116.49372,3.89147],[116.53234,3.92222],[116.53796,3.92765],[116.54012,3.9313],[116.54072,3.93231],[116.54166,3.93289],[116.54485,3.93483],[116.54605,3.93311],[116.54782,3.93111],[116.54999,3.9293],[116.55223,3.92821]],[[116.54663,3.92993],[116.54657,3.93043],[116.54601,3.931],[116.54523,3.93123],[116.54415,3.93147],[116.5438,3.93091],[116.54375,3.93014],[116.54425,3.93005],[116.54474,3.92981],[116.54512,3.92904],[116.54616,3.92905],[116.54666,3.92962],[116.54663,3.92993]]]]},"properties":{"kdprov":"65","kdkab":"04","kdkec":"030","kddesa":"013","kdsls":"2001","idsls":"65040300132001","nmprov":"KALIMANTAN UTARA","nmkab":"NUNUKAN","nmkec":"LUMBIS OGONG","nmdesa":"LONG BULU","nmsls":"HUTAN DESA LONG BULU"}},{"type":"Feature","geometry":{"type":"MultiPolygon","coordinates":[[[[116.53324,3.93206],[116.53337,3.93168],[116.53433,3.93122],[116.53453,3.93117],[116.53511,3.93101],[116.53587,3.93109],[116.53618,3.93185],[116.53618,3.93186],[116.53648,3.93246],[116.53677,3.93292],[116.53723,3.93297],[116.53759,3.9328],[116.53782,3.93241],[116.53775,3.93142],[116.53765,3.93069],[116.53783,3.93035],[116.53816,3.93026],[116.53858,3.9306],[116.53898,3.93138],[116.53924,3.93149],[116.53977,3.93139],[116.54012,3.9313],[116.53796,3.92765],[116.53234,3.92222],[116.49372,3.89147],[116.47965,3.87826],[116.47832,3.87941],[116.47675,3.87927],[116.47318,3.88084],[116.46861,3.88298],[116.46847,3.88306],[116.48668,3.90149],[116.50667,3.91981],[116.52773,3.93552],[116.53178,3.93695],[116.532,3.93678],[116.53197,3.93631],[116.53184,3.93604],[116.53137,3.93574],[116.53116,3.93531],[116.53149,3.93479],[116.53227,3.93434],[116.53275,3.93385],[116.53298,3.93332],[116.53308,3.93252],[116.53324,3.93206]]]]},"properties":{"kdprov":"65","kdkab":"04","kdkec":"030","kddesa":"011","kdsls":"2002","idsls":"65040300112002","nmprov":"KALIMANTAN UTARA","nmkab":"NUNUKAN","nmkec":"LUMBIS OGONG","nmdesa":"PALUAN","nmsls":"HUTAN DESA PALUAN"}},{"type":"Feature","geometry":{"type":"MultiPolygon","coordinates":[[[[116.60892,3.92001],[116.60887,3.91987],[116.60887,3.91986],[116.60779,3.92033],[116.60635,3.92038],[116.60543,3.92041],[116.60323,3.92004],[116.60197,3.91983],[116.59993,3.92009],[116.59796,3.92012],[116.59663,3.91986],[116.59471,3.9191],[116.5927,3.9187],[116.5912,3.91907],[116.58987,3.91946],[116.58998,3.91954],[116.60662,3.93129],[116.62633,3.94113],[116.61766,3.93529],[116.61138,3.92749],[116.60892,3.92001]]]]},"properties":{"kdprov":"65","kdkab":"04","kdkec":"030","kddesa":"008","kdsls":"2001","idsls":"65040300082001","nmprov":"KALIMANTAN UTARA","nmkab":"NUNUKAN","nmkec":"LUMBIS OGONG","nmdesa":"NAN SAPAN","nmsls":"HUTAN"}},{"type":"Feature","geometry":{"type":"MultiPolygon","coordinates":[[[[116.56731,3.92934],[116.5675,3.92927],[116.56828,3.92889],[116.569,3.92942],[116.56952,3.92876],[116.56923,3.92862],[116.56792,3.92729],[116.56691,3.92627],[116.55983,3.91899],[116.56176,3.92591],[116.56185,3.92623],[116.56336,3.9275],[116.56463,3.92942],[116.5654,3.92967],[116.56582,3.93],[116.56595,3.9301],[116.56699,3.92969],[116.56701,3.92944],[116.56731,3.92934]]]]},"properties":{"kdprov":"65","kdkab":"04","kdkec":"030","kddesa":"022","kdsls":"2001","idsls":"65040300222001","nmprov":"KALIMANTAN UTARA","nmkab":"NUNUKAN","nmkec":"LUMBIS OGONG","nmdesa":"SINAMPALA II","nmsls":"HUTAN"}},{"type":"Feature","geometry":{"type":"MultiPolygon","coordinates":[[[[116.45873,4.24098],[116.45918,4.23966],[116.46153,4.23845],[116.46247,4.23906],[116.46361,4.23887],[116.46528,4.2378],[116.46848,4.23633],[116.47037,4.23577],[116.4723,4.23456],[116.47615,4.23313],[116.47863,4.23267],[116.48206,4.23227],[116.4662,4.22092],[116.39958,4.13573],[116.34461,4.03977],[116.34225,4.04076],[116.34082,4.04174],[116.33714,4.04425],[116.33659,4.04724],[116.33598,4.05053],[116.33364,4.05364],[116.33109,4.05704],[116.33054,4.05728],[116.36389,4.11003],[116.4386,4.22282],[116.45555,4.24266],[116.45627,4.24155],[116.45873,4.24098]]]]},"properties":{"kdprov":"65","kdkab":"04","kdkec":"030","kddesa":"026","kdsls":"2001","idsls":"65040300262001","nmprov":"KALIMANTAN UTARA","nmkab":"NUNUKAN","nmkec":"LUMBIS OGONG","nmdesa":"SANAL","nmsls":"HUTAN"}},{"type":"Feature","geometry":{"type":"MultiPolygon","coordinates":[[[[116.50264,4.21556],[116.50303,4.21503],[116.50308,4.21379],[116.50396,4.21169],[116.50525,4.20725],[116.50583,4.20527],[116.5059,4.20379],[116.50654,4.20157],[116.50766,4.19921],[116.5079,4.1969],[116.50809,4.19532],[116.50843,4.1943],[116.50761,4.19225],[116.50783,4.18991],[116.50819,4.18721],[116.5084,4.18521],[116.50888,4.18373],[116.50909,4.18261],[116.50921,4.18144],[116.50852,4.17972],[116.50917,4.17664],[116.50988,4.17404],[116.50988,4.17237],[116.51026,4.17068],[116.51098,4.16791],[116.5111,4.16657],[116.51251,4.16326],[116.51313,4.16032],[116.51322,4.15767],[116.51458,4.15558],[116.51566,4.15395],[116.51601,4.15274],[116.51706,4.15135],[116.51802,4.14773],[116.51871,4.14303],[116.51838,4.14102],[116.5168,4.13663],[116.51623,4.13434],[116.51699,4.13165],[116.51709,4.12857],[116.51651,4.12532],[116.51611,4.12282],[116.51506,4.11953],[116.51589,4.1163],[116.51699,4.11232],[116.51766,4.11048],[116.51954,4.10655],[116.52766,4.09113],[116.5289,4.08569],[116.52937,4.08149],[116.53281,4.0752],[116.53758,4.06203],[116.54092,4.05353],[116.54259,4.05076],[116.54476,4.04805],[116.54525,4.04446],[116.54517,4.04444],[116.4908,4.03239],[116.42655,4.00503],[116.39803,3.99019],[116.39639,3.98998],[116.394,3.98998],[116.39205,3.99015],[116.39136,3.99094],[116.39035,3.99084],[116.38978,3.99164],[116.38881,3.99187],[116.3871,3.99331],[116.38572,3.99307],[116.38464,3.99324],[116.38298,3.99301],[116.38001,3.99244],[116.37739,3.99232],[116.37533,3.99329],[116.37355,3.99453],[116.36971,3.99342],[116.3677,3.9959],[116.40562,4.0569],[116.43227,4.12067],[116.46871,4.18961],[116.48335,4.21067],[116.49168,4.21638],[116.49952,4.2187],[116.50039,4.21889],[116.50177,4.21675],[116.50264,4.21556]]]]},"properties":{"kdprov":"65","kdkab":"04","kdkec":"030","kddesa":"017","kdsls":"2002","idsls":"65040300172002","nmprov":"KALIMANTAN UTARA","nmkab":"NUNUKAN","nmkec":"LUMBIS OGONG","nmdesa":"LINSAYUNG","nmsls":"HUTAN"}},{"type":"Feature","geometry":{"type":"MultiPolygon","coordinates":[[[[116.49894,4.22327],[116.49914,4.22312],[116.49936,4.22339],[116.49948,4.22342],[116.49979,4.22356],[116.5001,4.22325],[116.50003,4.22296],[116.49979,4.22208],[116.49965,4.22154],[116.49913,4.22133],[116.49877,4.2209],[116.49877,4.2209],[116.49893,4.2206],[116.49916,4.22065],[116.49963,4.22072],[116.49973,4.21968],[116.50047,4.21891],[116.50039,4.21889],[116.49952,4.2187],[116.49168,4.21638],[116.48335,4.21067],[116.46871,4.18961],[116.43227,4.12067],[116.40562,4.0569],[116.3677,3.9959],[116.36434,4.00005],[116.36434,4.00005],[116.36356,4.00074],[116.36344,4.00085],[116.35498,4.00831],[116.35462,4.01025],[116.3761,4.04638],[116.4118,4.12062],[116.45074,4.17981],[116.47263,4.21103],[116.485,4.21941],[116.49777,4.22294],[116.49818,4.22306],[116.49894,4.22327]]]]},"properties":{"kdprov":"65","kdkab":"04","kdkec":"030","kddesa":"023","kdsls":"2001","idsls":"65040300232001","nmprov":"KALIMANTAN UTARA","nmkab":"NUNUKAN","nmkec":"LUMBIS OGONG","nmdesa":"LIMPAKON","nmsls":"HUTAN"}},{"type":"Feature","geometry":{"type":"MultiPolygon","coordinates":[[[[116.46247,4.23906],[116.46153,4.23845],[116.45918,4.23966],[116.45873,4.24098],[116.45963,4.24077],[116.46206,4.23913],[116.46247,4.23906]]]]},"properties":{"kdprov":"65","kdkab":"04","kdkec":"030","kddesa":"026","kdsls":"0001","idsls":"65040300260001","nmprov":"KALIMANTAN UTARA","nmkab":"NUNUKAN","nmkec":"LUMBIS OGONG","nmdesa":"SANAL","nmsls":"RT 001"}},{"type":"Feature","geometry":{"type":"MultiPolygon","coordinates":[[[[116.62983,4.33687],[116.56138,4.28564],[116.46097,4.249],[116.45555,4.24266],[116.45485,4.24556],[116.45421,4.24742],[116.45496,4.24772],[116.45479,4.25044],[116.45403,4.25193],[116.45243,4.25156],[116.45103,4.2535],[116.44804,4.25594],[116.44569,4.25795],[116.44471,4.25927],[116.44478,4.25932],[116.4547,4.26619],[116.4655,4.26864],[116.47255,4.27023],[116.49444,4.27737],[116.51181,4.28737],[116.518,4.29522],[116.53061,4.3114],[116.53428,4.3217],[116.53501,4.3208],[116.53529,4.32058],[116.53591,4.32089],[116.53605,4.321],[116.53655,4.321],[116.53674,4.3212],[116.53709,4.32109],[116.53736,4.32111],[116.53799,4.3207],[116.53821,4.32068],[116.5386,4.32119],[116.5393,4.32186],[116.53953,4.32235],[116.53951,4.32269],[116.53962,4.32314],[116.53938,4.32367],[116.5395,4.32406],[116.5397,4.32462],[116.53977,4.32502],[116.54004,4.32587],[116.54026,4.32615],[116.54023,4.32686],[116.54052,4.32728],[116.54049,4.3279],[116.54057,4.32822],[116.54088,4.32889],[116.54093,4.32937],[116.54128,4.3301],[116.54137,4.33036],[116.54148,4.33077],[116.54159,4.33183],[116.54166,4.33249],[116.54151,4.33293],[116.54168,4.33329],[116.5417,4.33384],[116.54181,4.33421],[116.54164,4.33452],[116.54173,4.33493],[116.54191,4.33512],[116.54163,4.33525],[116.54141,4.3356],[116.54092,4.33662],[116.54083,4.33692],[116.54076,4.3373],[116.54042,4.33758],[116.54001,4.338],[116.5398,4.33854],[116.53936,4.33861],[116.53937,4.3391],[116.53876,4.3397],[116.53854,4.34016],[116.53856,4.34038],[116.53827,4.34045],[116.53744,4.34075],[116.53676,4.34091],[116.53655,4.34107],[116.53583,4.34127],[116.53552,4.34157],[116.53483,4.34172],[116.53453,4.34186],[116.5338,4.34218],[116.53326,4.34351],[116.53289,4.34397],[116.53252,4.34414],[116.53251,4.3444],[116.5321,4.34495],[116.53212,4.34522],[116.53226,4.34573],[116.53188,4.34646],[116.53186,4.34649],[116.53149,4.34675],[116.53161,4.34722],[116.53132,4.34742],[116.53087,4.34748],[116.53116,4.34778],[116.53138,4.34799],[116.53127,4.34829],[116.53162,4.34947],[116.53178,4.34978],[116.53187,4.35027],[116.5324,4.35098],[116.5329,4.3515],[116.53331,4.35212],[116.53353,4.35318],[116.53338,4.35352],[116.53326,4.354],[116.5333,4.35427],[116.53344,4.35458],[116.53358,4.35505],[116.53373,4.35609],[116.53363,4.35718],[116.53382,4.35778],[116.5341,4.35816],[116.53478,4.35862],[116.53473,4.35899],[116.53452,4.35916],[116.53463,4.35967],[116.53486,4.36066],[116.53519,4.36149],[116.53524,4.36211],[116.53569,4.36299],[116.53518,4.36363],[116.53545,4.36451],[116.53573,4.36454],[116.53611,4.3648],[116.53588,4.36549],[116.53565,4.36592],[116.53557,4.36633],[116.53557,4.36686],[116.53634,4.36786],[116.53622,4.36816],[116.5368,4.36881],[116.5369,4.36994],[116.53713,4.37025],[116.53721,4.37068],[116.53742,4.3716],[116.5371,4.372],[116.53716,4.37234],[116.53736,4.37285],[116.53766,4.37354],[116.5378,4.37434],[116.53761,4.37519],[116.5374,4.37534],[116.53751,4.37611],[116.53806,4.3764],[116.53832,4.37653],[116.53887,4.37701],[116.53914,4.37696],[116.53942,4.3771],[116.53999,4.37755],[116.54053,4.37796],[116.54088,4.3784],[116.54116,4.37838],[116.54145,4.37784],[116.54231,4.37795],[116.54334,4.37767],[116.54371,4.37798],[116.54395,4.378],[116.54435,4.37837],[116.54475,4.3785],[116.54583,4.37798],[116.54632,4.37807],[116.54635,4.3783],[116.54649,4.3786],[116.54675,4.37887],[116.54733,4.37956],[116.54735,4.37981],[116.54752,4.37995],[116.54779,4.38075],[116.54814,4.38106],[116.54846,4.38134],[116.54867,4.38199],[116.54898,4.38232],[116.54911,4.38322],[116.54903,4.38414],[116.54897,4.38482],[116.54933,4.38534],[116.54952,4.38597],[116.54983,4.38634],[116.55013,4.3871],[116.55068,4.38702],[116.55077,4.38706],[116.55089,4.38711],[116.55133,4.38701],[116.55182,4.38708],[116.55255,4.38738],[116.55309,4.38715],[116.5537,4.38729],[116.55375,4.38776],[116.55423,4.3886],[116.55477,4.38864],[116.55511,4.38852],[116.55587,4.38886],[116.55725,4.38855],[116.55789,4.38854],[116.55858,4.38784],[116.55894,4.38742],[116.55926,4.3873],[116.55994,4.38773],[116.55984,4.38816],[116.5605,4.38843],[116.56084,4.38838],[116.56179,4.38882],[116.56299,4.3891],[116.56426,4.39006],[116.56435,4.39008],[116.56489,4.39018],[116.5654,4.39071],[116.56564,4.39118],[116.56573,4.3919],[116.56587,4.39225],[116.56582,4.3929],[116.56594,4.39318],[116.56561,4.39361],[116.56538,4.39408],[116.56539,4.39455],[116.56495,4.39466],[116.56478,4.39526],[116.56465,4.39578],[116.56476,4.39601],[116.56459,4.39649],[116.56458,4.39698],[116.56426,4.39729],[116.56426,4.39761],[116.5647,4.39799],[116.56481,4.3987],[116.56477,4.39946],[116.56491,4.40021],[116.56504,4.4007],[116.5653,4.40124],[116.56539,4.40162],[116.56517,4.40181],[116.56508,4.40219],[116.5653,4.40259],[116.56603,4.40289],[116.56614,4.40408],[116.5665,4.40496],[116.56622,4.40543],[116.5663,4.40631],[116.56631,4.40656],[116.56624,4.40718],[116.56655,4.40728],[116.56642,4.40756],[116.56613,4.40773],[116.56685,4.40783],[116.56727,4.40817],[116.56795,4.40829],[116.56837,4.40822],[116.56869,4.40809],[116.56951,4.4081],[116.56977,4.40814],[116.57011,4.4083],[116.57069,4.40806],[116.57092,4.40794],[116.57147,4.40661],[116.57177,4.40619],[116.57188,4.4059],[116.57215,4.40544],[116.57241,4.40529],[116.57266,4.40496],[116.57279,4.40421],[116.57309,4.40371],[116.57304,4.4031],[116.57298,4.4026],[116.57301,4.40198],[116.57333,4.40131],[116.57336,4.4011],[116.57447,4.40073],[116.57491,4.40044],[116.57552,4.40023],[116.57661,4.39973],[116.57696,4.39955],[116.57712,4.39897],[116.5772,4.39861],[116.57739,4.39807],[116.57711,4.39739],[116.57693,4.397],[116.57703,4.3967],[116.57746,4.39642],[116.5777,4.39616],[116.57809,4.3958],[116.57853,4.39533],[116.57897,4.3948],[116.5794,4.39365],[116.57967,4.39306],[116.57987,4.39273],[116.58058,4.39199],[116.58096,4.39178],[116.58149,4.3913],[116.58128,4.39089],[116.58119,4.39045],[116.58184,4.3898],[116.58171,4.38937],[116.58177,4.38914],[116.58206,4.38891],[116.58329,4.38865],[116.58363,4.38825],[116.58357,4.38772],[116.58324,4.38727],[116.58305,4.3867],[116.5834,4.38548],[116.58362,4.38458],[116.58442,4.38432],[116.58538,4.38381],[116.58621,4.38328],[116.58684,4.38291],[116.58724,4.38253],[116.58771,4.38227],[116.58792,4.3813],[116.58757,4.38028],[116.58757,4.37931],[116.58764,4.37851],[116.58743,4.37716],[116.58768,4.37669],[116.58803,4.37658],[116.58782,4.37608],[116.58785,4.37558],[116.58859,4.37516],[116.58895,4.37466],[116.58929,4.37423],[116.5893,4.37422],[116.58977,4.37408],[116.59014,4.37416],[116.59087,4.37436],[116.59154,4.37442],[116.59207,4.37453],[116.59255,4.37457],[116.59299,4.37447],[116.59355,4.37436],[116.59456,4.37404],[116.59489,4.37381],[116.59542,4.37367],[116.59604,4.37351],[116.59643,4.37331],[116.59679,4.37328],[116.59743,4.37312],[116.59805,4.37306],[116.59831,4.37325],[116.5988,4.3731],[116.59882,4.3731],[116.59927,4.37341],[116.59964,4.37392],[116.59992,4.37436],[116.60037,4.3746],[116.60073,4.37464],[116.60108,4.37508],[116.6016,4.37529],[116.60192,4.3754],[116.6023,4.3759],[116.60223,4.37626],[116.60231,4.37673],[116.60252,4.37682],[116.60315,4.37728],[116.60357,4.37769],[116.60429,4.37822],[116.60464,4.37845],[116.60527,4.37873],[116.60559,4.37907],[116.6058,4.37951],[116.60603,4.37965],[116.60629,4.37972],[116.60723,4.37922],[116.60761,4.379],[116.60837,4.37914],[116.60884,4.37936],[116.60932,4.37963],[116.61041,4.37982],[116.61118,4.37966],[116.6112,4.37909],[116.61158,4.37871],[116.61176,4.3783],[116.61253,4.37801],[116.61301,4.37794],[116.61346,4.37802],[116.61412,4.37767],[116.6143,4.37723],[116.6149,4.37733],[116.61513,4.37718],[116.61508,4.37669],[116.61503,4.37626],[116.61521,4.37529],[116.61544,4.37498],[116.61595,4.37474],[116.61639,4.37449],[116.61683,4.37402],[116.61638,4.37394],[116.61578,4.37356],[116.61582,4.37325],[116.61591,4.37251],[116.61654,4.37205],[116.61644,4.37179],[116.61669,4.37133],[116.61708,4.37113],[116.61668,4.37089],[116.61756,4.37048],[116.61727,4.37039],[116.61715,4.37001],[116.61711,4.36957],[116.61711,4.36878],[116.61686,4.36779],[116.6166,4.36757],[116.61659,4.36714],[116.61634,4.3668],[116.61637,4.36647],[116.61665,4.36582],[116.61649,4.36548],[116.61686,4.36502],[116.61703,4.36463],[116.61706,4.36436],[116.61765,4.36391],[116.61753,4.36316],[116.61762,4.36276],[116.6174,4.36231],[116.61778,4.36171],[116.61855,4.36051],[116.61931,4.3607],[116.6196,4.36065],[116.62022,4.3601],[116.62024,4.35965],[116.62058,4.35947],[116.62051,4.35897],[116.62084,4.35854],[116.62064,4.35836],[116.62081,4.35767],[116.62033,4.35688],[116.62015,4.35633],[116.62005,4.35589],[116.62029,4.35544],[116.62041,4.35495],[116.62069,4.35462],[116.62092,4.35463],[116.62132,4.35451],[116.6211,4.3536],[116.62104,4.35308],[116.62103,4.35258],[116.62094,4.3522],[116.6211,4.35179],[116.62091,4.3507],[116.62085,4.35012],[116.6204,4.34955],[116.62052,4.34912],[116.6203,4.34863],[116.62005,4.3482],[116.61971,4.34781],[116.6198,4.3473],[116.61944,4.34704],[116.61938,4.34666],[116.61871,4.34622],[116.61838,4.34592],[116.61823,4.34559],[116.6185,4.34526],[116.61877,4.34494],[116.61873,4.34461],[116.61892,4.34413],[116.61926,4.34348],[116.6193,4.34294],[116.61942,4.3425],[116.61941,4.34198],[116.61963,4.34165],[116.61999,4.34088],[116.61999,4.34036],[116.6199,4.33976],[116.62016,4.3392],[116.62045,4.33909],[116.62055,4.33841],[116.62086,4.3383],[116.62122,4.3381],[116.62143,4.33759],[116.62157,4.33713],[116.62191,4.33725],[116.62196,4.33727],[116.62219,4.33715],[116.62257,4.33738],[116.62283,4.33739],[116.62309,4.33772],[116.62342,4.33823],[116.62389,4.33841],[116.62405,4.33902],[116.62434,4.33932],[116.62474,4.33975],[116.62501,4.33992],[116.62583,4.33983],[116.62624,4.3401],[116.62707,4.33988],[116.62727,4.33973],[116.62745,4.33932],[116.62757,4.33916],[116.62771,4.33899],[116.62812,4.33864],[116.62843,4.33812],[116.62927,4.33766],[116.62939,4.33719],[116.6297,4.33699],[116.62983,4.33687]]]]},"properties":{"kdprov":"65","kdkab":"04","kdkec":"030","kddesa":"027","kdsls":"2001","idsls":"65040300272001","nmprov":"KALIMANTAN UTARA","nmkab":"NUNUKAN","nmkec":"LUMBIS OGONG","nmdesa":"TUMATALAS","nmsls":"HUTAN"}},{"type":"Feature","geometry":{"type":"MultiPolygon","coordinates":[[[[116.45243,4.25156],[116.45403,4.25193],[116.45479,4.25044],[116.45496,4.24772],[116.45421,4.24742],[116.45309,4.25066],[116.45243,4.25156]]]]},"properties":{"kdprov":"65","kdkab":"04","kdkec":"030","kddesa":"027","kdsls":"0001","idsls":"65040300270001","nmprov":"KALIMANTAN UTARA","nmkab":"NUNUKAN","nmkec":"LUMBIS OGONG","nmdesa":"TUMATALAS","nmsls":"RT 001"}},{"type":"Feature","geometry":{"type":"MultiPolygon","coordinates":[[[[116.64468,4.22135],[116.6447,4.22131],[116.64485,4.22095],[116.64639,4.21816],[116.64676,4.2175],[116.65175,4.20727],[116.65163,4.20155],[116.65163,4.20148],[116.65161,4.20044],[116.65151,4.1968],[116.65187,4.19346],[116.65237,4.19268],[116.65806,4.18371],[116.66282,4.1805],[116.66282,4.1805],[116.66302,4.18044],[116.66829,4.17883],[116.67305,4.17752],[116.67924,4.1749],[116.68114,4.17276],[116.68126,4.17038],[116.68072,4.1694],[116.67983,4.16777],[116.67983,4.16714],[116.67983,4.16702],[116.67983,4.16622],[116.68065,4.16447],[116.68096,4.16379],[116.68411,4.16087],[116.68994,4.15908],[116.6972,4.14492],[116.69717,4.14459],[116.69684,4.1404],[116.69664,4.14015],[116.69423,4.13719],[116.69149,4.13529],[116.68899,4.13493],[116.68614,4.13469],[116.68411,4.1335],[116.6834,4.13297],[116.68185,4.13184],[116.68078,4.12946],[116.68007,4.12684],[116.68011,4.12663],[116.68066,4.12398],[116.68221,4.12041],[116.68495,4.11625],[116.68671,4.11375],[116.68923,4.11018],[116.6897,4.10854],[116.69078,4.10483],[116.69089,4.10043],[116.69079,4.10015],[116.68935,4.09638],[116.68768,4.09269],[116.68636,4.09096],[116.68542,4.08972],[116.68272,4.0876],[116.68246,4.08739],[116.68209,4.0871],[116.68094,4.08614],[116.67912,4.0846],[116.67867,4.08389],[116.67769,4.08234],[116.67752,4.08076],[116.67733,4.07901],[116.6765,4.07497],[116.67579,4.07164],[116.67341,4.0689],[116.67067,4.06664],[116.66959,4.06526],[116.6677,4.06283],[116.66731,4.06209],[116.66716,4.06181],[116.60085,4.05678],[116.54525,4.04446],[116.54476,4.04805],[116.54259,4.05076],[116.54092,4.05353],[116.53758,4.06203],[116.53281,4.0752],[116.52937,4.08149],[116.5289,4.08569],[116.52766,4.09113],[116.51954,4.10655],[116.51766,4.11048],[116.51699,4.11232],[116.51589,4.1163],[116.51506,4.11953],[116.51611,4.12282],[116.51651,4.12532],[116.51709,4.12857],[116.51699,4.13165],[116.51623,4.13434],[116.5168,4.13663],[116.51838,4.14102],[116.51871,4.14303],[116.51802,4.14773],[116.51706,4.15135],[116.51601,4.15274],[116.51566,4.15395],[116.51458,4.15558],[116.51322,4.15767],[116.51313,4.16032],[116.51251,4.16326],[116.5111,4.16657],[116.51098,4.16791],[116.51026,4.17068],[116.50988,4.17237],[116.50988,4.17404],[116.50917,4.17664],[116.50852,4.17972],[116.50921,4.18144],[116.50909,4.18261],[116.50888,4.18373],[116.5084,4.18521],[116.50819,4.18721],[116.50783,4.18991],[116.50761,4.19225],[116.50843,4.1943],[116.50809,4.19532],[116.5079,4.1969],[116.50766,4.19921],[116.50654,4.20157],[116.5059,4.20379],[116.50583,4.20527],[116.50525,4.20725],[116.50396,4.21169],[116.50308,4.21379],[116.50303,4.21503],[116.50264,4.21556],[116.50312,4.216],[116.50289,4.21697],[116.50223,4.21949],[116.50505,4.21979],[116.57269,4.22555],[116.62801,4.22258],[116.64468,4.22135]]]]},"properties":{"kdprov":"65","kdkab":"04","kdkec":"030","kddesa":"017","kdsls":"2001","idsls":"65040300172001","nmprov":"KALIMANTAN UTARA","nmkab":"NUNUKAN","nmkec":"LUMBIS OGONG","nmdesa":"LINSAYUNG","nmsls":"HUTAN"}},{"type":"Feature","geometry":{"type":"MultiPolygon","coordinates":[[[[116.45243,4.25156],[116.45309,4.25066],[116.45421,4.24742],[116.45485,4.24556],[116.45555,4.24266],[116.4386,4.22282],[116.36389,4.11003],[116.33054,4.05728],[116.32978,4.0576],[116.32459,4.05983],[116.32295,4.06053],[116.32262,4.06073],[116.33288,4.08773],[116.35572,4.13627],[116.38499,4.18981],[116.41757,4.23804],[116.42068,4.24263],[116.44471,4.25927],[116.44569,4.25795],[116.44804,4.25594],[116.45103,4.2535],[116.45243,4.25156]]]]},"properties":{"kdprov":"65","kdkab":"04","kdkec":"030","kddesa":"027","kdsls":"2002","idsls":"65040300272002","nmprov":"KALIMANTAN UTARA","nmkab":"NUNUKAN","nmkec":"LUMBIS OGONG","nmdesa":"TUMATALAS","nmsls":"HUTAN"}},{"type":"Feature","geometry":{"type":"MultiPolygon","coordinates":[[[[116.50223,4.21949],[116.50289,4.21697],[116.50312,4.216],[116.50264,4.21556],[116.50177,4.21675],[116.50039,4.21889],[116.50047,4.21891],[116.50097,4.21901],[116.50092,4.21924],[116.50103,4.21935],[116.50114,4.21952],[116.50132,4.2196],[116.50157,4.21972],[116.50173,4.21944],[116.50223,4.21949]]]]},"properties":{"kdprov":"65","kdkab":"04","kdkec":"030","kddesa":"017","kdsls":"0001","idsls":"65040300170001","nmprov":"KALIMANTAN UTARA","nmkab":"NUNUKAN","nmkec":"LUMBIS OGONG","nmdesa":"LINSAYUNG","nmsls":"RT 001"}},{"type":"Feature","geometry":{"type":"MultiPolygon","coordinates":[[[[116.5007,4.22065],[116.50114,4.21952],[116.50103,4.21935],[116.50092,4.21924],[116.50097,4.21901],[116.50047,4.21891],[116.49973,4.21968],[116.49963,4.22072],[116.50008,4.22078],[116.50031,4.22072],[116.50059,4.22083],[116.5007,4.22065]]]]},"properties":{"kdprov":"65","kdkab":"04","kdkec":"030","kddesa":"023","kdsls":"0001","idsls":"65040300230001","nmprov":"KALIMANTAN UTARA","nmkab":"NUNUKAN","nmkec":"LUMBIS OGONG","nmdesa":"LIMPAKON","nmsls":"RT 001"}},{"type":"Feature","geometry":{"type":"MultiPolygon","coordinates":[[[[116.64361,4.2406],[116.6439,4.2376],[116.64405,4.23644],[116.64461,4.23189],[116.64342,4.22832],[116.64354,4.22404],[116.64455,4.22166],[116.64468,4.22135],[116.62801,4.22258],[116.57269,4.22555],[116.50505,4.21979],[116.50223,4.21949],[116.50173,4.21944],[116.50157,4.21972],[116.50138,4.22007],[116.5011,4.22086],[116.50085,4.22132],[116.50108,4.22137],[116.50254,4.22163],[116.52559,4.22758],[116.57378,4.23651],[116.61958,4.24602],[116.64361,4.2406]]]]},"properties":{"kdprov":"65","kdkab":"04","kdkec":"030","kddesa":"024","kdsls":"2001","idsls":"65040300242001","nmprov":"KALIMANTAN UTARA","nmkab":"NUNUKAN","nmkec":"LUMBIS OGONG","nmdesa":"LABUK","nmsls":"HUTAN"}},{"type":"Feature","geometry":{"type":"MultiPolygon","coordinates":[[[[116.50094,4.22056],[116.50096,4.22055],[116.50116,4.22023],[116.50115,4.2202],[116.50132,4.2196],[116.50114,4.21952],[116.5007,4.22065],[116.50084,4.22072],[116.50094,4.22056]]]]},"properties":{"kdprov":"65","kdkab":"04","kdkec":"030","kddesa":"023","kdsls":"0002","idsls":"65040300230002","nmprov":"KALIMANTAN UTARA","nmkab":"NUNUKAN","nmkec":"LUMBIS OGONG","nmdesa":"LIMPAKON","nmsls":"RT 002"}},{"type":"Feature","geometry":{"type":"MultiPolygon","coordinates":[[[[116.50157,4.21972],[116.50132,4.2196],[116.50115,4.2202],[116.50116,4.22023],[116.50096,4.22055],[116.50094,4.22056],[116.50084,4.22072],[116.5007,4.22065],[116.50059,4.22083],[116.50031,4.22072],[116.50008,4.22078],[116.49963,4.22072],[116.49916,4.22065],[116.49893,4.2206],[116.49877,4.2209],[116.49877,4.2209],[116.50001,4.22117],[116.50047,4.22125],[116.50085,4.22132],[116.5011,4.22086],[116.50138,4.22007],[116.50157,4.21972]]]]},"properties":{"kdprov":"65","kdkab":"04","kdkec":"030","kddesa":"024","kdsls":"0001","idsls":"65040300240001","nmprov":"KALIMANTAN UTARA","nmkab":"NUNUKAN","nmkec":"LUMBIS OGONG","nmdesa":"LABUK","nmsls":"RT 001"}},{"type":"Feature","geometry":{"type":"MultiPolygon","coordinates":[[[[116.65178,4.33705],[116.65199,4.33597],[116.6529,4.33134],[116.65305,4.33089],[116.65307,4.33083],[116.65468,4.32599],[116.65647,4.31897],[116.65693,4.31624],[116.6575,4.31287],[116.65754,4.31266],[116.65779,4.3118],[116.65864,4.30888],[116.65944,4.30612],[116.66124,4.3013],[116.66167,4.30066],[116.66346,4.29806],[116.6123,4.28516],[116.50808,4.2509],[116.48206,4.23227],[116.47863,4.23267],[116.47615,4.23313],[116.4723,4.23456],[116.47037,4.23577],[116.46848,4.23633],[116.46528,4.2378],[116.46361,4.23887],[116.46247,4.23906],[116.46206,4.23913],[116.45963,4.24077],[116.45873,4.24098],[116.45627,4.24155],[116.45555,4.24266],[116.46097,4.249],[116.56138,4.28564],[116.62983,4.33687],[116.63004,4.33669],[116.63068,4.3367],[116.63097,4.33647],[116.63149,4.33592],[116.63191,4.33558],[116.6326,4.33573],[116.63295,4.33596],[116.63363,4.33598],[116.63394,4.3363],[116.63444,4.33709],[116.63457,4.33729],[116.63485,4.33778],[116.63555,4.33789],[116.63582,4.33761],[116.63622,4.33778],[116.6369,4.3376],[116.63726,4.3376],[116.63798,4.33711],[116.63802,4.33709],[116.63851,4.33697],[116.63893,4.33706],[116.63933,4.33711],[116.63965,4.33682],[116.64037,4.33682],[116.64087,4.33667],[116.64122,4.33687],[116.64182,4.33678],[116.64247,4.33634],[116.64302,4.33649],[116.64358,4.33667],[116.64402,4.33724],[116.6447,4.3377],[116.64478,4.33798],[116.64484,4.33819],[116.64555,4.33873],[116.64624,4.33916],[116.6465,4.3397],[116.64685,4.33945],[116.64712,4.33941],[116.64764,4.33902],[116.64805,4.33905],[116.64836,4.33895],[116.64875,4.33892],[116.64923,4.33862],[116.64932,4.33846],[116.64947,4.33815],[116.6498,4.33796],[116.65023,4.33795],[116.65065,4.3377],[116.65135,4.33725],[116.65178,4.33705]]]]},"properties":{"kdprov":"65","kdkab":"04","kdkec":"030","kddesa":"026","kdsls":"2002","idsls":"65040300262002","nmprov":"KALIMANTAN UTARA","nmkab":"NUNUKAN","nmkec":"LUMBIS OGONG","nmdesa":"SANAL","nmsls":"HUTAN"}},{"type":"Feature","geometry":{"type":"MultiPolygon","coordinates":[[[[116.68719,3.9886],[116.68674,3.9874],[116.68626,3.98455],[116.68626,3.98193],[116.68631,3.98018],[116.68636,3.97856],[116.68638,3.97789],[116.68757,3.97241],[116.68731,3.97127],[116.66658,3.96499],[116.66367,3.96353],[116.64793,3.95566],[116.62633,3.94113],[116.60662,3.93129],[116.58998,3.91954],[116.58816,3.91972],[116.58761,3.91978],[116.58494,3.9202],[116.58286,3.92125],[116.5825,3.92143],[116.57946,3.92368],[116.579,3.92392],[116.57597,3.92547],[116.57362,3.92686],[116.57007,3.92901],[116.56944,3.92964],[116.56871,3.93037],[116.56884,3.93067],[116.56885,3.93068],[116.56824,3.93118],[116.56826,3.93132],[116.56835,3.9318],[116.5681,3.93304],[116.5665,3.93579],[116.56309,3.93811],[116.56656,3.94424],[116.60063,3.96232],[116.63585,3.97565],[116.66773,3.9885],[116.68784,3.99028],[116.68719,3.9886]]]]},"properties":{"kdprov":"65","kdkab":"04","kdkec":"030","kddesa":"009","kdsls":"2002","idsls":"65040300092002","nmprov":"KALIMANTAN UTARA","nmkab":"NUNUKAN","nmkec":"LUMBIS OGONG","nmdesa":"SEDALIT","nmsls":"HUTAN DESA SEDALIT"}},{"type":"Feature","geometry":{"type":"MultiPolygon","coordinates":[[[[116.55623,3.92497],[116.55718,3.92581],[116.55797,3.92537],[116.55867,3.92517],[116.55821,3.92435],[116.55623,3.92497]]]]},"properties":{"kdprov":"65","kdkab":"04","kdkec":"030","kddesa":"010","kdsls":"0002","idsls":"65040300100002","nmprov":"KALIMANTAN UTARA","nmkab":"NUNUKAN","nmkec":"LUMBIS OGONG","nmdesa":"TAMBALANG HILIR","nmsls":"RT 002"}},{"type":"Feature","geometry":{"type":"MultiPolygon","coordinates":[[[[116.56463,3.92942],[116.56336,3.9275],[116.56185,3.92623],[116.56234,3.92796],[116.56231,3.92869],[116.5631,3.92893],[116.56463,3.92942]]]]},"properties":{"kdprov":"65","kdkab":"04","kdkec":"030","kddesa":"022","kdsls":"2002","idsls":"65040300222002","nmprov":"KALIMANTAN UTARA","nmkab":"NUNUKAN","nmkec":"LUMBIS OGONG","nmdesa":"SINAMPALA II","nmsls":"HUTAN"}},{"type":"Feature","geometry":{"type":"MultiPolygon","coordinates":[[[[116.56835,3.9318],[116.56826,3.93132],[116.56716,3.93167],[116.56605,3.93114],[116.56582,3.93],[116.5654,3.92967],[116.56463,3.92942],[116.5631,3.92893],[116.56231,3.92869],[116.56203,3.93625],[116.56309,3.93811],[116.5665,3.93579],[116.5681,3.93304],[116.56835,3.9318]]],[[[116.54805,3.93679],[116.54486,3.93484],[116.54388,3.9365],[116.5431,3.9392],[116.54186,3.94199],[116.5403,3.94351],[116.54366,3.94635],[116.55516,3.95378],[116.56151,3.95163],[116.55842,3.94954],[116.55519,3.94354],[116.54805,3.93679]]]]},"properties":{"kdprov":"65","kdkab":"04","kdkec":"030","kddesa":"014","kdsls":"2001","idsls":"65040300142001","nmprov":"KALIMANTAN UTARA","nmkab":"NUNUKAN","nmkec":"LUMBIS OGONG","nmdesa":"KALAM BUKU","nmsls":"HUTAN"}},{"type":"Feature","geometry":{"type":"MultiPolygon","coordinates":[[[[116.56798,3.92995],[116.56799,3.92995],[116.56823,3.92977],[116.56851,3.9297],[116.569,3.92942],[116.569,3.92942],[116.56828,3.92889],[116.5675,3.92927],[116.56731,3.92934],[116.56777,3.9298],[116.56795,3.92998],[116.56798,3.92995]]]]},"properties":{"kdprov":"65","kdkab":"04","kdkec":"030","kddesa":"022","kdsls":"0001","idsls":"65040300220001","nmprov":"KALIMANTAN UTARA","nmkab":"NUNUKAN","nmkec":"LUMBIS OGONG","nmdesa":"SINAMPALA II","nmsls":"RT 001"}},{"type":"Feature","geometry":{"type":"MultiPolygon","coordinates":[[[[116.56927,3.92958],[116.56944,3.92964],[116.57007,3.92901],[116.56985,3.92891],[116.56933,3.92952],[116.56927,3.92958]]]]},"properties":{"kdprov":"65","kdkab":"04","kdkec":"030","kddesa":"015","kdsls":"0002","idsls":"65040300150002","nmprov":"KALIMANTAN UTARA","nmkab":"NUNUKAN","nmkec":"LUMBIS OGONG","nmdesa":"TADUNGUS","nmsls":"RT 002"}},{"type":"Feature","geometry":{"type":"MultiPolygon","coordinates":[[[[116.54501,3.93016],[116.54529,3.9298],[116.54566,3.92959],[116.54602,3.92954],[116.54663,3.92993],[116.54666,3.92962],[116.54616,3.92905],[116.54512,3.92904],[116.54474,3.92981],[116.54501,3.93016]]]]},"properties":{"kdprov":"65","kdkab":"04","kdkec":"030","kddesa":"013","kdsls":"0002","idsls":"65040300130002","nmprov":"KALIMANTAN UTARA","nmkab":"NUNUKAN","nmkec":"LUMBIS OGONG","nmdesa":"LONG BULU","nmsls":"RT 002"}},{"type":"Feature","geometry":{"type":"MultiPolygon","coordinates":[[[[116.56733,3.93035],[116.56737,3.93001],[116.56777,3.9298],[116.56731,3.92934],[116.56701,3.92944],[116.56699,3.92969],[116.56595,3.9301],[116.566,3.93014],[116.56638,3.93025],[116.56677,3.93042],[116.567,3.93044],[116.56723,3.93038],[116.56733,3.93035]]]]},"properties":{"kdprov":"65","kdkab":"04","kdkec":"030","kddesa":"022","kdsls":"0002","idsls":"65040300220002","nmprov":"KALIMANTAN UTARA","nmkab":"NUNUKAN","nmkec":"LUMBIS OGONG","nmdesa":"SINAMPALA II","nmsls":"RT 002"}},{"type":"Feature","geometry":{"type":"MultiPolygon","coordinates":[[[[116.54415,3.93147],[116.54501,3.93016],[116.54474,3.92981],[116.54425,3.93005],[116.54375,3.93014],[116.5438,3.93091],[116.54415,3.93147]]]]},"properties":{"kdprov":"65","kdkab":"04","kdkec":"030","kddesa":"013","kdsls":"0001","idsls":"65040300130001","nmprov":"KALIMANTAN UTARA","nmkab":"NUNUKAN","nmkec":"LUMBIS OGONG","nmdesa":"LONG BULU","nmsls":"RT 001"}},{"type":"Feature","geometry":{"type":"MultiPolygon","coordinates":[[[[116.56871,3.93037],[116.56844,3.93034],[116.56817,3.93006],[116.56813,3.93002],[116.56798,3.92995],[116.56795,3.92998],[116.56759,3.93027],[116.56752,3.93029],[116.56778,3.93046],[116.56817,3.9308],[116.56824,3.93118],[116.56885,3.93068],[116.56884,3.93067],[116.56871,3.93037]]]]},"properties":{"kdprov":"65","kdkab":"04","kdkec":"030","kddesa":"012","kdsls":"0002","idsls":"65040300120002","nmprov":"KALIMANTAN UTARA","nmkab":"NUNUKAN","nmkec":"LUMBIS OGONG","nmdesa":"JUKUP","nmsls":"RT 002"}},{"type":"Feature","geometry":{"type":"MultiPolygon","coordinates":[[[[116.65974,3.8736],[116.66032,3.87286],[116.66146,3.87285],[116.66215,3.87292],[116.6622,3.87028],[116.66312,3.86884],[116.6657,3.86727],[116.66231,3.86455],[116.64875,3.85213],[116.62776,3.82843],[116.61581,3.81467],[116.61304,3.81619],[116.61076,3.81705],[116.60762,3.81919],[116.60511,3.82162],[116.61094,3.82564],[116.6245,3.83707],[116.63771,3.84873],[116.65068,3.86312],[116.65555,3.87062],[116.65674,3.87407],[116.65803,3.8757],[116.65956,3.87383],[116.65974,3.8736]]]]},"properties":{"kdprov":"65","kdkab":"04","kdkec":"030","kddesa":"002","kdsls":"2001","idsls":"65040300022001","nmprov":"KALIMANTAN UTARA","nmkab":"NUNUKAN","nmkec":"LUMBIS OGONG","nmdesa":"SUYADON","nmsls":"HUTAN DESA SUYADON"}},{"type":"Feature","geometry":{"type":"MultiPolygon","coordinates":[[[[116.65373,3.87771],[116.65461,3.87722],[116.65511,3.87712],[116.65684,3.87676],[116.65788,3.87684],[116.659,3.87692],[116.65803,3.8757],[116.65674,3.87407],[116.65555,3.87062],[116.65068,3.86312],[116.63771,3.84873],[116.6245,3.83707],[116.61094,3.82564],[116.60511,3.82162],[116.60276,3.8239],[116.60205,3.82618],[116.60119,3.82704],[116.59991,3.82704],[116.59734,3.8279],[116.59677,3.82961],[116.59668,3.82975],[116.60445,3.83713],[116.62458,3.8564],[116.64271,3.8721],[116.65139,3.87917],[116.65159,3.87933],[116.65281,3.87822],[116.65373,3.87771]]]]},"properties":{"kdprov":"65","kdkab":"04","kdkec":"030","kddesa":"004","kdsls":"2002","idsls":"65040300042002","nmprov":"KALIMANTAN UTARA","nmkab":"NUNUKAN","nmkec":"LUMBIS OGONG","nmdesa":"BULU MENGELOM","nmsls":"HUTAN"}},{"type":"Feature","geometry":{"type":"MultiPolygon","coordinates":[[[[116.64713,3.88795],[116.64545,3.88687],[116.64613,3.88452],[116.64632,3.88396],[116.64704,3.88335],[116.64706,3.88318],[116.64714,3.88249],[116.64718,3.88218],[116.64779,3.88089],[116.64945,3.88174],[116.65139,3.87917],[116.64271,3.8721],[116.62458,3.8564],[116.60445,3.83713],[116.59668,3.82975],[116.59505,3.83232],[116.59277,3.83803],[116.59063,3.83932],[116.58592,3.84118],[116.58178,3.84217],[116.58092,3.84204],[116.59287,3.85593],[116.61143,3.87449],[116.64093,3.89972],[116.6428,3.90206],[116.64445,3.90077],[116.64533,3.89788],[116.64469,3.89367],[116.64477,3.89178],[116.64601,3.88933],[116.64713,3.88795]]]]},"properties":{"kdprov":"65","kdkab":"04","kdkec":"030","kddesa":"003","kdsls":"2001","idsls":"65040300032001","nmprov":"KALIMANTAN UTARA","nmkab":"NUNUKAN","nmkec":"LUMBIS OGONG","nmdesa":"TUKULON","nmsls":"HUTAN DESA TUKULON"}},{"type":"Feature","geometry":{"type":"MultiPolygon","coordinates":[[[[116.62709,3.91176],[116.62719,3.91071],[116.62782,3.90991],[116.62819,3.90966],[116.62826,3.90961],[116.62857,3.9094],[116.62903,3.90923],[116.62966,3.90907],[116.63034,3.90919],[116.63084,3.9097],[116.63336,3.90786],[116.63571,3.90592],[116.64106,3.90339],[116.64287,3.90215],[116.6428,3.90206],[116.64093,3.89972],[116.61143,3.87449],[116.59287,3.85593],[116.58092,3.84204],[116.57906,3.84175],[116.57578,3.84089],[116.57007,3.84089],[116.56693,3.84217],[116.56626,3.84253],[116.57411,3.85372],[116.59338,3.87846],[116.60838,3.89369],[116.62241,3.90892],[116.62446,3.9124],[116.62606,3.91207],[116.62709,3.91176]]]]},"properties":{"kdprov":"65","kdkab":"04","kdkec":"030","kddesa":"005","kdsls":"2001","idsls":"65040300052001","nmprov":"KALIMANTAN UTARA","nmkab":"NUNUKAN","nmkec":"LUMBIS OGONG","nmdesa":"BATUNG","nmsls":"HUTAN DESA BATUNG"}},{"type":"Feature","geometry":{"type":"MultiPolygon","coordinates":[[[[116.62447,3.91241],[116.62446,3.9124],[116.62241,3.90892],[116.60838,3.89369],[116.59338,3.87846],[116.57411,3.85372],[116.56626,3.84253],[116.56422,3.8436],[116.55993,3.84289],[116.55674,3.84343],[116.55666,3.84391],[116.55662,3.84434],[116.55588,3.84474],[116.55437,3.84437],[116.55041,3.84369],[116.5492,3.84381],[116.54844,3.84388],[116.5458,3.84574],[116.54266,3.8466],[116.54259,3.84666],[116.57601,3.88058],[116.60888,3.90485],[116.61447,3.90913],[116.61495,3.91151],[116.61447,3.91437],[116.61199,3.91564],[116.61087,3.9165],[116.61069,3.91704],[116.61068,3.91709],[116.61137,3.91711],[116.61193,3.91785],[116.61379,3.91653],[116.61817,3.91434],[116.62342,3.91264],[116.62447,3.91241]]]]},"properties":{"kdprov":"65","kdkab":"04","kdkec":"030","kddesa":"007","kdsls":"2001","idsls":"65040300072001","nmprov":"KALIMANTAN UTARA","nmkab":"NUNUKAN","nmkec":"LUMBIS OGONG","nmdesa":"UBEL ALUNG","nmsls":"HUTAN"}},{"type":"Feature","geometry":{"type":"MultiPolygon","coordinates":[[[[116.60907,3.9186],[116.60953,3.9182],[116.60996,3.91766],[116.61061,3.9174],[116.61068,3.91709],[116.61069,3.91704],[116.61087,3.9165],[116.61199,3.91564],[116.61447,3.91437],[116.61495,3.91151],[116.61447,3.90913],[116.60888,3.90485],[116.57601,3.88058],[116.54259,3.84666],[116.54009,3.84874],[116.53738,3.85003],[116.53424,3.85074],[116.53256,3.84984],[116.53024,3.84988],[116.52931,3.85081],[116.54339,3.8686],[116.58013,3.89982],[116.5965,3.91181],[116.60808,3.91869],[116.60814,3.91889],[116.60822,3.91912],[116.60879,3.91884],[116.60907,3.9186]]]]},"properties":{"kdprov":"65","kdkab":"04","kdkec":"030","kddesa":"006","kdsls":"2001","idsls":"65040300062001","nmprov":"KALIMANTAN UTARA","nmkab":"NUNUKAN","nmkec":"LUMBIS OGONG","nmdesa":"UBEL SULOK","nmsls":"HUTAN"}},{"type":"Feature","geometry":{"type":"MultiPolygon","coordinates":[[[[116.57668,3.92166],[116.58121,3.91947],[116.58261,3.91916],[116.58336,3.91888],[116.58388,3.91864],[116.58444,3.918],[116.5851,3.91735],[116.58562,3.91687],[116.58618,3.91671],[116.5864,3.91671],[116.56151,3.89646],[116.53105,3.86924],[116.5221,3.86341],[116.52202,3.86349],[116.5203,3.86285],[116.51444,3.86242],[116.50887,3.86199],[116.50302,3.86285],[116.50201,3.86318],[116.52282,3.88504],[116.55018,3.90907],[116.55983,3.91899],[116.56691,3.92627],[116.56792,3.92729],[116.56792,3.92709],[116.56799,3.92686],[116.56837,3.92686],[116.56882,3.92657],[116.56905,3.92632],[116.56925,3.92598],[116.56941,3.9258],[116.56991,3.92573],[116.5707,3.92555],[116.57092,3.92535],[116.57294,3.92386],[116.57658,3.92171],[116.57668,3.92166]]]]},"properties":{"kdprov":"65","kdkab":"04","kdkec":"030","kddesa":"009","kdsls":"2001","idsls":"65040300092001","nmprov":"KALIMANTAN UTARA","nmkab":"NUNUKAN","nmkec":"LUMBIS OGONG","nmdesa":"SEDALIT","nmsls":"HUTAN DESA SEDALIT"}},{"type":"Feature","geometry":{"type":"MultiPolygon","coordinates":[[[[116.55523,3.92684],[116.55488,3.9254],[116.55623,3.92497],[116.55821,3.92435],[116.55867,3.92517],[116.55941,3.92496],[116.56098,3.92532],[116.56176,3.92591],[116.55983,3.91899],[116.55018,3.90907],[116.52282,3.88504],[116.50201,3.86318],[116.49645,3.86499],[116.49131,3.86656],[116.50066,3.88121],[116.52978,3.90691],[116.54901,3.92537],[116.55213,3.92813],[116.55312,3.92766],[116.55523,3.92684]]]]},"properties":{"kdprov":"65","kdkab":"04","kdkec":"030","kddesa":"010","kdsls":"2001","idsls":"65040300102001","nmprov":"KALIMANTAN UTARA","nmkab":"NUNUKAN","nmkec":"LUMBIS OGONG","nmdesa":"TAMBALANG HILIR","nmsls":"HUTAN TAMBALANG HILIR"}},{"type":"Feature","geometry":{"type":"MultiPolygon","coordinates":[[[[116.53866,4.02672],[116.53528,4.02392],[116.53431,4.01529],[116.53504,4.00988],[116.52956,4.00983],[116.52595,4.00812],[116.52604,4.00426],[116.52952,4.00074],[116.53209,3.99413],[116.53261,3.98837],[116.53209,3.98104],[116.53217,3.98058],[116.53202,3.97991],[116.53166,3.97949],[116.53114,3.97908],[116.53016,3.97877],[116.5289,3.97785],[116.5226,3.97668],[116.51274,3.97097],[116.51182,3.96958],[116.50539,3.95984],[116.50546,3.94549],[116.50563,3.93673],[116.50346,3.93498],[116.50256,3.93433],[116.48763,3.92352],[116.46893,3.90001],[116.45942,3.88795],[116.45876,3.88783],[116.45377,3.88855],[116.44905,3.88955],[116.44606,3.88969],[116.4442,3.88812],[116.44392,3.88612],[116.44249,3.88412],[116.43992,3.88255],[116.43805,3.8814],[116.43792,3.88151],[116.43765,3.88171],[116.43615,3.88075],[116.43227,3.87949],[116.42981,3.8787],[116.42753,3.87864],[116.42604,3.87972],[116.42484,3.88075],[116.42393,3.88224],[116.42354,3.88245],[116.42295,3.88274],[116.42246,3.88364],[116.42224,3.88402],[116.42199,3.88458],[116.42142,3.88526],[116.41982,3.88658],[116.4181,3.888],[116.41692,3.88806],[116.41638,3.8885],[116.41521,3.88947],[116.4133,3.89064],[116.41279,3.89096],[116.4111,3.89199],[116.41052,3.89232],[116.40949,3.89367],[116.40898,3.89434],[116.40781,3.89586],[116.4074,3.89821],[116.40692,3.90098],[116.40513,3.906],[116.4028,3.91121],[116.40101,3.9121],[116.40101,3.91372],[116.40101,3.91605],[116.39922,3.91892],[116.39893,3.91949],[116.39578,3.92554],[116.39577,3.92554],[116.39342,3.93643],[116.39191,3.94185],[116.39206,3.94517],[116.39492,3.9503],[116.39559,3.95261],[116.39731,3.95399],[116.39793,3.95537],[116.39926,3.95728],[116.39902,3.95932],[116.39897,3.96256],[116.3974,3.96627],[116.39598,3.97008],[116.39455,3.97531],[116.39407,3.97995],[116.39407,3.98293],[116.39669,3.9865],[116.39936,3.98941],[116.39971,3.9897],[116.39902,3.99032],[116.39803,3.99019],[116.42655,4.00503],[116.4908,4.03239],[116.54517,4.04444],[116.54548,4.04128],[116.54258,4.03729],[116.53917,4.03323],[116.53844,4.02859],[116.53866,4.02672]]]]},"properties":{"kdprov":"65","kdkab":"04","kdkec":"030","kddesa":"021","kdsls":"2002","idsls":"65040300212002","nmprov":"KALIMANTAN UTARA","nmkab":"NUNUKAN","nmkec":"LUMBIS OGONG","nmdesa":"SAMUNTI","nmsls":"HUTAN DESA SAMUNTI"}},{"type":"Feature","geometry":{"type":"MultiPolygon","coordinates":[[[[116.68923,3.9466],[116.69246,3.94503],[116.69246,3.94503],[116.69756,3.94255],[116.6989,3.94296],[116.70185,3.94386],[116.70434,3.94243],[116.70672,3.94267],[116.70876,3.94207],[116.70907,3.94197],[116.70361,3.92711],[116.69825,3.9189],[116.68041,3.90391],[116.67255,3.90076],[116.66527,3.89648],[116.65633,3.88644],[116.65267,3.88021],[116.65159,3.87933],[116.65139,3.87917],[116.64945,3.88174],[116.64942,3.88177],[116.64886,3.88346],[116.64878,3.88372],[116.64858,3.88434],[116.64853,3.8845],[116.64766,3.88729],[116.64713,3.88795],[116.64601,3.88933],[116.64477,3.89178],[116.64469,3.89367],[116.64533,3.89788],[116.64445,3.90077],[116.6428,3.90206],[116.64287,3.90215],[116.6614,3.92541],[116.68091,3.94397],[116.68875,3.94871],[116.68876,3.94862],[116.68892,3.94793],[116.68923,3.9466]]]]},"properties":{"kdprov":"65","kdkab":"04","kdkec":"030","kddesa":"003","kdsls":"2002","idsls":"65040300032002","nmprov":"KALIMANTAN UTARA","nmkab":"NUNUKAN","nmkec":"LUMBIS OGONG","nmdesa":"TUKULON","nmsls":"HUTAN DESA TUKULON"}},{"type":"Feature","geometry":{"type":"MultiPolygon","coordinates":[[[[116.53178,3.93696],[116.53178,3.93695],[116.52773,3.93552],[116.50667,3.91981],[116.48668,3.90149],[116.46847,3.88306],[116.4629,3.88612],[116.46033,3.88812],[116.45942,3.88795],[116.46893,3.90001],[116.48763,3.92352],[116.50256,3.93433],[116.5032,3.93362],[116.50452,3.9331],[116.50615,3.93276],[116.50701,3.93272],[116.50798,3.9331],[116.50849,3.93352],[116.50922,3.93314],[116.50964,3.93244],[116.51021,3.93188],[116.51057,3.93204],[116.51034,3.93303],[116.51007,3.93365],[116.51023,3.9343],[116.51108,3.9352],[116.51192,3.93592],[116.51316,3.9368],[116.51392,3.93718],[116.51479,3.93681],[116.51544,3.93678],[116.51685,3.93765],[116.51769,3.93845],[116.51843,3.93868],[116.51944,3.93876],[116.51997,3.93897],[116.52039,3.93969],[116.5214,3.94034],[116.52245,3.941],[116.52309,3.94159],[116.52356,3.94215],[116.5235,3.94291],[116.52365,3.94363],[116.52453,3.94414],[116.52535,3.94418],[116.52631,3.94437],[116.52684,3.94423],[116.527,3.94358],[116.52724,3.94291],[116.52775,3.94276],[116.5283,3.94332],[116.52904,3.94329],[116.5298,3.94222],[116.53061,3.94078],[116.5311,3.93982],[116.53138,3.93919],[116.53104,3.93829],[116.53085,3.93772],[116.53129,3.93727],[116.53178,3.93696]]]]},"properties":{"kdprov":"65","kdkab":"04","kdkec":"030","kddesa":"012","kdsls":"2002","idsls":"65040300122002","nmprov":"KALIMANTAN UTARA","nmkab":"NUNUKAN","nmkec":"LUMBIS OGONG","nmdesa":"JUKUP","nmsls":"HUTAN DESA JUKUP"}},{"type":"Feature","geometry":{"type":"MultiPolygon","coordinates":[[[[116.68863,3.94948],[116.68875,3.94871],[116.68091,3.94397],[116.6614,3.92541],[116.64287,3.90215],[116.64106,3.90339],[116.63571,3.90592],[116.63336,3.90786],[116.63084,3.9097],[116.62915,3.91094],[116.62866,3.91129],[116.62709,3.91176],[116.62606,3.91207],[116.62446,3.9124],[116.62447,3.91241],[116.62955,3.92105],[116.6351,3.92542],[116.65406,3.94033],[116.67571,3.95603],[116.68598,3.9595],[116.68638,3.95683],[116.68828,3.95171],[116.68863,3.94948]]]]},"properties":{"kdprov":"65","kdkab":"04","kdkec":"030","kddesa":"005","kdsls":"2002","idsls":"65040300052002","nmprov":"KALIMANTAN UTARA","nmkab":"NUNUKAN","nmkec":"LUMBIS OGONG","nmdesa":"BATUNG","nmsls":"HUTAN DESA BATUNG"}},{"type":"Feature","geometry":{"type":"MultiPolygon","coordinates":[[[[116.62915,3.91094],[116.63084,3.9097],[116.63034,3.90919],[116.62966,3.90907],[116.62903,3.90923],[116.62857,3.9094],[116.62826,3.90961],[116.62819,3.90966],[116.62836,3.90994],[116.62845,3.90989],[116.62915,3.91094]]]]},"properties":{"kdprov":"65","kdkab":"04","kdkec":"030","kddesa":"005","kdsls":"0002","idsls":"65040300050002","nmprov":"KALIMANTAN UTARA","nmkab":"NUNUKAN","nmkec":"LUMBIS OGONG","nmdesa":"BATUNG","nmsls":"RT 002"}},{"type":"Feature","geometry":{"type":"MultiPolygon","coordinates":[[[[116.62447,3.91241],[116.62342,3.91264],[116.61817,3.91434],[116.61379,3.91653],[116.61193,3.91785],[116.61167,3.91804],[116.61071,3.91878],[116.60986,3.91943],[116.60928,3.91973],[116.60934,3.91977],[116.61608,3.92415],[116.6351,3.92542],[116.62955,3.92105],[116.62447,3.91241]]]]},"properties":{"kdprov":"65","kdkab":"04","kdkec":"030","kddesa":"007","kdsls":"2002","idsls":"65040300072002","nmprov":"KALIMANTAN UTARA","nmkab":"NUNUKAN","nmkec":"LUMBIS OGONG","nmdesa":"UBEL ALUNG","nmsls":"HUTAN"}},{"type":"Feature","geometry":{"type":"MultiPolygon","coordinates":[[[[116.58286,3.92125],[116.58494,3.9202],[116.58761,3.91978],[116.58816,3.91972],[116.58998,3.91954],[116.58987,3.91946],[116.58911,3.91892],[116.5877,3.91777],[116.5864,3.91671],[116.58618,3.91671],[116.58562,3.91687],[116.5851,3.91735],[116.58444,3.918],[116.58388,3.91864],[116.58336,3.91888],[116.58261,3.91916],[116.58121,3.91947],[116.57668,3.92166],[116.57724,3.92212],[116.57831,3.92269],[116.57876,3.92325],[116.579,3.92392],[116.57946,3.92368],[116.5825,3.92143],[116.58286,3.92125]]]]},"properties":{"kdprov":"65","kdkab":"04","kdkec":"030","kddesa":"009","kdsls":"0002","idsls":"65040300090002","nmprov":"KALIMANTAN UTARA","nmkab":"NUNUKAN","nmkec":"LUMBIS OGONG","nmdesa":"SEDALIT","nmsls":"RT 002"}},{"type":"Feature","geometry":{"type":"MultiPolygon","coordinates":[[[[116.61137,3.91711],[116.61068,3.91709],[116.61061,3.9174],[116.61053,3.91776],[116.61039,3.91816],[116.61025,3.91827],[116.61033,3.91836],[116.61049,3.9186],[116.61071,3.91878],[116.61167,3.91804],[116.61193,3.91785],[116.61137,3.91711]]]]},"properties":{"kdprov":"65","kdkab":"04","kdkec":"030","kddesa":"007","kdsls":"0001","idsls":"65040300070001","nmprov":"KALIMANTAN UTARA","nmkab":"NUNUKAN","nmkec":"LUMBIS OGONG","nmdesa":"UBEL ALUNG","nmsls":"RT 001"}},{"type":"Feature","geometry":{"type":"MultiPolygon","coordinates":[[[[116.60986,3.91888],[116.61005,3.91875],[116.60989,3.91854],[116.61025,3.91827],[116.61039,3.91816],[116.61053,3.91776],[116.61061,3.9174],[116.60996,3.91766],[116.60953,3.9182],[116.60907,3.9186],[116.60947,3.91919],[116.6097,3.91902],[116.60981,3.91916],[116.60997,3.91904],[116.60986,3.91888]]]]},"properties":{"kdprov":"65","kdkab":"04","kdkec":"030","kddesa":"006","kdsls":"0001","idsls":"65040300060001","nmprov":"KALIMANTAN UTARA","nmkab":"NUNUKAN","nmkec":"LUMBIS OGONG","nmdesa":"UBEL SULOK","nmsls":"RT 001"}},{"type":"Feature","geometry":{"type":"MultiPolygon","coordinates":[[[[116.61033,3.91836],[116.61025,3.91827],[116.60989,3.91854],[116.61005,3.91875],[116.60986,3.91888],[116.60997,3.91904],[116.60981,3.91916],[116.6097,3.91902],[116.60947,3.91919],[116.60907,3.91943],[116.60906,3.91943],[116.60906,3.91944],[116.60898,3.91948],[116.60904,3.91958],[116.60928,3.91973],[116.60986,3.91943],[116.61071,3.91878],[116.61049,3.9186],[116.61033,3.91836]]]]},"properties":{"kdprov":"65","kdkab":"04","kdkec":"030","kddesa":"007","kdsls":"0002","idsls":"65040300070002","nmprov":"KALIMANTAN UTARA","nmkab":"NUNUKAN","nmkec":"LUMBIS OGONG","nmdesa":"UBEL ALUNG","nmsls":"RT 002"}},{"type":"Feature","geometry":{"type":"MultiPolygon","coordinates":[[[[116.60904,3.91958],[116.60898,3.91948],[116.60906,3.91944],[116.60906,3.91943],[116.60907,3.91943],[116.60947,3.91919],[116.60907,3.9186],[116.60879,3.91884],[116.60822,3.91912],[116.6083,3.91931],[116.60853,3.91952],[116.60874,3.91969],[116.60887,3.91986],[116.60887,3.91987],[116.60892,3.92001],[116.60934,3.91977],[116.60928,3.91973],[116.60904,3.91958]]]]},"properties":{"kdprov":"65","kdkab":"04","kdkec":"030","kddesa":"006","kdsls":"0002","idsls":"65040300060002","nmprov":"KALIMANTAN UTARA","nmkab":"NUNUKAN","nmkec":"LUMBIS OGONG","nmdesa":"UBEL SULOK","nmsls":"RT 002"}},{"type":"Feature","geometry":{"type":"MultiPolygon","coordinates":[[[[116.54166,3.93289],[116.54072,3.93231],[116.54012,3.9313],[116.53977,3.93139],[116.53924,3.93149],[116.53898,3.93138],[116.53858,3.9306],[116.53816,3.93026],[116.53783,3.93035],[116.53765,3.93069],[116.53775,3.93142],[116.53782,3.93241],[116.53759,3.9328],[116.53723,3.93297],[116.53677,3.93292],[116.53648,3.93246],[116.53618,3.93186],[116.53564,3.93211],[116.53528,3.93187],[116.53491,3.93193],[116.53482,3.932],[116.53442,3.93233],[116.53376,3.93243],[116.53324,3.93206],[116.53308,3.93252],[116.53298,3.93332],[116.53275,3.93385],[116.53227,3.93434],[116.53149,3.93479],[116.53116,3.93531],[116.53137,3.93574],[116.53184,3.93604],[116.53197,3.93631],[116.532,3.93678],[116.53178,3.93695],[116.53178,3.93696],[116.53308,3.93742],[116.54166,3.93289]]]]},"properties":{"kdprov":"65","kdkab":"04","kdkec":"030","kddesa":"011","kdsls":"2001","idsls":"65040300112001","nmprov":"KALIMANTAN UTARA","nmkab":"NUNUKAN","nmkec":"LUMBIS OGONG","nmdesa":"PALUAN","nmsls":"HUTAN DESA PALUAN"}},{"type":"Feature","geometry":{"type":"MultiPolygon","coordinates":[[[[116.56752,3.93029],[116.56746,3.9303],[116.56733,3.93035],[116.56723,3.93038],[116.567,3.93044],[116.56677,3.93042],[116.567,3.93069],[116.56745,3.93079],[116.56817,3.9308],[116.56778,3.93046],[116.56752,3.93029]]]]},"properties":{"kdprov":"65","kdkab":"04","kdkec":"030","kddesa":"014","kdsls":"0001","idsls":"65040300140001","nmprov":"KALIMANTAN UTARA","nmkab":"NUNUKAN","nmkec":"LUMBIS OGONG","nmdesa":"KALAM BUKU","nmsls":"RT 001"}},{"type":"Feature","geometry":{"type":"MultiPolygon","coordinates":[[[[116.54663,3.92993],[116.54602,3.92954],[116.54566,3.92959],[116.54529,3.9298],[116.54501,3.93016],[116.54415,3.93147],[116.54523,3.93123],[116.54601,3.931],[116.54657,3.93043],[116.54663,3.92993]]]]},"properties":{"kdprov":"65","kdkab":"04","kdkec":"030","kddesa":"013","kdsls":"0003","idsls":"65040300130003","nmprov":"KALIMANTAN UTARA","nmkab":"NUNUKAN","nmkec":"LUMBIS OGONG","nmdesa":"LONG BULU","nmsls":"RT 003"}},{"type":"Feature","geometry":{"type":"MultiPolygon","coordinates":[[[[116.60814,3.91889],[116.60777,3.91952],[116.60711,3.9197],[116.60635,3.92038],[116.60779,3.92033],[116.60887,3.91986],[116.60874,3.91969],[116.60853,3.91952],[116.6083,3.91931],[116.60822,3.91912],[116.60814,3.91889]]]]},"properties":{"kdprov":"65","kdkab":"04","kdkec":"030","kddesa":"008","kdsls":"0001","idsls":"65040300080001","nmprov":"KALIMANTAN UTARA","nmkab":"NUNUKAN","nmkec":"LUMBIS OGONG","nmdesa":"NAN SAPAN","nmsls":"RT 001"}},{"type":"Feature","geometry":{"type":"MultiPolygon","coordinates":[[[[116.68784,3.99028],[116.66773,3.9885],[116.63585,3.97565],[116.60063,3.96232],[116.56656,3.94424],[116.55386,3.92966],[116.55223,3.92821],[116.54999,3.9293],[116.54782,3.93111],[116.54605,3.93311],[116.54485,3.93483],[116.54486,3.93484],[116.54805,3.93679],[116.55519,3.94354],[116.55842,3.94954],[116.56151,3.95163],[116.5708,3.95792],[116.63873,3.99125],[116.66728,3.99542],[116.68774,3.99871],[116.68783,3.99759],[116.68793,3.99633],[116.68793,3.9905],[116.68784,3.99028]]]]},"properties":{"kdprov":"65","kdkab":"04","kdkec":"030","kddesa":"013","kdsls":"2002","idsls":"65040300132002","nmprov":"KALIMANTAN UTARA","nmkab":"NUNUKAN","nmkec":"LUMBIS OGONG","nmdesa":"LONG BULU","nmsls":"HUTAN DESA LONG BULU"}},{"type":"Feature","geometry":{"type":"MultiPolygon","coordinates":[[[[116.56309,3.93811],[116.56203,3.93625],[116.56231,3.92869],[116.56234,3.92796],[116.56185,3.92623],[116.56176,3.92591],[116.56098,3.92532],[116.55941,3.92496],[116.55867,3.92517],[116.55797,3.92537],[116.55718,3.92581],[116.55561,3.92669],[116.55523,3.92684],[116.55312,3.92766],[116.55213,3.92813],[116.55223,3.92821],[116.55386,3.92966],[116.56656,3.94424],[116.56309,3.93811]]]]},"properties":{"kdprov":"65","kdkab":"04","kdkec":"030","kddesa":"010","kdsls":"2002","idsls":"65040300102002","nmprov":"KALIMANTAN UTARA","nmkab":"NUNUKAN","nmkec":"LUMBIS OGONG","nmdesa":"TAMBALANG HILIR","nmsls":"HUTAN TAMBALANG HILIR"}},{"type":"Feature","geometry":{"type":"MultiPolygon","coordinates":[[[[116.60635,3.92038],[116.60711,3.9197],[116.60777,3.91952],[116.60814,3.91889],[116.60808,3.91869],[116.5965,3.91181],[116.58013,3.89982],[116.54339,3.8686],[116.52931,3.85081],[116.52895,3.85117],[116.52672,3.8546],[116.52547,3.85629],[116.5244,3.85784],[116.52333,3.85897],[116.52291,3.86069],[116.52303,3.86224],[116.5225,3.86301],[116.5221,3.86341],[116.53105,3.86924],[116.56151,3.89646],[116.5864,3.91671],[116.5877,3.91777],[116.58911,3.91892],[116.58987,3.91946],[116.5912,3.91907],[116.5927,3.9187],[116.59471,3.9191],[116.59663,3.91986],[116.59796,3.92012],[116.59993,3.92009],[116.60197,3.91983],[116.60323,3.92004],[116.60543,3.92041],[116.60635,3.92038]]]]},"properties":{"kdprov":"65","kdkab":"04","kdkec":"030","kddesa":"008","kdsls":"2002","idsls":"65040300082002","nmprov":"KALIMANTAN UTARA","nmkab":"NUNUKAN","nmkec":"LUMBIS OGONG","nmdesa":"NAN SAPAN","nmsls":"HUTAN NANSAPAN"}},{"type":"Feature","geometry":{"type":"MultiPolygon","coordinates":[[[[116.579,3.92392],[116.57876,3.92325],[116.57831,3.92269],[116.57724,3.92212],[116.57668,3.92166],[116.57658,3.92171],[116.57294,3.92386],[116.57092,3.92535],[116.5707,3.92555],[116.56991,3.92573],[116.56941,3.9258],[116.56925,3.92598],[116.56905,3.92632],[116.56882,3.92657],[116.56837,3.92686],[116.56799,3.92686],[116.56792,3.92709],[116.56792,3.92729],[116.56923,3.92862],[116.56952,3.92876],[116.56985,3.92891],[116.57007,3.92901],[116.57362,3.92686],[116.57597,3.92547],[116.579,3.92392]]]]},"properties":{"kdprov":"65","kdkab":"04","kdkec":"030","kddesa":"009","kdsls":"0001","idsls":"65040300090001","nmprov":"KALIMANTAN UTARA","nmkab":"NUNUKAN","nmkec":"LUMBIS OGONG","nmdesa":"SEDALIT","nmsls":"RT 001"}},{"type":"Feature","geometry":{"type":"MultiPolygon","coordinates":[[[[116.68598,3.9595],[116.67571,3.95603],[116.65406,3.94033],[116.6351,3.92542],[116.61608,3.92415],[116.60934,3.91977],[116.60892,3.92001],[116.61138,3.92749],[116.61766,3.93529],[116.62633,3.94113],[116.64793,3.95566],[116.66367,3.96353],[116.66658,3.96499],[116.68731,3.97127],[116.6871,3.97032],[116.68674,3.96873],[116.68567,3.96159],[116.68572,3.9612],[116.68598,3.9595]]]]},"properties":{"kdprov":"65","kdkab":"04","kdkec":"030","kddesa":"006","kdsls":"2002","idsls":"65040300062002","nmprov":"KALIMANTAN UTARA","nmkab":"NUNUKAN","nmkec":"LUMBIS OGONG","nmdesa":"UBEL SULOK","nmsls":"HUTAN"}},{"type":"Feature","geometry":{"type":"MultiPolygon","coordinates":[[[[116.55718,3.92581],[116.55623,3.92497],[116.55488,3.9254],[116.55523,3.92684],[116.55561,3.92669],[116.55718,3.92581]]]]},"properties":{"kdprov":"65","kdkab":"04","kdkec":"030","kddesa":"010","kdsls":"0001","idsls":"65040300100001","nmprov":"KALIMANTAN UTARA","nmkab":"NUNUKAN","nmkec":"LUMBIS OGONG","nmdesa":"TAMBALANG HILIR","nmsls":"RT 001"}},{"type":"Feature","geometry":{"type":"MultiPolygon","coordinates":[[[[116.56927,3.92958],[116.56933,3.92952],[116.56985,3.92891],[116.56952,3.92876],[116.569,3.92942],[116.569,3.92942],[116.56851,3.9297],[116.56823,3.92977],[116.56799,3.92995],[116.56798,3.92995],[116.56813,3.93002],[116.56817,3.93006],[116.56844,3.93034],[116.56871,3.93037],[116.56874,3.93013],[116.56886,3.92995],[116.56927,3.92958]]]]},"properties":{"kdprov":"65","kdkab":"04","kdkec":"030","kddesa":"012","kdsls":"0001","idsls":"65040300120001","nmprov":"KALIMANTAN UTARA","nmkab":"NUNUKAN","nmkec":"LUMBIS OGONG","nmdesa":"JUKUP","nmsls":"RT 001"}},{"type":"Feature","geometry":{"type":"MultiPolygon","coordinates":[[[[116.56826,3.93132],[116.56824,3.93118],[116.56817,3.9308],[116.56745,3.93079],[116.567,3.93069],[116.56677,3.93042],[116.56638,3.93025],[116.566,3.93014],[116.56595,3.9301],[116.56582,3.93],[116.56605,3.93114],[116.56716,3.93167],[116.56826,3.93132]]]]},"properties":{"kdprov":"65","kdkab":"04","kdkec":"030","kddesa":"014","kdsls":"0002","idsls":"65040300140002","nmprov":"KALIMANTAN UTARA","nmkab":"NUNUKAN","nmkec":"LUMBIS OGONG","nmdesa":"KALAM BUKU","nmsls":"RT 002"}},{"type":"Feature","geometry":{"type":"MultiPolygon","coordinates":[[[[116.56944,3.92964],[116.56927,3.92958],[116.56886,3.92995],[116.56874,3.93013],[116.56871,3.93037],[116.56944,3.92964]]]]},"properties":{"kdprov":"65","kdkab":"04","kdkec":"030","kddesa":"015","kdsls":"0001","idsls":"65040300150001","nmprov":"KALIMANTAN UTARA","nmkab":"NUNUKAN","nmkec":"LUMBIS OGONG","nmdesa":"TADUNGUS","nmsls":"RT 001"}},{"type":"Feature","geometry":{"type":"MultiPolygon","coordinates":[[[[116.56752,3.93029],[116.56759,3.93027],[116.56795,3.92998],[116.56777,3.9298],[116.56737,3.93001],[116.56733,3.93035],[116.56746,3.9303],[116.56752,3.93029]]]]},"properties":{"kdprov":"65","kdkab":"04","kdkec":"030","kddesa":"022","kdsls":"0003","idsls":"65040300220003","nmprov":"KALIMANTAN UTARA","nmkab":"NUNUKAN","nmkec":"LUMBIS OGONG","nmdesa":"SINAMPALA II","nmsls":"RT 003"}},{"type":"Feature","geometry":{"type":"MultiPolygon","coordinates":[[[[116.62845,3.90989],[116.62836,3.90994],[116.62819,3.90966],[116.62782,3.90991],[116.62719,3.91071],[116.62709,3.91176],[116.62866,3.91129],[116.62915,3.91094],[116.62845,3.90989]]]]},"properties":{"kdprov":"65","kdkab":"04","kdkec":"030","kddesa":"005","kdsls":"0001","idsls":"65040300050001","nmprov":"KALIMANTAN UTARA","nmkab":"NUNUKAN","nmkec":"LUMBIS OGONG","nmdesa":"BATUNG","nmsls":"RT 001"}},{"type":"Feature","geometry":{"type":"MultiPolygon","coordinates":[[[[116.53908,3.98386],[116.53681,3.98397],[116.53922,3.99299],[116.53774,3.99617],[116.53595,3.99768],[116.53837,3.99728],[116.5411,3.99333],[116.54139,3.98873],[116.53908,3.98386]]]]},"properties":{"kdprov":"65","kdkab":"04","kdkec":"030","kddesa":"019","kdsls":"2001","idsls":"65040300192001","nmprov":"KALIMANTAN UTARA","nmkab":"NUNUKAN","nmkec":"LUMBIS OGONG","nmdesa":"SUNGOI","nmsls":"HUTAN DESA SUNGOI"}},{"type":"Feature","geometry":{"type":"MultiPolygon","coordinates":[[[[116.67456,3.86187],[116.67413,3.8615],[116.67425,3.86121],[116.67427,3.86094],[116.6739,3.86083],[116.67361,3.86072],[116.67365,3.86028],[116.67344,3.85993],[116.67349,3.85962],[116.67339,3.85914],[116.67353,3.8585],[116.67361,3.85841],[116.6739,3.85807],[116.67383,3.85762],[116.66758,3.85411],[116.65895,3.84917],[116.65367,3.84323],[116.64978,3.84006],[116.63604,3.82391],[116.63223,3.81913],[116.62586,3.80768],[116.6229,3.8025],[116.6222,3.80158],[116.62077,3.80301],[116.62024,3.80467],[116.62005,3.80744],[116.62047,3.8092],[116.61918,3.81091],[116.61718,3.81391],[116.61581,3.81467],[116.62776,3.82843],[116.64875,3.85213],[116.66231,3.86455],[116.6657,3.86727],[116.66574,3.8673],[116.66652,3.86694],[116.66892,3.86551],[116.67211,3.86403],[116.67352,3.86331],[116.67453,3.86191],[116.67456,3.86187]]]]},"properties":{"kdprov":"65","kdkab":"04","kdkec":"030","kddesa":"001","kdsls":"2001","idsls":"65040300012001","nmprov":"KALIMANTAN UTARA","nmkab":"NUNUKAN","nmkec":"LUMBIS OGONG","nmdesa":"PAYANG","nmsls":"HUTAN DESA PAYANG"}},{"type":"Feature","geometry":{"type":"MultiPolygon","coordinates":[[[[116.67543,3.86085],[116.67477,3.86035],[116.67361,3.85841],[116.67353,3.8585],[116.67339,3.85914],[116.67349,3.85962],[116.67344,3.85993],[116.67365,3.86028],[116.67361,3.86072],[116.6739,3.86083],[116.67427,3.86094],[116.67425,3.86121],[116.67413,3.8615],[116.67456,3.86187],[116.67543,3.86085]]]]},"properties":{"kdprov":"65","kdkab":"04","kdkec":"030","kddesa":"001","kdsls":"0002","idsls":"65040300010002","nmprov":"KALIMANTAN UTARA","nmkab":"NUNUKAN","nmkec":"LUMBIS OGONG","nmdesa":"PAYANG","nmsls":"RT 002"}},{"type":"Feature","geometry":{"type":"MultiPolygon","coordinates":[[[[116.73758,3.94894],[116.73753,3.94862],[116.73722,3.94449],[116.73626,3.93463],[116.73085,3.91713],[116.72735,3.91108],[116.72194,3.90249],[116.70826,3.88945],[116.69602,3.87678],[116.69085,3.87101],[116.6833,3.86467],[116.67671,3.85953],[116.67598,3.8602],[116.67543,3.86085],[116.67456,3.86187],[116.67453,3.86191],[116.67352,3.86331],[116.67211,3.86403],[116.66892,3.86551],[116.66652,3.86694],[116.66574,3.8673],[116.67316,3.87326],[116.68316,3.88168],[116.69458,3.8912],[116.71076,3.9031],[116.72075,3.91832],[116.72694,3.93926],[116.72739,3.94807],[116.72969,3.94838],[116.73171,3.94779],[116.73718,3.94933],[116.73758,3.94894]]]]},"properties":{"kdprov":"65","kdkab":"04","kdkec":"030","kddesa":"001","kdsls":"2002","idsls":"65040300012002","nmprov":"KALIMANTAN UTARA","nmkab":"NUNUKAN","nmkec":"LUMBIS OGONG","nmdesa":"PAYANG","nmsls":"HUTAN DESA PAYANG"}},{"type":"Feature","geometry":{"type":"MultiPolygon","coordinates":[[[[116.66574,3.8673],[116.6657,3.86727],[116.66312,3.86884],[116.6622,3.87028],[116.66215,3.87292],[116.66214,3.87345],[116.6614,3.87492],[116.66116,3.8754],[116.659,3.87692],[116.65999,3.88206],[116.66242,3.89106],[116.66527,3.89648],[116.67255,3.90076],[116.68041,3.90391],[116.69825,3.9189],[116.70361,3.92711],[116.70907,3.94197],[116.70994,3.94172],[116.71208,3.94196],[116.71311,3.94231],[116.71481,3.94291],[116.71673,3.94349],[116.71925,3.94426],[116.72433,3.94648],[116.72707,3.94802],[116.72739,3.94807],[116.72694,3.93926],[116.72075,3.91832],[116.71076,3.9031],[116.69458,3.8912],[116.68316,3.88168],[116.67316,3.87326],[116.66574,3.8673]]]]},"properties":{"kdprov":"65","kdkab":"04","kdkec":"030","kddesa":"002","kdsls":"2002","idsls":"65040300022002","nmprov":"KALIMANTAN UTARA","nmkab":"NUNUKAN","nmkec":"LUMBIS OGONG","nmdesa":"SUYADON","nmsls":"HUTAN DESA SUYADON"}},{"type":"Feature","geometry":{"type":"MultiPolygon","coordinates":[[[[116.65788,3.87684],[116.65684,3.87676],[116.65511,3.87712],[116.65518,3.8777],[116.6553,3.87803],[116.65557,3.87795],[116.65595,3.87787],[116.65647,3.87905],[116.65696,3.87916],[116.65705,3.87805],[116.65771,3.87761],[116.65788,3.87684]]]]},"properties":{"kdprov":"65","kdkab":"04","kdkec":"030","kddesa":"004","kdsls":"0002","idsls":"65040300040002","nmprov":"KALIMANTAN UTARA","nmkab":"NUNUKAN","nmkec":"LUMBIS OGONG","nmdesa":"BULU MENGELOM","nmsls":"RT 002"}},{"type":"Feature","geometry":{"type":"MultiPolygon","coordinates":[[[[116.659,3.87692],[116.65788,3.87684],[116.65771,3.87761],[116.65705,3.87805],[116.65696,3.87916],[116.65647,3.87905],[116.65595,3.87787],[116.65557,3.87795],[116.6553,3.87803],[116.65492,3.87813],[116.65434,3.87819],[116.65373,3.87771],[116.65281,3.87822],[116.65159,3.87933],[116.65267,3.88021],[116.65633,3.88644],[116.66527,3.89648],[116.66242,3.89106],[116.65999,3.88206],[116.659,3.87692]]]]},"properties":{"kdprov":"65","kdkab":"04","kdkec":"030","kddesa":"004","kdsls":"2001","idsls":"65040300042001","nmprov":"KALIMANTAN UTARA","nmkab":"NUNUKAN","nmkec":"LUMBIS OGONG","nmdesa":"BULU MENGELOM","nmsls":"HUTAN"}},{"type":"Feature","geometry":{"type":"MultiPolygon","coordinates":[[[[116.6553,3.87803],[116.65518,3.8777],[116.65511,3.87712],[116.65461,3.87722],[116.65373,3.87771],[116.65434,3.87819],[116.65492,3.87813],[116.6553,3.87803]]]]},"properties":{"kdprov":"65","kdkab":"04","kdkec":"030","kddesa":"004","kdsls":"0001","idsls":"65040300040001","nmprov":"KALIMANTAN UTARA","nmkab":"NUNUKAN","nmkec":"LUMBIS OGONG","nmdesa":"BULU MENGELOM","nmsls":"RT 001"}},{"type":"Feature","geometry":{"type":"MultiPolygon","coordinates":[[[[116.64945,3.88174],[116.64779,3.88089],[116.64718,3.88218],[116.64714,3.88249],[116.64731,3.88258],[116.64745,3.88238],[116.64797,3.88278],[116.64815,3.88253],[116.64834,3.88264],[116.64816,3.88292],[116.64886,3.88346],[116.64942,3.88177],[116.64945,3.88174]]]]},"properties":{"kdprov":"65","kdkab":"04","kdkec":"030","kddesa":"003","kdsls":"0003","idsls":"65040300030003","nmprov":"KALIMANTAN UTARA","nmkab":"NUNUKAN","nmkec":"LUMBIS OGONG","nmdesa":"TUKULON","nmsls":"RT 003"}},{"type":"Feature","geometry":{"type":"MultiPolygon","coordinates":[[[[116.64886,3.88346],[116.64816,3.88292],[116.64834,3.88264],[116.64815,3.88253],[116.64797,3.88278],[116.64745,3.88238],[116.64731,3.88258],[116.64714,3.88249],[116.64706,3.88318],[116.64858,3.88434],[116.64878,3.88372],[116.64886,3.88346]]]]},"properties":{"kdprov":"65","kdkab":"04","kdkec":"030","kddesa":"003","kdsls":"0002","idsls":"65040300030002","nmprov":"KALIMANTAN UTARA","nmkab":"NUNUKAN","nmkec":"LUMBIS OGONG","nmdesa":"TUKULON","nmsls":"RT 002"}},{"type":"Feature","geometry":{"type":"MultiPolygon","coordinates":[[[[116.64858,3.88434],[116.64706,3.88318],[116.64704,3.88335],[116.64632,3.88396],[116.64613,3.88452],[116.64545,3.88687],[116.64713,3.88795],[116.64766,3.88729],[116.64853,3.8845],[116.64858,3.88434]]]]},"properties":{"kdprov":"65","kdkab":"04","kdkec":"030","kddesa":"003","kdsls":"0001","idsls":"65040300030001","nmprov":"KALIMANTAN UTARA","nmkab":"NUNUKAN","nmkec":"LUMBIS OGONG","nmdesa":"TUKULON","nmsls":"RT 001"}},{"type":"Feature","geometry":{"type":"MultiPolygon","coordinates":[[[[116.67361,3.85841],[116.67477,3.86035],[116.67543,3.86085],[116.67598,3.8602],[116.67671,3.85953],[116.67538,3.85849],[116.67383,3.85762],[116.6739,3.85807],[116.67361,3.85841]]]]},"properties":{"kdprov":"65","kdkab":"04","kdkec":"030","kddesa":"001","kdsls":"0001","idsls":"65040300010001","nmprov":"KALIMANTAN UTARA","nmkab":"NUNUKAN","nmkec":"LUMBIS OGONG","nmdesa":"PAYANG","nmsls":"RT 001"}},{"type":"Feature","geometry":{"type":"MultiPolygon","coordinates":[[[[116.6614,3.87492],[116.66016,3.87415],[116.65974,3.8736],[116.65956,3.87383],[116.65803,3.8757],[116.659,3.87692],[116.66116,3.8754],[116.6614,3.87492]]]]},"properties":{"kdprov":"65","kdkab":"04","kdkec":"030","kddesa":"002","kdsls":"0002","idsls":"65040300020002","nmprov":"KALIMANTAN UTARA","nmkab":"NUNUKAN","nmkec":"LUMBIS OGONG","nmdesa":"SUYADON","nmsls":"RT 002"}},{"type":"Feature","geometry":{"type":"MultiPolygon","coordinates":[[[[116.53618,3.93186],[116.53618,3.93185],[116.53587,3.93109],[116.53511,3.93101],[116.53453,3.93117],[116.53482,3.932],[116.53491,3.93193],[116.53528,3.93187],[116.53564,3.93211],[116.53618,3.93186]]]]},"properties":{"kdprov":"65","kdkab":"04","kdkec":"030","kddesa":"011","kdsls":"0001","idsls":"65040300110001","nmprov":"KALIMANTAN UTARA","nmkab":"NUNUKAN","nmkec":"LUMBIS OGONG","nmdesa":"PALUAN","nmsls":"RT 001"}},{"type":"Feature","geometry":{"type":"MultiPolygon","coordinates":[[[[116.53459,3.94852],[116.53783,3.94627],[116.54,3.94326],[116.53308,3.93742],[116.53178,3.93696],[116.53129,3.93727],[116.53085,3.93772],[116.53104,3.93829],[116.53138,3.93919],[116.5311,3.93982],[116.53061,3.94078],[116.5298,3.94222],[116.52904,3.94329],[116.5283,3.94332],[116.52775,3.94276],[116.52724,3.94291],[116.527,3.94358],[116.52684,3.94423],[116.52631,3.94437],[116.52535,3.94418],[116.52453,3.94414],[116.52365,3.94363],[116.5235,3.94291],[116.52356,3.94215],[116.52309,3.94159],[116.52245,3.941],[116.5214,3.94034],[116.52039,3.93969],[116.51997,3.93897],[116.51944,3.93876],[116.51843,3.93868],[116.51769,3.93845],[116.51685,3.93765],[116.51544,3.93678],[116.51479,3.93681],[116.51392,3.93718],[116.51316,3.9368],[116.51192,3.93592],[116.51108,3.9352],[116.51023,3.9343],[116.51007,3.93365],[116.51034,3.93303],[116.51057,3.93204],[116.51021,3.93188],[116.50964,3.93244],[116.50922,3.93314],[116.50849,3.93352],[116.50798,3.9331],[116.50701,3.93272],[116.50615,3.93276],[116.50452,3.9331],[116.5032,3.93362],[116.50256,3.93433],[116.50346,3.93498],[116.50563,3.93673],[116.51416,3.94358],[116.52317,3.94684],[116.52936,3.94722],[116.53441,3.94865],[116.53459,3.94852]]]]},"properties":{"kdprov":"65","kdkab":"04","kdkec":"030","kddesa":"012","kdsls":"2001","idsls":"65040300122001","nmprov":"KALIMANTAN UTARA","nmkab":"NUNUKAN","nmkec":"LUMBIS OGONG","nmdesa":"JUKUP","nmsls":"HUTAN DESA JUKUP"}},{"type":"Feature","geometry":{"type":"MultiPolygon","coordinates":[[[[116.54486,3.93484],[116.54485,3.93483],[116.54166,3.93289],[116.53308,3.93742],[116.54,3.94326],[116.5403,3.94351],[116.54186,3.94199],[116.5431,3.9392],[116.54388,3.9365],[116.54486,3.93484]]]]},"properties":{"kdprov":"65","kdkab":"04","kdkec":"030","kddesa":"014","kdsls":"2002","idsls":"65040300142002","nmprov":"KALIMANTAN UTARA","nmkab":"NUNUKAN","nmkec":"LUMBIS OGONG","nmdesa":"KALAM BUKU","nmsls":"HUTAN"}},{"type":"Feature","geometry":{"type":"MultiPolygon","coordinates":[[[[116.51182,3.96958],[116.51202,3.96862],[116.51302,3.96766],[116.51407,3.96692],[116.51454,3.96596],[116.51491,3.96438],[116.51603,3.96334],[116.51648,3.96309],[116.51701,3.96193],[116.51724,3.9616],[116.51806,3.96128],[116.51842,3.96086],[116.51876,3.96069],[116.51614,3.95584],[116.51554,3.94514],[116.51416,3.94358],[116.50563,3.93673],[116.50546,3.94549],[116.50539,3.95984],[116.51182,3.96958]]]]},"properties":{"kdprov":"65","kdkab":"04","kdkec":"030","kddesa":"020","kdsls":"2002","idsls":"65040300202002","nmprov":"KALIMANTAN UTARA","nmkab":"NUNUKAN","nmkec":"LUMBIS OGONG","nmdesa":"SINAMPALA I","nmsls":"HUTAN DESA SINAMPILA I"}},{"type":"Feature","geometry":{"type":"MultiPolygon","coordinates":[[[[116.53256,3.98006],[116.53268,3.9802],[116.5328,3.98024],[116.53298,3.98024],[116.53313,3.98018],[116.53335,3.98008],[116.5333,3.97994],[116.53331,3.97977],[116.53325,3.97973],[116.53319,3.97971],[116.53318,3.97974],[116.53314,3.97972],[116.53308,3.97971],[116.53301,3.97967],[116.53293,3.97962],[116.53279,3.97958],[116.53275,3.97958],[116.53256,3.98006]]]]},"properties":{"kdprov":"65","kdkab":"04","kdkec":"030","kddesa":"018","kdsls":"0002","idsls":"65040300180002","nmprov":"KALIMANTAN UTARA","nmkab":"NUNUKAN","nmkec":"LUMBIS OGONG","nmdesa":"SALAN","nmsls":"RT 002"}},{"type":"Feature","geometry":{"type":"MultiPolygon","coordinates":[[[[116.53446,3.98291],[116.53478,3.98553],[116.53442,3.98818],[116.53367,3.99018],[116.53372,3.99194],[116.53464,3.99459],[116.53506,3.99632],[116.53545,3.99767],[116.53595,3.99768],[116.53774,3.99617],[116.53922,3.99299],[116.53681,3.98397],[116.5346,3.98201],[116.53446,3.98291]]]]},"properties":{"kdprov":"65","kdkab":"04","kdkec":"030","kddesa":"018","kdsls":"2002","idsls":"65040300182002","nmprov":"KALIMANTAN UTARA","nmkab":"NUNUKAN","nmkec":"LUMBIS OGONG","nmdesa":"SALAN","nmsls":"HUTAN DESA SALAN"}},{"type":"Feature","geometry":{"type":"MultiPolygon","coordinates":[[[[116.68614,4.0101],[116.68627,4.00954],[116.68677,4.0073],[116.68721,4.00537],[116.68757,4.00097],[116.68774,3.99871],[116.66728,3.99542],[116.63873,3.99125],[116.5708,3.95792],[116.56151,3.95163],[116.55516,3.95378],[116.54366,3.94635],[116.5403,3.94351],[116.54,3.94326],[116.53783,3.94627],[116.53459,3.94852],[116.53429,3.94956],[116.53283,3.95135],[116.52999,3.95507],[116.52915,3.95707],[116.5294,3.9573],[116.5295,3.95728],[116.52954,3.95729],[116.53436,3.95923],[116.62621,3.99626],[116.68593,4.0105],[116.6861,4.01019],[116.68614,4.01013],[116.68614,4.0101]]]]},"properties":{"kdprov":"65","kdkab":"04","kdkec":"030","kddesa":"015","kdsls":"2002","idsls":"65040300152002","nmprov":"KALIMANTAN UTARA","nmkab":"NUNUKAN","nmkec":"LUMBIS OGONG","nmdesa":"TADUNGUS","nmsls":"HUTAN DESA TADUNGUS"}},{"type":"Feature","geometry":{"type":"MultiPolygon","coordinates":[[[[116.53459,3.94852],[116.53441,3.94865],[116.52936,3.94722],[116.52317,3.94684],[116.51416,3.94358],[116.51554,3.94514],[116.51877,3.94879],[116.52439,3.95336],[116.52853,3.95665],[116.52862,3.95664],[116.52888,3.95681],[116.52905,3.95697],[116.52915,3.95707],[116.52999,3.95507],[116.53283,3.95135],[116.53429,3.94956],[116.53459,3.94852]]]]},"properties":{"kdprov":"65","kdkab":"04","kdkec":"030","kddesa":"015","kdsls":"2001","idsls":"65040300152001","nmprov":"KALIMANTAN UTARA","nmkab":"NUNUKAN","nmkec":"LUMBIS OGONG","nmdesa":"TADUNGUS","nmsls":"HUTAN DESA TADUNGUS"}},{"type":"Feature","geometry":{"type":"MultiPolygon","coordinates":[[[[116.53436,3.95923],[116.52954,3.95729],[116.5295,3.95728],[116.5294,3.9573],[116.52915,3.95707],[116.52905,3.95697],[116.52825,3.95947],[116.52763,3.96339],[116.52868,3.9658],[116.52985,3.96911],[116.52999,3.96932],[116.53156,3.97167],[116.53252,3.97325],[116.53275,3.97433],[116.53345,3.97422],[116.5335,3.97417],[116.53352,3.97408],[116.53323,3.97218],[116.53237,3.96984],[116.53197,3.96561],[116.5322,3.96213],[116.53334,3.96007],[116.53436,3.95923]]]]},"properties":{"kdprov":"65","kdkab":"04","kdkec":"030","kddesa":"016","kdsls":"2002","idsls":"65040300162002","nmprov":"KALIMANTAN UTARA","nmkab":"NUNUKAN","nmkec":"LUMBIS OGONG","nmdesa":"SEMATA","nmsls":"HUTAN"}},{"type":"Feature","geometry":{"type":"MultiPolygon","coordinates":[[[[116.66639,4.06033],[116.66627,4.05958],[116.66603,4.05807],[116.66655,4.05711],[116.66674,4.05676],[116.66688,4.05659],[116.67007,4.0526],[116.67376,4.04998],[116.67602,4.04867],[116.67698,4.04618],[116.67626,4.04201],[116.67456,4.03906],[116.67448,4.03892],[116.67103,4.03606],[116.66817,4.03392],[116.66812,4.0338],[116.66722,4.03178],[116.66749,4.03085],[116.66781,4.02976],[116.66888,4.02762],[116.67245,4.02619],[116.67531,4.02583],[116.67775,4.02444],[116.67781,4.0244],[116.68126,4.01893],[116.68593,4.0105],[116.62621,3.99626],[116.53436,3.95923],[116.53334,3.96007],[116.5322,3.96213],[116.53197,3.96561],[116.53237,3.96984],[116.53323,3.97218],[116.53352,3.97408],[116.5335,3.97417],[116.53345,3.97422],[116.53275,3.97433],[116.53262,3.97435],[116.5325,3.97435],[116.53248,3.97438],[116.5325,3.97441],[116.53256,3.97442],[116.53262,3.97443],[116.5326,3.97446],[116.53249,3.97448],[116.53215,3.97465],[116.53202,3.97505],[116.53215,3.9754],[116.53241,3.97559],[116.53305,3.97604],[116.53332,3.97636],[116.53374,3.97732],[116.53423,3.97824],[116.5343,3.97881],[116.53397,3.97888],[116.53417,3.97967],[116.53427,3.98008],[116.53376,3.98081],[116.53338,3.98017],[116.53335,3.98008],[116.53313,3.98018],[116.53298,3.98024],[116.5328,3.98024],[116.53268,3.9802],[116.53256,3.98006],[116.53263,3.98029],[116.5329,3.98119],[116.5333,3.98207],[116.53364,3.98277],[116.53446,3.98291],[116.5346,3.98201],[116.53681,3.98397],[116.53908,3.98386],[116.54139,3.98873],[116.5411,3.99333],[116.53837,3.99728],[116.53595,3.99768],[116.53545,3.99767],[116.53491,3.99765],[116.53443,3.9981],[116.53442,3.99848],[116.5348,3.99888],[116.53646,4.00062],[116.53845,4.00388],[116.54276,4.00324],[116.54374,4.00519],[116.54665,4.01518],[116.54631,4.02706],[116.539,4.027],[116.53866,4.02672],[116.53844,4.02859],[116.53917,4.03323],[116.54258,4.03729],[116.54548,4.04128],[116.54517,4.04444],[116.54525,4.04446],[116.60085,4.05678],[116.66716,4.06181],[116.66639,4.06033]]]]},"properties":{"kdprov":"65","kdkab":"04","kdkec":"030","kddesa":"021","kdsls":"2001","idsls":"65040300212001","nmprov":"KALIMANTAN UTARA","nmkab":"NUNUKAN","nmkec":"LUMBIS OGONG","nmdesa":"SAMUNTI","nmsls":"HUTAN DESA SAMUNTI"}},{"type":"Feature","geometry":{"type":"MultiPolygon","coordinates":[[[[116.53201,3.97775],[116.53297,3.97735],[116.53287,3.97713],[116.53279,3.97701],[116.53243,3.97685],[116.53234,3.9768],[116.53182,3.97655],[116.53175,3.97677],[116.53174,3.97712],[116.53198,3.97758],[116.53201,3.97775]]]]},"properties":{"kdprov":"65","kdkab":"04","kdkec":"030","kddesa":"020","kdsls":"0002","idsls":"65040300200002","nmprov":"KALIMANTAN UTARA","nmkab":"NUNUKAN","nmkec":"LUMBIS OGONG","nmdesa":"SINAMPALA I","nmsls":"RT 002"}},{"type":"Feature","geometry":{"type":"MultiPolygon","coordinates":[[[[116.53341,3.97932],[116.53337,3.97914],[116.53338,3.97861],[116.53328,3.97822],[116.53324,3.9781],[116.53292,3.97828],[116.5326,3.97836],[116.53235,3.97836],[116.53241,3.9788],[116.53261,3.97918],[116.53286,3.97923],[116.53289,3.97924],[116.53311,3.97928],[116.53319,3.97932],[116.53335,3.97933],[116.53341,3.97932]]]]},"properties":{"kdprov":"65","kdkab":"04","kdkec":"030","kddesa":"021","kdsls":"0001","idsls":"65040300210001","nmprov":"KALIMANTAN UTARA","nmkab":"NUNUKAN","nmkec":"LUMBIS OGONG","nmdesa":"SAMUNTI","nmsls":"RT 001"}},{"type":"Feature","geometry":{"type":"MultiPolygon","coordinates":[[[[116.53336,3.97951],[116.53417,3.97967],[116.53397,3.97888],[116.53375,3.97893],[116.53345,3.97908],[116.53337,3.97914],[116.53341,3.97932],[116.53342,3.97935],[116.53338,3.97943],[116.53336,3.97951]]]]},"properties":{"kdprov":"65","kdkab":"04","kdkec":"030","kddesa":"019","kdsls":"0001","idsls":"65040300190001","nmprov":"KALIMANTAN UTARA","nmkab":"NUNUKAN","nmkec":"LUMBIS OGONG","nmdesa":"SUNGOI","nmsls":"RT 001"}},{"type":"Feature","geometry":{"type":"MultiPolygon","coordinates":[[[[116.53417,3.97967],[116.53336,3.97951],[116.53331,3.97969],[116.53331,3.97977],[116.5333,3.97994],[116.53335,3.98008],[116.53338,3.98017],[116.53376,3.98081],[116.53427,3.98008],[116.53417,3.97967]]]]},"properties":{"kdprov":"65","kdkab":"04","kdkec":"030","kddesa":"019","kdsls":"0002","idsls":"65040300190002","nmprov":"KALIMANTAN UTARA","nmkab":"NUNUKAN","nmkec":"LUMBIS OGONG","nmdesa":"SUNGOI","nmsls":"RT 002"}},{"type":"Feature","geometry":{"type":"MultiPolygon","coordinates":[[[[116.54374,4.00519],[116.54276,4.00324],[116.53845,4.00388],[116.53881,4.00449],[116.53871,4.00476],[116.53823,4.00503],[116.53756,4.00699],[116.53761,4.00831],[116.53504,4.00988],[116.53431,4.01529],[116.53528,4.02392],[116.53866,4.02672],[116.539,4.027],[116.54631,4.02706],[116.54665,4.01518],[116.54374,4.00519]]]]},"properties":{"kdprov":"65","kdkab":"04","kdkec":"030","kddesa":"019","kdsls":"2002","idsls":"65040300192002","nmprov":"KALIMANTAN UTARA","nmkab":"NUNUKAN","nmkec":"LUMBIS OGONG","nmdesa":"SUNGOI","nmsls":"HUTAN DESA SUNGOI"}},{"type":"Feature","geometry":{"type":"MultiPolygon","coordinates":[[[[116.53482,3.932],[116.53453,3.93117],[116.53433,3.93122],[116.53337,3.93168],[116.53324,3.93206],[116.53376,3.93243],[116.53442,3.93233],[116.53482,3.932]]]]},"properties":{"kdprov":"65","kdkab":"04","kdkec":"030","kddesa":"011","kdsls":"0002","idsls":"65040300110002","nmprov":"KALIMANTAN UTARA","nmkab":"NUNUKAN","nmkec":"LUMBIS OGONG","nmdesa":"PALUAN","nmsls":"RT 002"}},{"type":"Feature","geometry":{"type":"MultiPolygon","coordinates":[[[[116.53197,3.97837],[116.53209,3.97819],[116.53201,3.97775],[116.53198,3.97758],[116.53174,3.97712],[116.53175,3.97677],[116.53182,3.97655],[116.5313,3.97629],[116.52991,3.97618],[116.52726,3.97506],[116.52633,3.97313],[116.52347,3.96942],[116.51876,3.96069],[116.51842,3.96086],[116.51806,3.96128],[116.51724,3.9616],[116.51701,3.96193],[116.51648,3.96309],[116.51603,3.96334],[116.51491,3.96438],[116.51454,3.96596],[116.51407,3.96692],[116.51302,3.96766],[116.51202,3.96862],[116.51182,3.96958],[116.51274,3.97097],[116.5226,3.97668],[116.5289,3.97785],[116.53177,3.97838],[116.53197,3.97837]]]]},"properties":{"kdprov":"65","kdkab":"04","kdkec":"030","kddesa":"020","kdsls":"2001","idsls":"65040300202001","nmprov":"KALIMANTAN UTARA","nmkab":"NUNUKAN","nmkec":"LUMBIS OGONG","nmdesa":"SINAMPALA I","nmsls":"HUTAN DESA SINAMPILA I"}},{"type":"Feature","geometry":{"type":"MultiPolygon","coordinates":[[[[116.53275,3.97958],[116.53279,3.97958],[116.53293,3.97962],[116.53301,3.97967],[116.53308,3.97971],[116.53314,3.97972],[116.53318,3.97974],[116.53319,3.97971],[116.53325,3.97973],[116.53331,3.97977],[116.53331,3.97969],[116.53336,3.97951],[116.53338,3.97943],[116.53342,3.97935],[116.53341,3.97932],[116.53335,3.97933],[116.53319,3.97932],[116.53311,3.97928],[116.53289,3.97924],[116.53275,3.97958]]]]},"properties":{"kdprov":"65","kdkab":"04","kdkec":"030","kddesa":"018","kdsls":"0001","idsls":"65040300180001","nmprov":"KALIMANTAN UTARA","nmkab":"NUNUKAN","nmkec":"LUMBIS OGONG","nmdesa":"SALAN","nmsls":"RT 001"}},{"type":"Feature","geometry":{"type":"MultiPolygon","coordinates":[[[[116.53845,4.00388],[116.53646,4.00062],[116.5348,3.99888],[116.53442,3.99848],[116.53443,3.9981],[116.53491,3.99765],[116.53545,3.99767],[116.53506,3.99632],[116.53464,3.99459],[116.53372,3.99194],[116.53367,3.99018],[116.53442,3.98818],[116.53478,3.98553],[116.53446,3.98291],[116.53364,3.98277],[116.5333,3.98207],[116.5329,3.98119],[116.53263,3.98029],[116.53256,3.98006],[116.53275,3.97958],[116.53289,3.97924],[116.53286,3.97923],[116.53261,3.97918],[116.53241,3.9788],[116.53235,3.97836],[116.53197,3.97837],[116.53177,3.97838],[116.5289,3.97785],[116.53016,3.97877],[116.53114,3.97908],[116.53166,3.97949],[116.53202,3.97991],[116.53217,3.98058],[116.53209,3.98104],[116.53261,3.98837],[116.53209,3.99413],[116.52952,4.00074],[116.52604,4.00426],[116.52595,4.00812],[116.52956,4.00983],[116.53504,4.00988],[116.53761,4.00831],[116.53756,4.00699],[116.53823,4.00503],[116.53871,4.00476],[116.53881,4.00449],[116.53845,4.00388]]]]},"properties":{"kdprov":"65","kdkab":"04","kdkec":"030","kddesa":"018","kdsls":"2001","idsls":"65040300182001","nmprov":"KALIMANTAN UTARA","nmkab":"NUNUKAN","nmkec":"LUMBIS OGONG","nmdesa":"SALAN","nmsls":"HUTAN DESA SALAN"}},{"type":"Feature","geometry":{"type":"MultiPolygon","coordinates":[[[[116.53077,3.97194],[116.53156,3.97167],[116.52999,3.96932],[116.52871,3.96984],[116.53012,3.97207],[116.53077,3.97194]]]]},"properties":{"kdprov":"65","kdkab":"04","kdkec":"030","kddesa":"016","kdsls":"0002","idsls":"65040300160002","nmprov":"KALIMANTAN UTARA","nmkab":"NUNUKAN","nmkec":"LUMBIS OGONG","nmdesa":"SEMATA","nmsls":"RT 002"}},{"type":"Feature","geometry":{"type":"MultiPolygon","coordinates":[[[[116.53182,3.97575],[116.53171,3.97553],[116.53107,3.97394],[116.53047,3.97276],[116.53077,3.97194],[116.53012,3.97207],[116.52871,3.96984],[116.52999,3.96932],[116.52985,3.96911],[116.52868,3.9658],[116.52763,3.96339],[116.52825,3.95947],[116.52905,3.95697],[116.52888,3.95681],[116.52862,3.95664],[116.52853,3.95665],[116.52439,3.95336],[116.51877,3.94879],[116.51554,3.94514],[116.51614,3.95584],[116.51876,3.96069],[116.52347,3.96942],[116.52633,3.97313],[116.52726,3.97506],[116.52991,3.97618],[116.5313,3.97629],[116.53182,3.97575]]]]},"properties":{"kdprov":"65","kdkab":"04","kdkec":"030","kddesa":"016","kdsls":"2001","idsls":"65040300162001","nmprov":"KALIMANTAN UTARA","nmkab":"NUNUKAN","nmkec":"LUMBIS OGONG","nmdesa":"SEMATA","nmsls":"HUTAN"}},{"type":"Feature","geometry":{"type":"MultiPolygon","coordinates":[[[[116.53215,3.9754],[116.53202,3.97505],[116.53215,3.97465],[116.53249,3.97448],[116.5326,3.97446],[116.53262,3.97443],[116.53256,3.97442],[116.5325,3.97441],[116.53248,3.97438],[116.5325,3.97435],[116.53262,3.97435],[116.53275,3.97433],[116.53252,3.97325],[116.53156,3.97167],[116.53077,3.97194],[116.53047,3.97276],[116.53107,3.97394],[116.53171,3.97553],[116.53182,3.97575],[116.53215,3.9754]]]]},"properties":{"kdprov":"65","kdkab":"04","kdkec":"030","kddesa":"016","kdsls":"0001","idsls":"65040300160001","nmprov":"KALIMANTAN UTARA","nmkab":"NUNUKAN","nmkec":"LUMBIS OGONG","nmdesa":"SEMATA","nmsls":"RT 001"}},{"type":"Feature","geometry":{"type":"MultiPolygon","coordinates":[[[[116.53303,3.97749],[116.53321,3.97744],[116.53328,3.97773],[116.53315,3.97777],[116.53318,3.97783],[116.53324,3.97799],[116.53332,3.97803],[116.53328,3.97808],[116.53324,3.9781],[116.53328,3.97822],[116.53338,3.97861],[116.53337,3.97914],[116.53345,3.97908],[116.53375,3.97893],[116.53397,3.97888],[116.5343,3.97881],[116.53423,3.97824],[116.53374,3.97732],[116.53332,3.97636],[116.53305,3.97604],[116.53241,3.97559],[116.53215,3.9754],[116.53182,3.97575],[116.5313,3.97629],[116.53182,3.97655],[116.53234,3.9768],[116.53243,3.97685],[116.53279,3.97701],[116.53287,3.97713],[116.53297,3.97735],[116.53303,3.97749]]]]},"properties":{"kdprov":"65","kdkab":"04","kdkec":"030","kddesa":"021","kdsls":"0002","idsls":"65040300210002","nmprov":"KALIMANTAN UTARA","nmkab":"NUNUKAN","nmkec":"LUMBIS OGONG","nmdesa":"SAMUNTI","nmsls":"RT 002"}},{"type":"Feature","geometry":{"type":"MultiPolygon","coordinates":[[[[116.53328,3.97773],[116.53321,3.97744],[116.53303,3.97749],[116.53297,3.97735],[116.53201,3.97775],[116.53209,3.97819],[116.53197,3.97837],[116.53235,3.97836],[116.5326,3.97836],[116.53292,3.97828],[116.53324,3.9781],[116.53328,3.97808],[116.53332,3.97803],[116.53324,3.97799],[116.53318,3.97783],[116.53315,3.97777],[116.53328,3.97773]]]]},"properties":{"kdprov":"65","kdkab":"04","kdkec":"030","kddesa":"020","kdsls":"0001","idsls":"65040300200001","nmprov":"KALIMANTAN UTARA","nmkab":"NUNUKAN","nmkec":"LUMBIS OGONG","nmdesa":"SINAMPALA I","nmsls":"RT 001"}}]}