{"type":"FeatureCollection","features":[{"type":"Feature","geometry":{"type":"MultiPolygon","coordinates":[[[[116.496,4.22603],[116.49629,4.2251],[116.4968,4.22455],[116.49818,4.22306],[116.49777,4.22294],[116.485,4.21941],[116.47263,4.21103],[116.45074,4.17981],[116.4118,4.12062],[116.3761,4.04638],[116.35462,4.01025],[116.35393,4.01407],[116.35266,4.01557],[116.35195,4.01728],[116.35159,4.02049],[116.35202,4.02363],[116.35224,4.0257],[116.3535,4.02783],[116.35381,4.02923],[116.35481,4.03379],[116.35113,4.03701],[116.35109,4.03704],[116.34461,4.03977],[116.39958,4.13573],[116.4662,4.22092],[116.48206,4.23227],[116.48361,4.23215],[116.4842,4.23237],[116.4884,4.23058],[116.49034,4.23002],[116.49266,4.23052],[116.49492,4.23011],[116.49564,4.22717],[116.496,4.22603]]]]},"properties":{"kdprov":"65","kdkab":"04","kdkec":"031","kddesa":"001","kdsls":"2002","idsls":"65040310012002","nmprov":"KALIMANTAN UTARA","nmkab":"NUNUKAN","nmkec":"LUMBIS PANSIANGAN","nmdesa":"SUMENTOBOL","nmsls":"HUTAN"}},{"type":"Feature","geometry":{"type":"MultiPolygon","coordinates":[[[[116.50047,4.22125],[116.50001,4.22117],[116.49877,4.2209],[116.49913,4.22133],[116.49965,4.22154],[116.49979,4.22208],[116.5003,4.22146],[116.50047,4.22125]]]]},"properties":{"kdprov":"65","kdkab":"04","kdkec":"031","kddesa":"002","kdsls":"0001","idsls":"65040310020001","nmprov":"KALIMANTAN UTARA","nmkab":"NUNUKAN","nmkec":"LUMBIS PANSIANGAN","nmdesa":"NANTUKIDAN","nmsls":"RT 001"}},{"type":"Feature","geometry":{"type":"MultiPolygon","coordinates":[[[[116.64473,4.24772],[116.64314,4.24498],[116.64309,4.24491],[116.64307,4.24486],[116.64342,4.24248],[116.64361,4.2406],[116.61958,4.24602],[116.57378,4.23651],[116.52559,4.22758],[116.50254,4.22163],[116.50108,4.22137],[116.50003,4.22296],[116.5001,4.22325],[116.49979,4.22356],[116.50106,4.22384],[116.52081,4.22908],[116.54853,4.2361],[116.58803,4.24752],[116.61849,4.25323],[116.64473,4.24772]]]]},"properties":{"kdprov":"65","kdkab":"04","kdkec":"031","kddesa":"002","kdsls":"2001","idsls":"65040310022001","nmprov":"KALIMANTAN UTARA","nmkab":"NUNUKAN","nmkec":"LUMBIS PANSIANGAN","nmdesa":"NANTUKIDAN","nmsls":"HUTAN"}},{"type":"Feature","geometry":{"type":"MultiPolygon","coordinates":[[[[116.69014,4.26603],[116.68941,4.26458],[116.68906,4.26389],[116.68816,4.25926],[116.68536,4.25463],[116.68531,4.25454],[116.68507,4.25414],[116.68365,4.25236],[116.68185,4.2501],[116.67876,4.24676],[116.67536,4.24511],[116.67415,4.24452],[116.67388,4.24439],[116.67276,4.24449],[116.67019,4.24474],[116.66674,4.24522],[116.66389,4.24617],[116.66199,4.24617],[116.66091,4.24617],[116.6597,4.2464],[116.65782,4.24676],[116.65578,4.24741],[116.6552,4.2476],[116.6543,4.2476],[116.65187,4.2476],[116.6483,4.24833],[116.64604,4.24879],[116.64473,4.24772],[116.61849,4.25323],[116.58803,4.24752],[116.54853,4.2361],[116.52081,4.22908],[116.50106,4.22384],[116.49979,4.22356],[116.4978,4.22482],[116.49765,4.22504],[116.49688,4.22619],[116.496,4.22603],[116.49564,4.22717],[116.49492,4.23011],[116.49266,4.23052],[116.49034,4.23002],[116.4884,4.23058],[116.4842,4.23237],[116.48361,4.23215],[116.48206,4.23227],[116.50808,4.2509],[116.6123,4.28516],[116.66346,4.29806],[116.66546,4.29516],[116.66979,4.28887],[116.67312,4.28494],[116.6734,4.28432],[116.6736,4.28387],[116.6755,4.27971],[116.68014,4.27507],[116.69014,4.26603]]]]},"properties":{"kdprov":"65","kdkab":"04","kdkec":"031","kddesa":"001","kdsls":"2001","idsls":"65040310012001","nmprov":"KALIMANTAN UTARA","nmkab":"NUNUKAN","nmkec":"LUMBIS PANSIANGAN","nmdesa":"SUMENTOBOL","nmsls":"HUTAN"}},{"type":"Feature","geometry":{"type":"MultiPolygon","coordinates":[[[[116.4655,4.26864],[116.46121,4.2835],[116.46232,4.29423],[116.46267,4.2942],[116.46344,4.29412],[116.46429,4.29471],[116.46527,4.2951],[116.4662,4.29542],[116.46692,4.29585],[116.46749,4.29637],[116.4682,4.29678],[116.4689,4.29768],[116.46952,4.29803],[116.47015,4.29814],[116.47099,4.29874],[116.4715,4.29964],[116.47194,4.29989],[116.47298,4.29987],[116.47373,4.30012],[116.47568,4.3013],[116.47643,4.30156],[116.47715,4.30167],[116.47796,4.3017],[116.4789,4.30189],[116.47938,4.30202],[116.4801,4.30244],[116.48064,4.30332],[116.48112,4.30375],[116.4813,4.30445],[116.48195,4.305],[116.48235,4.30593],[116.48281,4.30676],[116.48343,4.30738],[116.48362,4.30822],[116.48404,4.30866],[116.48456,4.30911],[116.48486,4.30971],[116.48489,4.31026],[116.48457,4.3111],[116.48419,4.31132],[116.48367,4.31187],[116.48329,4.31236],[116.4834,4.3134],[116.48353,4.31385],[116.48312,4.31477],[116.48304,4.31557],[116.48316,4.31575],[116.48354,4.31626],[116.48438,4.31649],[116.48529,4.31683],[116.48595,4.31748],[116.48659,4.31788],[116.48694,4.31813],[116.48761,4.31852],[116.48807,4.3195],[116.4893,4.32029],[116.48975,4.32101],[116.49019,4.32127],[116.49033,4.32232],[116.49001,4.32296],[116.48914,4.32385],[116.4888,4.32451],[116.48882,4.32524],[116.48858,4.32618],[116.48857,4.32622],[116.48804,4.32727],[116.48798,4.32775],[116.48777,4.32854],[116.48768,4.32947],[116.48792,4.3298],[116.48826,4.33039],[116.48782,4.33088],[116.48786,4.3314],[116.48835,4.33157],[116.48875,4.33195],[116.48881,4.33284],[116.48904,4.33371],[116.48934,4.33401],[116.48959,4.33432],[116.48979,4.33471],[116.49096,4.335],[116.49147,4.335],[116.49169,4.3348],[116.49213,4.3348],[116.49235,4.33439],[116.49272,4.33431],[116.49335,4.3343],[116.49349,4.33402],[116.49379,4.33398],[116.4939,4.33357],[116.49429,4.3333],[116.49509,4.33335],[116.49568,4.33344],[116.49591,4.33329],[116.49681,4.3332],[116.49759,4.33352],[116.49855,4.33347],[116.49894,4.33304],[116.49952,4.33268],[116.5,4.33237],[116.50028,4.33218],[116.50119,4.33111],[116.50132,4.3306],[116.50225,4.32991],[116.50298,4.32909],[116.5034,4.32871],[116.50371,4.32804],[116.50454,4.32692],[116.50488,4.32634],[116.50544,4.32575],[116.50602,4.32535],[116.50671,4.32511],[116.50681,4.32483],[116.50763,4.32488],[116.50783,4.32445],[116.50834,4.32424],[116.50902,4.32413],[116.51018,4.32443],[116.51098,4.32473],[116.51166,4.32477],[116.51171,4.32475],[116.51262,4.32431],[116.51309,4.32432],[116.51396,4.32419],[116.51531,4.32427],[116.51611,4.32513],[116.51675,4.32496],[116.51762,4.32488],[116.51801,4.32495],[116.51937,4.32463],[116.5197,4.32454],[116.52029,4.32493],[116.52086,4.32534],[116.52114,4.32538],[116.52181,4.32587],[116.52204,4.32631],[116.52295,4.32679],[116.52333,4.32698],[116.52377,4.3268],[116.52468,4.32689],[116.52488,4.32671],[116.52556,4.32685],[116.52579,4.32698],[116.52612,4.32695],[116.52682,4.32695],[116.52748,4.327],[116.52794,4.32703],[116.52859,4.32668],[116.52988,4.3262],[116.53048,4.32589],[116.5308,4.32546],[116.53153,4.32456],[116.53194,4.32428],[116.53228,4.32389],[116.53286,4.32299],[116.53286,4.32284],[116.53293,4.32256],[116.5331,4.32227],[116.53354,4.32211],[116.53394,4.32188],[116.53428,4.3217],[116.53061,4.3114],[116.518,4.29522],[116.51181,4.28737],[116.49444,4.27737],[116.47255,4.27023],[116.4655,4.26864]]]]},"properties":{"kdprov":"65","kdkab":"04","kdkec":"031","kddesa":"011","kdsls":"2001","idsls":"65040310112001","nmprov":"KALIMANTAN UTARA","nmkab":"NUNUKAN","nmkec":"LUMBIS PANSIANGAN","nmdesa":"BOKOK","nmsls":"HUTAN"}},{"type":"Feature","geometry":{"type":"MultiPolygon","coordinates":[[[[116.44478,4.25932],[116.44471,4.25927],[116.42068,4.24263],[116.41757,4.23804],[116.41366,4.24342],[116.40354,4.26246],[116.40949,4.27971],[116.41479,4.28779],[116.41661,4.28208],[116.4175,4.28041],[116.42009,4.27757],[116.42433,4.27398],[116.42776,4.27096],[116.43092,4.26909],[116.43481,4.26907],[116.43708,4.26774],[116.44045,4.26661],[116.44175,4.26294],[116.44478,4.25932]]]]},"properties":{"kdprov":"65","kdkab":"04","kdkec":"031","kddesa":"003","kdsls":"2002","idsls":"65040310032002","nmprov":"KALIMANTAN UTARA","nmkab":"NUNUKAN","nmkec":"LUMBIS PANSIANGAN","nmdesa":"LABANG","nmsls":"HUTAN"}},{"type":"Feature","geometry":{"type":"MultiPolygon","coordinates":[[[[116.43906,4.29434],[116.43087,4.29658],[116.42202,4.29911],[116.42184,4.29914],[116.42164,4.29916],[116.42196,4.29946],[116.42243,4.29995],[116.42302,4.30058],[116.42399,4.3016],[116.42948,4.31136],[116.43055,4.32114],[116.43262,4.32688],[116.43312,4.32634],[116.43354,4.32555],[116.43399,4.32513],[116.43443,4.32499],[116.43553,4.32439],[116.43601,4.32376],[116.43648,4.32306],[116.43738,4.32297],[116.43838,4.32301],[116.43894,4.32231],[116.43851,4.32186],[116.43837,4.32128],[116.43837,4.32047],[116.43832,4.32001],[116.43846,4.31917],[116.43814,4.31825],[116.43859,4.31748],[116.43849,4.31658],[116.43845,4.31603],[116.43837,4.31546],[116.43866,4.31487],[116.43863,4.3142],[116.43835,4.31345],[116.43824,4.31293],[116.43818,4.31232],[116.43808,4.31144],[116.43804,4.31099],[116.43792,4.3102],[116.43799,4.30944],[116.43784,4.30868],[116.43794,4.30827],[116.43814,4.30757],[116.4382,4.30689],[116.4376,4.30609],[116.43744,4.30511],[116.43764,4.3048],[116.43807,4.30445],[116.43841,4.30366],[116.4386,4.30332],[116.43894,4.30212],[116.43918,4.30128],[116.43922,4.30051],[116.43943,4.29956],[116.43956,4.29881],[116.43933,4.29776],[116.43947,4.29707],[116.43944,4.29606],[116.4395,4.2954],[116.43935,4.29483],[116.43906,4.29434]]]]},"properties":{"kdprov":"65","kdkab":"04","kdkec":"031","kddesa":"007","kdsls":"2001","idsls":"65040310072001","nmprov":"KALIMANTAN UTARA","nmkab":"NUNUKAN","nmkec":"LUMBIS PANSIANGAN","nmdesa":"LAGAS","nmsls":"HUTAN"}},{"type":"Feature","geometry":{"type":"MultiPolygon","coordinates":[[[[116.49936,4.22339],[116.49914,4.22312],[116.49894,4.22327],[116.49818,4.22306],[116.4968,4.22455],[116.49716,4.22483],[116.49733,4.2249],[116.49765,4.22504],[116.4978,4.22482],[116.49979,4.22356],[116.49948,4.22342],[116.49936,4.22339]]]]},"properties":{"kdprov":"65","kdkab":"04","kdkec":"031","kddesa":"001","kdsls":"0002","idsls":"65040310010002","nmprov":"KALIMANTAN UTARA","nmkab":"NUNUKAN","nmkec":"LUMBIS PANSIANGAN","nmdesa":"SUMENTOBOL","nmsls":"RT 002"}},{"type":"Feature","geometry":{"type":"MultiPolygon","coordinates":[[[[116.42164,4.29916],[116.42184,4.29914],[116.42202,4.29911],[116.43087,4.29658],[116.43906,4.29434],[116.43885,4.29397],[116.43908,4.29325],[116.43934,4.2923],[116.43974,4.2915],[116.44,4.29063],[116.43985,4.29],[116.44009,4.28909],[116.44111,4.28895],[116.44137,4.28866],[116.4416,4.28828],[116.44212,4.28826],[116.44272,4.28808],[116.4435,4.28847],[116.44365,4.28849],[116.44402,4.28854],[116.44478,4.28855],[116.44533,4.28857],[116.44582,4.28866],[116.44658,4.28894],[116.44799,4.28932],[116.44847,4.28929],[116.44901,4.28932],[116.4496,4.29],[116.45005,4.28992],[116.45047,4.29031],[116.4511,4.29101],[116.45132,4.29155],[116.45184,4.29205],[116.45206,4.29272],[116.45229,4.29303],[116.45266,4.29345],[116.45325,4.29415],[116.45368,4.29447],[116.45409,4.29516],[116.45428,4.29576],[116.45478,4.29612],[116.45568,4.29637],[116.45652,4.29641],[116.45665,4.29641],[116.45706,4.29657],[116.45761,4.29686],[116.45829,4.2971],[116.45885,4.29733],[116.45933,4.29646],[116.45987,4.29622],[116.4601,4.29571],[116.46052,4.29529],[116.4608,4.29462],[116.46088,4.2946],[116.46119,4.29453],[116.46197,4.29426],[116.46232,4.29423],[116.46121,4.2835],[116.4655,4.26864],[116.4547,4.26619],[116.44478,4.25932],[116.44175,4.26294],[116.44045,4.26661],[116.43708,4.26774],[116.43481,4.26907],[116.43092,4.26909],[116.42776,4.27096],[116.42433,4.27398],[116.42009,4.27757],[116.4175,4.28041],[116.41661,4.28208],[116.41479,4.28779],[116.41496,4.28805],[116.41901,4.29423],[116.41943,4.29735],[116.41949,4.2978],[116.41948,4.29788],[116.42027,4.29818],[116.42031,4.29824],[116.42078,4.29889],[116.4216,4.29916],[116.42164,4.29916]]]]},"properties":{"kdprov":"65","kdkab":"04","kdkec":"031","kddesa":"003","kdsls":"2001","idsls":"65040310032001","nmprov":"KALIMANTAN UTARA","nmkab":"NUNUKAN","nmkec":"LUMBIS PANSIANGAN","nmdesa":"LABANG","nmsls":"HUTAN"}},{"type":"Feature","geometry":{"type":"MultiPolygon","coordinates":[[[[116.49765,4.22504],[116.49733,4.2249],[116.49716,4.22483],[116.4968,4.22455],[116.49629,4.2251],[116.496,4.22603],[116.49688,4.22619],[116.49765,4.22504]]]]},"properties":{"kdprov":"65","kdkab":"04","kdkec":"031","kddesa":"001","kdsls":"0001","idsls":"65040310010001","nmprov":"KALIMANTAN UTARA","nmkab":"NUNUKAN","nmkec":"LUMBIS PANSIANGAN","nmdesa":"SUMENTOBOL","nmsls":"RT 001"}},{"type":"Feature","geometry":{"type":"MultiPolygon","coordinates":[[[[116.50108,4.22137],[116.50085,4.22132],[116.50047,4.22125],[116.5003,4.22146],[116.49979,4.22208],[116.50003,4.22296],[116.50108,4.22137]]]]},"properties":{"kdprov":"65","kdkab":"04","kdkec":"031","kddesa":"002","kdsls":"0002","idsls":"65040310020002","nmprov":"KALIMANTAN UTARA","nmkab":"NUNUKAN","nmkec":"LUMBIS PANSIANGAN","nmdesa":"NANTUKIDAN","nmsls":"RT 002"}},{"type":"Feature","geometry":{"type":"MultiPolygon","coordinates":[[[[116.30527,4.29465],[116.30495,4.29398],[116.30444,4.29254],[116.305,4.29249],[116.306,4.29316],[116.30708,4.2939],[116.30768,4.2943],[116.31571,4.28904],[116.33236,4.28485],[116.33167,4.28289],[116.31448,4.24454],[116.26095,4.15174],[116.21661,4.06813],[116.21508,4.06832],[116.21264,4.06785],[116.20884,4.06654],[116.20384,4.06576],[116.19855,4.06559],[116.19325,4.06618],[116.18849,4.06689],[116.18486,4.0688],[116.18189,4.07082],[116.18019,4.07302],[116.17935,4.0751],[116.17852,4.07778],[116.17799,4.07974],[116.1762,4.08248],[116.17412,4.08313],[116.17103,4.08367],[116.16948,4.08421],[116.169,4.08504],[116.16912,4.08605],[116.16954,4.08783],[116.17049,4.08986],[116.17219,4.09262],[116.17445,4.09895],[116.1755,4.10302],[116.1746,4.10468],[116.17457,4.1047],[116.18759,4.11393],[116.22899,4.1946],[116.27068,4.26969],[116.27806,4.27711],[116.28201,4.28107],[116.29467,4.28916],[116.3035,4.29411],[116.30546,4.29505],[116.30527,4.29465]]]]},"properties":{"kdprov":"65","kdkab":"04","kdkec":"031","kddesa":"010","kdsls":"2001","idsls":"65040310102001","nmprov":"KALIMANTAN UTARA","nmkab":"NUNUKAN","nmkec":"LUMBIS PANSIANGAN","nmdesa":"KUYO","nmsls":"HUTAN"}},{"type":"Feature","geometry":{"type":"MultiPolygon","coordinates":[[[[116.27806,4.27711],[116.27068,4.26969],[116.22899,4.1946],[116.18759,4.11393],[116.17457,4.1047],[116.17204,4.10634],[116.16917,4.10709],[116.16634,4.10786],[116.16408,4.10817],[116.21132,4.19877],[116.24416,4.2673],[116.24841,4.27581],[116.25063,4.28025],[116.25072,4.28042],[116.25221,4.28044],[116.25423,4.28145],[116.25553,4.28133],[116.25738,4.28257],[116.25931,4.28307],[116.26035,4.28318],[116.26154,4.28165],[116.26255,4.28122],[116.26337,4.28123],[116.26353,4.28046],[116.26515,4.28065],[116.26538,4.2809],[116.26589,4.28148],[116.26613,4.28231],[116.26594,4.28264],[116.26613,4.28281],[116.26766,4.28341],[116.27017,4.28468],[116.27191,4.28387],[116.27347,4.2813],[116.27468,4.2794],[116.27653,4.27821],[116.27806,4.27711]]]]},"properties":{"kdprov":"65","kdkab":"04","kdkec":"031","kddesa":"013","kdsls":"2001","idsls":"65040310132001","nmprov":"KALIMANTAN UTARA","nmkab":"NUNUKAN","nmkec":"LUMBIS PANSIANGAN","nmdesa":"LANGGASON","nmsls":"HUTAN"}},{"type":"Feature","geometry":{"type":"MultiPolygon","coordinates":[[[[116.26538,4.2809],[116.26518,4.28103],[116.26497,4.28136],[116.26469,4.28155],[116.26594,4.28264],[116.26613,4.28231],[116.26589,4.28148],[116.26538,4.2809]]]]},"properties":{"kdprov":"65","kdkab":"04","kdkec":"031","kddesa":"013","kdsls":"0002","idsls":"65040310130002","nmprov":"KALIMANTAN UTARA","nmkab":"NUNUKAN","nmkec":"LUMBIS PANSIANGAN","nmdesa":"LANGGASON","nmsls":"RT 002"}},{"type":"Feature","geometry":{"type":"MultiPolygon","coordinates":[[[[116.36676,4.3086],[116.37511,4.29993],[116.39518,4.29398],[116.40664,4.29577],[116.41303,4.29799],[116.4141,4.2976],[116.41412,4.2976],[116.41409,4.29688],[116.41353,4.29503],[116.4139,4.2936],[116.41426,4.2917],[116.41442,4.28941],[116.41496,4.28805],[116.41479,4.28779],[116.40949,4.27971],[116.40354,4.26246],[116.41366,4.24342],[116.41757,4.23804],[116.38499,4.18981],[116.35572,4.13627],[116.33288,4.08773],[116.32262,4.06073],[116.32061,4.06191],[116.319,4.06285],[116.31399,4.06001],[116.31203,4.0589],[116.31203,4.0589],[116.30807,4.05123],[116.30443,4.04997],[116.30063,4.04867],[116.29755,4.04925],[116.29704,4.04934],[116.29621,4.04995],[116.29357,4.05187],[116.29122,4.05489],[116.29063,4.05565],[116.28854,4.05797],[116.2855,4.05797],[116.28518,4.05797],[116.28389,4.05797],[116.28026,4.05435],[116.28042,4.05342],[116.27953,4.05211],[116.27789,4.05046],[116.27738,4.04565],[116.27633,4.04354],[116.27644,4.04235],[116.27554,4.04063],[116.27453,4.03914],[116.27257,4.03896],[116.26936,4.04015],[116.26877,4.04007],[116.26641,4.04085],[116.26321,4.04192],[116.26284,4.04105],[116.2617,4.0392],[116.25963,4.03656],[116.25591,4.03342],[116.25284,4.03127],[116.25077,4.03085],[116.24885,4.03156],[116.24849,4.03256],[116.2482,4.03413],[116.2477,4.03549],[116.24728,4.0372],[116.24706,4.04027],[116.2474,4.04367],[116.24643,4.04563],[116.24465,4.04682],[116.24123,4.04905],[116.24063,4.05068],[116.2387,4.05321],[116.23582,4.05708],[116.23323,4.05892],[116.23091,4.06059],[116.22793,4.06267],[116.22633,4.0644],[116.22508,4.06642],[116.22192,4.06743],[116.21699,4.06808],[116.21661,4.06813],[116.26095,4.15174],[116.31448,4.24454],[116.33167,4.28289],[116.33236,4.28485],[116.33333,4.28757],[116.34476,4.31978],[116.34846,4.32663],[116.35682,4.32135],[116.36366,4.31183],[116.36676,4.3086]]]]},"properties":{"kdprov":"65","kdkab":"04","kdkec":"031","kddesa":"005","kdsls":"2002","idsls":"65040310052002","nmprov":"KALIMANTAN UTARA","nmkab":"NUNUKAN","nmkec":"LUMBIS PANSIANGAN","nmdesa":"NGAWOL","nmsls":"HUTAN"}},{"type":"Feature","geometry":{"type":"MultiPolygon","coordinates":[[[[116.38626,4.3601],[116.35279,4.33465],[116.34846,4.32663],[116.34476,4.31978],[116.33333,4.28757],[116.3275,4.28876],[116.31794,4.29033],[116.3077,4.29559],[116.30767,4.29561],[116.30763,4.29645],[116.30762,4.29667],[116.30762,4.29786],[116.3084,4.29856],[116.3087,4.29883],[116.31262,4.30478],[116.32228,4.32521],[116.34227,4.36766],[116.34415,4.38797],[116.3447,4.38865],[116.3455,4.38898],[116.34637,4.38908],[116.34691,4.38906],[116.34786,4.38922],[116.3482,4.38933],[116.34923,4.39015],[116.34981,4.39005],[116.35022,4.38971],[116.35082,4.38962],[116.35106,4.38955],[116.35146,4.38928],[116.35209,4.38892],[116.35296,4.38851],[116.35364,4.38846],[116.35453,4.38917],[116.35489,4.38929],[116.35543,4.38921],[116.35583,4.38898],[116.35628,4.38879],[116.35683,4.38824],[116.35745,4.38789],[116.35799,4.38783],[116.35894,4.3876],[116.35974,4.38677],[116.36017,4.38692],[116.36056,4.38671],[116.36064,4.38644],[116.36118,4.3859],[116.36126,4.38528],[116.36142,4.38521],[116.36194,4.38472],[116.36333,4.38356],[116.36368,4.38324],[116.36413,4.38298],[116.36463,4.38245],[116.36482,4.38176],[116.36497,4.38105],[116.36552,4.38026],[116.36625,4.37956],[116.36667,4.37887],[116.3679,4.37792],[116.36908,4.37806],[116.37038,4.37875],[116.37093,4.37895],[116.37283,4.37867],[116.37439,4.37754],[116.37582,4.37717],[116.37668,4.37689],[116.37742,4.37627],[116.37862,4.37609],[116.3791,4.37602],[116.37989,4.37573],[116.38063,4.37575],[116.38054,4.37522],[116.38074,4.37427],[116.38124,4.37343],[116.38139,4.37267],[116.38189,4.37188],[116.38274,4.37127],[116.38292,4.3705],[116.38289,4.36993],[116.38299,4.36898],[116.38311,4.36842],[116.38298,4.36781],[116.38279,4.36758],[116.38256,4.36675],[116.38273,4.366],[116.38277,4.36565],[116.38277,4.36514],[116.3828,4.36439],[116.38306,4.36384],[116.38276,4.36375],[116.38254,4.36283],[116.38311,4.36224],[116.38336,4.36186],[116.38383,4.36154],[116.38453,4.36102],[116.38473,4.36079],[116.38509,4.36056],[116.38589,4.36016],[116.38626,4.3601]]]]},"properties":{"kdprov":"65","kdkab":"04","kdkec":"031","kddesa":"008","kdsls":"2001","idsls":"65040310082001","nmprov":"KALIMANTAN UTARA","nmkab":"NUNUKAN","nmkec":"LUMBIS PANSIANGAN","nmdesa":"TANTALUJUK","nmsls":"HUTAN"}},{"type":"Feature","geometry":{"type":"MultiPolygon","coordinates":[[[[116.3084,4.29856],[116.30804,4.29904],[116.30733,4.29948],[116.30691,4.29878],[116.30668,4.29826],[116.30636,4.29756],[116.30626,4.29665],[116.30612,4.29653],[116.29452,4.30318],[116.27607,4.31066],[116.2673,4.31359],[116.27271,4.32441],[116.28741,4.36694],[116.28744,4.36698],[116.28818,4.36761],[116.28876,4.36813],[116.28929,4.36873],[116.28962,4.36889],[116.29047,4.36925],[116.29114,4.36943],[116.29127,4.36992],[116.29152,4.37016],[116.29205,4.37075],[116.29242,4.37104],[116.2925,4.37149],[116.29292,4.37174],[116.2936,4.37243],[116.29409,4.37252],[116.29464,4.37247],[116.29553,4.37222],[116.29592,4.37206],[116.29699,4.372],[116.29796,4.37152],[116.29846,4.37139],[116.29914,4.37151],[116.29954,4.3713],[116.30008,4.37108],[116.30069,4.37067],[116.30103,4.37043],[116.30169,4.36999],[116.30225,4.36973],[116.30284,4.36946],[116.30368,4.36924],[116.30445,4.36921],[116.30514,4.3692],[116.30577,4.3693],[116.30644,4.36918],[116.30692,4.36906],[116.30742,4.36881],[116.30792,4.36859],[116.30896,4.36927],[116.30909,4.36947],[116.30947,4.36975],[116.30973,4.36994],[116.31024,4.37052],[116.31078,4.371],[116.31126,4.37096],[116.31232,4.37109],[116.31281,4.3711],[116.31332,4.37109],[116.31394,4.3713],[116.31466,4.37135],[116.31532,4.37124],[116.31588,4.37093],[116.31602,4.37153],[116.3163,4.37217],[116.31652,4.37244],[116.3167,4.37288],[116.31703,4.37325],[116.31811,4.37324],[116.31866,4.37351],[116.31892,4.37398],[116.319,4.37446],[116.31924,4.37527],[116.3199,4.37583],[116.321,4.37651],[116.32102,4.37683],[116.32104,4.37722],[116.32116,4.37777],[116.32151,4.37833],[116.32218,4.37923],[116.32202,4.38003],[116.32157,4.38067],[116.32223,4.38152],[116.32301,4.3818],[116.32342,4.382],[116.3239,4.38259],[116.32462,4.38344],[116.32522,4.38395],[116.32583,4.38407],[116.32674,4.38401],[116.32747,4.384],[116.3283,4.38375],[116.32899,4.38386],[116.3295,4.38445],[116.32964,4.38448],[116.33011,4.3846],[116.33066,4.38463],[116.3315,4.38458],[116.33273,4.38444],[116.33341,4.38435],[116.33388,4.38443],[116.33461,4.38499],[116.33528,4.38485],[116.33575,4.38493],[116.33673,4.38534],[116.33753,4.38496],[116.33844,4.38478],[116.3391,4.38438],[116.33971,4.38408],[116.34009,4.38494],[116.34091,4.38552],[116.34156,4.38623],[116.34203,4.38638],[116.34241,4.3865],[116.3434,4.38708],[116.34415,4.38797],[116.34227,4.36766],[116.32228,4.32521],[116.31262,4.30478],[116.3087,4.29883],[116.3084,4.29856]]]]},"properties":{"kdprov":"65","kdkab":"04","kdkec":"031","kddesa":"012","kdsls":"2001","idsls":"65040310122001","nmprov":"KALIMANTAN UTARA","nmkab":"NUNUKAN","nmkec":"LUMBIS PANSIANGAN","nmdesa":"TAMBALANG HULU","nmsls":"HUTAN"}},{"type":"Feature","geometry":{"type":"MultiPolygon","coordinates":[[[[116.30576,4.29543],[116.30597,4.29541],[116.30601,4.29541],[116.30604,4.29541],[116.30607,4.29537],[116.30602,4.29531],[116.30546,4.29505],[116.3035,4.29411],[116.29467,4.28916],[116.28201,4.28107],[116.27806,4.27711],[116.27653,4.27821],[116.27468,4.2794],[116.27347,4.2813],[116.27191,4.28387],[116.27017,4.28468],[116.26766,4.28341],[116.26613,4.28281],[116.26594,4.28264],[116.26469,4.28155],[116.26434,4.28125],[116.26337,4.28123],[116.26255,4.28122],[116.26154,4.28165],[116.26035,4.28318],[116.25931,4.28307],[116.25738,4.28257],[116.25553,4.28133],[116.25423,4.28145],[116.25221,4.28044],[116.25072,4.28042],[116.26664,4.31228],[116.26968,4.31077],[116.2879,4.30287],[116.30547,4.29546],[116.30576,4.29543]]]]},"properties":{"kdprov":"65","kdkab":"04","kdkec":"031","kddesa":"013","kdsls":"2002","idsls":"65040310132002","nmprov":"KALIMANTAN UTARA","nmkab":"NUNUKAN","nmkec":"LUMBIS PANSIANGAN","nmdesa":"LANGGASON","nmsls":"HUTAN"}},{"type":"Feature","geometry":{"type":"MultiPolygon","coordinates":[[[[116.41983,4.29874],[116.41966,4.2986],[116.41979,4.29845],[116.41997,4.2986],[116.42031,4.29824],[116.42027,4.29818],[116.41948,4.29788],[116.41946,4.29808],[116.41935,4.29834],[116.41927,4.29847],[116.41977,4.2988],[116.41983,4.29874]]]]},"properties":{"kdprov":"65","kdkab":"04","kdkec":"031","kddesa":"004","kdsls":"0002","idsls":"65040310040002","nmprov":"KALIMANTAN UTARA","nmkab":"NUNUKAN","nmkec":"LUMBIS PANSIANGAN","nmdesa":"SUMANTIPAL","nmsls":"RT 002"}},{"type":"Feature","geometry":{"type":"MultiPolygon","coordinates":[[[[116.33333,4.28757],[116.33236,4.28485],[116.31571,4.28904],[116.30768,4.2943],[116.30742,4.29447],[116.30728,4.29457],[116.3075,4.29512],[116.3077,4.29559],[116.31794,4.29033],[116.3275,4.28876],[116.33333,4.28757]]]]},"properties":{"kdprov":"65","kdkab":"04","kdkec":"031","kddesa":"009","kdsls":"2001","idsls":"65040310092001","nmprov":"KALIMANTAN UTARA","nmkab":"NUNUKAN","nmkec":"LUMBIS PANSIANGAN","nmdesa":"PANAS","nmsls":"HUTAN"}},{"type":"Feature","geometry":{"type":"MultiPolygon","coordinates":[[[[116.4172,4.30266],[116.41708,4.30101],[116.41607,4.30085],[116.41482,4.29966],[116.41431,4.29846],[116.41419,4.2976],[116.41412,4.2976],[116.4141,4.2976],[116.41303,4.29799],[116.40664,4.29577],[116.39518,4.29398],[116.37511,4.29993],[116.36676,4.3086],[116.37814,4.31971],[116.3867,4.32532],[116.39042,4.32884],[116.39546,4.32675],[116.40051,4.32056],[116.4172,4.30266]]]]},"properties":{"kdprov":"65","kdkab":"04","kdkec":"031","kddesa":"004","kdsls":"2002","idsls":"65040310042002","nmprov":"KALIMANTAN UTARA","nmkab":"NUNUKAN","nmkec":"LUMBIS PANSIANGAN","nmdesa":"SUMANTIPAL","nmsls":"HUTAN"}},{"type":"Feature","geometry":{"type":"MultiPolygon","coordinates":[[[[116.3075,4.29512],[116.30697,4.29534],[116.3069,4.29529],[116.30686,4.29533],[116.30683,4.29548],[116.30666,4.29558],[116.30667,4.29552],[116.30632,4.29563],[116.30632,4.29568],[116.30594,4.29587],[116.30619,4.29649],[116.30766,4.29561],[116.30767,4.29561],[116.3077,4.29559],[116.3075,4.29512]]]]},"properties":{"kdprov":"65","kdkab":"04","kdkec":"031","kddesa":"009","kdsls":"0002","idsls":"65040310090002","nmprov":"KALIMANTAN UTARA","nmkab":"NUNUKAN","nmkec":"LUMBIS PANSIANGAN","nmdesa":"PANAS","nmsls":"RT 002"}},{"type":"Feature","geometry":{"type":"MultiPolygon","coordinates":[[[[116.30612,4.29653],[116.30619,4.29649],[116.30594,4.29587],[116.30576,4.29543],[116.30547,4.29546],[116.2879,4.30287],[116.26968,4.31077],[116.26664,4.31228],[116.2673,4.31359],[116.27607,4.31066],[116.29452,4.30318],[116.30612,4.29653]]]]},"properties":{"kdprov":"65","kdkab":"04","kdkec":"031","kddesa":"009","kdsls":"2002","idsls":"65040310092002","nmprov":"KALIMANTAN UTARA","nmkab":"NUNUKAN","nmkec":"LUMBIS PANSIANGAN","nmdesa":"PANAS","nmsls":"HUTAN"}},{"type":"Feature","geometry":{"type":"MultiPolygon","coordinates":[[[[116.30763,4.29645],[116.30767,4.29561],[116.30766,4.29561],[116.30619,4.29649],[116.30612,4.29653],[116.30626,4.29665],[116.30641,4.29679],[116.30693,4.29672],[116.30696,4.29652],[116.30763,4.29645]]]]},"properties":{"kdprov":"65","kdkab":"04","kdkec":"031","kddesa":"008","kdsls":"0002","idsls":"65040310080002","nmprov":"KALIMANTAN UTARA","nmkab":"NUNUKAN","nmkec":"LUMBIS PANSIANGAN","nmdesa":"TANTALUJUK","nmsls":"RT 002"}},{"type":"Feature","geometry":{"type":"MultiPolygon","coordinates":[[[[116.41927,4.29847],[116.41935,4.29834],[116.41946,4.29808],[116.41948,4.29788],[116.41949,4.2978],[116.41943,4.29735],[116.41881,4.29697],[116.41779,4.29841],[116.41802,4.29857],[116.41852,4.29863],[116.41921,4.29855],[116.41927,4.29847]]]]},"properties":{"kdprov":"65","kdkab":"04","kdkec":"031","kddesa":"005","kdsls":"0001","idsls":"65040310050001","nmprov":"KALIMANTAN UTARA","nmkab":"NUNUKAN","nmkec":"LUMBIS PANSIANGAN","nmdesa":"NGAWOL","nmsls":"RT 001"}},{"type":"Feature","geometry":{"type":"MultiPolygon","coordinates":[[[[116.41847,4.30129],[116.42007,4.29957],[116.41971,4.29915],[116.41977,4.2988],[116.41927,4.29847],[116.41921,4.29855],[116.41852,4.29863],[116.41802,4.29857],[116.41779,4.29841],[116.41734,4.2981],[116.41665,4.29775],[116.41543,4.29758],[116.41419,4.2976],[116.41431,4.29846],[116.41482,4.29966],[116.41607,4.30085],[116.41708,4.30101],[116.4172,4.30266],[116.41847,4.30129]]]]},"properties":{"kdprov":"65","kdkab":"04","kdkec":"031","kddesa":"004","kdsls":"2001","idsls":"65040310042001","nmprov":"KALIMANTAN UTARA","nmkab":"NUNUKAN","nmkec":"LUMBIS PANSIANGAN","nmdesa":"SUMANTIPAL","nmsls":"HUTAN"}},{"type":"Feature","geometry":{"type":"MultiPolygon","coordinates":[[[[116.42196,4.29946],[116.42164,4.29916],[116.4216,4.29916],[116.42135,4.29928],[116.42131,4.29943],[116.42136,4.29955],[116.42138,4.29979],[116.42169,4.29987],[116.42179,4.2998],[116.4218,4.29977],[116.42178,4.29971],[116.42169,4.29966],[116.42167,4.29961],[116.42167,4.29958],[116.42196,4.29946]]]]},"properties":{"kdprov":"65","kdkab":"04","kdkec":"031","kddesa":"007","kdsls":"0002","idsls":"65040310070002","nmprov":"KALIMANTAN UTARA","nmkab":"NUNUKAN","nmkec":"LUMBIS PANSIANGAN","nmdesa":"LAGAS","nmsls":"RT 002"}},{"type":"Feature","geometry":{"type":"MultiPolygon","coordinates":[[[[116.42138,4.29979],[116.42114,4.29963],[116.421,4.29974],[116.4209,4.29967],[116.42083,4.29963],[116.42076,4.29974],[116.4207,4.2997],[116.42078,4.29959],[116.42072,4.29956],[116.42071,4.29955],[116.42063,4.29966],[116.42056,4.29962],[116.42064,4.29951],[116.42043,4.29937],[116.42034,4.29931],[116.42011,4.29953],[116.42078,4.29991],[116.42119,4.30006],[116.42138,4.29979]]]]},"properties":{"kdprov":"65","kdkab":"04","kdkec":"031","kddesa":"003","kdsls":"0001","idsls":"65040310030001","nmprov":"KALIMANTAN UTARA","nmkab":"NUNUKAN","nmkec":"LUMBIS PANSIANGAN","nmdesa":"LABANG","nmsls":"RT 001"}},{"type":"Feature","geometry":{"type":"MultiPolygon","coordinates":[[[[116.42243,4.29995],[116.42196,4.29946],[116.42167,4.29958],[116.42167,4.29961],[116.42169,4.29966],[116.42178,4.29971],[116.4218,4.29977],[116.42179,4.2998],[116.42169,4.29987],[116.42149,4.3002],[116.42143,4.30047],[116.42202,4.30093],[116.42201,4.30025],[116.42243,4.29995]]]]},"properties":{"kdprov":"65","kdkab":"04","kdkec":"031","kddesa":"006","kdsls":"0002","idsls":"65040310060002","nmprov":"KALIMANTAN UTARA","nmkab":"NUNUKAN","nmkec":"LUMBIS PANSIANGAN","nmdesa":"BULU LAUN HILIR","nmsls":"RT 002"}},{"type":"Feature","geometry":{"type":"MultiPolygon","coordinates":[[[[116.41496,4.28805],[116.41442,4.28941],[116.41426,4.2917],[116.4139,4.2936],[116.41517,4.29517],[116.41653,4.2963],[116.41862,4.29684],[116.41881,4.29697],[116.41943,4.29735],[116.41901,4.29423],[116.41496,4.28805]]]]},"properties":{"kdprov":"65","kdkab":"04","kdkec":"031","kddesa":"005","kdsls":"2001","idsls":"65040310052001","nmprov":"KALIMANTAN UTARA","nmkab":"NUNUKAN","nmkec":"LUMBIS PANSIANGAN","nmdesa":"NGAWOL","nmsls":"HUTAN"}},{"type":"Feature","geometry":{"type":"MultiPolygon","coordinates":[[[[116.30755,4.2978],[116.30641,4.29679],[116.30626,4.29665],[116.30636,4.29756],[116.30668,4.29826],[116.30719,4.29815],[116.30755,4.2978]]]]},"properties":{"kdprov":"65","kdkab":"04","kdkec":"031","kddesa":"012","kdsls":"0002","idsls":"65040310120002","nmprov":"KALIMANTAN UTARA","nmkab":"NUNUKAN","nmkec":"LUMBIS PANSIANGAN","nmdesa":"TAMBALANG HULU","nmsls":"RT 002"}},{"type":"Feature","geometry":{"type":"MultiPolygon","coordinates":[[[[116.305,4.29249],[116.30444,4.29254],[116.30495,4.29398],[116.30527,4.29465],[116.30546,4.29505],[116.30596,4.2947],[116.30708,4.2939],[116.306,4.29316],[116.305,4.29249]]]]},"properties":{"kdprov":"65","kdkab":"04","kdkec":"031","kddesa":"011","kdsls":"0001","idsls":"65040310110001","nmprov":"KALIMANTAN UTARA","nmkab":"NUNUKAN","nmkec":"LUMBIS PANSIANGAN","nmdesa":"BOKOK","nmsls":"RT 001"}},{"type":"Feature","geometry":{"type":"MultiPolygon","coordinates":[[[[116.30596,4.2947],[116.30608,4.29486],[116.30622,4.29472],[116.30651,4.29512],[116.30728,4.29457],[116.30742,4.29447],[116.30768,4.2943],[116.30708,4.2939],[116.30596,4.2947]]]]},"properties":{"kdprov":"65","kdkab":"04","kdkec":"031","kddesa":"010","kdsls":"0001","idsls":"65040310100001","nmprov":"KALIMANTAN UTARA","nmkab":"NUNUKAN","nmkec":"LUMBIS PANSIANGAN","nmdesa":"KUYO","nmsls":"RT 001"}},{"type":"Feature","geometry":{"type":"MultiPolygon","coordinates":[[[[116.43262,4.32688],[116.43055,4.32114],[116.42948,4.31136],[116.42399,4.3016],[116.42302,4.30058],[116.42278,4.30077],[116.42202,4.30093],[116.42143,4.30047],[116.42042,4.30093],[116.41886,4.30144],[116.41847,4.30129],[116.4172,4.30266],[116.40051,4.32056],[116.39546,4.32675],[116.39042,4.32884],[116.3867,4.32532],[116.37814,4.31971],[116.36676,4.3086],[116.36366,4.31183],[116.35682,4.32135],[116.34846,4.32663],[116.35279,4.33465],[116.38626,4.3601],[116.38627,4.3601],[116.38645,4.35976],[116.38693,4.35901],[116.38736,4.35877],[116.38772,4.35861],[116.38846,4.35826],[116.38904,4.35843],[116.38965,4.359],[116.39028,4.35955],[116.39056,4.36013],[116.39129,4.36023],[116.39138,4.36025],[116.39264,4.36026],[116.39269,4.36031],[116.39347,4.36049],[116.39457,4.36082],[116.39507,4.36108],[116.39538,4.36146],[116.3959,4.3619],[116.39666,4.36214],[116.39726,4.36227],[116.39803,4.36248],[116.39897,4.36241],[116.3995,4.36226],[116.40012,4.36162],[116.40043,4.36137],[116.40116,4.36103],[116.40172,4.3607],[116.40229,4.36042],[116.40298,4.36022],[116.40358,4.36003],[116.40404,4.35978],[116.40456,4.3595],[116.40544,4.35888],[116.40544,4.35834],[116.40539,4.35738],[116.40553,4.35658],[116.40564,4.35597],[116.4057,4.35527],[116.40592,4.35458],[116.40551,4.3543],[116.40533,4.35392],[116.40528,4.35328],[116.40605,4.35243],[116.40627,4.3516],[116.40631,4.35075],[116.40624,4.34992],[116.40646,4.34961],[116.40701,4.34919],[116.40753,4.34879],[116.40762,4.34765],[116.40806,4.3467],[116.408,4.34604],[116.4082,4.34528],[116.40843,4.34502],[116.40905,4.3445],[116.40951,4.34404],[116.40982,4.34374],[116.41027,4.34347],[116.41135,4.34287],[116.41168,4.34227],[116.41249,4.34153],[116.41276,4.34089],[116.41351,4.34065],[116.41358,4.33999],[116.41387,4.33887],[116.41423,4.33848],[116.4147,4.33781],[116.41513,4.33744],[116.41608,4.33684],[116.41657,4.33666],[116.417,4.33618],[116.4174,4.33566],[116.41779,4.33531],[116.41773,4.33448],[116.41822,4.33385],[116.41864,4.33335],[116.41929,4.33312],[116.41975,4.33237],[116.41993,4.33144],[116.42022,4.33096],[116.42017,4.33004],[116.42024,4.32937],[116.42029,4.32871],[116.42014,4.3278],[116.41974,4.32664],[116.41961,4.32613],[116.42001,4.32584],[116.42025,4.32607],[116.42056,4.32634],[116.42089,4.32627],[116.42093,4.32626],[116.42155,4.32612],[116.42195,4.3263],[116.42266,4.3265],[116.42375,4.32681],[116.42446,4.32694],[116.42504,4.32684],[116.42571,4.32683],[116.42605,4.32688],[116.42663,4.32741],[116.42703,4.32773],[116.4273,4.32871],[116.42744,4.32903],[116.42839,4.32965],[116.42975,4.32962],[116.43013,4.32955],[116.43058,4.32948],[116.43142,4.32932],[116.43144,4.32826],[116.43219,4.32764],[116.43261,4.32689],[116.43262,4.32688]]]]},"properties":{"kdprov":"65","kdkab":"04","kdkec":"031","kddesa":"006","kdsls":"2001","idsls":"65040310062001","nmprov":"KALIMANTAN UTARA","nmkab":"NUNUKAN","nmkec":"LUMBIS PANSIANGAN","nmdesa":"BULU LAUN HILIR","nmsls":"HUTAN"}},{"type":"Feature","geometry":{"type":"MultiPolygon","coordinates":[[[[116.42011,4.29953],[116.42034,4.29931],[116.42078,4.29889],[116.42031,4.29824],[116.41997,4.2986],[116.41979,4.29845],[116.41966,4.2986],[116.41983,4.29874],[116.41977,4.2988],[116.41971,4.29915],[116.42007,4.29957],[116.42011,4.29953]]]]},"properties":{"kdprov":"65","kdkab":"04","kdkec":"031","kddesa":"004","kdsls":"0001","idsls":"65040310040001","nmprov":"KALIMANTAN UTARA","nmkab":"NUNUKAN","nmkec":"LUMBIS PANSIANGAN","nmdesa":"SUMANTIPAL","nmsls":"RT 001"}},{"type":"Feature","geometry":{"type":"MultiPolygon","coordinates":[[[[116.4216,4.29916],[116.42078,4.29889],[116.42034,4.29931],[116.42043,4.29937],[116.42064,4.29951],[116.42056,4.29962],[116.42063,4.29966],[116.42071,4.29955],[116.42072,4.29956],[116.42078,4.29959],[116.4207,4.2997],[116.42076,4.29974],[116.42083,4.29963],[116.4209,4.29967],[116.421,4.29974],[116.42114,4.29963],[116.42138,4.29979],[116.42136,4.29955],[116.42131,4.29943],[116.42135,4.29928],[116.4216,4.29916]]]]},"properties":{"kdprov":"65","kdkab":"04","kdkec":"031","kddesa":"003","kdsls":"0002","idsls":"65040310030002","nmprov":"KALIMANTAN UTARA","nmkab":"NUNUKAN","nmkec":"LUMBIS PANSIANGAN","nmdesa":"LABANG","nmsls":"RT 002"}},{"type":"Feature","geometry":{"type":"MultiPolygon","coordinates":[[[[116.41881,4.29697],[116.41862,4.29684],[116.41653,4.2963],[116.41517,4.29517],[116.4139,4.2936],[116.41353,4.29503],[116.41409,4.29688],[116.41412,4.2976],[116.41419,4.2976],[116.41543,4.29758],[116.41665,4.29775],[116.41734,4.2981],[116.41779,4.29841],[116.41881,4.29697]]]]},"properties":{"kdprov":"65","kdkab":"04","kdkec":"031","kddesa":"005","kdsls":"0002","idsls":"65040310050002","nmprov":"KALIMANTAN UTARA","nmkab":"NUNUKAN","nmkec":"LUMBIS PANSIANGAN","nmdesa":"NGAWOL","nmsls":"RT 002"}},{"type":"Feature","geometry":{"type":"MultiPolygon","coordinates":[[[[116.26469,4.28155],[116.26497,4.28136],[116.26518,4.28103],[116.26538,4.2809],[116.26515,4.28065],[116.26353,4.28046],[116.26337,4.28123],[116.26434,4.28125],[116.26469,4.28155]]]]},"properties":{"kdprov":"65","kdkab":"04","kdkec":"031","kddesa":"013","kdsls":"0001","idsls":"65040310130001","nmprov":"KALIMANTAN UTARA","nmkab":"NUNUKAN","nmkec":"LUMBIS PANSIANGAN","nmdesa":"LANGGASON","nmsls":"RT 001"}},{"type":"Feature","geometry":{"type":"MultiPolygon","coordinates":[[[[116.3075,4.29512],[116.30728,4.29457],[116.30651,4.29512],[116.30633,4.29525],[116.3062,4.29522],[116.30606,4.29531],[116.30608,4.29535],[116.30607,4.29537],[116.30604,4.29541],[116.30601,4.29541],[116.30597,4.29541],[116.30576,4.29543],[116.30594,4.29587],[116.30632,4.29568],[116.30632,4.29563],[116.30667,4.29552],[116.30666,4.29558],[116.30683,4.29548],[116.30686,4.29533],[116.3069,4.29529],[116.30697,4.29534],[116.3075,4.29512]]]]},"properties":{"kdprov":"65","kdkab":"04","kdkec":"031","kddesa":"009","kdsls":"0001","idsls":"65040310090001","nmprov":"KALIMANTAN UTARA","nmkab":"NUNUKAN","nmkec":"LUMBIS PANSIANGAN","nmdesa":"PANAS","nmsls":"RT 001"}},{"type":"Feature","geometry":{"type":"MultiPolygon","coordinates":[[[[116.42302,4.30058],[116.42243,4.29995],[116.42201,4.30025],[116.42202,4.30093],[116.42278,4.30077],[116.42302,4.30058]]]]},"properties":{"kdprov":"65","kdkab":"04","kdkec":"031","kddesa":"006","kdsls":"0001","idsls":"65040310060001","nmprov":"KALIMANTAN UTARA","nmkab":"NUNUKAN","nmkec":"LUMBIS PANSIANGAN","nmdesa":"BULU LAUN HILIR","nmsls":"RT 001"}},{"type":"Feature","geometry":{"type":"MultiPolygon","coordinates":[[[[116.42143,4.30047],[116.42149,4.3002],[116.42169,4.29987],[116.42138,4.29979],[116.42119,4.30006],[116.42078,4.29991],[116.42011,4.29953],[116.42007,4.29957],[116.41847,4.30129],[116.41886,4.30144],[116.42042,4.30093],[116.42143,4.30047]]]]},"properties":{"kdprov":"65","kdkab":"04","kdkec":"031","kddesa":"007","kdsls":"0001","idsls":"65040310070001","nmprov":"KALIMANTAN UTARA","nmkab":"NUNUKAN","nmkec":"LUMBIS PANSIANGAN","nmdesa":"LAGAS","nmsls":"RT 001"}},{"type":"Feature","geometry":{"type":"MultiPolygon","coordinates":[[[[116.30763,4.29645],[116.30696,4.29652],[116.30693,4.29672],[116.30641,4.29679],[116.30755,4.2978],[116.30762,4.29786],[116.30762,4.29667],[116.30763,4.29645]]]]},"properties":{"kdprov":"65","kdkab":"04","kdkec":"031","kddesa":"008","kdsls":"0001","idsls":"65040310080001","nmprov":"KALIMANTAN UTARA","nmkab":"NUNUKAN","nmkec":"LUMBIS PANSIANGAN","nmdesa":"TANTALUJUK","nmsls":"RT 001"}},{"type":"Feature","geometry":{"type":"MultiPolygon","coordinates":[[[[116.30651,4.29512],[116.30622,4.29472],[116.30608,4.29486],[116.30596,4.2947],[116.30546,4.29505],[116.30602,4.29531],[116.30607,4.29537],[116.30608,4.29535],[116.30606,4.29531],[116.3062,4.29522],[116.30633,4.29525],[116.30651,4.29512]]]]},"properties":{"kdprov":"65","kdkab":"04","kdkec":"031","kddesa":"010","kdsls":"0002","idsls":"65040310100002","nmprov":"KALIMANTAN UTARA","nmkab":"NUNUKAN","nmkec":"LUMBIS PANSIANGAN","nmdesa":"KUYO","nmsls":"RT 002"}},{"type":"Feature","geometry":{"type":"MultiPolygon","coordinates":[[[[116.30755,4.2978],[116.30719,4.29815],[116.30668,4.29826],[116.30691,4.29878],[116.30733,4.29948],[116.30804,4.29904],[116.3084,4.29856],[116.30762,4.29786],[116.30755,4.2978]]]]},"properties":{"kdprov":"65","kdkab":"04","kdkec":"031","kddesa":"012","kdsls":"0001","idsls":"65040310120001","nmprov":"KALIMANTAN UTARA","nmkab":"NUNUKAN","nmkec":"LUMBIS PANSIANGAN","nmdesa":"TAMBALANG HULU","nmsls":"RT 001"}}]}