{"type":"FeatureCollection","features":[{"type":"Feature","geometry":{"type":"MultiPolygon","coordinates":[[[[116.23511,4.3043],[116.23746,4.30482],[116.23931,4.3037],[116.23895,4.3031],[116.238,4.30305],[116.23625,4.30255],[116.2358,4.30382],[116.23511,4.3043]]]]},"properties":{"kdprov":"65","kdkab":"04","kdkec":"032","kddesa":"002","kdsls":"0001","idsls":"65040320020001","nmprov":"KALIMANTAN UTARA","nmkab":"NUNUKAN","nmkec":"LUMBIS HULU","nmdesa":"MAMASIN","nmsls":"RT 001"}},{"type":"Feature","geometry":{"type":"MultiPolygon","coordinates":[[[[116.24841,4.27581],[116.24416,4.2673],[116.21132,4.19877],[116.16408,4.10817],[116.162,4.10846],[116.1551,4.10941],[116.14865,4.1107],[116.14657,4.11112],[116.13963,4.11251],[116.13035,4.11441],[116.12173,4.1173],[116.11979,4.11795],[116.11715,4.11883],[116.11164,4.11987],[116.10748,4.12032],[116.10361,4.11928],[116.10064,4.11794],[116.09657,4.11598],[116.09366,4.11298],[116.09033,4.10984],[116.08662,4.10594],[116.08395,4.10337],[116.08167,4.10327],[116.0809,4.10375],[116.07872,4.10365],[116.07567,4.10356],[116.07314,4.10327],[116.07254,4.10298],[116.07229,4.10296],[116.07141,4.10288],[116.07093,4.10285],[116.07019,4.10281],[116.06949,4.1028],[116.069,4.10281],[116.0681,4.10287],[116.06759,4.10293],[116.06712,4.10298],[116.06639,4.10308],[116.06571,4.10311],[116.06499,4.10311],[116.06453,4.10312],[116.06386,4.10317],[116.06341,4.10321],[116.06297,4.10326],[116.06242,4.1033],[116.06191,4.10336],[116.06133,4.10344],[116.06072,4.10354],[116.06015,4.10366],[116.05966,4.10382],[116.05904,4.10406],[116.0585,4.10432],[116.05797,4.10461],[116.05761,4.1048],[116.05747,4.10488],[116.05699,4.10517],[116.05635,4.1056],[116.05584,4.10595],[116.05533,4.10634],[116.05463,4.10686],[116.05408,4.10724],[116.05402,4.10728],[116.05345,4.10764],[116.05288,4.10794],[116.05237,4.10821],[116.05183,4.10844],[116.05134,4.10862],[116.05084,4.1088],[116.05028,4.10896],[116.04974,4.10909],[116.04913,4.10922],[116.04866,4.10928],[116.04822,4.10926],[116.04771,4.10909],[116.04722,4.1089],[116.0468,4.10871],[116.04634,4.10843],[116.04599,4.10818],[116.04562,4.10785],[116.04514,4.10744],[116.04458,4.10694],[116.04415,4.10652],[116.04393,4.10627],[116.04385,4.10619],[116.04351,4.10582],[116.04333,4.10562],[116.04333,4.10562],[116.04333,4.10562],[116.04333,4.10562],[116.04333,4.10562],[116.04156,4.10597],[116.03696,4.10687],[116.03057,4.10591],[116.03005,4.10583],[116.03005,4.10583],[116.02999,4.10583],[116.0223,4.10612],[116.01878,4.10678],[116.01874,4.10679],[116.01495,4.10742],[116.01342,4.10832],[116.01177,4.10929],[116.00978,4.11046],[116.0092,4.1108],[116.00919,4.1108],[116.00919,4.11081],[116.00168,4.11675],[116.00034,4.11715],[115.99847,4.11771],[115.99488,4.11879],[115.99487,4.11879],[115.98849,4.11876],[115.98278,4.11877],[115.98265,4.11877],[115.98263,4.11877],[115.98201,4.11877],[115.98201,4.11877],[115.98201,4.11877],[115.98163,4.11879],[115.97871,4.11893],[115.97666,4.11904],[115.97554,4.1191],[115.97198,4.1202],[115.97145,4.12037],[115.97093,4.12053],[115.97093,4.12053],[115.97087,4.12056],[115.96977,4.12116],[115.96921,4.12148],[115.9691,4.12155],[115.96891,4.12165],[115.96802,4.12217],[115.96786,4.12226],[115.96747,4.1225],[115.96701,4.12279],[115.9667,4.12298],[115.96612,4.1233],[115.96551,4.12365],[115.96399,4.1245],[115.95851,4.12727],[115.95785,4.1276],[115.95714,4.12795],[115.95306,4.13118],[115.95261,4.13154],[115.95168,4.13228],[115.95106,4.13278],[115.94908,4.13477],[115.94732,4.13653],[115.94704,4.13682],[115.94671,4.13714],[115.94541,4.13841],[115.94375,4.14001],[115.93896,4.14462],[115.93896,4.14463],[115.93895,4.14464],[115.93513,4.15132],[115.93387,4.15353],[115.92738,4.16092],[115.92727,4.16106],[115.92726,4.16106],[115.92608,4.16238],[115.92593,4.16255],[115.9257,4.16283],[115.92555,4.16301],[115.92528,4.16333],[115.92527,4.16334],[115.92524,4.16338],[115.92329,4.16513],[115.92103,4.16716],[115.92005,4.16804],[115.91936,4.16972],[115.9186,4.17144],[115.91851,4.17164],[115.91807,4.17268],[115.91764,4.1737],[115.91764,4.1737],[115.91683,4.17559],[115.91573,4.17806],[115.91573,4.17806],[115.91488,4.17996],[115.91437,4.18108],[115.90649,4.19137],[115.90479,4.19357],[115.90349,4.19525],[115.90347,4.19529],[115.90289,4.19656],[115.90062,4.20168],[115.90062,4.20169],[115.9006,4.20224],[115.90049,4.2045],[115.90037,4.20705],[115.90037,4.20705],[115.90036,4.20705],[115.89735,4.21288],[115.89733,4.21293],[115.89598,4.21795],[115.89593,4.21812],[115.89585,4.21843],[115.89584,4.21845],[115.89584,4.21846],[115.89564,4.22021],[115.89532,4.22299],[115.89495,4.22613],[115.89483,4.22722],[115.89475,4.22738],[115.89468,4.22753],[115.89447,4.22796],[115.89439,4.22815],[115.8943,4.22837],[115.89245,4.23279],[115.89228,4.23321],[115.89055,4.23724],[115.89012,4.23862],[115.88966,4.2401],[115.889,4.24223],[115.88854,4.24369],[115.88854,4.2437],[115.88854,4.24371],[115.88895,4.24811],[115.88942,4.2532],[115.91144,4.25127],[116.01066,4.23913],[116.10774,4.25555],[116.14772,4.28053],[116.17199,4.29338],[116.17646,4.29595],[116.18303,4.2971],[116.18593,4.29718],[116.18413,4.29374],[116.18292,4.29027],[116.18382,4.2862],[116.18096,4.28409],[116.18096,4.27655],[116.17975,4.27263],[116.17689,4.26781],[116.17674,4.26494],[116.19031,4.26736],[116.21111,4.27263],[116.21986,4.28228],[116.21669,4.29103],[116.21608,4.29654],[116.21655,4.29982],[116.2165,4.29998],[116.21711,4.30022],[116.21766,4.30059],[116.21796,4.30136],[116.21854,4.30006],[116.22306,4.29416],[116.23658,4.28293],[116.24841,4.27581]]]]},"properties":{"kdprov":"65","kdkab":"04","kdkec":"032","kddesa":"008","kdsls":"2001","idsls":"65040320082001","nmprov":"KALIMANTAN UTARA","nmkab":"NUNUKAN","nmkec":"LUMBIS HULU","nmdesa":"TANTU LIBING","nmsls":"HUTAN"}},{"type":"Feature","geometry":{"type":"MultiPolygon","coordinates":[[[[116.21619,4.30522],[116.21662,4.30438],[116.21587,4.3034],[116.21556,4.30383],[116.21068,4.31069],[116.21246,4.31263],[116.21619,4.30522]]]]},"properties":{"kdprov":"65","kdkab":"04","kdkec":"032","kddesa":"009","kdsls":"2001","idsls":"65040320092001","nmprov":"KALIMANTAN UTARA","nmkab":"NUNUKAN","nmkec":"LUMBIS HULU","nmdesa":"KALISUN","nmsls":"HUTAN"}},{"type":"Feature","geometry":{"type":"MultiPolygon","coordinates":[[[[116.23511,4.3043],[116.2358,4.30382],[116.23625,4.30255],[116.23685,4.30087],[116.23761,4.29935],[116.23951,4.29763],[116.24151,4.29497],[116.24265,4.29154],[116.24322,4.28773],[116.2438,4.28583],[116.24494,4.2844],[116.24627,4.28297],[116.24675,4.28136],[116.24894,4.2806],[116.25063,4.28025],[116.24841,4.27581],[116.23658,4.28293],[116.22306,4.29416],[116.21854,4.30006],[116.21796,4.30136],[116.21727,4.30292],[116.21764,4.30358],[116.21908,4.30538],[116.22065,4.30678],[116.22141,4.30683],[116.22272,4.30568],[116.22438,4.30382],[116.22666,4.30192],[116.22923,4.30011],[116.23218,4.30211],[116.23456,4.30468],[116.23511,4.3043]]]]},"properties":{"kdprov":"65","kdkab":"04","kdkec":"032","kddesa":"004","kdsls":"2001","idsls":"65040320042001","nmprov":"KALIMANTAN UTARA","nmkab":"NUNUKAN","nmkec":"LUMBIS HULU","nmdesa":"TAU LUMBIS","nmsls":"HUTAN"}},{"type":"Feature","geometry":{"type":"MultiPolygon","coordinates":[[[[116.21619,4.30522],[116.21719,4.306],[116.21736,4.30534],[116.21662,4.30438],[116.21619,4.30522]]]]},"properties":{"kdprov":"65","kdkab":"04","kdkec":"032","kddesa":"003","kdsls":"0001","idsls":"65040320030001","nmprov":"KALIMANTAN UTARA","nmkab":"NUNUKAN","nmkec":"LUMBIS HULU","nmdesa":"DUYAN","nmsls":"RT 001"}},{"type":"Feature","geometry":{"type":"MultiPolygon","coordinates":[[[[116.21552,4.30247],[116.21556,4.30235],[116.2157,4.3023],[116.21627,4.30295],[116.216,4.3031],[116.21606,4.30321],[116.21587,4.3034],[116.21662,4.30438],[116.21727,4.30292],[116.21796,4.30136],[116.21766,4.30059],[116.21711,4.30022],[116.2165,4.29998],[116.21635,4.30044],[116.21621,4.30088],[116.2153,4.30188],[116.21552,4.30247]]]]},"properties":{"kdprov":"65","kdkab":"04","kdkec":"032","kddesa":"008","kdsls":"0001","idsls":"65040320080001","nmprov":"KALIMANTAN UTARA","nmkab":"NUNUKAN","nmkec":"LUMBIS HULU","nmdesa":"TANTU LIBING","nmsls":"RT 001"}},{"type":"Feature","geometry":{"type":"MultiPolygon","coordinates":[[[[116.21635,4.30044],[116.21603,4.30018],[116.21448,4.30008],[116.21293,4.30026],[116.21293,4.30025],[116.21241,4.30068],[116.21359,4.30077],[116.21426,4.30093],[116.21501,4.30112],[116.2153,4.30188],[116.21621,4.30088],[116.21635,4.30044]]]]},"properties":{"kdprov":"65","kdkab":"04","kdkec":"032","kddesa":"010","kdsls":"0001","idsls":"65040320100001","nmprov":"KALIMANTAN UTARA","nmkab":"NUNUKAN","nmkec":"LUMBIS HULU","nmdesa":"LEPAGA","nmsls":"RT 001"}},{"type":"Feature","geometry":{"type":"MultiPolygon","coordinates":[[[[116.21725,4.30931],[116.21667,4.30962],[116.21616,4.30989],[116.21603,4.31035],[116.21598,4.312],[116.21661,4.31194],[116.21771,4.31195],[116.21803,4.31197],[116.21811,4.31047],[116.21752,4.30947],[116.21725,4.30931]]]]},"properties":{"kdprov":"65","kdkab":"04","kdkec":"032","kddesa":"001","kdsls":"0001","idsls":"65040320010001","nmprov":"KALIMANTAN UTARA","nmkab":"NUNUKAN","nmkec":"LUMBIS HULU","nmdesa":"SIBALU","nmsls":"RT 001"}},{"type":"Feature","geometry":{"type":"MultiPolygon","coordinates":[[[[116.21717,4.3051],[116.21834,4.30446],[116.21764,4.30358],[116.21727,4.30292],[116.21662,4.30438],[116.21717,4.3051]]]]},"properties":{"kdprov":"65","kdkab":"04","kdkec":"032","kddesa":"004","kdsls":"0001","idsls":"65040320040001","nmprov":"KALIMANTAN UTARA","nmkab":"NUNUKAN","nmkec":"LUMBIS HULU","nmdesa":"TAU LUMBIS","nmsls":"RT 001"}},{"type":"Feature","geometry":{"type":"MultiPolygon","coordinates":[[[[116.21627,4.30295],[116.2157,4.3023],[116.21556,4.30235],[116.21552,4.30247],[116.2153,4.30188],[116.21501,4.30112],[116.21426,4.30093],[116.21509,4.30262],[116.21556,4.30383],[116.21587,4.3034],[116.21606,4.30321],[116.216,4.3031],[116.21627,4.30295]]]]},"properties":{"kdprov":"65","kdkab":"04","kdkec":"032","kddesa":"007","kdsls":"0001","idsls":"65040320070001","nmprov":"KALIMANTAN UTARA","nmkab":"NUNUKAN","nmkec":"LUMBIS HULU","nmdesa":"BULU LAUN HULU","nmsls":"RT 001"}},{"type":"Feature","geometry":{"type":"MultiPolygon","coordinates":[[[[116.15789,4.34744],[116.16487,4.3443],[116.17484,4.3385],[116.19358,4.32482],[116.20265,4.31813],[116.208,4.30742],[116.21215,4.30066],[116.20944,4.30181],[116.20816,4.30052],[116.20758,4.29638],[116.20784,4.29483],[116.20816,4.29296],[116.20744,4.29024],[116.20316,4.2871],[116.19945,4.28782],[116.19659,4.28967],[116.19416,4.29196],[116.19359,4.29538],[116.19117,4.29624],[116.18788,4.29724],[116.18593,4.29718],[116.18303,4.2971],[116.17646,4.29595],[116.17199,4.29338],[116.14772,4.28053],[116.10774,4.25555],[116.01066,4.23913],[115.91144,4.25127],[115.88942,4.2532],[115.88947,4.25375],[115.88948,4.25387],[115.88951,4.2542],[115.88952,4.25432],[115.88953,4.25436],[115.88951,4.25447],[115.8895,4.2546],[115.88947,4.25482],[115.88929,4.25611],[115.8888,4.25974],[115.88863,4.26096],[115.88784,4.26682],[115.8877,4.26788],[115.88756,4.26885],[115.88756,4.26885],[115.88756,4.26885],[115.88671,4.2699],[115.88523,4.27172],[115.88472,4.27239],[115.88425,4.273],[115.88386,4.27351],[115.88365,4.27379],[115.88342,4.27409],[115.88309,4.27454],[115.88263,4.27518],[115.88246,4.2754],[115.88191,4.27623],[115.8819,4.27624],[115.88142,4.27694],[115.88129,4.27715],[115.88116,4.27734],[115.88113,4.2774],[115.88108,4.27746],[115.88058,4.2782],[115.88007,4.27893],[115.87934,4.27998],[115.87934,4.27999],[115.87854,4.2811],[115.87734,4.28276],[115.87716,4.28302],[115.87716,4.28302],[115.87712,4.28307],[115.8764,4.28413],[115.87588,4.28489],[115.87323,4.28878],[115.87309,4.28895],[115.87319,4.28914],[115.87328,4.28933],[115.87427,4.28979],[115.87469,4.29007],[115.87476,4.29016],[115.87518,4.29075],[115.87586,4.29079],[115.87592,4.29106],[115.87611,4.29123],[115.87612,4.2916],[115.87581,4.29235],[115.8762,4.29282],[115.87645,4.29319],[115.8764,4.29404],[115.87648,4.29471],[115.87635,4.2953],[115.87624,4.29564],[115.87576,4.29562],[115.8752,4.29557],[115.87466,4.2957],[115.87453,4.29631],[115.87406,4.29741],[115.87373,4.29761],[115.87339,4.29829],[115.87282,4.29863],[115.87246,4.29869],[115.87212,4.29894],[115.87185,4.29933],[115.87076,4.29946],[115.87064,4.2997],[115.87051,4.30001],[115.87065,4.30064],[115.86992,4.30106],[115.86965,4.30175],[115.86977,4.30237],[115.86965,4.30287],[115.8695,4.30323],[115.86959,4.30334],[115.86983,4.30373],[115.86965,4.30383],[115.86979,4.30428],[115.87003,4.30448],[115.87005,4.3047],[115.87002,4.30511],[115.86968,4.30573],[115.8697,4.30626],[115.86988,4.30654],[115.86978,4.30687],[115.86963,4.30695],[115.86958,4.30731],[115.86919,4.3078],[115.86906,4.30811],[115.86889,4.30842],[115.8692,4.30879],[115.86919,4.30943],[115.86905,4.30985],[115.86878,4.31045],[115.86861,4.31079],[115.8679,4.31086],[115.86773,4.31109],[115.86782,4.31146],[115.86795,4.31172],[115.86762,4.31202],[115.86772,4.31228],[115.86734,4.31259],[115.86733,4.31306],[115.86705,4.31326],[115.8669,4.31374],[115.86694,4.31403],[115.8668,4.31434],[115.86661,4.31447],[115.86649,4.31481],[115.86648,4.31529],[115.86636,4.31561],[115.86614,4.31605],[115.86604,4.317],[115.86598,4.31729],[115.86576,4.3176],[115.86567,4.31843],[115.86618,4.31901],[115.86607,4.31952],[115.86603,4.32028],[115.86586,4.32064],[115.86616,4.321],[115.86622,4.32127],[115.86623,4.32159],[115.86592,4.32183],[115.86603,4.32203],[115.86688,4.32237],[115.86627,4.32271],[115.86634,4.32375],[115.866,4.32435],[115.86616,4.3245],[115.86617,4.32469],[115.86585,4.32526],[115.86587,4.32584],[115.86587,4.3259],[115.86574,4.32628],[115.86589,4.32675],[115.8658,4.32735],[115.86575,4.32772],[115.86592,4.32831],[115.86571,4.32866],[115.86566,4.32886],[115.86526,4.32881],[115.86514,4.3292],[115.8649,4.32951],[115.86489,4.32987],[115.86468,4.33013],[115.86488,4.33038],[115.86473,4.33086],[115.86455,4.33168],[115.86445,4.33193],[115.86462,4.33231],[115.86468,4.33264],[115.8649,4.33286],[115.86473,4.33321],[115.86485,4.33351],[115.86477,4.3339],[115.86486,4.33412],[115.86471,4.3347],[115.8647,4.3349],[115.86502,4.33508],[115.86544,4.33507],[115.86555,4.33516],[115.86567,4.33529],[115.86594,4.33547],[115.86601,4.33579],[115.86605,4.33612],[115.86611,4.33629],[115.86592,4.33655],[115.86596,4.33718],[115.866,4.33791],[115.86624,4.33827],[115.86614,4.33863],[115.86594,4.33931],[115.86595,4.33953],[115.8662,4.34006],[115.86603,4.34072],[115.86608,4.34153],[115.86586,4.34187],[115.86547,4.34249],[115.86515,4.34288],[115.86493,4.34331],[115.86475,4.34339],[115.86464,4.34305],[115.86435,4.34301],[115.86419,4.34333],[115.86427,4.34374],[115.86461,4.34423],[115.86472,4.34482],[115.86502,4.34533],[115.86536,4.34547],[115.86525,4.34581],[115.86527,4.34605],[115.86553,4.34617],[115.86577,4.34589],[115.86626,4.34611],[115.86676,4.34628],[115.86728,4.34635],[115.86778,4.34634],[115.8683,4.34613],[115.86859,4.34612],[115.86953,4.34638],[115.86977,4.34678],[115.86975,4.34682],[115.87002,4.34739],[115.87018,4.34778],[115.87024,4.34828],[115.87044,4.34853],[115.87037,4.34889],[115.87059,4.34934],[115.87065,4.34965],[115.87061,4.3503],[115.87042,4.35072],[115.87047,4.35105],[115.87077,4.35123],[115.87106,4.35217],[115.87179,4.35264],[115.87217,4.35283],[115.87266,4.35297],[115.8728,4.35293],[115.87309,4.35306],[115.87341,4.35336],[115.87387,4.3542],[115.87356,4.35442],[115.87334,4.3549],[115.87323,4.35521],[115.87308,4.35546],[115.87275,4.3561],[115.87236,4.35646],[115.87233,4.35673],[115.87206,4.35694],[115.87198,4.35749],[115.87197,4.35773],[115.87139,4.35799],[115.87103,4.35836],[115.87067,4.35873],[115.87063,4.35895],[115.87025,4.35895],[115.87018,4.35921],[115.86998,4.35964],[115.87027,4.35994],[115.87068,4.36053],[115.87122,4.36085],[115.87141,4.36097],[115.8711,4.36136],[115.87115,4.36161],[115.87104,4.36203],[115.87134,4.36244],[115.87151,4.36271],[115.87153,4.36288],[115.87091,4.36317],[115.87073,4.36357],[115.87054,4.36418],[115.87038,4.36505],[115.8706,4.36553],[115.87096,4.36577],[115.8715,4.36624],[115.87203,4.36632],[115.87211,4.36643],[115.87189,4.36706],[115.87173,4.36742],[115.87187,4.36765],[115.87169,4.3681],[115.8718,4.36847],[115.87194,4.36883],[115.87209,4.36932],[115.87212,4.36965],[115.8719,4.37001],[115.87191,4.37046],[115.872,4.3708],[115.87169,4.37106],[115.87112,4.37116],[115.87082,4.37136],[115.87063,4.37159],[115.87027,4.37157],[115.87036,4.37201],[115.87012,4.3725],[115.87041,4.37272],[115.8705,4.37317],[115.87081,4.37358],[115.8709,4.37392],[115.8711,4.37429],[115.87153,4.37422],[115.87205,4.37413],[115.87242,4.37471],[115.8724,4.37483],[115.87232,4.37525],[115.87235,4.37552],[115.87255,4.37561],[115.87256,4.37594],[115.87205,4.3762],[115.87191,4.37713],[115.87246,4.37757],[115.87259,4.37845],[115.87284,4.37884],[115.87278,4.3795],[115.87248,4.37951],[115.87257,4.38024],[115.87369,4.38017],[115.87388,4.38087],[115.87413,4.3817],[115.87436,4.38224],[115.87426,4.38286],[115.8746,4.38281],[115.8748,4.38375],[115.87482,4.38448],[115.87448,4.38497],[115.87449,4.38523],[115.8745,4.38534],[115.87465,4.38591],[115.87525,4.38573],[115.87531,4.3861],[115.87576,4.38575],[115.87582,4.38604],[115.87612,4.38613],[115.87642,4.38655],[115.87649,4.38682],[115.87653,4.38742],[115.87666,4.38774],[115.8772,4.38823],[115.87758,4.38873],[115.87736,4.38909],[115.87754,4.3897],[115.87752,4.39001],[115.87772,4.38994],[115.87772,4.39044],[115.87815,4.3909],[115.87819,4.39117],[115.87853,4.39139],[115.87884,4.39141],[115.87919,4.39139],[115.87956,4.39185],[115.88056,4.39232],[115.88129,4.39232],[115.88185,4.39206],[115.88228,4.39181],[115.88291,4.39179],[115.88322,4.39176],[115.88359,4.39134],[115.88378,4.39132],[115.88383,4.39158],[115.8843,4.39193],[115.88469,4.39169],[115.88486,4.39171],[115.88519,4.39168],[115.88576,4.39149],[115.88592,4.3916],[115.88611,4.39138],[115.8865,4.39129],[115.88697,4.3915],[115.88744,4.3913],[115.88764,4.39141],[115.8884,4.39128],[115.88904,4.39171],[115.88939,4.3916],[115.89,4.39223],[115.89028,4.39222],[115.89053,4.39271],[115.89096,4.3928],[115.89116,4.39303],[115.89172,4.3932],[115.89235,4.39315],[115.89309,4.39313],[115.89331,4.39295],[115.89358,4.39288],[115.89373,4.39281],[115.89387,4.39249],[115.89388,4.39208],[115.89399,4.39181],[115.89431,4.39184],[115.8947,4.3922],[115.89507,4.39219],[115.89533,4.39283],[115.89594,4.39308],[115.89644,4.39341],[115.8965,4.39359],[115.89669,4.39366],[115.89686,4.3937],[115.89758,4.39366],[115.89786,4.39348],[115.89818,4.39361],[115.89858,4.39372],[115.89873,4.39392],[115.89905,4.39413],[115.89989,4.39458],[115.90009,4.39505],[115.90044,4.39549],[115.90159,4.39549],[115.90206,4.39518],[115.90256,4.39482],[115.90296,4.39488],[115.90298,4.39397],[115.90339,4.39351],[115.90375,4.39319],[115.90452,4.39279],[115.90493,4.39285],[115.90518,4.39276],[115.90606,4.39272],[115.90664,4.39295],[115.90736,4.39287],[115.90809,4.39242],[115.90845,4.39201],[115.90882,4.39159],[115.90954,4.391],[115.90984,4.39036],[115.91014,4.38941],[115.91044,4.38868],[115.91068,4.38788],[115.9114,4.38711],[115.91148,4.38659],[115.9117,4.38561],[115.9123,4.38535],[115.91265,4.38405],[115.91334,4.38301],[115.91385,4.38199],[115.91379,4.38157],[115.91468,4.38116],[115.91468,4.38094],[115.91506,4.38037],[115.91527,4.37979],[115.91548,4.37946],[115.91558,4.37904],[115.91584,4.37849],[115.91652,4.3775],[115.91645,4.3769],[115.91587,4.37626],[115.91591,4.37542],[115.91583,4.3742],[115.91586,4.37337],[115.9158,4.37284],[115.91543,4.37193],[115.91601,4.37138],[115.91628,4.37117],[115.91641,4.37083],[115.91667,4.37035],[115.91698,4.36953],[115.91729,4.36921],[115.91833,4.36939],[115.91872,4.36897],[115.91881,4.36823],[115.9192,4.36789],[115.91945,4.36762],[115.9199,4.36787],[115.92027,4.36784],[115.92074,4.36748],[115.92105,4.36715],[115.92154,4.36651],[115.92169,4.366],[115.92169,4.36531],[115.9222,4.36401],[115.92229,4.36295],[115.92209,4.36214],[115.92313,4.36168],[115.92344,4.36087],[115.92433,4.36039],[115.92454,4.35967],[115.92489,4.3594],[115.92526,4.3589],[115.92633,4.35849],[115.92683,4.35827],[115.92711,4.35824],[115.92837,4.35749],[115.92858,4.35664],[115.92907,4.35586],[115.929,4.35488],[115.92913,4.35391],[115.92944,4.35349],[115.9298,4.35316],[115.92982,4.35319],[115.93022,4.35375],[115.93074,4.35443],[115.93133,4.35423],[115.93222,4.35393],[115.93303,4.35387],[115.93358,4.35394],[115.93407,4.35453],[115.93475,4.35462],[115.93549,4.35428],[115.93577,4.35415],[115.93602,4.35404],[115.93656,4.35333],[115.93707,4.35347],[115.93805,4.35338],[115.9387,4.35364],[115.93956,4.35436],[115.94012,4.35466],[115.94054,4.35478],[115.94087,4.35534],[115.94139,4.35614],[115.94144,4.35675],[115.94279,4.35701],[115.94401,4.35656],[115.94504,4.35653],[115.9455,4.3564],[115.94592,4.35647],[115.94667,4.35669],[115.94734,4.3562],[115.94863,4.35598],[115.94922,4.35593],[115.94974,4.35612],[115.94995,4.35693],[115.9499,4.35721],[115.95036,4.35791],[115.95055,4.35818],[115.95093,4.35804],[115.95169,4.35779],[115.96021,4.35698],[115.9603,4.35647],[115.96082,4.35639],[115.96115,4.35588],[115.96141,4.35595],[115.96168,4.35543],[115.96174,4.3546],[115.96175,4.35406],[115.96227,4.35366],[115.96244,4.35315],[115.96292,4.35336],[115.96378,4.35341],[115.96478,4.35399],[115.96555,4.35409],[115.966,4.3544],[115.9663,4.35472],[115.96665,4.355],[115.96692,4.3552],[115.96775,4.35522],[115.9686,4.35551],[115.96889,4.35529],[115.96954,4.35547],[115.97041,4.35566],[115.97104,4.35585],[115.97109,4.35585],[115.97162,4.35591],[115.97255,4.35612],[115.97303,4.35602],[115.97355,4.35637],[115.97369,4.35647],[115.97423,4.35705],[115.97455,4.35745],[115.97537,4.35758],[115.97632,4.35726],[115.97676,4.35739],[115.97723,4.35755],[115.97787,4.3578],[115.97799,4.35753],[115.97846,4.35683],[115.97857,4.35637],[115.9788,4.35552],[115.97935,4.35488],[115.97937,4.35457],[115.97975,4.35386],[115.97984,4.3535],[115.98042,4.35348],[115.98041,4.35326],[115.9812,4.35276],[115.98135,4.35261],[115.98171,4.35224],[115.98249,4.35192],[115.98333,4.35216],[115.98353,4.35186],[115.98398,4.35197],[115.98412,4.35165],[115.98442,4.35126],[115.9849,4.35074],[115.98518,4.3506],[115.98597,4.35093],[115.98646,4.35122],[115.9871,4.35152],[115.98749,4.35159],[115.98838,4.35214],[115.98897,4.35241],[115.98966,4.35236],[115.99028,4.35235],[115.99078,4.35217],[115.99103,4.35224],[115.99142,4.35196],[115.99217,4.35147],[115.99297,4.35149],[115.99364,4.35125],[115.99384,4.35049],[115.99374,4.34959],[115.9941,4.34909],[115.99453,4.349],[115.99506,4.34883],[115.99589,4.34875],[115.99665,4.3487],[115.9978,4.34857],[115.99817,4.34877],[115.99876,4.3482],[115.99915,4.34812],[116.0,4.34803],[116.00015,4.34802],[116.00086,4.34791],[116.00153,4.34797],[116.00191,4.3481],[116.00241,4.34807],[116.00331,4.34788],[116.0039,4.34768],[116.00424,4.34747],[116.00462,4.34676],[116.00467,4.34608],[116.00463,4.34475],[116.00447,4.34413],[116.00469,4.34382],[116.00463,4.34269],[116.00483,4.3422],[116.00509,4.34193],[116.00513,4.34107],[116.00538,4.34081],[116.00588,4.34032],[116.00603,4.33949],[116.00614,4.33917],[116.00596,4.33895],[116.00605,4.33864],[116.00666,4.33782],[116.00665,4.3376],[116.00697,4.33722],[116.00751,4.3365],[116.00815,4.33613],[116.00848,4.33595],[116.00873,4.33534],[116.00941,4.33527],[116.00972,4.33494],[116.011,4.3353],[116.01228,4.33586],[116.01242,4.33627],[116.0128,4.3364],[116.01379,4.33664],[116.01435,4.33663],[116.01482,4.33651],[116.01557,4.33612],[116.01631,4.33631],[116.01641,4.33592],[116.01675,4.33562],[116.01729,4.335],[116.01811,4.33459],[116.01859,4.33393],[116.01942,4.33345],[116.01984,4.33322],[116.02049,4.33328],[116.02093,4.33292],[116.02138,4.33268],[116.02218,4.33266],[116.02272,4.33282],[116.02313,4.333],[116.02369,4.33295],[116.02399,4.33314],[116.02469,4.33349],[116.02542,4.33345],[116.02613,4.33303],[116.02655,4.33294],[116.02701,4.33231],[116.02734,4.33211],[116.02809,4.33193],[116.02929,4.33133],[116.02957,4.33117],[116.02975,4.33107],[116.03033,4.32992],[116.03077,4.32978],[116.0313,4.32937],[116.03194,4.329],[116.03269,4.3287],[116.03268,4.32784],[116.03268,4.32782],[116.03251,4.32747],[116.0321,4.32743],[116.03196,4.32726],[116.03201,4.32654],[116.0317,4.32564],[116.03145,4.32473],[116.03132,4.32418],[116.03162,4.32374],[116.03208,4.32328],[116.03277,4.32306],[116.03284,4.32265],[116.03334,4.3223],[116.03411,4.32165],[116.03432,4.32107],[116.03469,4.32058],[116.03514,4.32027],[116.03539,4.31998],[116.03531,4.31954],[116.0352,4.31924],[116.03501,4.31904],[116.03464,4.31882],[116.03425,4.31729],[116.0342,4.31697],[116.03401,4.31649],[116.03425,4.31619],[116.03436,4.31557],[116.03446,4.31518],[116.03446,4.31499],[116.03446,4.31486],[116.03441,4.31446],[116.03442,4.31376],[116.03428,4.31332],[116.03419,4.31307],[116.03395,4.31296],[116.03386,4.31267],[116.03353,4.31215],[116.03378,4.31172],[116.03386,4.31133],[116.03401,4.31062],[116.03377,4.31008],[116.03375,4.30965],[116.03352,4.30888],[116.03338,4.30843],[116.03306,4.30814],[116.0332,4.3078],[116.03318,4.30761],[116.03324,4.30714],[116.03327,4.30685],[116.03331,4.30649],[116.03317,4.30596],[116.03311,4.30525],[116.03298,4.30489],[116.03298,4.30451],[116.03291,4.30409],[116.03297,4.30357],[116.03282,4.30263],[116.03258,4.30141],[116.03252,4.30095],[116.03263,4.30048],[116.033,4.30011],[116.03342,4.29973],[116.03349,4.29926],[116.03387,4.29923],[116.03434,4.29888],[116.03467,4.2986],[116.03522,4.29812],[116.03529,4.29778],[116.03592,4.2967],[116.03595,4.29611],[116.03576,4.29531],[116.03571,4.29504],[116.03677,4.29455],[116.03766,4.29394],[116.03811,4.29363],[116.03913,4.29366],[116.03969,4.29346],[116.04026,4.2932],[116.04074,4.29318],[116.04104,4.29289],[116.04115,4.29266],[116.04125,4.29247],[116.04133,4.29221],[116.04207,4.2916],[116.04262,4.29126],[116.0431,4.29096],[116.04329,4.29077],[116.04373,4.29077],[116.04411,4.29086],[116.04453,4.29087],[116.04497,4.29056],[116.04604,4.29046],[116.04629,4.29051],[116.04664,4.29058],[116.04719,4.29058],[116.04779,4.29102],[116.04827,4.29078],[116.04854,4.29073],[116.0488,4.29069],[116.04915,4.29064],[116.04979,4.29048],[116.05031,4.29018],[116.05055,4.29014],[116.05121,4.28987],[116.05169,4.28974],[116.05229,4.28988],[116.05294,4.28967],[116.05272,4.28885],[116.05314,4.28812],[116.05324,4.28745],[116.05404,4.28673],[116.05407,4.28654],[116.05507,4.28592],[116.05509,4.28591],[116.05518,4.28576],[116.05552,4.28537],[116.05562,4.28501],[116.05607,4.28498],[116.05623,4.28482],[116.05651,4.28431],[116.05661,4.28381],[116.0567,4.28354],[116.05733,4.28307],[116.05786,4.28288],[116.0583,4.28291],[116.05875,4.2829],[116.05957,4.2827],[116.06011,4.28248],[116.0606,4.28191],[116.06097,4.28198],[116.06126,4.28171],[116.06199,4.2817],[116.06241,4.28177],[116.06314,4.28124],[116.06372,4.28103],[116.0645,4.281],[116.0651,4.2807],[116.06578,4.28064],[116.06595,4.28019],[116.06676,4.27964],[116.06753,4.27936],[116.06782,4.2795],[116.06863,4.27965],[116.06878,4.27968],[116.0696,4.27942],[116.07008,4.279],[116.07072,4.27863],[116.07151,4.27844],[116.07196,4.27816],[116.0723,4.2775],[116.07298,4.27721],[116.07348,4.27693],[116.07383,4.27656],[116.07438,4.2769],[116.07515,4.27713],[116.07545,4.27698],[116.07573,4.27663],[116.08414,4.28118],[116.08447,4.28164],[116.08474,4.28236],[116.08448,4.28288],[116.08416,4.284],[116.08379,4.28505],[116.08477,4.28604],[116.08479,4.28667],[116.08493,4.28718],[116.08505,4.28804],[116.08547,4.2887],[116.08557,4.2891],[116.08581,4.28954],[116.08627,4.29059],[116.08617,4.29085],[116.08605,4.29113],[116.0861,4.2919],[116.086,4.29277],[116.08617,4.29357],[116.08629,4.29427],[116.0867,4.29487],[116.08695,4.29553],[116.0876,4.29597],[116.08812,4.29653],[116.08785,4.29694],[116.08751,4.29736],[116.08756,4.29808],[116.0879,4.29883],[116.08804,4.29973],[116.08778,4.30028],[116.08734,4.3008],[116.08728,4.30154],[116.08742,4.30189],[116.08736,4.30263],[116.08762,4.30329],[116.08764,4.30379],[116.08779,4.30468],[116.08826,4.30443],[116.08877,4.3041],[116.08933,4.30415],[116.09004,4.3043],[116.09103,4.30453],[116.09181,4.30457],[116.09242,4.30469],[116.09261,4.3053],[116.09293,4.30628],[116.09259,4.30659],[116.09258,4.30732],[116.09265,4.30787],[116.09291,4.3081],[116.09334,4.30817],[116.09382,4.30863],[116.09398,4.30897],[116.09463,4.30924],[116.09506,4.30967],[116.09563,4.31032],[116.09594,4.31074],[116.09615,4.3113],[116.09619,4.3117],[116.09624,4.31215],[116.09622,4.31261],[116.09634,4.31295],[116.09609,4.31391],[116.09649,4.31432],[116.09685,4.31481],[116.09721,4.31496],[116.09811,4.31509],[116.09855,4.31569],[116.09909,4.31616],[116.09948,4.31659],[116.09959,4.31671],[116.10006,4.31705],[116.10047,4.31701],[116.1015,4.31751],[116.10205,4.3178],[116.10286,4.31827],[116.10355,4.31904],[116.10371,4.31969],[116.10411,4.32007],[116.10481,4.32063],[116.10505,4.32117],[116.10554,4.32217],[116.10588,4.32315],[116.1061,4.32437],[116.10726,4.32467],[116.10789,4.32479],[116.10862,4.32482],[116.10889,4.32494],[116.1092,4.32515],[116.11003,4.32485],[116.11053,4.32444],[116.11118,4.32452],[116.11188,4.32481],[116.11254,4.32534],[116.1124,4.32634],[116.11259,4.32669],[116.11276,4.32743],[116.11259,4.32832],[116.11247,4.32936],[116.11244,4.33014],[116.11233,4.33092],[116.1122,4.33174],[116.1131,4.33216],[116.11364,4.33254],[116.11428,4.33246],[116.11457,4.33337],[116.11537,4.33362],[116.11564,4.33421],[116.11666,4.33499],[116.11724,4.33541],[116.11781,4.33551],[116.1186,4.33482],[116.11926,4.33452],[116.11963,4.33419],[116.12076,4.33374],[116.12128,4.33361],[116.12207,4.33369],[116.12283,4.33248],[116.12345,4.33184],[116.12426,4.33176],[116.12533,4.33152],[116.12655,4.33131],[116.12729,4.33099],[116.12811,4.33071],[116.12892,4.3305],[116.12899,4.33049],[116.12991,4.33096],[116.13253,4.33008],[116.13422,4.32949],[116.13418,4.32939],[116.1346,4.32939],[116.1351,4.32977],[116.13524,4.33027],[116.13536,4.33071],[116.13556,4.3313],[116.13575,4.33205],[116.13665,4.33197],[116.13718,4.33263],[116.13756,4.33344],[116.13811,4.33408],[116.13863,4.33434],[116.13891,4.33447],[116.13939,4.3353],[116.13984,4.33582],[116.14025,4.3367],[116.14068,4.33735],[116.14135,4.33802],[116.14195,4.33784],[116.14232,4.33775],[116.14286,4.33779],[116.14345,4.33765],[116.14438,4.33743],[116.14539,4.33767],[116.14598,4.3383],[116.14604,4.33912],[116.14616,4.33967],[116.1464,4.33947],[116.14715,4.33957],[116.14768,4.33996],[116.14867,4.34056],[116.14947,4.34065],[116.14971,4.34029],[116.15,4.34026],[116.15136,4.33984],[116.15157,4.33939],[116.15187,4.33963],[116.15274,4.33966],[116.15329,4.33913],[116.15373,4.33868],[116.15418,4.33838],[116.1548,4.33838],[116.15562,4.33838],[116.15607,4.33838],[116.15637,4.33838],[116.15646,4.33871],[116.15652,4.33886],[116.1565,4.33909],[116.15662,4.33941],[116.15688,4.33986],[116.15688,4.34044],[116.15727,4.34097],[116.15723,4.3413],[116.15745,4.34188],[116.15762,4.34206],[116.15779,4.34275],[116.15771,4.34324],[116.15767,4.3435],[116.15774,4.34404],[116.15776,4.34458],[116.15791,4.3451],[116.15787,4.34575],[116.15777,4.3462],[116.15774,4.34688],[116.1578,4.34714],[116.15789,4.34744]]]]},"properties":{"kdprov":"65","kdkab":"04","kdkec":"032","kddesa":"005","kdsls":"2001","idsls":"65040320052001","nmprov":"KALIMANTAN UTARA","nmkab":"NUNUKAN","nmkec":"LUMBIS HULU","nmdesa":"KABUNGALOR","nmsls":"HUTAN"}},{"type":"Feature","geometry":{"type":"MultiPolygon","coordinates":[[[[116.21215,4.30066],[116.21241,4.30068],[116.21293,4.30025],[116.21293,4.30026],[116.21448,4.30008],[116.21603,4.30018],[116.21635,4.30044],[116.2165,4.29998],[116.21655,4.29982],[116.21608,4.29654],[116.21669,4.29103],[116.21986,4.28228],[116.21111,4.27263],[116.19031,4.26736],[116.17674,4.26494],[116.17689,4.26781],[116.17975,4.27263],[116.18096,4.27655],[116.18096,4.28409],[116.18382,4.2862],[116.18292,4.29027],[116.18413,4.29374],[116.18593,4.29718],[116.18788,4.29724],[116.19117,4.29624],[116.19359,4.29538],[116.19416,4.29196],[116.19659,4.28967],[116.19945,4.28782],[116.20316,4.2871],[116.20744,4.29024],[116.20816,4.29296],[116.20784,4.29483],[116.20758,4.29638],[116.20816,4.30052],[116.20944,4.30181],[116.21215,4.30066]]]]},"properties":{"kdprov":"65","kdkab":"04","kdkec":"032","kddesa":"010","kdsls":"2001","idsls":"65040320102001","nmprov":"KALIMANTAN UTARA","nmkab":"NUNUKAN","nmkec":"LUMBIS HULU","nmdesa":"LEPAGA","nmsls":"HUTAN"}},{"type":"Feature","geometry":{"type":"MultiPolygon","coordinates":[[[[116.22932,4.37809],[116.2254,4.35933],[116.21678,4.34282],[116.21038,4.33226],[116.2077,4.32155],[116.21068,4.31069],[116.21556,4.30383],[116.21509,4.30262],[116.21426,4.30093],[116.21359,4.30077],[116.21241,4.30068],[116.21215,4.30066],[116.208,4.30742],[116.20265,4.31813],[116.19358,4.32482],[116.17484,4.3385],[116.16487,4.3443],[116.15789,4.34744],[116.15801,4.34779],[116.15811,4.34839],[116.15818,4.34901],[116.15827,4.34934],[116.15835,4.35021],[116.15841,4.35044],[116.15839,4.35079],[116.15832,4.35138],[116.15824,4.35207],[116.15847,4.35268],[116.15852,4.35305],[116.15856,4.35361],[116.15862,4.3542],[116.15877,4.35485],[116.15909,4.35501],[116.15931,4.35517],[116.15973,4.35575],[116.15967,4.35604],[116.15993,4.35645],[116.15981,4.35725],[116.15958,4.35766],[116.15955,4.35816],[116.15958,4.35856],[116.15954,4.3591],[116.15944,4.35941],[116.15923,4.35983],[116.15957,4.36062],[116.1596,4.36107],[116.16009,4.36146],[116.16006,4.36244],[116.15993,4.36298],[116.16013,4.36367],[116.16032,4.36402],[116.16058,4.3644],[116.16075,4.36489],[116.1606,4.36524],[116.16047,4.36544],[116.16048,4.36566],[116.16059,4.36598],[116.16089,4.36629],[116.16071,4.36688],[116.16068,4.36691],[116.16059,4.36704],[116.16067,4.36748],[116.1609,4.36787],[116.1611,4.36834],[116.16118,4.36886],[116.16106,4.36929],[116.16101,4.36972],[116.16108,4.37016],[116.16142,4.3708],[116.16149,4.37146],[116.1618,4.37196],[116.16196,4.37235],[116.16195,4.37272],[116.16191,4.37361],[116.16193,4.37402],[116.16172,4.37462],[116.16184,4.37505],[116.16193,4.37553],[116.16217,4.37654],[116.16234,4.3769],[116.16267,4.37782],[116.16277,4.37817],[116.1631,4.37869],[116.16286,4.37962],[116.16301,4.38013],[116.16329,4.38028],[116.16374,4.38049],[116.16368,4.38082],[116.16401,4.38138],[116.16444,4.38186],[116.16444,4.38218],[116.16447,4.38274],[116.16468,4.3833],[116.16469,4.38365],[116.16477,4.3844],[116.16482,4.38484],[116.16578,4.38545],[116.16607,4.38574],[116.16642,4.38618],[116.16701,4.38723],[116.16722,4.38841],[116.16737,4.38915],[116.16789,4.38978],[116.16793,4.39077],[116.16826,4.39091],[116.16966,4.39095],[116.17028,4.3907],[116.17104,4.39051],[116.17144,4.39029],[116.17197,4.38987],[116.17235,4.38927],[116.17248,4.38838],[116.1723,4.38814],[116.17227,4.38761],[116.17269,4.38735],[116.172,4.38663],[116.17189,4.38627],[116.17192,4.38525],[116.17228,4.38482],[116.17292,4.38488],[116.17314,4.38488],[116.17366,4.38461],[116.17436,4.38439],[116.17511,4.38392],[116.17571,4.38358],[116.17611,4.38356],[116.1767,4.38348],[116.17688,4.38308],[116.17701,4.38226],[116.17723,4.38168],[116.17777,4.3811],[116.17814,4.38068],[116.17856,4.38082],[116.17913,4.38079],[116.17997,4.3807],[116.18083,4.38066],[116.18162,4.38019],[116.182,4.38011],[116.18232,4.38058],[116.18274,4.38089],[116.18352,4.38126],[116.18405,4.3813],[116.18463,4.38101],[116.18516,4.38086],[116.18602,4.38122],[116.18676,4.38133],[116.18729,4.3813],[116.18796,4.38108],[116.18883,4.38101],[116.18933,4.38088],[116.18958,4.3804],[116.18991,4.38002],[116.19107,4.38014],[116.19135,4.38034],[116.19205,4.38061],[116.193,4.38042],[116.19364,4.37978],[116.19453,4.37927],[116.1946,4.37891],[116.19582,4.37893],[116.19658,4.37853],[116.19714,4.3784],[116.19761,4.37834],[116.19809,4.37823],[116.19835,4.37819],[116.19901,4.37823],[116.19952,4.37808],[116.19984,4.37768],[116.19988,4.37708],[116.20049,4.37667],[116.20026,4.376],[116.20042,4.3753],[116.20048,4.37472],[116.20061,4.37418],[116.20114,4.37371],[116.20166,4.37356],[116.20224,4.37341],[116.20304,4.37332],[116.20391,4.37323],[116.20447,4.37318],[116.20498,4.373],[116.20535,4.37285],[116.2058,4.37307],[116.20609,4.3734],[116.20661,4.37379],[116.20688,4.37447],[116.20737,4.37465],[116.20767,4.37538],[116.20778,4.37605],[116.20779,4.37667],[116.20771,4.37742],[116.20809,4.3779],[116.20834,4.37815],[116.20863,4.37818],[116.20908,4.37834],[116.20938,4.37825],[116.20995,4.37813],[116.21034,4.37839],[116.21075,4.37881],[116.21112,4.37882],[116.21183,4.37891],[116.21239,4.37874],[116.21286,4.37867],[116.2134,4.37891],[116.21406,4.37918],[116.21482,4.37926],[116.21543,4.37951],[116.2158,4.37997],[116.216,4.38061],[116.21635,4.38073],[116.21665,4.38091],[116.21665,4.3811],[116.21774,4.38089],[116.21832,4.38116],[116.21893,4.38116],[116.21948,4.38122],[116.21995,4.38123],[116.22033,4.38153],[116.22068,4.3817],[116.2213,4.38193],[116.22194,4.38142],[116.22248,4.38106],[116.22316,4.38089],[116.22378,4.3805],[116.22418,4.38036],[116.22458,4.37999],[116.22482,4.37966],[116.22549,4.37943],[116.22617,4.37894],[116.22661,4.37894],[116.2273,4.37916],[116.22788,4.37908],[116.22833,4.37853],[116.22902,4.37831],[116.22931,4.37809],[116.22932,4.37809]]]]},"properties":{"kdprov":"65","kdkab":"04","kdkec":"032","kddesa":"007","kdsls":"2001","idsls":"65040320072001","nmprov":"KALIMANTAN UTARA","nmkab":"NUNUKAN","nmkec":"LUMBIS HULU","nmdesa":"BULU LAUN HULU","nmsls":"HUTAN"}},{"type":"Feature","geometry":{"type":"MultiPolygon","coordinates":[[[[116.2673,4.31359],[116.26664,4.31228],[116.25072,4.28042],[116.25063,4.28025],[116.24894,4.2806],[116.24675,4.28136],[116.24627,4.28297],[116.24494,4.2844],[116.2438,4.28583],[116.24322,4.28773],[116.24265,4.29154],[116.24151,4.29497],[116.23951,4.29763],[116.23761,4.29935],[116.23685,4.30087],[116.23625,4.30255],[116.238,4.30305],[116.23895,4.3031],[116.23931,4.3037],[116.23746,4.30482],[116.23511,4.3043],[116.23456,4.30468],[116.23218,4.30211],[116.22923,4.30011],[116.22666,4.30192],[116.22438,4.30382],[116.22272,4.30568],[116.22141,4.30683],[116.22065,4.30678],[116.21947,4.30671],[116.21837,4.306],[116.21886,4.30768],[116.21964,4.31037],[116.22193,4.3158],[116.23221,4.32598],[116.24172,4.3355],[116.25219,4.35054],[116.26067,4.36586],[116.26118,4.36499],[116.26154,4.36458],[116.26188,4.36381],[116.26218,4.36271],[116.2626,4.36191],[116.26351,4.36188],[116.26422,4.36209],[116.2651,4.36242],[116.26563,4.36249],[116.26639,4.36257],[116.26671,4.36257],[116.26727,4.36238],[116.26815,4.36231],[116.26899,4.36239],[116.26943,4.36238],[116.27018,4.36266],[116.2708,4.36308],[116.27171,4.36235],[116.27294,4.36181],[116.27336,4.36201],[116.27403,4.36204],[116.27499,4.36235],[116.27554,4.36257],[116.27594,4.36268],[116.27645,4.36256],[116.27672,4.36256],[116.27746,4.36215],[116.27802,4.36189],[116.27844,4.36184],[116.27897,4.36124],[116.27936,4.36071],[116.27957,4.36036],[116.27985,4.36015],[116.28052,4.36003],[116.28125,4.36025],[116.28142,4.36065],[116.28178,4.36089],[116.28226,4.36115],[116.28281,4.3618],[116.28371,4.36247],[116.28406,4.36284],[116.28425,4.363],[116.28472,4.3635],[116.28485,4.36423],[116.28539,4.3651],[116.28585,4.36571],[116.28612,4.36583],[116.28666,4.36597],[116.28724,4.36675],[116.28741,4.36694],[116.27271,4.32441],[116.2673,4.31359]]]]},"properties":{"kdprov":"65","kdkab":"04","kdkec":"032","kddesa":"002","kdsls":"2001","idsls":"65040320022001","nmprov":"KALIMANTAN UTARA","nmkab":"NUNUKAN","nmkec":"LUMBIS HULU","nmdesa":"MAMASIN","nmsls":"HUTAN"}},{"type":"Feature","geometry":{"type":"MultiPolygon","coordinates":[[[[116.25802,4.37169],[116.2547,4.36423],[116.24384,4.34668],[116.23804,4.33732],[116.22045,4.3182],[116.21703,4.31577],[116.21615,4.31326],[116.21595,4.3127],[116.21598,4.312],[116.21603,4.31035],[116.21616,4.30989],[116.21667,4.30806],[116.21719,4.306],[116.21619,4.30522],[116.21246,4.31263],[116.21306,4.31932],[116.21916,4.32497],[116.23299,4.34103],[116.23968,4.36126],[116.24245,4.37593],[116.2428,4.37591],[116.24342,4.3759],[116.24383,4.37565],[116.24426,4.37576],[116.24493,4.37601],[116.24586,4.37586],[116.24668,4.37575],[116.24699,4.37558],[116.2477,4.37505],[116.24806,4.37482],[116.24842,4.37485],[116.24906,4.37514],[116.24974,4.37553],[116.25,4.37575],[116.25029,4.37599],[116.25089,4.37607],[116.25156,4.37641],[116.25213,4.37671],[116.25309,4.3771],[116.25391,4.37687],[116.25422,4.37629],[116.25501,4.37563],[116.25518,4.37523],[116.25562,4.37394],[116.25642,4.37318],[116.25696,4.37265],[116.25747,4.3721],[116.25802,4.37169]]]]},"properties":{"kdprov":"65","kdkab":"04","kdkec":"032","kddesa":"003","kdsls":"2001","idsls":"65040320032001","nmprov":"KALIMANTAN UTARA","nmkab":"NUNUKAN","nmkec":"LUMBIS HULU","nmdesa":"DUYAN","nmsls":"HUTAN"}},{"type":"Feature","geometry":{"type":"MultiPolygon","coordinates":[[[[116.21725,4.30931],[116.21707,4.3092],[116.21708,4.30858],[116.21851,4.30803],[116.21886,4.30768],[116.21837,4.306],[116.21736,4.30534],[116.21719,4.306],[116.21667,4.30806],[116.21616,4.30989],[116.21667,4.30962],[116.21725,4.30931]]]]},"properties":{"kdprov":"65","kdkab":"04","kdkec":"032","kddesa":"006","kdsls":"0001","idsls":"65040320060001","nmprov":"KALIMANTAN UTARA","nmkab":"NUNUKAN","nmkec":"LUMBIS HULU","nmdesa":"TETAGAS","nmsls":"RT 001"}},{"type":"Feature","geometry":{"type":"MultiPolygon","coordinates":[[[[116.26067,4.36586],[116.25219,4.35054],[116.24172,4.3355],[116.23221,4.32598],[116.22193,4.3158],[116.21964,4.31037],[116.21886,4.30768],[116.21851,4.30803],[116.21708,4.30858],[116.21707,4.3092],[116.21725,4.30931],[116.21752,4.30947],[116.21811,4.31047],[116.21803,4.31197],[116.21837,4.31188],[116.21865,4.31212],[116.21849,4.31279],[116.21799,4.31269],[116.21615,4.31326],[116.21703,4.31577],[116.22045,4.3182],[116.23804,4.33732],[116.24384,4.34668],[116.2547,4.36423],[116.25802,4.37169],[116.2581,4.37114],[116.25806,4.3708],[116.25809,4.37031],[116.25814,4.36996],[116.25853,4.36966],[116.25874,4.36918],[116.25876,4.36816],[116.25845,4.36742],[116.25892,4.3674],[116.25932,4.36745],[116.25969,4.36721],[116.2603,4.3668],[116.26054,4.36657],[116.26067,4.36586]]]]},"properties":{"kdprov":"65","kdkab":"04","kdkec":"032","kddesa":"001","kdsls":"2001","idsls":"65040320012001","nmprov":"KALIMANTAN UTARA","nmkab":"NUNUKAN","nmkec":"LUMBIS HULU","nmdesa":"SIBALU","nmsls":"HUTAN"}},{"type":"Feature","geometry":{"type":"MultiPolygon","coordinates":[[[[116.21246,4.31263],[116.21068,4.31069],[116.2077,4.32155],[116.21038,4.33226],[116.21678,4.34282],[116.2254,4.35933],[116.22932,4.37809],[116.2296,4.37808],[116.23028,4.37803],[116.23114,4.37776],[116.2318,4.37793],[116.23261,4.37786],[116.23311,4.37773],[116.23344,4.37767],[116.23411,4.37772],[116.2374,4.37644],[116.23751,4.37649],[116.23799,4.37671],[116.23861,4.37703],[116.23919,4.37685],[116.23974,4.37656],[116.24004,4.37651],[116.2404,4.37642],[116.24093,4.37594],[116.24137,4.37595],[116.24209,4.37596],[116.24245,4.37593],[116.23968,4.36126],[116.23299,4.34103],[116.21916,4.32497],[116.21306,4.31932],[116.21246,4.31263]]]]},"properties":{"kdprov":"65","kdkab":"04","kdkec":"032","kddesa":"006","kdsls":"2001","idsls":"65040320062001","nmprov":"KALIMANTAN UTARA","nmkab":"NUNUKAN","nmkec":"LUMBIS HULU","nmdesa":"TETAGAS","nmsls":"HUTAN"}},{"type":"Feature","geometry":{"type":"MultiPolygon","coordinates":[[[[116.21799,4.31269],[116.21849,4.31279],[116.21865,4.31212],[116.21837,4.31188],[116.21803,4.31197],[116.21799,4.31269]]]]},"properties":{"kdprov":"65","kdkab":"04","kdkec":"032","kddesa":"009","kdsls":"0001","idsls":"65040320090001","nmprov":"KALIMANTAN UTARA","nmkab":"NUNUKAN","nmkec":"LUMBIS HULU","nmdesa":"KALISUN","nmsls":"RT 001"}},{"type":"Feature","geometry":{"type":"MultiPolygon","coordinates":[[[[116.21803,4.31197],[116.21771,4.31195],[116.21661,4.31194],[116.21598,4.312],[116.21595,4.3127],[116.21615,4.31326],[116.21799,4.31269],[116.21803,4.31197]]]]},"properties":{"kdprov":"65","kdkab":"04","kdkec":"032","kddesa":"005","kdsls":"0001","idsls":"65040320050001","nmprov":"KALIMANTAN UTARA","nmkab":"NUNUKAN","nmkec":"LUMBIS HULU","nmdesa":"KABUNGALOR","nmsls":"RT 001"}},{"type":"Feature","geometry":{"type":"MultiPolygon","coordinates":[[[[116.21834,4.30446],[116.21717,4.3051],[116.21736,4.30534],[116.21837,4.306],[116.21947,4.30671],[116.22065,4.30678],[116.21908,4.30538],[116.21834,4.30446]]]]},"properties":{"kdprov":"65","kdkab":"04","kdkec":"032","kddesa":"004","kdsls":"0002","idsls":"65040320040002","nmprov":"KALIMANTAN UTARA","nmkab":"NUNUKAN","nmkec":"LUMBIS HULU","nmdesa":"TAU LUMBIS","nmsls":"RT 002"}}]}