{"type":"FeatureCollection","features":[{"type":"Feature","geometry":{"type":"MultiPolygon","coordinates":[[[[116.77192,3.82769],[116.77192,3.82714],[116.77192,3.82477],[116.77192,3.82388],[116.76096,3.82286],[116.74621,3.81906],[116.72562,3.81061],[116.72244,3.80866],[116.71867,3.80787],[116.71853,3.80783],[116.71699,3.80744],[116.71691,3.80739],[116.71689,3.80738],[116.71692,3.80737],[116.71689,3.80734],[116.71638,3.80688],[116.71566,3.80674],[116.71453,3.80652],[116.7145,3.80651],[116.71153,3.80563],[116.70701,3.80186],[116.69823,3.791],[116.68009,3.77137],[116.66912,3.76323],[116.66862,3.76381],[116.66805,3.76543],[116.66752,3.76672],[116.66624,3.7682],[116.66623,3.76825],[116.67433,3.77374],[116.69812,3.79848],[116.70647,3.80616],[116.71098,3.80776],[116.71488,3.80861],[116.71552,3.80843],[116.71539,3.80829],[116.7153,3.80724],[116.71634,3.80733],[116.7169,3.80749],[116.71824,3.80808],[116.71785,3.80895],[116.71793,3.80897],[116.71846,3.80914],[116.72093,3.80989],[116.73122,3.81732],[116.74479,3.82387],[116.76175,3.83071],[116.77193,3.83208],[116.77193,3.82854],[116.77192,3.82769]]]]},"properties":{"kdprov":"65","kdkab":"04","kdkec":"040","kddesa":"017","kdsls":"1001","idsls":"65040400171001","nmprov":"KALIMANTAN UTARA","nmkab":"NUNUKAN","nmkec":"LUMBIS","nmdesa":"LIANG","nmsls":"PERKEBUNAN SAWIT"}},{"type":"Feature","geometry":{"type":"MultiPolygon","coordinates":[[[[116.77192,3.81311],[116.74327,3.80717],[116.72721,3.80212],[116.71843,3.79557],[116.70966,3.78397],[116.68572,3.76494],[116.6728,3.75622],[116.67272,3.75645],[116.67174,3.75761],[116.67172,3.75994],[116.67134,3.76108],[116.67058,3.76194],[116.66953,3.76276],[116.66912,3.76323],[116.68009,3.77137],[116.69823,3.791],[116.70701,3.80186],[116.71153,3.80563],[116.7145,3.80651],[116.71449,3.80507],[116.7146,3.80411],[116.71571,3.80369],[116.7162,3.80351],[116.71728,3.80436],[116.71751,3.80454],[116.71828,3.80527],[116.71851,3.80655],[116.71853,3.80783],[116.71867,3.80787],[116.72244,3.80866],[116.72562,3.81061],[116.74621,3.81906],[116.76096,3.82286],[116.77192,3.82388],[116.77192,3.81311]]]]},"properties":{"kdprov":"65","kdkab":"04","kdkec":"040","kddesa":"018","kdsls":"1001","idsls":"65040400181001","nmprov":"KALIMANTAN UTARA","nmkab":"NUNUKAN","nmkec":"LUMBIS","nmdesa":"SAPUYAN","nmsls":"PERKEBUNAN"}},{"type":"Feature","geometry":{"type":"MultiPolygon","coordinates":[[[[116.77191,3.78611],[116.76086,3.78309],[116.7472,3.77569],[116.74212,3.77404],[116.74157,3.77429],[116.74049,3.77518],[116.73959,3.77469],[116.73873,3.77457],[116.73815,3.77435],[116.73884,3.77266],[116.73886,3.77254],[116.73914,3.77125],[116.7155,3.75453],[116.68438,3.73797],[116.67706,3.73566],[116.67265,3.73831],[116.67265,3.73895],[116.67265,3.73896],[116.67282,3.73939],[116.67305,3.74089],[116.67448,3.74189],[116.67507,3.74236],[116.67588,3.74302],[116.67708,3.744],[116.67782,3.74461],[116.6787,3.74515],[116.67957,3.7458],[116.67965,3.74586],[116.68113,3.74752],[116.68166,3.74879],[116.68141,3.74901],[116.68764,3.75074],[116.70548,3.75862],[116.72214,3.76933],[116.73255,3.7743],[116.73897,3.77804],[116.74848,3.78466],[116.7629,3.79237],[116.77191,3.79364],[116.77191,3.78736],[116.77191,3.78617],[116.77191,3.78611]]]]},"properties":{"kdprov":"65","kdkab":"04","kdkec":"040","kddesa":"014","kdsls":"1001","idsls":"65040400141001","nmprov":"KALIMANTAN UTARA","nmkab":"NUNUKAN","nmkec":"LUMBIS","nmdesa":"TANJUNG HILIR","nmsls":"KEBUN"}},{"type":"Feature","geometry":{"type":"MultiPolygon","coordinates":[[[[116.77192,3.80128],[116.75738,3.79886],[116.74489,3.79184],[116.7339,3.78496],[116.72957,3.78372],[116.72873,3.78368],[116.7284,3.78457],[116.7278,3.78577],[116.72779,3.78585],[116.72738,3.7882],[116.7265,3.78817],[116.72558,3.78808],[116.72519,3.78811],[116.72527,3.78786],[116.72556,3.78665],[116.72587,3.78562],[116.72614,3.7847],[116.72669,3.78358],[116.72467,3.78349],[116.72338,3.78287],[116.72191,3.78149],[116.70743,3.76985],[116.68557,3.75557],[116.67533,3.75079],[116.67506,3.75109],[116.67463,3.75158],[116.6742,3.75268],[116.67348,3.75402],[116.67329,3.75478],[116.6728,3.75622],[116.68572,3.76494],[116.70966,3.78397],[116.71843,3.79557],[116.72721,3.80212],[116.74327,3.80717],[116.77192,3.81311],[116.77192,3.81035],[116.77192,3.80128]]]]},"properties":{"kdprov":"65","kdkab":"04","kdkec":"040","kddesa":"016","kdsls":"1001","idsls":"65040400161001","nmprov":"KALIMANTAN UTARA","nmkab":"NUNUKAN","nmkec":"LUMBIS","nmdesa":"BULAN BULAN","nmsls":"KEBUN"}},{"type":"Feature","geometry":{"type":"MultiPolygon","coordinates":[[[[116.77191,3.79364],[116.7629,3.79237],[116.74848,3.78466],[116.73897,3.77804],[116.73255,3.7743],[116.72214,3.76933],[116.70548,3.75862],[116.68764,3.75074],[116.68141,3.74901],[116.68087,3.7495],[116.67948,3.74968],[116.67938,3.74969],[116.67926,3.74971],[116.6784,3.74982],[116.67802,3.75001],[116.67801,3.75001],[116.67787,3.75001],[116.67725,3.75001],[116.67644,3.7502],[116.67564,3.75061],[116.67534,3.75077],[116.67533,3.75079],[116.68557,3.75557],[116.70743,3.76985],[116.72191,3.78149],[116.72338,3.78287],[116.72467,3.78349],[116.72669,3.78358],[116.72681,3.78358],[116.72873,3.78368],[116.72957,3.78372],[116.7339,3.78496],[116.74489,3.79184],[116.75738,3.79886],[116.77192,3.80128],[116.77191,3.79364]],[[116.72957,3.77911],[116.72957,3.77877],[116.72947,3.77844],[116.72961,3.77704],[116.72961,3.77701],[116.72993,3.77623],[116.73191,3.7763],[116.73218,3.77676],[116.73235,3.7769],[116.73305,3.77777],[116.73322,3.77899],[116.73219,3.7794],[116.73094,3.77992],[116.72881,3.78126],[116.72813,3.7808],[116.72815,3.78077],[116.72895,3.78012],[116.72945,3.77941],[116.72957,3.77911]]]]},"properties":{"kdprov":"65","kdkab":"04","kdkec":"040","kddesa":"015","kdsls":"1001","idsls":"65040400151001","nmprov":"KALIMANTAN UTARA","nmkab":"NUNUKAN","nmkec":"LUMBIS","nmdesa":"TANJUNG HULU","nmsls":"KEBUN SAWIT"}},{"type":"Feature","geometry":{"type":"MultiPolygon","coordinates":[[[[116.77191,3.78272],[116.76394,3.78072],[116.76319,3.78037],[116.75162,3.77484],[116.74945,3.77362],[116.74513,3.77119],[116.7393,3.76714],[116.73873,3.76675],[116.73637,3.76486],[116.7316,3.76104],[116.71603,3.74691],[116.69219,3.73391],[116.68044,3.7301],[116.68017,3.73066],[116.67762,3.73532],[116.67706,3.73566],[116.68438,3.73797],[116.7155,3.75453],[116.73914,3.77125],[116.73948,3.77149],[116.73948,3.77149],[116.73976,3.76927],[116.74122,3.77084],[116.74269,3.77109],[116.74356,3.77206],[116.74231,3.77324],[116.74136,3.77336],[116.74119,3.77342],[116.74118,3.77343],[116.7414,3.77379],[116.74212,3.77404],[116.7472,3.77569],[116.76086,3.78309],[116.77191,3.78611],[116.77191,3.78604],[116.77191,3.78272]]]]},"properties":{"kdprov":"65","kdkab":"04","kdkec":"040","kddesa":"013","kdsls":"1002","idsls":"65040400131002","nmprov":"KALIMANTAN UTARA","nmkab":"NUNUKAN","nmkec":"LUMBIS","nmdesa":"SUMALUMUNG","nmsls":"KEBUN SAWIT"}},{"type":"Feature","geometry":{"type":"MultiPolygon","coordinates":[[[[116.73724,3.76041],[116.73384,3.75512],[116.73818,3.75073],[116.73993,3.75222],[116.74029,3.75281],[116.74055,3.75321],[116.7416,3.75379],[116.74204,3.75388],[116.7425,3.75328],[116.74374,3.75213],[116.74525,3.75191],[116.748,3.7541],[116.75045,3.75107],[116.74967,3.75092],[116.7473,3.75045],[116.74178,3.74685],[116.73758,3.74664],[116.73589,3.74655],[116.73049,3.74428],[116.72831,3.74284],[116.72775,3.74182],[116.72742,3.74122],[116.7267,3.7399],[116.72597,3.73858],[116.72529,3.73734],[116.72447,3.7353],[116.72444,3.73351],[116.72442,3.73289],[116.72442,3.72872],[116.72088,3.72623],[116.72002,3.72563],[116.71676,3.72404],[116.70779,3.71966],[116.70451,3.71806],[116.70351,3.71784],[116.69073,3.71498],[116.68851,3.71915],[116.68629,3.7214],[116.68325,3.72447],[116.68044,3.7301],[116.69219,3.73391],[116.71603,3.74691],[116.7316,3.76104],[116.73637,3.76486],[116.73711,3.76355],[116.73724,3.76041]]]]},"properties":{"kdprov":"65","kdkab":"04","kdkec":"040","kddesa":"006","kdsls":"0004","idsls":"65040400060004","nmprov":"KALIMANTAN UTARA","nmkab":"NUNUKAN","nmkec":"LUMBIS","nmdesa":"MANSALONG","nmsls":"RT 004"}},{"type":"Feature","geometry":{"type":"MultiPolygon","coordinates":[[[[116.71631,3.71299],[116.71286,3.71269],[116.70943,3.71225],[116.70812,3.70977],[116.70804,3.70682],[116.7098,3.70358],[116.71227,3.70277],[116.71292,3.70253],[116.71297,3.70166],[116.71316,3.6977],[116.70981,3.69844],[116.70833,3.6986],[116.70554,3.69888],[116.7033,3.69916],[116.70261,3.69924],[116.70145,3.69939],[116.69939,3.69988],[116.6992,3.69992],[116.69907,3.69995],[116.69881,3.70002],[116.69567,3.7019],[116.69549,3.70242],[116.69534,3.70283],[116.69166,3.71322],[116.69073,3.71498],[116.70351,3.71784],[116.7042,3.71605],[116.70577,3.71296],[116.70693,3.7112],[116.71024,3.71461],[116.70779,3.71966],[116.71676,3.72404],[116.71735,3.71793],[116.71685,3.71436],[116.71641,3.71325],[116.71631,3.71299]]]]},"properties":{"kdprov":"65","kdkab":"04","kdkec":"040","kddesa":"011","kdsls":"1002","idsls":"65040400111002","nmprov":"KALIMANTAN UTARA","nmkab":"NUNUKAN","nmkec":"LUMBIS","nmdesa":"PA LEMUMUT","nmsls":"KEBUN SAWIT"}},{"type":"Feature","geometry":{"type":"MultiPolygon","coordinates":[[[[116.71629,3.71294],[116.71248,3.71037],[116.71328,3.70826],[116.71268,3.70738],[116.71292,3.70253],[116.71227,3.70277],[116.7098,3.70358],[116.70804,3.70682],[116.70812,3.70977],[116.70943,3.71225],[116.71286,3.71269],[116.71631,3.71299],[116.71631,3.71298],[116.71629,3.71294]]]]},"properties":{"kdprov":"65","kdkab":"04","kdkec":"040","kddesa":"011","kdsls":"0001","idsls":"65040400110001","nmprov":"KALIMANTAN UTARA","nmkab":"NUNUKAN","nmkec":"LUMBIS","nmdesa":"PA LEMUMUT","nmsls":"RT 001"}},{"type":"Feature","geometry":{"type":"MultiPolygon","coordinates":[[[[116.71409,3.70943],[116.71328,3.70826],[116.71248,3.71037],[116.71629,3.71294],[116.71657,3.71302],[116.71409,3.70943]]]]},"properties":{"kdprov":"65","kdkab":"04","kdkec":"040","kddesa":"003","kdsls":"0001","idsls":"65040400030001","nmprov":"KALIMANTAN UTARA","nmkab":"NUNUKAN","nmkec":"LUMBIS","nmdesa":"LIBANG","nmsls":"RT 001"}},{"type":"Feature","geometry":{"type":"MultiPolygon","coordinates":[[[[116.71331,3.69767],[116.71316,3.6977],[116.71297,3.70166],[116.71292,3.70253],[116.71268,3.70738],[116.71328,3.70826],[116.71401,3.70661],[116.71331,3.69767]]]]},"properties":{"kdprov":"65","kdkab":"04","kdkec":"040","kddesa":"003","kdsls":"0003","idsls":"65040400030003","nmprov":"KALIMANTAN UTARA","nmkab":"NUNUKAN","nmkec":"LUMBIS","nmdesa":"LIBANG","nmsls":"RT 003"}},{"type":"Feature","geometry":{"type":"MultiPolygon","coordinates":[[[[116.71527,3.70718],[116.71557,3.70662],[116.71401,3.70661],[116.71328,3.70826],[116.71409,3.70943],[116.71527,3.70718]]]]},"properties":{"kdprov":"65","kdkab":"04","kdkec":"040","kddesa":"003","kdsls":"0002","idsls":"65040400030002","nmprov":"KALIMANTAN UTARA","nmkab":"NUNUKAN","nmkec":"LUMBIS","nmdesa":"LIBANG","nmsls":"RT 002"}},{"type":"Feature","geometry":{"type":"MultiPolygon","coordinates":[[[[116.77189,3.71851],[116.77188,3.69802],[116.77188,3.6951],[116.77054,3.69525],[116.76471,3.69228],[116.76228,3.69105],[116.76014,3.68982],[116.75905,3.68941],[116.75136,3.6855],[116.74894,3.68426],[116.74803,3.6838],[116.74612,3.68154],[116.74548,3.68041],[116.74502,3.67977],[116.74491,3.67951],[116.74476,3.67915],[116.74472,3.67906],[116.74416,3.67807],[116.7415,3.67953],[116.73917,3.6807],[116.73569,3.68244],[116.734,3.68272],[116.73278,3.68292],[116.73129,3.6829],[116.73111,3.68414],[116.7308,3.68636],[116.73067,3.6873],[116.73049,3.68781],[116.72543,3.69114],[116.72449,3.69176],[116.72419,3.69282],[116.72412,3.6931],[116.72355,3.69513],[116.72336,3.69584],[116.7232,3.69643],[116.72311,3.69647],[116.72243,3.69685],[116.71902,3.69873],[116.71806,3.69926],[116.71735,3.69903],[116.71658,3.69877],[116.71653,3.69875],[116.71337,3.69769],[116.71331,3.69767],[116.71401,3.70661],[116.71557,3.70662],[116.71527,3.70718],[116.71409,3.70943],[116.71657,3.71302],[116.71629,3.71294],[116.71631,3.71298],[116.71631,3.71299],[116.71641,3.71325],[116.71685,3.71436],[116.71735,3.71793],[116.71676,3.72404],[116.72002,3.72563],[116.72088,3.72623],[116.7276,3.72224],[116.7453,3.71839],[116.75772,3.71696],[116.77189,3.71851]]]]},"properties":{"kdprov":"65","kdkab":"04","kdkec":"040","kddesa":"003","kdsls":"1001","idsls":"65040400031001","nmprov":"KALIMANTAN UTARA","nmkab":"NUNUKAN","nmkec":"LUMBIS","nmdesa":"LIBANG","nmsls":"KEBUN SAWIT"}},{"type":"Feature","geometry":{"type":"MultiPolygon","coordinates":[[[[116.71519,3.81297],[116.71561,3.81173],[116.71464,3.81184],[116.71452,3.81233],[116.71519,3.81297]]]]},"properties":{"kdprov":"65","kdkab":"04","kdkec":"040","kddesa":"021","kdsls":"0001","idsls":"65040400210001","nmprov":"KALIMANTAN UTARA","nmkab":"NUNUKAN","nmkec":"LUMBIS","nmdesa":"TUBUS","nmsls":"RT 001"}},{"type":"Feature","geometry":{"type":"MultiPolygon","coordinates":[[[[116.71491,3.81103],[116.71464,3.81184],[116.71561,3.81173],[116.71583,3.81147],[116.71491,3.81103]]]]},"properties":{"kdprov":"65","kdkab":"04","kdkec":"040","kddesa":"021","kdsls":"0002","idsls":"65040400210002","nmprov":"KALIMANTAN UTARA","nmkab":"NUNUKAN","nmkec":"LUMBIS","nmdesa":"TUBUS","nmsls":"RT 002"}},{"type":"Feature","geometry":{"type":"MultiPolygon","coordinates":[[[[116.71491,3.81103],[116.71583,3.81147],[116.7161,3.81054],[116.7162,3.81027],[116.71534,3.81047],[116.71515,3.81053],[116.71509,3.81065],[116.71491,3.81103]]]]},"properties":{"kdprov":"65","kdkab":"04","kdkec":"040","kddesa":"021","kdsls":"0003","idsls":"65040400210003","nmprov":"KALIMANTAN UTARA","nmkab":"NUNUKAN","nmkec":"LUMBIS","nmdesa":"TUBUS","nmsls":"RT 003"}},{"type":"Feature","geometry":{"type":"MultiPolygon","coordinates":[[[[116.71534,3.81047],[116.7162,3.81027],[116.71625,3.81012],[116.71643,3.8096],[116.71673,3.8084],[116.71672,3.8084],[116.71615,3.8084],[116.71552,3.80843],[116.71503,3.80889],[116.71509,3.80992],[116.71534,3.81047]]]]},"properties":{"kdprov":"65","kdkab":"04","kdkec":"040","kddesa":"020","kdsls":"0001","idsls":"65040400200001","nmprov":"KALIMANTAN UTARA","nmkab":"NUNUKAN","nmkec":"LUMBIS","nmdesa":"LIKOS","nmsls":"RT 001"}},{"type":"Feature","geometry":{"type":"MultiPolygon","coordinates":[[[[116.77189,3.73012],[116.77189,3.72658],[116.77189,3.71851],[116.75772,3.71696],[116.7453,3.71839],[116.7276,3.72224],[116.72088,3.72623],[116.72442,3.72872],[116.72854,3.72807],[116.72951,3.72807],[116.73009,3.72832],[116.73199,3.72817],[116.73349,3.72837],[116.73388,3.7291],[116.73398,3.73012],[116.73359,3.73157],[116.73354,3.73264],[116.74359,3.73339],[116.74906,3.73363],[116.75811,3.73125],[116.76608,3.72923],[116.77189,3.73012]]]]},"properties":{"kdprov":"65","kdkab":"04","kdkec":"040","kddesa":"001","kdsls":"1002","idsls":"65040400011002","nmprov":"KALIMANTAN UTARA","nmkab":"NUNUKAN","nmkec":"LUMBIS","nmdesa":"SANGKUP","nmsls":"KEBUN"}},{"type":"Feature","geometry":{"type":"MultiPolygon","coordinates":[[[[116.73125,3.73386],[116.73291,3.7333],[116.73354,3.73264],[116.73359,3.73157],[116.73398,3.73012],[116.73388,3.7291],[116.73349,3.72837],[116.73199,3.72817],[116.73009,3.72832],[116.72951,3.72807],[116.72854,3.72807],[116.72442,3.72872],[116.72442,3.73289],[116.72444,3.73351],[116.72494,3.73364],[116.72625,3.7344],[116.72732,3.73508],[116.72788,3.73531],[116.72814,3.73599],[116.72825,3.73619],[116.72846,3.73632],[116.72983,3.7363],[116.72999,3.73637],[116.73019,3.73657],[116.73017,3.73683],[116.72978,3.73762],[116.72989,3.73764],[116.73012,3.73757],[116.73065,3.73677],[116.73061,3.73569],[116.72958,3.73476],[116.72804,3.73461],[116.72683,3.7342],[116.72677,3.73406],[116.72673,3.73385],[116.72694,3.73373],[116.72838,3.73376],[116.72948,3.73384],[116.73125,3.73386]]]]},"properties":{"kdprov":"65","kdkab":"04","kdkec":"040","kddesa":"001","kdsls":"0001","idsls":"65040400010001","nmprov":"KALIMANTAN UTARA","nmkab":"NUNUKAN","nmkec":"LUMBIS","nmdesa":"SANGKUP","nmsls":"RT 001"}},{"type":"Feature","geometry":{"type":"MultiPolygon","coordinates":[[[[116.72978,3.73762],[116.73017,3.73683],[116.73019,3.73657],[116.72999,3.73637],[116.72983,3.7363],[116.72846,3.73632],[116.72825,3.73619],[116.72814,3.73599],[116.72788,3.73531],[116.72732,3.73508],[116.72625,3.7344],[116.72494,3.73364],[116.72444,3.73351],[116.72447,3.7353],[116.72529,3.73734],[116.72597,3.73858],[116.72696,3.73794],[116.72853,3.7377],[116.72907,3.73752],[116.72963,3.73759],[116.72978,3.73762]]]]},"properties":{"kdprov":"65","kdkab":"04","kdkec":"040","kddesa":"001","kdsls":"0002","idsls":"65040400010002","nmprov":"KALIMANTAN UTARA","nmkab":"NUNUKAN","nmkec":"LUMBIS","nmdesa":"SANGKUP","nmsls":"RT 002"}},{"type":"Feature","geometry":{"type":"MultiPolygon","coordinates":[[[[116.73019,3.73893],[116.72988,3.73879],[116.72969,3.73851],[116.72963,3.73826],[116.73084,3.73768],[116.73158,3.73702],[116.73205,3.73638],[116.73205,3.73637],[116.73205,3.73637],[116.73125,3.73386],[116.72948,3.73384],[116.72838,3.73376],[116.72694,3.73373],[116.72673,3.73385],[116.72677,3.73406],[116.72683,3.7342],[116.72804,3.73461],[116.72958,3.73476],[116.73061,3.73569],[116.73065,3.73677],[116.73012,3.73757],[116.72989,3.73764],[116.72978,3.73762],[116.72963,3.73759],[116.72907,3.73752],[116.72853,3.7377],[116.72696,3.73794],[116.72597,3.73858],[116.7267,3.7399],[116.72754,3.73934],[116.72856,3.73907],[116.72942,3.739],[116.73019,3.73893]]]]},"properties":{"kdprov":"65","kdkab":"04","kdkec":"040","kddesa":"002","kdsls":"0002","idsls":"65040400020002","nmprov":"KALIMANTAN UTARA","nmkab":"NUNUKAN","nmkec":"LUMBIS","nmdesa":"PA LOO","nmsls":"RT 002"}},{"type":"Feature","geometry":{"type":"MultiPolygon","coordinates":[[[[116.73027,3.73914],[116.73021,3.73903],[116.73065,3.73883],[116.73071,3.73894],[116.73191,3.73848],[116.73262,3.73901],[116.73267,3.73942],[116.73212,3.7403],[116.73211,3.74046],[116.73226,3.74039],[116.73241,3.74033],[116.73284,3.74035],[116.73303,3.74043],[116.73397,3.74062],[116.73487,3.74075],[116.73647,3.7407],[116.73922,3.74049],[116.74051,3.74066],[116.74275,3.74176],[116.74302,3.7422],[116.74502,3.74057],[116.7438,3.73869],[116.74128,3.73736],[116.73804,3.737],[116.73272,3.73758],[116.7318,3.73768],[116.73104,3.73839],[116.73019,3.73893],[116.72942,3.739],[116.72856,3.73907],[116.72754,3.73934],[116.7267,3.7399],[116.72742,3.74122],[116.72797,3.7411],[116.72992,3.74108],[116.73085,3.74128],[116.73087,3.7413],[116.73107,3.74092],[116.7313,3.74079],[116.73152,3.74067],[116.73167,3.74056],[116.73169,3.74052],[116.73164,3.74048],[116.73147,3.74033],[116.73095,3.74006],[116.73027,3.74003],[116.72965,3.73965],[116.72974,3.73935],[116.73002,3.73928],[116.73015,3.73919],[116.73027,3.73914]]]]},"properties":{"kdprov":"65","kdkab":"04","kdkec":"040","kddesa":"007","kdsls":"1002","idsls":"65040400071002","nmprov":"KALIMANTAN UTARA","nmkab":"NUNUKAN","nmkec":"LUMBIS","nmdesa":"DERALON","nmsls":"KEBUN"}},{"type":"Feature","geometry":{"type":"MultiPolygon","coordinates":[[[[116.74111,3.74376],[116.74091,3.74332],[116.73825,3.7429],[116.73741,3.74285],[116.73611,3.74265],[116.7326,3.74226],[116.73226,3.74207],[116.73217,3.74195],[116.73214,3.74187],[116.73215,3.74184],[116.73215,3.74182],[116.73215,3.74179],[116.73215,3.74176],[116.73212,3.74175],[116.73206,3.74174],[116.73181,3.7417],[116.73141,3.74162],[116.73087,3.7413],[116.73085,3.74128],[116.72992,3.74108],[116.72797,3.7411],[116.72742,3.74122],[116.72775,3.74182],[116.72872,3.74165],[116.73057,3.74157],[116.73101,3.74171],[116.73122,3.74177],[116.73125,3.74159],[116.73143,3.74167],[116.73198,3.7418],[116.73211,3.74183],[116.7321,3.7419],[116.7319,3.74225],[116.73186,3.74267],[116.73187,3.74271],[116.73203,3.74269],[116.73266,3.74283],[116.73538,3.74345],[116.73633,3.74399],[116.73888,3.74422],[116.73989,3.74476],[116.74111,3.74376]]]]},"properties":{"kdprov":"65","kdkab":"04","kdkec":"040","kddesa":"009","kdsls":"1002","idsls":"65040400091002","nmprov":"KALIMANTAN UTARA","nmkab":"NUNUKAN","nmkec":"LUMBIS","nmdesa":"SEMALAT","nmsls":"KEBUN"}},{"type":"Feature","geometry":{"type":"MultiPolygon","coordinates":[[[[116.73233,3.74305],[116.73203,3.74319],[116.73191,3.74296],[116.7314,3.74285],[116.73108,3.74268],[116.73109,3.7422],[116.73091,3.7422],[116.731,3.74176],[116.73101,3.74171],[116.73057,3.74157],[116.72872,3.74165],[116.72775,3.74182],[116.72831,3.74284],[116.73049,3.74428],[116.73589,3.74655],[116.73758,3.74664],[116.73989,3.74476],[116.73888,3.74422],[116.73633,3.74399],[116.73538,3.74345],[116.73266,3.74283],[116.73245,3.74308],[116.73233,3.74305]]]]},"properties":{"kdprov":"65","kdkab":"04","kdkec":"040","kddesa":"008","kdsls":"1002","idsls":"65040400081002","nmprov":"KALIMANTAN UTARA","nmkab":"NUNUKAN","nmkec":"LUMBIS","nmdesa":"SIAWANG","nmsls":"KEBUN"}},{"type":"Feature","geometry":{"type":"MultiPolygon","coordinates":[[[[116.73219,3.7794],[116.7311,3.77761],[116.73085,3.77778],[116.73036,3.77718],[116.72961,3.77704],[116.72947,3.77844],[116.72957,3.77877],[116.72957,3.77911],[116.72945,3.77941],[116.72895,3.78012],[116.72815,3.78077],[116.72813,3.7808],[116.72881,3.78126],[116.73094,3.77992],[116.73219,3.7794]]]]},"properties":{"kdprov":"65","kdkab":"04","kdkec":"040","kddesa":"015","kdsls":"0001","idsls":"65040400150001","nmprov":"KALIMANTAN UTARA","nmkab":"NUNUKAN","nmkec":"LUMBIS","nmdesa":"TANJUNG HULU","nmsls":"RT 001"}},{"type":"Feature","geometry":{"type":"MultiPolygon","coordinates":[[[[116.73305,3.77777],[116.73235,3.7769],[116.73218,3.77676],[116.73191,3.7763],[116.72993,3.77623],[116.72961,3.77701],[116.72961,3.77704],[116.73036,3.77718],[116.73085,3.77778],[116.7311,3.77761],[116.73219,3.7794],[116.73322,3.77899],[116.73305,3.77777]]]]},"properties":{"kdprov":"65","kdkab":"04","kdkec":"040","kddesa":"015","kdsls":"0002","idsls":"65040400150002","nmprov":"KALIMANTAN UTARA","nmkab":"NUNUKAN","nmkec":"LUMBIS","nmdesa":"TANJUNG HULU","nmsls":"RT 002"}},{"type":"Feature","geometry":{"type":"MultiPolygon","coordinates":[[[[116.73205,3.73637],[116.73205,3.73637],[116.73205,3.73638],[116.73158,3.73702],[116.73084,3.73768],[116.72963,3.73826],[116.72969,3.73851],[116.72988,3.73879],[116.73019,3.73893],[116.73104,3.73839],[116.7318,3.73768],[116.73272,3.73758],[116.73322,3.73688],[116.73318,3.73605],[116.73314,3.73513],[116.73125,3.73386],[116.73205,3.73637]]]]},"properties":{"kdprov":"65","kdkab":"04","kdkec":"040","kddesa":"002","kdsls":"0001","idsls":"65040400020001","nmprov":"KALIMANTAN UTARA","nmkab":"NUNUKAN","nmkec":"LUMBIS","nmdesa":"PA LOO","nmsls":"RT 001"}},{"type":"Feature","geometry":{"type":"MultiPolygon","coordinates":[[[[116.74281,3.74237],[116.74302,3.7422],[116.74275,3.74176],[116.74051,3.74066],[116.73922,3.74049],[116.73647,3.7407],[116.73487,3.74075],[116.73397,3.74062],[116.73303,3.74043],[116.73284,3.74035],[116.73241,3.74033],[116.73226,3.74039],[116.73211,3.74046],[116.73199,3.74045],[116.73185,3.74042],[116.73173,3.74047],[116.73169,3.74052],[116.73167,3.74056],[116.73152,3.74067],[116.7313,3.74079],[116.73107,3.74092],[116.73087,3.7413],[116.73141,3.74162],[116.73137,3.74152],[116.73123,3.74133],[116.73126,3.74124],[116.73136,3.74096],[116.73175,3.7406],[116.73187,3.74052],[116.73213,3.74052],[116.73241,3.74041],[116.73268,3.74049],[116.73311,3.74081],[116.73326,3.74109],[116.73337,3.74131],[116.73337,3.74143],[116.73355,3.74149],[116.73429,3.74145],[116.73475,3.74159],[116.73972,3.7418],[116.74144,3.7425],[116.74198,3.74305],[116.74281,3.74237]]]]},"properties":{"kdprov":"65","kdkab":"04","kdkec":"040","kddesa":"012","kdsls":"1002","idsls":"65040400121002","nmprov":"KALIMANTAN UTARA","nmkab":"NUNUKAN","nmkec":"LUMBIS","nmdesa":"SALUDAN","nmsls":"KEBUN SAWIT"}},{"type":"Feature","geometry":{"type":"MultiPolygon","coordinates":[[[[116.73108,3.74268],[116.73148,3.74253],[116.73148,3.74264],[116.73154,3.74264],[116.73154,3.7425],[116.73163,3.74246],[116.73174,3.74216],[116.73185,3.74192],[116.73166,3.74182],[116.73155,3.74198],[116.73154,3.74205],[116.73134,3.74181],[116.73122,3.74177],[116.73101,3.74171],[116.731,3.74176],[116.73091,3.7422],[116.73109,3.7422],[116.73108,3.74268]]]]},"properties":{"kdprov":"65","kdkab":"04","kdkec":"040","kddesa":"008","kdsls":"0001","idsls":"65040400080001","nmprov":"KALIMANTAN UTARA","nmkab":"NUNUKAN","nmkec":"LUMBIS","nmdesa":"SIAWANG","nmsls":"RT 001"}},{"type":"Feature","geometry":{"type":"MultiPolygon","coordinates":[[[[116.73203,3.74319],[116.73233,3.74305],[116.73245,3.74308],[116.73266,3.74283],[116.73203,3.74269],[116.73187,3.74271],[116.73181,3.74272],[116.73172,3.74264],[116.73168,3.74261],[116.73163,3.74246],[116.73154,3.7425],[116.73154,3.74264],[116.73148,3.74264],[116.73148,3.74253],[116.73108,3.74268],[116.7314,3.74285],[116.73191,3.74296],[116.73203,3.74319]]]]},"properties":{"kdprov":"65","kdkab":"04","kdkec":"040","kddesa":"008","kdsls":"0002","idsls":"65040400080002","nmprov":"KALIMANTAN UTARA","nmkab":"NUNUKAN","nmkec":"LUMBIS","nmdesa":"SIAWANG","nmsls":"RT 002"}},{"type":"Feature","geometry":{"type":"MultiPolygon","coordinates":[[[[116.73154,3.74205],[116.73155,3.74198],[116.73166,3.74182],[116.73185,3.74192],[116.73174,3.74216],[116.73163,3.74246],[116.73168,3.74261],[116.73172,3.74264],[116.73179,3.74214],[116.73198,3.7418],[116.73143,3.74167],[116.73125,3.74159],[116.73122,3.74177],[116.73134,3.74181],[116.73154,3.74205]]]]},"properties":{"kdprov":"65","kdkab":"04","kdkec":"040","kddesa":"009","kdsls":"0002","idsls":"65040400090002","nmprov":"KALIMANTAN UTARA","nmkab":"NUNUKAN","nmkec":"LUMBIS","nmdesa":"SEMALAT","nmsls":"RT 002"}},{"type":"Feature","geometry":{"type":"MultiPolygon","coordinates":[[[[116.73231,3.74127],[116.73264,3.74125],[116.73322,3.74138],[116.73337,3.74143],[116.73337,3.74131],[116.73326,3.74109],[116.73273,3.74094],[116.73225,3.74115],[116.73126,3.74124],[116.73123,3.74133],[116.73137,3.74152],[116.73141,3.74162],[116.73181,3.7417],[116.73198,3.74142],[116.73228,3.74128],[116.73231,3.74127]]]]},"properties":{"kdprov":"65","kdkab":"04","kdkec":"040","kddesa":"012","kdsls":"0002","idsls":"65040400120002","nmprov":"KALIMANTAN UTARA","nmkab":"NUNUKAN","nmkec":"LUMBIS","nmdesa":"SALUDAN","nmsls":"RT 002"}},{"type":"Feature","geometry":{"type":"MultiPolygon","coordinates":[[[[116.74799,3.73887],[116.75956,3.73531],[116.77189,3.73792],[116.77189,3.73012],[116.76608,3.72923],[116.75811,3.73125],[116.74906,3.73363],[116.74359,3.73339],[116.73354,3.73264],[116.73291,3.7333],[116.73125,3.73386],[116.73314,3.73513],[116.73318,3.73605],[116.73322,3.73688],[116.73272,3.73758],[116.73804,3.737],[116.74128,3.73736],[116.7438,3.73869],[116.74502,3.74057],[116.74657,3.73931],[116.74799,3.73887]]]]},"properties":{"kdprov":"65","kdkab":"04","kdkec":"040","kddesa":"002","kdsls":"1002","idsls":"65040400021002","nmprov":"KALIMANTAN UTARA","nmkab":"NUNUKAN","nmkec":"LUMBIS","nmdesa":"PA LOO","nmsls":"KEBUN / LADANG"}},{"type":"Feature","geometry":{"type":"MultiPolygon","coordinates":[[[[116.73126,3.74124],[116.73225,3.74115],[116.73273,3.74094],[116.73326,3.74109],[116.73311,3.74081],[116.73268,3.74049],[116.73241,3.74041],[116.73213,3.74052],[116.73187,3.74052],[116.73175,3.7406],[116.73136,3.74096],[116.73126,3.74124]]]]},"properties":{"kdprov":"65","kdkab":"04","kdkec":"040","kddesa":"012","kdsls":"0001","idsls":"65040400120001","nmprov":"KALIMANTAN UTARA","nmkab":"NUNUKAN","nmkec":"LUMBIS","nmdesa":"SALUDAN","nmsls":"RT 001"}},{"type":"Feature","geometry":{"type":"MultiPolygon","coordinates":[[[[116.71539,3.80478],[116.71546,3.80444],[116.71578,3.80401],[116.71571,3.80369],[116.7146,3.80411],[116.71449,3.80507],[116.7145,3.80651],[116.71453,3.80652],[116.71566,3.80674],[116.71544,3.80518],[116.71546,3.80492],[116.71539,3.80478]]]]},"properties":{"kdprov":"65","kdkab":"04","kdkec":"040","kddesa":"018","kdsls":"0001","idsls":"65040400180001","nmprov":"KALIMANTAN UTARA","nmkab":"NUNUKAN","nmkec":"LUMBIS","nmdesa":"SAPUYAN","nmsls":"RT 001"}},{"type":"Feature","geometry":{"type":"MultiPolygon","coordinates":[[[[116.71635,3.80541],[116.71652,3.80519],[116.71671,3.80489],[116.71728,3.80436],[116.7162,3.80351],[116.71571,3.80369],[116.71578,3.80401],[116.71546,3.80444],[116.71539,3.80478],[116.71546,3.80492],[116.71544,3.80518],[116.71566,3.80674],[116.71638,3.80688],[116.71635,3.80541]]]]},"properties":{"kdprov":"65","kdkab":"04","kdkec":"040","kddesa":"018","kdsls":"0002","idsls":"65040400180002","nmprov":"KALIMANTAN UTARA","nmkab":"NUNUKAN","nmkec":"LUMBIS","nmdesa":"SAPUYAN","nmsls":"RT 002"}},{"type":"Feature","geometry":{"type":"MultiPolygon","coordinates":[[[[116.71728,3.80436],[116.71671,3.80489],[116.71652,3.80519],[116.71635,3.80541],[116.71638,3.80688],[116.71689,3.80734],[116.71692,3.80737],[116.71689,3.80738],[116.71691,3.80739],[116.71699,3.80744],[116.71853,3.80783],[116.71851,3.80655],[116.71828,3.80527],[116.71751,3.80454],[116.71728,3.80436]]]]},"properties":{"kdprov":"65","kdkab":"04","kdkec":"040","kddesa":"018","kdsls":"0003","idsls":"65040400180003","nmprov":"KALIMANTAN UTARA","nmkab":"NUNUKAN","nmkec":"LUMBIS","nmdesa":"SAPUYAN","nmsls":"RT 003"}},{"type":"Feature","geometry":{"type":"MultiPolygon","coordinates":[[[[116.70351,3.71784],[116.70451,3.71806],[116.70779,3.71966],[116.71024,3.71461],[116.70693,3.7112],[116.70577,3.71296],[116.7042,3.71605],[116.70351,3.71784]]]]},"properties":{"kdprov":"65","kdkab":"04","kdkec":"040","kddesa":"011","kdsls":"4001","idsls":"65040400114001","nmprov":"KALIMANTAN UTARA","nmkab":"NUNUKAN","nmkec":"LUMBIS","nmdesa":"PA LEMUMUT","nmsls":"PEMUKIMAN"}},{"type":"Feature","geometry":{"type":"MultiPolygon","coordinates":[[[[116.68973,3.84185],[116.68928,3.84104],[116.68837,3.84108],[116.68827,3.84142],[116.68786,3.84159],[116.68758,3.84174],[116.68745,3.84187],[116.68737,3.84202],[116.68804,3.84192],[116.68886,3.84185],[116.68973,3.84185]]]]},"properties":{"kdprov":"65","kdkab":"04","kdkec":"040","kddesa":"026","kdsls":"0002","idsls":"65040400260002","nmprov":"KALIMANTAN UTARA","nmkab":"NUNUKAN","nmkec":"LUMBIS","nmdesa":"PATAL I","nmsls":"RT 002"}},{"type":"Feature","geometry":{"type":"MultiPolygon","coordinates":[[[[116.68737,3.84202],[116.68745,3.84187],[116.68758,3.84174],[116.68786,3.84159],[116.68827,3.84142],[116.68837,3.84108],[116.68825,3.84068],[116.68727,3.84098],[116.68662,3.84193],[116.68707,3.84202],[116.68737,3.84202]]]]},"properties":{"kdprov":"65","kdkab":"04","kdkec":"040","kddesa":"026","kdsls":"0001","idsls":"65040400260001","nmprov":"KALIMANTAN UTARA","nmkab":"NUNUKAN","nmkec":"LUMBIS","nmdesa":"PATAL I","nmsls":"RT 001"}},{"type":"Feature","geometry":{"type":"MultiPolygon","coordinates":[[[[116.70444,3.82958],[116.70444,3.8299],[116.70397,3.83117],[116.70402,3.83119],[116.70418,3.83108],[116.70427,3.83107],[116.70518,3.83129],[116.706,3.8301],[116.70609,3.82972],[116.70444,3.82958]]]]},"properties":{"kdprov":"65","kdkab":"04","kdkec":"040","kddesa":"025","kdsls":"0001","idsls":"65040400250001","nmprov":"KALIMANTAN UTARA","nmkab":"NUNUKAN","nmkec":"LUMBIS","nmdesa":"LINTONG","nmsls":"RT 001"}},{"type":"Feature","geometry":{"type":"MultiPolygon","coordinates":[[[[116.74231,3.77324],[116.74356,3.77206],[116.74269,3.77109],[116.74122,3.77084],[116.74114,3.77089],[116.74024,3.77203],[116.74025,3.77204],[116.74024,3.77206],[116.7402,3.7721],[116.74022,3.77246],[116.74115,3.77272],[116.74107,3.77279],[116.74116,3.77288],[116.74129,3.77277],[116.74156,3.77292],[116.74122,3.77321],[116.74119,3.77342],[116.74136,3.77336],[116.74231,3.77324]]]]},"properties":{"kdprov":"65","kdkab":"04","kdkec":"040","kddesa":"013","kdsls":"0001","idsls":"65040400130001","nmprov":"KALIMANTAN UTARA","nmkab":"NUNUKAN","nmkec":"LUMBIS","nmdesa":"SUMALUMUNG","nmsls":"RT 001"}},{"type":"Feature","geometry":{"type":"MultiPolygon","coordinates":[[[[116.75171,3.74909],[116.75175,3.74862],[116.75189,3.74827],[116.7521,3.74785],[116.75151,3.74749],[116.75015,3.74651],[116.74953,3.74507],[116.74819,3.73963],[116.74799,3.73887],[116.74657,3.73931],[116.74502,3.74057],[116.74302,3.7422],[116.74281,3.74237],[116.74425,3.74378],[116.74731,3.74684],[116.75078,3.74831],[116.75068,3.74849],[116.75048,3.74886],[116.75062,3.74895],[116.75076,3.74904],[116.75084,3.74909],[116.75088,3.74901],[116.75098,3.74882],[116.75152,3.74895],[116.75171,3.74909]]]]},"properties":{"kdprov":"65","kdkab":"04","kdkec":"040","kddesa":"019","kdsls":"0002","idsls":"65040400190002","nmprov":"KALIMANTAN UTARA","nmkab":"NUNUKAN","nmkec":"LUMBIS","nmdesa":"NAINSID","nmsls":"RT 002"}},{"type":"Feature","geometry":{"type":"MultiPolygon","coordinates":[[[[116.77189,3.73792],[116.75956,3.73531],[116.74799,3.73887],[116.74819,3.73963],[116.74953,3.74507],[116.75015,3.74651],[116.75151,3.74749],[116.7521,3.74785],[116.75215,3.74773],[116.75249,3.74684],[116.75235,3.74673],[116.75229,3.74672],[116.75209,3.74634],[116.75152,3.74628],[116.75153,3.746],[116.75191,3.74549],[116.7514,3.74286],[116.77189,3.73792]]]]},"properties":{"kdprov":"65","kdkab":"04","kdkec":"040","kddesa":"022","kdsls":"0001","idsls":"65040400220001","nmprov":"KALIMANTAN UTARA","nmkab":"NUNUKAN","nmkec":"LUMBIS","nmdesa":"SASIBU","nmsls":"RT 001"}},{"type":"Feature","geometry":{"type":"MultiPolygon","coordinates":[[[[116.75252,3.74993],[116.75206,3.7496],[116.75206,3.7496],[116.75186,3.74977],[116.75201,3.74994],[116.75187,3.75006],[116.7517,3.74987],[116.75171,3.74986],[116.75152,3.74968],[116.75121,3.74977],[116.75083,3.74981],[116.75075,3.74984],[116.75039,3.74999],[116.74992,3.75055],[116.74967,3.75092],[116.75045,3.75107],[116.75148,3.75416],[116.76379,3.7681],[116.76569,3.76908],[116.77191,3.7723],[116.77054,3.76893],[116.76544,3.76368],[116.76103,3.75858],[116.7548,3.75158],[116.75252,3.74993]]]]},"properties":{"kdprov":"65","kdkab":"04","kdkec":"040","kddesa":"005","kdsls":"0001","idsls":"65040400050001","nmprov":"KALIMANTAN UTARA","nmkab":"NUNUKAN","nmkec":"LUMBIS","nmdesa":"SEDONGON","nmsls":"RT 002"}},{"type":"Feature","geometry":{"type":"MultiPolygon","coordinates":[[[[116.7719,3.74805],[116.7719,3.74758],[116.7719,3.74758],[116.7719,3.74758],[116.7719,3.74758],[116.7719,3.74723],[116.7719,3.74516],[116.7719,3.74324],[116.7719,3.74309],[116.77189,3.73792],[116.7514,3.74286],[116.75191,3.74549],[116.75153,3.746],[116.75152,3.74628],[116.75209,3.74634],[116.75229,3.74672],[116.75235,3.74673],[116.75263,3.74648],[116.75348,3.74637],[116.75404,3.74603],[116.75452,3.7457],[116.75481,3.74567],[116.75765,3.74541],[116.76095,3.74631],[116.76412,3.74724],[116.7719,3.75012],[116.7719,3.74972],[116.7719,3.74906],[116.7719,3.74805]]]]},"properties":{"kdprov":"65","kdkab":"04","kdkec":"040","kddesa":"022","kdsls":"0002","idsls":"65040400220002","nmprov":"KALIMANTAN UTARA","nmkab":"NUNUKAN","nmkec":"LUMBIS","nmdesa":"SASIBU","nmsls":"RT 002"}},{"type":"Feature","geometry":{"type":"MultiPolygon","coordinates":[[[[116.75231,3.74867],[116.7526,3.74844],[116.75314,3.74907],[116.75298,3.74927],[116.75252,3.74993],[116.7548,3.75158],[116.76103,3.75858],[116.76544,3.76368],[116.77054,3.76893],[116.77191,3.7723],[116.7719,3.7645],[116.76963,3.762],[116.76512,3.75492],[116.75449,3.74892],[116.7534,3.74833],[116.75333,3.74829],[116.75331,3.74827],[116.75305,3.74804],[116.75283,3.74789],[116.75278,3.74794],[116.75251,3.74812],[116.75207,3.74835],[116.75175,3.74862],[116.75217,3.74885],[116.75231,3.74867]]]]},"properties":{"kdprov":"65","kdkab":"04","kdkec":"040","kddesa":"005","kdsls":"0002","idsls":"65040400050002","nmprov":"KALIMANTAN UTARA","nmkab":"NUNUKAN","nmkec":"LUMBIS","nmdesa":"SEDONGON","nmsls":"RT 003"}},{"type":"Feature","geometry":{"type":"MultiPolygon","coordinates":[[[[116.77193,3.85592],[116.74641,3.83813],[116.72678,3.8301],[116.71196,3.82269],[116.71186,3.82264],[116.71039,3.82472],[116.70875,3.8265],[116.70747,3.82785],[116.70609,3.82972],[116.706,3.8301],[116.70518,3.83129],[116.70483,3.83195],[116.70421,3.8327],[116.70343,3.83342],[116.70248,3.83437],[116.7014,3.83512],[116.71562,3.83913],[116.72799,3.84494],[116.73099,3.8489],[116.73111,3.84892],[116.74586,3.85891],[116.76436,3.88134],[116.77195,3.88778],[116.77194,3.8811],[116.77194,3.87916],[116.77193,3.85592]]]]},"properties":{"kdprov":"65","kdkab":"04","kdkec":"040","kddesa":"025","kdsls":"1001","idsls":"65040400251001","nmprov":"KALIMANTAN UTARA","nmkab":"NUNUKAN","nmkec":"LUMBIS","nmdesa":"LINTONG","nmsls":"KEBUN SAWIT"}},{"type":"Feature","geometry":{"type":"MultiPolygon","coordinates":[[[[116.7014,3.83512],[116.70248,3.83437],[116.70343,3.83342],[116.70421,3.8327],[116.70347,3.83219],[116.70341,3.83212],[116.70397,3.83117],[116.70444,3.8299],[116.70444,3.82958],[116.70609,3.82972],[116.70747,3.82785],[116.70875,3.8265],[116.71039,3.82472],[116.71186,3.82264],[116.70715,3.82028],[116.68693,3.80482],[116.67057,3.79143],[116.6595,3.77868],[116.65881,3.77897],[116.65788,3.77867],[116.65657,3.77864],[116.65593,3.77837],[116.65403,3.77865],[116.65232,3.77948],[116.65217,3.77956],[116.6517,3.77973],[116.65102,3.77998],[116.6505,3.78042],[116.65027,3.7811],[116.65004,3.7818],[116.64896,3.78353],[116.64754,3.78547],[116.64653,3.78606],[116.64643,3.78653],[116.64657,3.78751],[116.64657,3.78756],[116.64679,3.78903],[116.64684,3.7904],[116.64671,3.79064],[116.65204,3.79307],[116.67393,3.81315],[116.68964,3.83057],[116.70077,3.83495],[116.7014,3.83512]]]]},"properties":{"kdprov":"65","kdkab":"04","kdkec":"040","kddesa":"025","kdsls":"2002","idsls":"65040400252002","nmprov":"KALIMANTAN UTARA","nmkab":"NUNUKAN","nmkec":"LUMBIS","nmdesa":"LINTONG","nmsls":"HUTAN"}},{"type":"Feature","geometry":{"type":"MultiPolygon","coordinates":[[[[116.72587,3.78562],[116.72696,3.78566],[116.72779,3.78585],[116.7278,3.78577],[116.7284,3.78457],[116.72873,3.78368],[116.72681,3.78358],[116.72669,3.78358],[116.72614,3.7847],[116.72587,3.78562]]]]},"properties":{"kdprov":"65","kdkab":"04","kdkec":"040","kddesa":"016","kdsls":"0002","idsls":"65040400160002","nmprov":"KALIMANTAN UTARA","nmkab":"NUNUKAN","nmkec":"LUMBIS","nmdesa":"BULAN BULAN","nmsls":"RT 002"}},{"type":"Feature","geometry":{"type":"MultiPolygon","coordinates":[[[[116.72779,3.78585],[116.72696,3.78566],[116.72587,3.78562],[116.72556,3.78665],[116.72527,3.78786],[116.72519,3.78811],[116.72558,3.78808],[116.7265,3.78817],[116.72738,3.7882],[116.72779,3.78585]]]]},"properties":{"kdprov":"65","kdkab":"04","kdkec":"040","kddesa":"016","kdsls":"0001","idsls":"65040400160001","nmprov":"KALIMANTAN UTARA","nmkab":"NUNUKAN","nmkec":"LUMBIS","nmdesa":"BULAN BULAN","nmsls":"RT 001"}},{"type":"Feature","geometry":{"type":"MultiPolygon","coordinates":[[[[116.7014,3.83512],[116.70077,3.83495],[116.68964,3.83057],[116.67393,3.81315],[116.65204,3.79307],[116.64671,3.79064],[116.64611,3.79172],[116.64578,3.79251],[116.6458,3.79276],[116.64585,3.79324],[116.64579,3.79332],[116.64516,3.79417],[116.64511,3.79513],[116.64539,3.79661],[116.64538,3.79669],[116.64535,3.79714],[116.64532,3.79762],[116.64514,3.79782],[116.64973,3.80164],[116.66229,3.81421],[116.66952,3.82468],[116.68132,3.83667],[116.68418,3.84086],[116.68622,3.84189],[116.68646,3.84189],[116.68662,3.84193],[116.68727,3.84098],[116.68825,3.84068],[116.68837,3.84108],[116.68928,3.84104],[116.68973,3.84185],[116.69262,3.84184],[116.69717,3.84267],[116.73099,3.8489],[116.72799,3.84494],[116.71562,3.83913],[116.7014,3.83512]]]]},"properties":{"kdprov":"65","kdkab":"04","kdkec":"040","kddesa":"026","kdsls":"2001","idsls":"65040400262001","nmprov":"KALIMANTAN UTARA","nmkab":"NUNUKAN","nmkec":"LUMBIS","nmdesa":"PATAL I","nmsls":"HUTAN"}},{"type":"Feature","geometry":{"type":"MultiPolygon","coordinates":[[[[116.77744,3.95062],[116.77266,3.94503],[116.77197,3.94422],[116.77196,3.94016],[116.76324,3.93338],[116.75932,3.91946],[116.74575,3.88698],[116.72469,3.86364],[116.71716,3.85581],[116.69797,3.84913],[116.69437,3.84799],[116.68946,3.84588],[116.68765,3.84395],[116.68763,3.84465],[116.68717,3.84496],[116.6868,3.84479],[116.68652,3.84466],[116.68595,3.84414],[116.68588,3.84352],[116.68609,3.84308],[116.6858,3.84304],[116.68486,3.84263],[116.68048,3.83995],[116.66715,3.83167],[116.64897,3.81349],[116.64079,3.80435],[116.63917,3.80188],[116.6386,3.79902],[116.63854,3.79912],[116.63793,3.79898],[116.63762,3.79849],[116.63731,3.79819],[116.63705,3.79792],[116.63629,3.79724],[116.63548,3.79627],[116.63475,3.79605],[116.63493,3.79683],[116.63433,3.79792],[116.63379,3.79867],[116.63268,3.79899],[116.63148,3.79951],[116.63036,3.79913],[116.64045,3.8145],[116.65235,3.82922],[116.66558,3.83978],[116.68462,3.85034],[116.69666,3.85316],[116.7113,3.85852],[116.72629,3.87386],[116.737,3.88743],[116.74521,3.90599],[116.75056,3.92526],[116.75469,3.94774],[116.75601,3.94747],[116.7579,3.94709],[116.76055,3.94579],[116.76407,3.94407],[116.76485,3.94424],[116.76609,3.94451],[116.76813,3.94708],[116.76912,3.94833],[116.77215,3.94945],[116.77372,3.94988],[116.7775,3.95093],[116.77757,3.95095],[116.77777,3.951],[116.77755,3.95074],[116.77744,3.95062]]]]},"properties":{"kdprov":"65","kdkab":"04","kdkec":"040","kddesa":"023","kdsls":"2001","idsls":"65040400232001","nmprov":"KALIMANTAN UTARA","nmkab":"NUNUKAN","nmkec":"LUMBIS","nmdesa":"TALUAN","nmsls":"HUTAN"}},{"type":"Feature","geometry":{"type":"MultiPolygon","coordinates":[[[[116.64973,3.80164],[116.64514,3.79782],[116.64457,3.79845],[116.64315,3.79872],[116.6421,3.79887],[116.64073,3.79827],[116.64014,3.79797],[116.63915,3.79806],[116.6386,3.79902],[116.63917,3.80188],[116.64079,3.80435],[116.64897,3.81349],[116.66715,3.83167],[116.68048,3.83995],[116.68486,3.84263],[116.6858,3.84304],[116.68609,3.84308],[116.68616,3.84308],[116.68637,3.84256],[116.6866,3.84208],[116.68622,3.84189],[116.68418,3.84086],[116.68132,3.83667],[116.66952,3.82468],[116.66229,3.81421],[116.64973,3.80164]]],[[[116.68787,3.84315],[116.68776,3.84305],[116.68769,3.84315],[116.68748,3.84336],[116.68741,3.84341],[116.68746,3.84352],[116.68765,3.84395],[116.68946,3.84588],[116.69437,3.84799],[116.69797,3.84913],[116.71716,3.85581],[116.72469,3.86364],[116.74575,3.88698],[116.75932,3.91946],[116.76324,3.93338],[116.77196,3.94016],[116.77196,3.93384],[116.76765,3.93126],[116.76394,3.92279],[116.75252,3.88881],[116.73957,3.87406],[116.72206,3.8556],[116.70959,3.85188],[116.70466,3.85061],[116.69066,3.84586],[116.68965,3.84513],[116.68878,3.84422],[116.68807,3.84323],[116.68787,3.84315]]]]},"properties":{"kdprov":"65","kdkab":"04","kdkec":"040","kddesa":"024","kdsls":"2001","idsls":"65040400242001","nmprov":"KALIMANTAN UTARA","nmkab":"NUNUKAN","nmkec":"LUMBIS","nmdesa":"PULU BULAWAN","nmsls":"HUTAN"}},{"type":"Feature","geometry":{"type":"MultiPolygon","coordinates":[[[[116.71672,3.8084],[116.71674,3.80835],[116.71683,3.80777],[116.7169,3.80761],[116.7169,3.80749],[116.71634,3.80733],[116.7153,3.80724],[116.71539,3.80829],[116.71552,3.80843],[116.71615,3.8084],[116.71672,3.8084]]]]},"properties":{"kdprov":"65","kdkab":"04","kdkec":"040","kddesa":"017","kdsls":"0001","idsls":"65040400170001","nmprov":"KALIMANTAN UTARA","nmkab":"NUNUKAN","nmkec":"LUMBIS","nmdesa":"LIANG","nmsls":"RT 001"}},{"type":"Feature","geometry":{"type":"MultiPolygon","coordinates":[[[[116.71785,3.80895],[116.71824,3.80808],[116.7169,3.80749],[116.7169,3.80761],[116.71683,3.80777],[116.71674,3.80835],[116.71672,3.8084],[116.71673,3.8084],[116.71677,3.80844],[116.71677,3.80846],[116.71677,3.80852],[116.71704,3.80869],[116.71785,3.80895]]]]},"properties":{"kdprov":"65","kdkab":"04","kdkec":"040","kddesa":"017","kdsls":"0002","idsls":"65040400170002","nmprov":"KALIMANTAN UTARA","nmkab":"NUNUKAN","nmkec":"LUMBIS","nmdesa":"LIANG","nmsls":"RT 002"}},{"type":"Feature","geometry":{"type":"MultiPolygon","coordinates":[[[[116.71793,3.80897],[116.71785,3.80895],[116.71704,3.80869],[116.71677,3.80852],[116.71677,3.80846],[116.71677,3.80844],[116.71673,3.8084],[116.71643,3.8096],[116.71625,3.81012],[116.71627,3.81012],[116.71747,3.81042],[116.71775,3.80982],[116.71793,3.80897]]]]},"properties":{"kdprov":"65","kdkab":"04","kdkec":"040","kddesa":"020","kdsls":"0002","idsls":"65040400200002","nmprov":"KALIMANTAN UTARA","nmkab":"NUNUKAN","nmkec":"LUMBIS","nmdesa":"LIKOS","nmsls":"RT 002"}},{"type":"Feature","geometry":{"type":"MultiPolygon","coordinates":[[[[116.77193,3.84081],[116.76456,3.83792],[116.75238,3.83221],[116.73753,3.82669],[116.72325,3.81561],[116.72078,3.81255],[116.71989,3.81103],[116.71749,3.81043],[116.71688,3.81119],[116.71655,3.81192],[116.71641,3.81238],[116.71597,3.8138],[116.71517,3.81655],[116.71371,3.81958],[116.71255,3.82176],[116.71196,3.82269],[116.72678,3.8301],[116.74641,3.83813],[116.77193,3.85592],[116.77193,3.85271],[116.77193,3.84081]]]]},"properties":{"kdprov":"65","kdkab":"04","kdkec":"040","kddesa":"021","kdsls":"1001","idsls":"65040400211001","nmprov":"KALIMANTAN UTARA","nmkab":"NUNUKAN","nmkec":"LUMBIS","nmdesa":"TUBUS","nmsls":"PERKEBUNAN SAWIT"}},{"type":"Feature","geometry":{"type":"MultiPolygon","coordinates":[[[[116.70397,3.83117],[116.70341,3.83212],[116.70347,3.83219],[116.70421,3.8327],[116.70483,3.83195],[116.70518,3.83129],[116.70427,3.83107],[116.70418,3.83108],[116.70402,3.83119],[116.70397,3.83117]]]]},"properties":{"kdprov":"65","kdkab":"04","kdkec":"040","kddesa":"025","kdsls":"0002","idsls":"65040400250002","nmprov":"KALIMANTAN UTARA","nmkab":"NUNUKAN","nmkec":"LUMBIS","nmdesa":"LINTONG","nmsls":"RT 002"}},{"type":"Feature","geometry":{"type":"MultiPolygon","coordinates":[[[[116.77196,3.92827],[116.77195,3.90746],[116.77195,3.89602],[116.77195,3.88778],[116.76436,3.88134],[116.74586,3.85891],[116.73111,3.84892],[116.73099,3.8489],[116.69717,3.84267],[116.69262,3.84184],[116.68973,3.84185],[116.68886,3.84185],[116.68872,3.84214],[116.68826,3.84269],[116.68807,3.84323],[116.68878,3.84422],[116.68965,3.84513],[116.69066,3.84586],[116.70466,3.85061],[116.70959,3.85188],[116.72206,3.8556],[116.73957,3.87406],[116.75252,3.88881],[116.76394,3.92279],[116.76765,3.93126],[116.77196,3.93384],[116.77196,3.92827]]]]},"properties":{"kdprov":"65","kdkab":"04","kdkec":"040","kddesa":"027","kdsls":"2001","idsls":"65040400272001","nmprov":"KALIMANTAN UTARA","nmkab":"NUNUKAN","nmkec":"LUMBIS","nmdesa":"PATAL II","nmsls":"HUTAN"}},{"type":"Feature","geometry":{"type":"MultiPolygon","coordinates":[[[[116.68886,3.84185],[116.68804,3.84192],[116.68737,3.84202],[116.68707,3.84202],[116.68662,3.84193],[116.68646,3.84189],[116.68622,3.84189],[116.6866,3.84208],[116.68704,3.84219],[116.68746,3.84243],[116.68768,3.8422],[116.6881,3.84251],[116.68826,3.84269],[116.68872,3.84214],[116.68886,3.84185]]]]},"properties":{"kdprov":"65","kdkab":"04","kdkec":"040","kddesa":"027","kdsls":"0002","idsls":"65040400270002","nmprov":"KALIMANTAN UTARA","nmkab":"NUNUKAN","nmkec":"LUMBIS","nmdesa":"PATAL II","nmsls":"RT 002"}},{"type":"Feature","geometry":{"type":"MultiPolygon","coordinates":[[[[116.6866,3.84208],[116.68637,3.84256],[116.68616,3.84308],[116.6866,3.84314],[116.68684,3.84314],[116.68696,3.84319],[116.68712,3.84327],[116.68709,3.84318],[116.68695,3.84301],[116.68719,3.84257],[116.68746,3.84243],[116.68704,3.84219],[116.6866,3.84208]]]]},"properties":{"kdprov":"65","kdkab":"04","kdkec":"040","kddesa":"024","kdsls":"0002","idsls":"65040400240002","nmprov":"KALIMANTAN UTARA","nmkab":"NUNUKAN","nmkec":"LUMBIS","nmdesa":"PULU BULAWAN","nmsls":"RT 002"}},{"type":"Feature","geometry":{"type":"MultiPolygon","coordinates":[[[[116.68807,3.84323],[116.68826,3.84269],[116.6881,3.84251],[116.68768,3.8422],[116.68746,3.84243],[116.68762,3.84263],[116.68767,3.84283],[116.68776,3.84305],[116.68787,3.84315],[116.68807,3.84323]]]]},"properties":{"kdprov":"65","kdkab":"04","kdkec":"040","kddesa":"027","kdsls":"0001","idsls":"65040400270001","nmprov":"KALIMANTAN UTARA","nmkab":"NUNUKAN","nmkec":"LUMBIS","nmdesa":"PATAL II","nmsls":"RT 001"}},{"type":"Feature","geometry":{"type":"MultiPolygon","coordinates":[[[[116.68741,3.84341],[116.68748,3.84336],[116.68769,3.84315],[116.68776,3.84305],[116.68767,3.84283],[116.68762,3.84263],[116.68746,3.84243],[116.68719,3.84257],[116.68695,3.84301],[116.68709,3.84318],[116.68712,3.84327],[116.68736,3.8433],[116.68741,3.84341]]]]},"properties":{"kdprov":"65","kdkab":"04","kdkec":"040","kddesa":"024","kdsls":"0001","idsls":"65040400240001","nmprov":"KALIMANTAN UTARA","nmkab":"NUNUKAN","nmkec":"LUMBIS","nmdesa":"PULU BULAWAN","nmsls":"RT 001"}},{"type":"Feature","geometry":{"type":"MultiPolygon","coordinates":[[[[116.6866,3.84314],[116.68616,3.84308],[116.68609,3.84308],[116.68588,3.84352],[116.68595,3.84414],[116.68652,3.84466],[116.6868,3.84479],[116.68724,3.844],[116.68704,3.84383],[116.68657,3.84346],[116.6866,3.84314]]]]},"properties":{"kdprov":"65","kdkab":"04","kdkec":"040","kddesa":"023","kdsls":"0002","idsls":"65040400230002","nmprov":"KALIMANTAN UTARA","nmkab":"NUNUKAN","nmkec":"LUMBIS","nmdesa":"TALUAN","nmsls":"RT 002"}},{"type":"Feature","geometry":{"type":"MultiPolygon","coordinates":[[[[116.68765,3.84395],[116.68746,3.84352],[116.68741,3.84341],[116.68736,3.8433],[116.68712,3.84327],[116.68696,3.84319],[116.68684,3.84314],[116.6866,3.84314],[116.68657,3.84346],[116.68704,3.84383],[116.68724,3.844],[116.6868,3.84479],[116.68717,3.84496],[116.68763,3.84465],[116.68765,3.84395]]]]},"properties":{"kdprov":"65","kdkab":"04","kdkec":"040","kddesa":"023","kdsls":"0001","idsls":"65040400230001","nmprov":"KALIMANTAN UTARA","nmkab":"NUNUKAN","nmkec":"LUMBIS","nmdesa":"TALUAN","nmsls":"RT 001"}},{"type":"Feature","geometry":{"type":"MultiPolygon","coordinates":[[[[116.6843,3.85486],[116.68523,3.85438],[116.68578,3.85416],[116.68592,3.85329],[116.68568,3.8528],[116.68455,3.85287],[116.68355,3.85363],[116.68314,3.85396],[116.6835,3.85423],[116.6843,3.85486]]]]},"properties":{"kdprov":"65","kdkab":"04","kdkec":"040","kddesa":"028","kdsls":"0002","idsls":"65040400280002","nmprov":"KALIMANTAN UTARA","nmkab":"NUNUKAN","nmkec":"LUMBIS","nmdesa":"PODONG","nmsls":"RT 002"}},{"type":"Feature","geometry":{"type":"MultiPolygon","coordinates":[[[[116.74075,3.94612],[116.74254,3.94485],[116.74481,3.94421],[116.74534,3.94407],[116.74781,3.9444],[116.74926,3.94379],[116.74994,3.9435],[116.75054,3.94385],[116.75151,3.9444],[116.75297,3.94642],[116.75454,3.94777],[116.75469,3.94774],[116.75056,3.92526],[116.74521,3.90599],[116.737,3.88743],[116.72629,3.87386],[116.7113,3.85852],[116.69666,3.85316],[116.68462,3.85034],[116.66558,3.83978],[116.65235,3.82922],[116.64045,3.8145],[116.63036,3.79913],[116.63005,3.79903],[116.62923,3.79884],[116.62848,3.79885],[116.62714,3.7987],[116.62632,3.79931],[116.62514,3.8007],[116.62434,3.80114],[116.62408,3.80139],[116.6234,3.80206],[116.6229,3.8025],[116.62586,3.80768],[116.63223,3.81913],[116.63604,3.82391],[116.64978,3.84006],[116.65367,3.84323],[116.65895,3.84917],[116.66758,3.85411],[116.67383,3.85762],[116.67538,3.85849],[116.67671,3.85953],[116.6833,3.86467],[116.69085,3.87101],[116.69602,3.87678],[116.70826,3.88945],[116.72194,3.90249],[116.72735,3.91108],[116.73085,3.91713],[116.73626,3.93463],[116.73722,3.94449],[116.73753,3.94862],[116.73758,3.94894],[116.73825,3.94826],[116.73904,3.94759],[116.74075,3.94612]],[[116.68265,3.85563],[116.6826,3.85569],[116.68251,3.85579],[116.68243,3.85571],[116.68231,3.8556],[116.68237,3.85553],[116.68247,3.85542],[116.68247,3.85542],[116.68203,3.855],[116.68247,3.85427],[116.68314,3.85396],[116.68355,3.85363],[116.68455,3.85287],[116.68568,3.8528],[116.68592,3.85329],[116.68578,3.85416],[116.68523,3.85438],[116.6843,3.85486],[116.68359,3.85546],[116.6829,3.85591],[116.68265,3.85563]]]]},"properties":{"kdprov":"65","kdkab":"04","kdkec":"040","kddesa":"028","kdsls":"2001","idsls":"65040400282001","nmprov":"KALIMANTAN UTARA","nmkab":"NUNUKAN","nmkec":"LUMBIS","nmdesa":"PODONG","nmsls":"HUTAN"}},{"type":"Feature","geometry":{"type":"MultiPolygon","coordinates":[[[[116.68247,3.85542],[116.68247,3.85542],[116.68237,3.85553],[116.68231,3.8556],[116.68243,3.85571],[116.68251,3.85579],[116.6826,3.85569],[116.68265,3.85563],[116.6829,3.85591],[116.68359,3.85546],[116.6843,3.85486],[116.6835,3.85423],[116.68314,3.85396],[116.68247,3.85427],[116.68203,3.855],[116.68247,3.85542]]]]},"properties":{"kdprov":"65","kdkab":"04","kdkec":"040","kddesa":"028","kdsls":"0001","idsls":"65040400280001","nmprov":"KALIMANTAN UTARA","nmkab":"NUNUKAN","nmkec":"LUMBIS","nmdesa":"PODONG","nmsls":"RT 001"}},{"type":"Feature","geometry":{"type":"MultiPolygon","coordinates":[[[[116.71749,3.81043],[116.71747,3.81042],[116.71627,3.81012],[116.71625,3.81012],[116.7162,3.81027],[116.7161,3.81054],[116.71583,3.81147],[116.71561,3.81173],[116.71519,3.81297],[116.71452,3.81233],[116.71464,3.81184],[116.71491,3.81103],[116.71509,3.81065],[116.71494,3.81067],[116.7074,3.81052],[116.70002,3.80672],[116.68218,3.79292],[116.67076,3.78197],[116.66466,3.77502],[116.66447,3.77535],[116.66335,3.77607],[116.66224,3.77651],[116.66208,3.77663],[116.66178,3.77681],[116.66014,3.77841],[116.6595,3.77868],[116.67057,3.79143],[116.68693,3.80482],[116.70715,3.82028],[116.71186,3.82264],[116.71196,3.82269],[116.71255,3.82176],[116.71371,3.81958],[116.71517,3.81655],[116.71597,3.8138],[116.71641,3.81238],[116.71655,3.81192],[116.71688,3.81119],[116.71749,3.81043]]]]},"properties":{"kdprov":"65","kdkab":"04","kdkec":"040","kddesa":"021","kdsls":"3002","idsls":"65040400213002","nmprov":"KALIMANTAN UTARA","nmkab":"NUNUKAN","nmkec":"LUMBIS","nmdesa":"TUBUS","nmsls":"LAHAN TERBUKA"}},{"type":"Feature","geometry":{"type":"MultiPolygon","coordinates":[[[[116.71503,3.80889],[116.71552,3.80843],[116.71488,3.80861],[116.71098,3.80776],[116.70647,3.80616],[116.69812,3.79848],[116.67433,3.77374],[116.66623,3.76825],[116.66614,3.77005],[116.6661,3.77091],[116.6656,3.77333],[116.66466,3.77502],[116.67076,3.78197],[116.68218,3.79292],[116.70002,3.80672],[116.7074,3.81052],[116.71494,3.81067],[116.71509,3.81065],[116.71515,3.81053],[116.71534,3.81047],[116.71509,3.80992],[116.71503,3.80889]]],[[[116.71846,3.80914],[116.71793,3.80897],[116.71775,3.80982],[116.71747,3.81042],[116.71749,3.81043],[116.71989,3.81103],[116.72078,3.81255],[116.72325,3.81561],[116.73753,3.82669],[116.75238,3.83221],[116.76456,3.83792],[116.77193,3.84081],[116.77193,3.83674],[116.77193,3.83208],[116.76175,3.83071],[116.74479,3.82387],[116.73122,3.81732],[116.72093,3.80989],[116.71846,3.80914]]]]},"properties":{"kdprov":"65","kdkab":"04","kdkec":"040","kddesa":"020","kdsls":"1001","idsls":"65040400201001","nmprov":"KALIMANTAN UTARA","nmkab":"NUNUKAN","nmkec":"LUMBIS","nmdesa":"LIKOS","nmsls":"PERKEBUNAN SAWIT"}},{"type":"Feature","geometry":{"type":"MultiPolygon","coordinates":[[[[116.73187,3.74271],[116.73186,3.74267],[116.7319,3.74225],[116.7321,3.7419],[116.73211,3.74183],[116.73198,3.7418],[116.73179,3.74214],[116.73172,3.74264],[116.73181,3.74272],[116.73187,3.74271]]]]},"properties":{"kdprov":"65","kdkab":"04","kdkec":"040","kddesa":"009","kdsls":"0001","idsls":"65040400090001","nmprov":"KALIMANTAN UTARA","nmkab":"NUNUKAN","nmkec":"LUMBIS","nmdesa":"SEMALAT","nmsls":"RT 001"}},{"type":"Feature","geometry":{"type":"MultiPolygon","coordinates":[[[[116.73362,3.74181],[116.73308,3.74166],[116.73294,3.74164],[116.73276,3.74167],[116.73255,3.74171],[116.73233,3.74158],[116.7323,3.74152],[116.73231,3.74127],[116.73228,3.74128],[116.73198,3.74142],[116.73181,3.7417],[116.73206,3.74174],[116.73212,3.74175],[116.73215,3.74176],[116.73215,3.74179],[116.73215,3.74182],[116.73217,3.74182],[116.7327,3.74201],[116.73362,3.74181]]]]},"properties":{"kdprov":"65","kdkab":"04","kdkec":"040","kddesa":"010","kdsls":"0002","idsls":"65040400100002","nmprov":"KALIMANTAN UTARA","nmkab":"NUNUKAN","nmkec":"LUMBIS","nmdesa":"DUBULON","nmsls":"RT 002"}},{"type":"Feature","geometry":{"type":"MultiPolygon","coordinates":[[[[116.74198,3.74305],[116.74144,3.7425],[116.73972,3.7418],[116.73475,3.74159],[116.73429,3.74145],[116.73418,3.74175],[116.73398,3.74173],[116.73362,3.74181],[116.7327,3.74201],[116.73217,3.74182],[116.73215,3.74182],[116.73215,3.74184],[116.73214,3.74187],[116.73217,3.74195],[116.73226,3.74207],[116.7326,3.74226],[116.73611,3.74265],[116.73741,3.74285],[116.73825,3.7429],[116.74091,3.74332],[116.74111,3.74376],[116.74198,3.74305]]]]},"properties":{"kdprov":"65","kdkab":"04","kdkec":"040","kddesa":"010","kdsls":"1002","idsls":"65040400101002","nmprov":"KALIMANTAN UTARA","nmkab":"NUNUKAN","nmkec":"LUMBIS","nmdesa":"DUBULON","nmsls":"KEBUN"}},{"type":"Feature","geometry":{"type":"MultiPolygon","coordinates":[[[[116.73231,3.74127],[116.7323,3.74152],[116.73233,3.74158],[116.73255,3.74171],[116.73276,3.74167],[116.73294,3.74164],[116.73308,3.74166],[116.73362,3.74181],[116.73398,3.74173],[116.73418,3.74175],[116.73429,3.74145],[116.73355,3.74149],[116.73337,3.74143],[116.73322,3.74138],[116.73264,3.74125],[116.73231,3.74127]]]]},"properties":{"kdprov":"65","kdkab":"04","kdkec":"040","kddesa":"010","kdsls":"0001","idsls":"65040400100001","nmprov":"KALIMANTAN UTARA","nmkab":"NUNUKAN","nmkec":"LUMBIS","nmdesa":"DUBULON","nmsls":"RT 001"}},{"type":"Feature","geometry":{"type":"MultiPolygon","coordinates":[[[[116.748,3.7541],[116.74525,3.75191],[116.74374,3.75213],[116.7425,3.75328],[116.74204,3.75388],[116.7416,3.75379],[116.74055,3.75321],[116.74029,3.75281],[116.73993,3.75222],[116.73818,3.75073],[116.73384,3.75512],[116.73724,3.76041],[116.74436,3.75863],[116.74635,3.7585],[116.748,3.7541]]]]},"properties":{"kdprov":"65","kdkab":"04","kdkec":"040","kddesa":"006","kdsls":"0003","idsls":"65040400060003","nmprov":"KALIMANTAN UTARA","nmkab":"NUNUKAN","nmkec":"LUMBIS","nmdesa":"MANSALONG","nmsls":"RT 003"}},{"type":"Feature","geometry":{"type":"MultiPolygon","coordinates":[[[[116.7393,3.76714],[116.73934,3.76634],[116.73989,3.76516],[116.74111,3.76344],[116.74361,3.76191],[116.74532,3.76086],[116.74705,3.76012],[116.74677,3.75895],[116.74635,3.7585],[116.74436,3.75863],[116.73724,3.76041],[116.73711,3.76355],[116.73637,3.76486],[116.73873,3.76675],[116.7393,3.76714]]]]},"properties":{"kdprov":"65","kdkab":"04","kdkec":"040","kddesa":"006","kdsls":"0002","idsls":"65040400060002","nmprov":"KALIMANTAN UTARA","nmkab":"NUNUKAN","nmkec":"LUMBIS","nmdesa":"MANSALONG","nmsls":"RT 002"}},{"type":"Feature","geometry":{"type":"MultiPolygon","coordinates":[[[[116.75075,3.74984],[116.75072,3.74978],[116.75061,3.74952],[116.75084,3.74909],[116.75076,3.74904],[116.75062,3.74895],[116.75048,3.74886],[116.75068,3.74849],[116.75078,3.74831],[116.74731,3.74684],[116.74425,3.74378],[116.74281,3.74237],[116.74198,3.74305],[116.74111,3.74376],[116.73989,3.74476],[116.73758,3.74664],[116.74178,3.74685],[116.7473,3.75045],[116.74967,3.75092],[116.74992,3.75055],[116.75039,3.74999],[116.75075,3.74984]]]]},"properties":{"kdprov":"65","kdkab":"04","kdkec":"040","kddesa":"019","kdsls":"0001","idsls":"65040400190001","nmprov":"KALIMANTAN UTARA","nmkab":"NUNUKAN","nmkec":"LUMBIS","nmdesa":"NAINSID","nmsls":"RT 001"}},{"type":"Feature","geometry":{"type":"MultiPolygon","coordinates":[[[[116.73948,3.77278],[116.73886,3.77254],[116.73884,3.77266],[116.73815,3.77435],[116.73873,3.77457],[116.73959,3.77469],[116.74049,3.77518],[116.74157,3.77429],[116.74033,3.77361],[116.73986,3.77324],[116.73995,3.77313],[116.73948,3.77278]]]]},"properties":{"kdprov":"65","kdkab":"04","kdkec":"040","kddesa":"014","kdsls":"0002","idsls":"65040400140002","nmprov":"KALIMANTAN UTARA","nmkab":"NUNUKAN","nmkec":"LUMBIS","nmdesa":"TANJUNG HILIR","nmsls":"RT 002"}},{"type":"Feature","geometry":{"type":"MultiPolygon","coordinates":[[[[116.73886,3.77254],[116.73948,3.77278],[116.73995,3.77313],[116.73986,3.77324],[116.74033,3.77361],[116.74157,3.77429],[116.74212,3.77404],[116.7414,3.77379],[116.74118,3.77343],[116.74119,3.77342],[116.74122,3.77321],[116.74156,3.77292],[116.74129,3.77277],[116.74116,3.77288],[116.74107,3.77279],[116.74115,3.77272],[116.74022,3.77246],[116.7402,3.7721],[116.74024,3.77206],[116.74025,3.77204],[116.74024,3.77203],[116.73948,3.77149],[116.73914,3.77125],[116.73886,3.77254]]]]},"properties":{"kdprov":"65","kdkab":"04","kdkec":"040","kddesa":"014","kdsls":"0001","idsls":"65040400140001","nmprov":"KALIMANTAN UTARA","nmkab":"NUNUKAN","nmkec":"LUMBIS","nmdesa":"TANJUNG HILIR","nmsls":"RT 001"}},{"type":"Feature","geometry":{"type":"MultiPolygon","coordinates":[[[[116.76276,3.77385],[116.76569,3.76908],[116.76379,3.7681],[116.75148,3.75416],[116.75045,3.75107],[116.748,3.7541],[116.74635,3.7585],[116.74677,3.75895],[116.74705,3.76012],[116.74532,3.76086],[116.74361,3.76191],[116.74111,3.76344],[116.73989,3.76516],[116.73934,3.76634],[116.7393,3.76714],[116.74513,3.77119],[116.74945,3.77362],[116.74998,3.77237],[116.75141,3.77189],[116.75558,3.76726],[116.75705,3.76827],[116.76276,3.77385]]]]},"properties":{"kdprov":"65","kdkab":"04","kdkec":"040","kddesa":"006","kdsls":"0001","idsls":"65040400060001","nmprov":"KALIMANTAN UTARA","nmkab":"NUNUKAN","nmkec":"LUMBIS","nmdesa":"MANSALONG","nmsls":"RT 001"}},{"type":"Feature","geometry":{"type":"MultiPolygon","coordinates":[[[[116.74122,3.77084],[116.73976,3.76927],[116.73948,3.77149],[116.73948,3.77149],[116.74024,3.77203],[116.74114,3.77089],[116.74122,3.77084]]]]},"properties":{"kdprov":"65","kdkab":"04","kdkec":"040","kddesa":"013","kdsls":"0002","idsls":"65040400130002","nmprov":"KALIMANTAN UTARA","nmkab":"NUNUKAN","nmkec":"LUMBIS","nmdesa":"SUMALUMUNG","nmsls":"RT 002"}},{"type":"Feature","geometry":{"type":"MultiPolygon","coordinates":[[[[116.77191,3.7723],[116.76569,3.76908],[116.76276,3.77385],[116.75705,3.76827],[116.75558,3.76726],[116.75141,3.77189],[116.74998,3.77237],[116.74945,3.77362],[116.75162,3.77484],[116.76319,3.78037],[116.76394,3.78072],[116.77191,3.78272],[116.77191,3.77431],[116.77191,3.7723]]]]},"properties":{"kdprov":"65","kdkab":"04","kdkec":"040","kddesa":"006","kdsls":"1001","idsls":"65040400061001","nmprov":"KALIMANTAN UTARA","nmkab":"NUNUKAN","nmkec":"LUMBIS","nmdesa":"MANSALONG","nmsls":"KEBUN SAWIT"}},{"type":"Feature","geometry":{"type":"MultiPolygon","coordinates":[[[[116.75152,3.74968],[116.75154,3.74968],[116.75179,3.7495],[116.75177,3.7493],[116.75171,3.74909],[116.75152,3.74895],[116.75098,3.74882],[116.75088,3.74901],[116.75084,3.74909],[116.75061,3.74952],[116.75072,3.74978],[116.75075,3.74984],[116.75083,3.74981],[116.75121,3.74977],[116.75152,3.74968]]]]},"properties":{"kdprov":"65","kdkab":"04","kdkec":"040","kddesa":"019","kdsls":"0003","idsls":"65040400190003","nmprov":"KALIMANTAN UTARA","nmkab":"NUNUKAN","nmkec":"LUMBIS","nmdesa":"NAINSID","nmsls":"RT 003"}},{"type":"Feature","geometry":{"type":"MultiPolygon","coordinates":[[[[116.75278,3.74794],[116.75283,3.74789],[116.75305,3.74804],[116.75331,3.74827],[116.75333,3.74829],[116.7534,3.74833],[116.75359,3.74823],[116.75355,3.74815],[116.75399,3.74795],[116.75414,3.74783],[116.75449,3.74742],[116.75462,3.74712],[116.75501,3.74678],[116.7549,3.74658],[116.75512,3.74643],[116.75506,3.74631],[116.75499,3.74619],[116.75499,3.74619],[116.75495,3.74614],[116.75506,3.74606],[116.75481,3.74567],[116.75452,3.7457],[116.75404,3.74603],[116.75348,3.74637],[116.75263,3.74648],[116.75235,3.74673],[116.75249,3.74684],[116.75215,3.74773],[116.7521,3.74785],[116.75189,3.74827],[116.75175,3.74862],[116.75207,3.74835],[116.75251,3.74812],[116.75278,3.74794]]]]},"properties":{"kdprov":"65","kdkab":"04","kdkec":"040","kddesa":"004","kdsls":"0003","idsls":"65040400040003","nmprov":"KALIMANTAN UTARA","nmkab":"NUNUKAN","nmkec":"LUMBIS","nmdesa":"KALAMPISING","nmsls":"RT 003"}},{"type":"Feature","geometry":{"type":"MultiPolygon","coordinates":[[[[116.7719,3.7512],[116.7719,3.75119],[116.7719,3.75012],[116.76412,3.74724],[116.76095,3.74631],[116.75765,3.74541],[116.75481,3.74567],[116.75506,3.74606],[116.75495,3.74614],[116.75499,3.74619],[116.75499,3.74619],[116.75506,3.74631],[116.75512,3.74643],[116.75521,3.74662],[116.75553,3.74691],[116.75608,3.74657],[116.75669,3.74625],[116.75681,3.74654],[116.75684,3.74661],[116.7569,3.74673],[116.75698,3.74691],[116.75694,3.74693],[116.75686,3.74697],[116.75715,3.7475],[116.75595,3.74805],[116.75495,3.74838],[116.75427,3.74848],[116.75414,3.74783],[116.75399,3.74795],[116.75355,3.74815],[116.75359,3.74823],[116.7534,3.74833],[116.75449,3.74892],[116.76512,3.75492],[116.76963,3.762],[116.7719,3.7645],[116.7719,3.76212],[116.7719,3.75123],[116.7719,3.7512]]]]},"properties":{"kdprov":"65","kdkab":"04","kdkec":"040","kddesa":"004","kdsls":"1001","idsls":"65040400041001","nmprov":"KALIMANTAN UTARA","nmkab":"NUNUKAN","nmkec":"LUMBIS","nmdesa":"KALAMPISING","nmsls":"SAWAH"}},{"type":"Feature","geometry":{"type":"MultiPolygon","coordinates":[[[[116.75595,3.74805],[116.75572,3.74761],[116.75566,3.74764],[116.75557,3.74745],[116.75561,3.74741],[116.75559,3.74731],[116.75558,3.74728],[116.75555,3.7472],[116.75551,3.74711],[116.75547,3.74705],[116.75544,3.74699],[116.7555,3.74694],[116.75553,3.74692],[116.75553,3.74691],[116.75521,3.74662],[116.75512,3.74643],[116.7549,3.74658],[116.75501,3.74678],[116.75462,3.74712],[116.75449,3.74742],[116.75414,3.74783],[116.75427,3.74848],[116.75495,3.74838],[116.75595,3.74805]]]]},"properties":{"kdprov":"65","kdkab":"04","kdkec":"040","kddesa":"004","kdsls":"0002","idsls":"65040400040002","nmprov":"KALIMANTAN UTARA","nmkab":"NUNUKAN","nmkec":"LUMBIS","nmdesa":"KALAMPISING","nmsls":"RT 002"}},{"type":"Feature","geometry":{"type":"MultiPolygon","coordinates":[[[[116.75557,3.74745],[116.75566,3.74764],[116.75572,3.74761],[116.75595,3.74805],[116.75715,3.7475],[116.75686,3.74697],[116.75694,3.74693],[116.75698,3.74691],[116.7569,3.74673],[116.75684,3.74661],[116.75681,3.74654],[116.75669,3.74625],[116.75608,3.74657],[116.75553,3.74691],[116.75553,3.74692],[116.7555,3.74694],[116.75544,3.74699],[116.75547,3.74705],[116.75551,3.74711],[116.75555,3.7472],[116.75558,3.74728],[116.75559,3.74731],[116.75561,3.74741],[116.75557,3.74745]]]]},"properties":{"kdprov":"65","kdkab":"04","kdkec":"040","kddesa":"004","kdsls":"0001","idsls":"65040400040001","nmprov":"KALIMANTAN UTARA","nmkab":"NUNUKAN","nmkec":"LUMBIS","nmdesa":"KALAMPISING","nmsls":"RT 001"}},{"type":"Feature","geometry":{"type":"MultiPolygon","coordinates":[[[[116.75186,3.74977],[116.75206,3.7496],[116.75206,3.7496],[116.75252,3.74993],[116.75298,3.74927],[116.75314,3.74907],[116.7526,3.74844],[116.75231,3.74867],[116.75217,3.74885],[116.75175,3.74862],[116.75171,3.74909],[116.75177,3.7493],[116.75179,3.7495],[116.75154,3.74968],[116.75152,3.74968],[116.75171,3.74986],[116.7517,3.74987],[116.75187,3.75006],[116.75201,3.74994],[116.75186,3.74977]]]]},"properties":{"kdprov":"65","kdkab":"04","kdkec":"040","kddesa":"005","kdsls":"0003","idsls":"65040400050003","nmprov":"KALIMANTAN UTARA","nmkab":"NUNUKAN","nmkec":"LUMBIS","nmdesa":"SEDONGON","nmsls":"RT 001"}},{"type":"Feature","geometry":{"type":"MultiPolygon","coordinates":[[[[116.73071,3.73894],[116.73065,3.73883],[116.73021,3.73903],[116.73027,3.73914],[116.73015,3.73919],[116.73002,3.73928],[116.72974,3.73935],[116.72965,3.73965],[116.73027,3.74003],[116.73095,3.74006],[116.73147,3.74033],[116.73164,3.74048],[116.73169,3.74052],[116.73173,3.74047],[116.73185,3.74042],[116.73194,3.74044],[116.73199,3.74045],[116.73211,3.74046],[116.73212,3.7403],[116.73267,3.73942],[116.73262,3.73901],[116.73191,3.73848],[116.73165,3.73858],[116.73071,3.73894]]]]},"properties":{"kdprov":"65","kdkab":"04","kdkec":"040","kddesa":"007","kdsls":"0001","idsls":"65040400070001","nmprov":"KALIMANTAN UTARA","nmkab":"NUNUKAN","nmkec":"LUMBIS","nmdesa":"DERALON","nmsls":"RT 001"}}]}