{"type":"FeatureCollection","features":[{"type":"Feature","geometry":{"type":"MultiPolygon","coordinates":[[[[116.81235,3.79439],[116.81918,3.79627],[116.81933,3.79597],[116.81949,3.79571],[116.81964,3.79552],[116.82006,3.79497],[116.82044,3.79422],[116.82062,3.79378],[116.81931,3.79311],[116.8131,3.79154],[116.81238,3.79414],[116.81235,3.79439]]]]},"properties":{"kdprov":"65","kdkab":"04","kdkec":"050","kddesa":"006","kdsls":"0003","idsls":"65040500060003","nmprov":"KALIMANTAN UTARA","nmkab":"NUNUKAN","nmkec":"SEMBAKUNG ATULAI","nmdesa":"SADUMAN","nmsls":"RT 003"}},{"type":"Feature","geometry":{"type":"MultiPolygon","coordinates":[[[[116.82176,3.78891],[116.82128,3.78828],[116.82071,3.78777],[116.82071,3.78726],[116.82093,3.78623],[116.82132,3.78545],[116.82192,3.78505],[116.82229,3.78479],[116.82238,3.78448],[116.82266,3.78376],[116.82273,3.78332],[116.82357,3.78212],[116.82419,3.7803],[116.82629,3.77773],[116.82718,3.77664],[116.82721,3.77439],[116.8253,3.7723],[116.82234,3.77242],[116.81876,3.77335],[116.81618,3.77438],[116.81605,3.77563],[116.81518,3.78401],[116.81392,3.78856],[116.81392,3.78856],[116.81392,3.78856],[116.8131,3.79154],[116.81931,3.79311],[116.82062,3.79378],[116.82081,3.79331],[116.82105,3.79225],[116.82128,3.79203],[116.82184,3.79168],[116.82223,3.79143],[116.82246,3.79129],[116.82278,3.79109],[116.82258,3.79069],[116.82215,3.79049],[116.82186,3.79029],[116.82186,3.79006],[116.82196,3.78934],[116.82176,3.78891]]]]},"properties":{"kdprov":"65","kdkab":"04","kdkec":"050","kddesa":"006","kdsls":"0001","idsls":"65040500060001","nmprov":"KALIMANTAN UTARA","nmkab":"NUNUKAN","nmkec":"SEMBAKUNG ATULAI","nmdesa":"SADUMAN","nmsls":"RT 001"}},{"type":"Feature","geometry":{"type":"MultiPolygon","coordinates":[[[[116.88479,3.71108],[116.8714,3.70663],[116.85841,3.70275],[116.8555,3.70157],[116.85545,3.70552],[116.85521,3.72426],[116.85465,3.76814],[116.85378,3.77401],[116.8555,3.77412],[116.85765,3.7773],[116.85898,3.78093],[116.8618,3.78229],[116.86251,3.78515],[116.86316,3.78797],[116.86354,3.78852],[116.86362,3.78859],[116.87154,3.791],[116.87732,3.79197],[116.88383,3.78824],[116.88649,3.78741],[116.886,3.78583],[116.88589,3.78545],[116.88487,3.78212],[116.88486,3.77814],[116.88471,3.72036],[116.88479,3.72038],[116.88479,3.71606],[116.88479,3.71108]]]]},"properties":{"kdprov":"65","kdkab":"04","kdkec":"050","kddesa":"009","kdsls":"0001","idsls":"65040500090001","nmprov":"KALIMANTAN UTARA","nmkab":"NUNUKAN","nmkec":"SEMBAKUNG ATULAI","nmdesa":"KATUL","nmsls":"RT 001"}},{"type":"Feature","geometry":{"type":"MultiPolygon","coordinates":[[[[116.83285,3.90852],[116.83258,3.83881],[116.83255,3.83029],[116.83252,3.82382],[116.83524,3.81865],[116.84394,3.80205],[116.84611,3.79901],[116.84667,3.79823],[116.84624,3.79802],[116.84541,3.7979],[116.84475,3.79804],[116.84425,3.7981],[116.8439,3.79811],[116.84304,3.79804],[116.84242,3.79784],[116.84169,3.79751],[116.84126,3.79728],[116.84072,3.79674],[116.84011,3.79619],[116.83969,3.79604],[116.83918,3.79579],[116.83838,3.79545],[116.83749,3.79511],[116.83692,3.79502],[116.83619,3.79491],[116.83537,3.79494],[116.83318,3.79559],[116.83037,3.79645],[116.82909,3.79626],[116.8279,3.79608],[116.82696,3.79516],[116.82678,3.79401],[116.82665,3.79325],[116.82652,3.79305],[116.82627,3.79245],[116.82601,3.7923],[116.82588,3.79207],[116.82184,3.79168],[116.82128,3.79203],[116.82105,3.79225],[116.82081,3.79331],[116.82062,3.79378],[116.82044,3.79422],[116.82006,3.79497],[116.81964,3.79552],[116.81949,3.79571],[116.81933,3.79597],[116.81918,3.79627],[116.81893,3.79674],[116.81858,3.79751],[116.81804,3.79838],[116.81744,3.79891],[116.81694,3.79915],[116.81634,3.79958],[116.81628,3.79984],[116.81619,3.80026],[116.81613,3.80072],[116.81596,3.80104],[116.81573,3.80129],[116.81458,3.80446],[116.81388,3.80638],[116.81399,3.82446],[116.81315,3.9105],[116.81488,3.91019],[116.81989,3.90864],[116.82341,3.90875],[116.82583,3.90883],[116.83196,3.90895],[116.83285,3.90852]]]]},"properties":{"kdprov":"65","kdkab":"04","kdkec":"050","kddesa":"007","kdsls":"0002","idsls":"65040500070002","nmprov":"KALIMANTAN UTARA","nmkab":"NUNUKAN","nmkec":"SEMBAKUNG ATULAI","nmdesa":"PAGALUYON","nmsls":"RT 002"}},{"type":"Feature","geometry":{"type":"MultiPolygon","coordinates":[[[[116.84302,3.69608],[116.83908,3.69477],[116.83179,3.69145],[116.82696,3.68963],[116.82379,3.68892],[116.81799,3.68897],[116.81795,3.6957],[116.81791,3.70221],[116.81759,3.75539],[116.81756,3.76111],[116.81701,3.76636],[116.81647,3.77154],[116.81635,3.77271],[116.81618,3.77438],[116.81876,3.77335],[116.82234,3.77242],[116.8253,3.7723],[116.82721,3.77439],[116.82718,3.77664],[116.82629,3.77773],[116.82419,3.7803],[116.82357,3.78212],[116.82273,3.78332],[116.82266,3.78376],[116.82238,3.78448],[116.82229,3.78479],[116.82192,3.78505],[116.82132,3.78545],[116.82093,3.78623],[116.82071,3.78726],[116.82071,3.78777],[116.82128,3.78828],[116.82176,3.78891],[116.82196,3.78934],[116.82186,3.79006],[116.82186,3.79029],[116.82215,3.79049],[116.82258,3.79069],[116.82278,3.79109],[116.82246,3.79129],[116.82223,3.79143],[116.82184,3.79168],[116.82588,3.79207],[116.82595,3.79176],[116.82596,3.79145],[116.82573,3.79102],[116.82564,3.79073],[116.82726,3.79084],[116.82877,3.79091],[116.82956,3.79097],[116.83113,3.79087],[116.83527,3.79006],[116.8381,3.78768],[116.83988,3.78486],[116.83929,3.78069],[116.83795,3.77772],[116.83691,3.77385],[116.83849,3.75451],[116.83972,3.73002],[116.84207,3.70586],[116.84239,3.70263],[116.84302,3.69608]]]]},"properties":{"kdprov":"65","kdkab":"04","kdkec":"050","kddesa":"007","kdsls":"0001","idsls":"65040500070001","nmprov":"KALIMANTAN UTARA","nmkab":"NUNUKAN","nmkec":"SEMBAKUNG ATULAI","nmdesa":"PAGALUYON","nmsls":"RT 001"}},{"type":"Feature","geometry":{"type":"MultiPolygon","coordinates":[[[[116.82859,3.79337],[116.82923,3.79306],[116.83319,3.79249],[116.84545,3.78944],[116.85163,3.78842],[116.85214,3.78496],[116.85378,3.77401],[116.85465,3.76814],[116.85521,3.72426],[116.85545,3.70552],[116.8555,3.70157],[116.84835,3.69864],[116.84336,3.69619],[116.84302,3.69608],[116.84239,3.70263],[116.84207,3.70586],[116.83972,3.73002],[116.83849,3.75451],[116.83691,3.77385],[116.83795,3.77772],[116.83929,3.78069],[116.83988,3.78486],[116.8381,3.78768],[116.83527,3.79006],[116.83113,3.79087],[116.82956,3.79097],[116.82877,3.79091],[116.82726,3.79084],[116.82564,3.79073],[116.82573,3.79102],[116.82596,3.79145],[116.82595,3.79176],[116.82588,3.79207],[116.82601,3.7923],[116.82627,3.79245],[116.82652,3.79305],[116.82665,3.79325],[116.82678,3.79401],[116.82835,3.79349],[116.82859,3.79337]]]]},"properties":{"kdprov":"65","kdkab":"04","kdkec":"050","kddesa":"008","kdsls":"0001","idsls":"65040500080001","nmprov":"KALIMANTAN UTARA","nmkab":"NUNUKAN","nmkec":"SEMBAKUNG ATULAI","nmdesa":"MAMBULU","nmsls":"RT 001"}},{"type":"Feature","geometry":{"type":"MultiPolygon","coordinates":[[[[116.82909,3.79626],[116.82859,3.79337],[116.82835,3.79349],[116.82678,3.79401],[116.82696,3.79516],[116.8279,3.79608],[116.82909,3.79626]]]]},"properties":{"kdprov":"65","kdkab":"04","kdkec":"050","kddesa":"008","kdsls":"0003","idsls":"65040500080003","nmprov":"KALIMANTAN UTARA","nmkab":"NUNUKAN","nmkec":"SEMBAKUNG ATULAI","nmdesa":"MAMBULU","nmsls":"RT 003"}},{"type":"Feature","geometry":{"type":"MultiPolygon","coordinates":[[[[116.82859,3.79337],[116.82909,3.79626],[116.83037,3.79645],[116.83318,3.79559],[116.83537,3.79494],[116.83619,3.79491],[116.83692,3.79502],[116.83749,3.79511],[116.83838,3.79545],[116.83918,3.79579],[116.83969,3.79604],[116.84011,3.79619],[116.84072,3.79674],[116.84126,3.79728],[116.84169,3.79751],[116.84242,3.79784],[116.84304,3.79804],[116.8439,3.79811],[116.84425,3.7981],[116.84475,3.79804],[116.84541,3.7979],[116.84624,3.79802],[116.84667,3.79823],[116.85108,3.79206],[116.85163,3.78842],[116.84545,3.78944],[116.83319,3.79249],[116.82923,3.79306],[116.82859,3.79337]]]]},"properties":{"kdprov":"65","kdkab":"04","kdkec":"050","kddesa":"008","kdsls":"0002","idsls":"65040500080002","nmprov":"KALIMANTAN UTARA","nmkab":"NUNUKAN","nmkec":"SEMBAKUNG ATULAI","nmdesa":"MAMBULU","nmsls":"RT 002"}},{"type":"Feature","geometry":{"type":"MultiPolygon","coordinates":[[[[116.84428,3.82338],[116.84553,3.822],[116.84767,3.822],[116.85067,3.81972],[116.85224,3.81786],[116.85236,3.81783],[116.85133,3.80883],[116.86846,3.79705],[116.87732,3.79197],[116.87154,3.791],[116.86362,3.78859],[116.86354,3.78852],[116.86316,3.78797],[116.86251,3.78515],[116.8618,3.78229],[116.85898,3.78093],[116.85765,3.7773],[116.8555,3.77412],[116.85378,3.77401],[116.85214,3.78496],[116.85163,3.78842],[116.85108,3.79206],[116.84667,3.79823],[116.84611,3.79901],[116.84394,3.80205],[116.83524,3.81865],[116.83252,3.82382],[116.83255,3.83029],[116.8354,3.829],[116.83754,3.82757],[116.83911,3.826],[116.84096,3.82472],[116.84411,3.82357],[116.84428,3.82338]]]]},"properties":{"kdprov":"65","kdkab":"04","kdkec":"050","kddesa":"009","kdsls":"0002","idsls":"65040500090002","nmprov":"KALIMANTAN UTARA","nmkab":"NUNUKAN","nmkec":"SEMBAKUNG ATULAI","nmdesa":"KATUL","nmsls":"RT 002"}},{"type":"Feature","geometry":{"type":"MultiPolygon","coordinates":[[[[116.84216,3.83809],[116.84496,3.82862],[116.84451,3.82511],[116.84428,3.82338],[116.84411,3.82357],[116.84096,3.82472],[116.83911,3.826],[116.83754,3.82757],[116.8354,3.829],[116.83255,3.83029],[116.83258,3.83881],[116.84216,3.83809]]]]},"properties":{"kdprov":"65","kdkab":"04","kdkec":"050","kddesa":"010","kdsls":"0001","idsls":"65040500100001","nmprov":"KALIMANTAN UTARA","nmkab":"NUNUKAN","nmkec":"SEMBAKUNG ATULAI","nmdesa":"LUBOK BUAT","nmsls":"RT 001"}},{"type":"Feature","geometry":{"type":"MultiPolygon","coordinates":[[[[116.85995,3.90886],[116.85995,3.88928],[116.86,3.88929],[116.8597,3.88526],[116.8596,3.88389],[116.85943,3.88149],[116.85905,3.87632],[116.85871,3.87333],[116.85809,3.86793],[116.85236,3.81783],[116.85224,3.81786],[116.85067,3.81972],[116.85047,3.82242],[116.851,3.82572],[116.85055,3.82762],[116.84926,3.83305],[116.84435,3.83864],[116.84216,3.83809],[116.83258,3.83881],[116.83285,3.90852],[116.83462,3.90765],[116.83585,3.90633],[116.83714,3.90494],[116.84022,3.90334],[116.84155,3.90264],[116.84202,3.90261],[116.84582,3.90233],[116.84624,3.90246],[116.84646,3.90252],[116.84793,3.90295],[116.85009,3.90481],[116.85319,3.90722],[116.85386,3.90772],[116.85479,3.9084],[116.8564,3.90889],[116.85922,3.90887],[116.85995,3.90886]]]]},"properties":{"kdprov":"65","kdkab":"04","kdkec":"050","kddesa":"010","kdsls":"0002","idsls":"65040500100002","nmprov":"KALIMANTAN UTARA","nmkab":"NUNUKAN","nmkec":"SEMBAKUNG ATULAI","nmdesa":"LUBOK BUAT","nmsls":"RT 002"}},{"type":"Feature","geometry":{"type":"MultiPolygon","coordinates":[[[[116.85055,3.82762],[116.84451,3.82511],[116.84496,3.82862],[116.84216,3.83809],[116.84435,3.83864],[116.84926,3.83305],[116.85055,3.82762]]]]},"properties":{"kdprov":"65","kdkab":"04","kdkec":"050","kddesa":"010","kdsls":"0003","idsls":"65040500100003","nmprov":"KALIMANTAN UTARA","nmkab":"NUNUKAN","nmkec":"SEMBAKUNG ATULAI","nmdesa":"LUBOK BUAT","nmsls":"RT 003"}},{"type":"Feature","geometry":{"type":"MultiPolygon","coordinates":[[[[116.84451,3.82511],[116.85055,3.82762],[116.851,3.82572],[116.85047,3.82242],[116.85067,3.81972],[116.84767,3.822],[116.84553,3.822],[116.84428,3.82338],[116.84451,3.82511]]]]},"properties":{"kdprov":"65","kdkab":"04","kdkec":"050","kddesa":"010","kdsls":"0004","idsls":"65040500100004","nmprov":"KALIMANTAN UTARA","nmkab":"NUNUKAN","nmkec":"SEMBAKUNG ATULAI","nmdesa":"LUBOK BUAT","nmsls":"RT 004"}},{"type":"Feature","geometry":{"type":"MultiPolygon","coordinates":[[[[116.7861,3.92505],[116.78804,3.77117],[116.78613,3.75135],[116.78625,3.75085],[116.78656,3.75006],[116.7877,3.74855],[116.79035,3.74414],[116.79201,3.69834],[116.7921,3.69597],[116.79223,3.6924],[116.78865,3.693],[116.78844,3.69848],[116.78684,3.7416],[116.78647,3.74794],[116.78588,3.74975],[116.7854,3.75089],[116.7832,3.9264],[116.7861,3.92505]]]]},"properties":{"kdprov":"65","kdkab":"04","kdkec":"050","kddesa":"002","kdsls":"0001","idsls":"65040500020001","nmprov":"KALIMANTAN UTARA","nmkab":"NUNUKAN","nmkec":"SEMBAKUNG ATULAI","nmdesa":"BINANUN","nmsls":"RT 001"}},{"type":"Feature","geometry":{"type":"MultiPolygon","coordinates":[[[[116.77738,3.92597],[116.7785,3.75336],[116.77868,3.75309],[116.7793,3.75252],[116.77966,3.75219],[116.78016,3.75185],[116.7805,3.75165],[116.78087,3.75134],[116.78125,3.75114],[116.78148,3.75104],[116.7819,3.751],[116.78257,3.75108],[116.78315,3.75119],[116.78332,3.75114],[116.78351,3.75087],[116.78416,3.7499],[116.78437,3.74939],[116.78465,3.74852],[116.78169,3.74247],[116.78079,3.72117],[116.78144,3.69861],[116.78157,3.69402],[116.78095,3.69407],[116.78094,3.69407],[116.78093,3.69408],[116.77738,3.69448],[116.77188,3.6951],[116.77188,3.69802],[116.77189,3.71851],[116.77189,3.72658],[116.77189,3.73012],[116.77189,3.73792],[116.7719,3.74309],[116.7719,3.74324],[116.7719,3.74516],[116.7719,3.74723],[116.7719,3.74758],[116.7719,3.74758],[116.7719,3.74758],[116.7719,3.74758],[116.7719,3.74805],[116.7719,3.74906],[116.7719,3.74972],[116.7719,3.75012],[116.7719,3.75119],[116.7719,3.7512],[116.7719,3.75123],[116.7719,3.76212],[116.7719,3.7645],[116.77191,3.7723],[116.77191,3.77431],[116.77191,3.78272],[116.77191,3.78604],[116.77191,3.78611],[116.77191,3.78617],[116.77191,3.78736],[116.77191,3.79364],[116.77192,3.80128],[116.77192,3.81035],[116.77192,3.81311],[116.77192,3.82388],[116.77192,3.82477],[116.77192,3.82714],[116.77192,3.82769],[116.77193,3.82854],[116.77193,3.83208],[116.77193,3.83674],[116.77193,3.84081],[116.77193,3.85271],[116.77193,3.85592],[116.77194,3.87916],[116.77194,3.8811],[116.77195,3.88778],[116.77195,3.89602],[116.77195,3.90746],[116.77196,3.92827],[116.77738,3.92597]]]]},"properties":{"kdprov":"65","kdkab":"04","kdkec":"050","kddesa":"001","kdsls":"0001","idsls":"65040500010001","nmprov":"KALIMANTAN UTARA","nmkab":"NUNUKAN","nmkec":"SEMBAKUNG ATULAI","nmdesa":"LIUK BULU","nmsls":"RT 001"}},{"type":"Feature","geometry":{"type":"MultiPolygon","coordinates":[[[[116.78865,3.693],[116.78732,3.69322],[116.78374,3.69383],[116.7822,3.69396],[116.78157,3.69402],[116.78144,3.69861],[116.78079,3.72117],[116.78169,3.74247],[116.78465,3.74852],[116.78437,3.74939],[116.78416,3.7499],[116.78351,3.75087],[116.78332,3.75114],[116.78315,3.75119],[116.78257,3.75108],[116.7819,3.751],[116.78148,3.75104],[116.78125,3.75114],[116.78087,3.75134],[116.7805,3.75165],[116.78016,3.75185],[116.77966,3.75219],[116.7793,3.75252],[116.77868,3.75309],[116.7785,3.75336],[116.77738,3.92597],[116.77738,3.92597],[116.78035,3.92653],[116.78156,3.92647],[116.7832,3.9264],[116.7854,3.75089],[116.78588,3.74975],[116.78647,3.74794],[116.78684,3.7416],[116.78844,3.69848],[116.78865,3.693]]]]},"properties":{"kdprov":"65","kdkab":"04","kdkec":"050","kddesa":"001","kdsls":"0002","idsls":"65040500010002","nmprov":"KALIMANTAN UTARA","nmkab":"NUNUKAN","nmkec":"SEMBAKUNG ATULAI","nmdesa":"LIUK BULU","nmsls":"RT 002"}},{"type":"Feature","geometry":{"type":"MultiPolygon","coordinates":[[[[116.78911,3.92278],[116.79028,3.79639],[116.79046,3.77778],[116.79047,3.77666],[116.79049,3.7742],[116.79344,3.76287],[116.79436,3.75933],[116.7944,3.75669],[116.79457,3.74539],[116.79528,3.69982],[116.79531,3.69786],[116.7954,3.69186],[116.79223,3.6924],[116.7921,3.69597],[116.79201,3.69834],[116.79035,3.74414],[116.7877,3.74855],[116.78656,3.75006],[116.78625,3.75085],[116.78613,3.75135],[116.78804,3.77117],[116.7861,3.92505],[116.78697,3.92464],[116.78704,3.92461],[116.78895,3.92292],[116.78911,3.92278]]]]},"properties":{"kdprov":"65","kdkab":"04","kdkec":"050","kddesa":"002","kdsls":"0002","idsls":"65040500020002","nmprov":"KALIMANTAN UTARA","nmkab":"NUNUKAN","nmkec":"SEMBAKUNG ATULAI","nmdesa":"BINANUN","nmsls":"RT 002"}},{"type":"Feature","geometry":{"type":"MultiPolygon","coordinates":[[[[116.81392,3.78856],[116.81392,3.78856],[116.81392,3.78856],[116.81392,3.78856]]],[[[116.81392,3.78856],[116.81392,3.78856],[116.81062,3.78983],[116.80556,3.79256],[116.80371,3.79297],[116.80345,3.79303],[116.79826,3.79365],[116.79028,3.79639],[116.78911,3.92278],[116.79471,3.91786],[116.79661,3.91763],[116.79824,3.91743],[116.80115,3.91663],[116.8043,3.91576],[116.80653,3.91421],[116.81105,3.91087],[116.81308,3.91051],[116.81315,3.9105],[116.81399,3.82446],[116.81388,3.80638],[116.81155,3.80217],[116.81235,3.79439],[116.81238,3.79414],[116.8131,3.79154],[116.81392,3.78856]]]]},"properties":{"kdprov":"65","kdkab":"04","kdkec":"050","kddesa":"005","kdsls":"0001","idsls":"65040500050001","nmprov":"KALIMANTAN UTARA","nmkab":"NUNUKAN","nmkec":"SEMBAKUNG ATULAI","nmdesa":"TULANG","nmsls":"RT 001"}},{"type":"Feature","geometry":{"type":"MultiPolygon","coordinates":[[[[116.80371,3.79297],[116.80093,3.77787],[116.79783,3.77778],[116.79408,3.77778],[116.79216,3.77796],[116.79046,3.77778],[116.79028,3.79639],[116.79826,3.79365],[116.80345,3.79303],[116.80371,3.79297]]]]},"properties":{"kdprov":"65","kdkab":"04","kdkec":"050","kddesa":"005","kdsls":"0002","idsls":"65040500050002","nmprov":"KALIMANTAN UTARA","nmkab":"NUNUKAN","nmkec":"SEMBAKUNG ATULAI","nmdesa":"TULANG","nmsls":"RT 002"}},{"type":"Feature","geometry":{"type":"MultiPolygon","coordinates":[[[[116.79405,3.77661],[116.80045,3.776],[116.80064,3.77621],[116.80736,3.77739],[116.81304,3.77527],[116.81618,3.77438],[116.81635,3.77271],[116.81647,3.77154],[116.81511,3.77165],[116.81258,3.77209],[116.80855,3.7723],[116.80498,3.77312],[116.80188,3.77424],[116.80154,3.77414],[116.8014,3.77404],[116.80119,3.77399],[116.80109,3.77397],[116.80068,3.77402],[116.80036,3.77401],[116.80017,3.77396],[116.79977,3.77393],[116.79959,3.77396],[116.79904,3.7741],[116.79878,3.77423],[116.79847,3.77428],[116.79793,3.77431],[116.79739,3.77451],[116.79705,3.77462],[116.79612,3.775],[116.79555,3.77524],[116.79462,3.77524],[116.79405,3.77495],[116.79372,3.775],[116.79333,3.77516],[116.79333,3.77562],[116.79374,3.77627],[116.79405,3.77661]]]]},"properties":{"kdprov":"65","kdkab":"04","kdkec":"050","kddesa":"004","kdsls":"0001","idsls":"65040500040001","nmprov":"KALIMANTAN UTARA","nmkab":"NUNUKAN","nmkec":"SEMBAKUNG ATULAI","nmdesa":"SABULUAN","nmsls":"RT 001"}},{"type":"Feature","geometry":{"type":"MultiPolygon","coordinates":[[[[116.79374,3.77627],[116.79333,3.77562],[116.79333,3.77516],[116.79372,3.775],[116.79405,3.77495],[116.79462,3.77524],[116.79555,3.77524],[116.79612,3.775],[116.79705,3.77462],[116.79739,3.77451],[116.79793,3.77431],[116.79847,3.77428],[116.79878,3.77423],[116.79904,3.7741],[116.79959,3.77396],[116.79977,3.77393],[116.80017,3.77396],[116.80036,3.77401],[116.80068,3.77402],[116.80109,3.77397],[116.80119,3.77399],[116.8014,3.77404],[116.80154,3.77414],[116.80188,3.77424],[116.80498,3.77312],[116.80855,3.7723],[116.81258,3.77209],[116.81511,3.77165],[116.81647,3.77154],[116.81701,3.76636],[116.81511,3.76441],[116.81139,3.76362],[116.80904,3.76362],[116.80533,3.76377],[116.80047,3.76477],[116.79344,3.76287],[116.79049,3.7742],[116.79047,3.77666],[116.79131,3.77655],[116.79227,3.77624],[116.79266,3.77627],[116.79297,3.77679],[116.79366,3.77702],[116.79405,3.77661],[116.79374,3.77627]]]]},"properties":{"kdprov":"65","kdkab":"04","kdkec":"050","kddesa":"004","kdsls":"0002","idsls":"65040500040002","nmprov":"KALIMANTAN UTARA","nmkab":"NUNUKAN","nmkec":"SEMBAKUNG ATULAI","nmdesa":"SABULUAN","nmsls":"RT 002"}},{"type":"Feature","geometry":{"type":"MultiPolygon","coordinates":[[[[116.81759,3.75539],[116.81095,3.75497],[116.80439,3.75528],[116.80033,3.75616],[116.79854,3.75749],[116.79839,3.7597],[116.79813,3.76011],[116.79777,3.76018],[116.79701,3.75985],[116.79683,3.7598],[116.796,3.75959],[116.79436,3.75933],[116.79344,3.76287],[116.80047,3.76477],[116.80533,3.76377],[116.80904,3.76362],[116.81139,3.76362],[116.81511,3.76441],[116.81701,3.76636],[116.81756,3.76111],[116.81759,3.75539]]]]},"properties":{"kdprov":"65","kdkab":"04","kdkec":"050","kddesa":"003","kdsls":"0001","idsls":"65040500030001","nmprov":"KALIMANTAN UTARA","nmkab":"NUNUKAN","nmkec":"SEMBAKUNG ATULAI","nmdesa":"PULAU KERAS","nmsls":"RT 001"}},{"type":"Feature","geometry":{"type":"MultiPolygon","coordinates":[[[[116.79683,3.7598],[116.79697,3.75958],[116.79712,3.75802],[116.79606,3.75772],[116.7944,3.75669],[116.79436,3.75933],[116.796,3.75959],[116.79683,3.7598]]]]},"properties":{"kdprov":"65","kdkab":"04","kdkec":"050","kddesa":"003","kdsls":"0003","idsls":"65040500030003","nmprov":"KALIMANTAN UTARA","nmkab":"NUNUKAN","nmkec":"SEMBAKUNG ATULAI","nmdesa":"PULAU KERAS","nmsls":"RT 003"}},{"type":"Feature","geometry":{"type":"MultiPolygon","coordinates":[[[[116.7944,3.75669],[116.79606,3.75772],[116.79712,3.75802],[116.79697,3.75958],[116.79683,3.7598],[116.79701,3.75985],[116.79777,3.76018],[116.79813,3.76011],[116.79839,3.7597],[116.79854,3.75749],[116.80033,3.75616],[116.80439,3.75528],[116.81095,3.75497],[116.81759,3.75539],[116.81791,3.70221],[116.81795,3.6957],[116.81799,3.68897],[116.81167,3.68902],[116.8114,3.68908],[116.80974,3.68945],[116.80944,3.6895],[116.80944,3.6895],[116.80627,3.69003],[116.80627,3.69003],[116.80504,3.69024],[116.79555,3.69184],[116.7954,3.69186],[116.79531,3.69786],[116.79528,3.69982],[116.79457,3.74539],[116.7944,3.75669]]]]},"properties":{"kdprov":"65","kdkab":"04","kdkec":"050","kddesa":"003","kdsls":"0002","idsls":"65040500030002","nmprov":"KALIMANTAN UTARA","nmkab":"NUNUKAN","nmkec":"SEMBAKUNG ATULAI","nmdesa":"PULAU KERAS","nmsls":"RT 002"}},{"type":"Feature","geometry":{"type":"MultiPolygon","coordinates":[[[[116.81392,3.78856],[116.81392,3.78856],[116.81518,3.78401],[116.81605,3.77563],[116.81618,3.77438],[116.81304,3.77527],[116.80736,3.77739],[116.80293,3.77792],[116.80102,3.77787],[116.80093,3.77787],[116.80371,3.79297],[116.80556,3.79256],[116.81062,3.78983],[116.81392,3.78856],[116.81392,3.78856]]]]},"properties":{"kdprov":"65","kdkab":"04","kdkec":"050","kddesa":"005","kdsls":"0003","idsls":"65040500050003","nmprov":"KALIMANTAN UTARA","nmkab":"NUNUKAN","nmkec":"SEMBAKUNG ATULAI","nmdesa":"TULANG","nmsls":"RT 003"}},{"type":"Feature","geometry":{"type":"MultiPolygon","coordinates":[[[[116.81918,3.79627],[116.81235,3.79439],[116.81155,3.80217],[116.81388,3.80638],[116.81458,3.80446],[116.81573,3.80129],[116.81596,3.80104],[116.81613,3.80072],[116.81619,3.80026],[116.81628,3.79984],[116.81634,3.79958],[116.81694,3.79915],[116.81744,3.79891],[116.81804,3.79838],[116.81858,3.79751],[116.81893,3.79674],[116.81918,3.79627]]]]},"properties":{"kdprov":"65","kdkab":"04","kdkec":"050","kddesa":"006","kdsls":"0002","idsls":"65040500060002","nmprov":"KALIMANTAN UTARA","nmkab":"NUNUKAN","nmkec":"SEMBAKUNG ATULAI","nmdesa":"SADUMAN","nmsls":"RT 002"}},{"type":"Feature","geometry":{"type":"MultiPolygon","coordinates":[[[[116.80736,3.77739],[116.80064,3.77621],[116.80045,3.776],[116.79405,3.77661],[116.79366,3.77702],[116.79297,3.77679],[116.79266,3.77627],[116.79227,3.77624],[116.79131,3.77655],[116.79047,3.77666],[116.79046,3.77778],[116.79216,3.77796],[116.79408,3.77778],[116.79783,3.77778],[116.80093,3.77787],[116.80102,3.77787],[116.80293,3.77792],[116.80736,3.77739]]]]},"properties":{"kdprov":"65","kdkab":"04","kdkec":"050","kddesa":"004","kdsls":"0003","idsls":"65040500040003","nmprov":"KALIMANTAN UTARA","nmkab":"NUNUKAN","nmkec":"SEMBAKUNG ATULAI","nmdesa":"SABULUAN","nmsls":"RT 003"}}]}