{"type":"FeatureCollection","features":[{"type":"Feature","geometry":{"type":"MultiPolygon","coordinates":[[[[116.97852,4.16169],[116.9791,4.16294],[116.97953,4.16336],[116.97963,4.16341],[116.97982,4.16367],[116.98005,4.16404],[116.98018,4.16429],[116.98099,4.16365],[116.98183,4.16297],[116.98182,4.16247],[116.98182,4.16215],[116.98182,4.1614],[116.98163,4.16092],[116.98159,4.16083],[116.98052,4.16016],[116.97935,4.16103],[116.97921,4.16114],[116.97852,4.16169]]]]},"properties":{"kdprov":"65","kdkab":"04","kdkec":"080","kddesa":"005","kdsls":"0001","idsls":"65040800050001","nmprov":"KALIMANTAN UTARA","nmkab":"NUNUKAN","nmkec":"TULIN ONSOI","nmdesa":"TINAMPAK I","nmsls":"RT 001"}},{"type":"Feature","geometry":{"type":"MultiPolygon","coordinates":[[[[116.98182,4.16215],[116.9821,4.1619],[116.98226,4.16175],[116.98241,4.16163],[116.98251,4.16145],[116.98246,4.1613],[116.98224,4.16103],[116.98196,4.16094],[116.98163,4.16092],[116.98182,4.1614],[116.98182,4.16215]]]]},"properties":{"kdprov":"65","kdkab":"04","kdkec":"080","kddesa":"006","kdsls":"4001","idsls":"65040800064001","nmprov":"KALIMANTAN UTARA","nmkab":"NUNUKAN","nmkec":"TULIN ONSOI","nmdesa":"SALANG","nmsls":"POS TNI PERBATASAN"}},{"type":"Feature","geometry":{"type":"MultiPolygon","coordinates":[[[[117.02119,4.16398],[117.02199,4.16159],[117.02265,4.15934],[117.02328,4.15786],[117.02778,4.15942],[117.02585,4.16597],[117.05862,4.18],[117.08682,4.18963],[117.1325,4.21712],[117.15103,4.22996],[117.15105,4.22987],[117.15117,4.22932],[117.15145,4.2284],[117.15183,4.2277],[117.15241,4.22722],[117.15307,4.2267],[117.15365,4.2262],[117.15399,4.22578],[117.15437,4.2253],[117.15457,4.22483],[117.15553,4.22302],[117.15618,4.22177],[117.15693,4.22071],[117.15751,4.21985],[117.15803,4.21927],[117.1595,4.21825],[117.16031,4.21758],[117.16205,4.21624],[117.16259,4.21544],[117.16312,4.21463],[117.16366,4.21396],[117.16419,4.21329],[117.165,4.21249],[117.16634,4.21061],[117.16738,4.20975],[117.16782,4.2094],[117.16875,4.20833],[117.16969,4.20793],[117.17103,4.20699],[117.17157,4.20618],[117.17237,4.20565],[117.17318,4.20484],[117.17358,4.2035],[117.17339,4.20321],[117.17474,4.2022],[117.17523,4.20154],[117.17551,4.20073],[117.17544,4.20007],[117.17524,4.19955],[117.17504,4.19892],[117.17464,4.19826],[117.17392,4.19732],[117.17338,4.19657],[117.17224,4.19549],[117.17046,4.19381],[117.16914,4.19257],[117.16828,4.19176],[117.16697,4.19077],[117.16553,4.18977],[117.16436,4.18891],[117.16357,4.1886],[117.16213,4.1883],[117.16138,4.18817],[117.16102,4.18783],[117.16061,4.18749],[117.16001,4.18708],[117.15935,4.18679],[117.15868,4.1865],[117.15818,4.18625],[117.15769,4.18607],[117.1572,4.18573],[117.15686,4.18544],[117.15634,4.18519],[117.15601,4.18491],[117.15564,4.18467],[117.15492,4.18404],[117.15452,4.18343],[117.15401,4.18246],[117.15305,4.18006],[117.1528,4.17916],[117.15276,4.17887],[117.14827,4.17629],[117.14098,4.17021],[117.13753,4.16854],[117.01749,4.14697],[117.01422,4.14831],[117.00922,4.15074],[117.00875,4.15039],[117.00757,4.15018],[117.00752,4.15015],[117.0071,4.14916],[117.00707,4.14908],[117.0066,4.14823],[117.00555,4.14804],[117.00477,4.14747],[117.00445,4.1476],[117.00368,4.14825],[117.00278,4.14843],[116.99896,4.14603],[116.99836,4.14755],[116.99443,4.14853],[116.99017,4.148],[116.98962,4.14788],[116.98887,4.1478],[116.98793,4.14763],[116.98704,4.14748],[116.98714,4.14775],[116.98704,4.1497],[116.98497,4.15318],[116.98777,4.15413],[116.98977,4.15409],[116.99098,4.15407],[116.99955,4.15484],[117.00782,4.15764],[117.01347,4.16067],[117.02119,4.16398]]]]},"properties":{"kdprov":"65","kdkab":"04","kdkec":"080","kddesa":"007","kdsls":"4001","idsls":"65040800074001","nmprov":"KALIMANTAN UTARA","nmkab":"NUNUKAN","nmkec":"TULIN ONSOI","nmdesa":"TEMBALANG","nmsls":"CAMP TEMBALANG (PT. KHL 3, AFD. 1, RAYON A)"}},{"type":"Feature","geometry":{"type":"MultiPolygon","coordinates":[[[[116.99348,4.16034],[116.99342,4.15987],[116.99414,4.15795],[116.99378,4.15672],[116.99375,4.15628],[116.994,4.15586],[116.99408,4.15531],[116.99481,4.15467],[116.9956,4.15449],[116.99098,4.15407],[116.98977,4.15409],[116.98916,4.15586],[116.98752,4.15765],[116.98727,4.15869],[116.98762,4.15891],[116.98793,4.15902],[116.988,4.15926],[116.98822,4.15918],[116.98817,4.15898],[116.98903,4.15869],[116.98942,4.15881],[116.99348,4.16034]]]]},"properties":{"kdprov":"65","kdkab":"04","kdkec":"080","kddesa":"002","kdsls":"0002","idsls":"65040800020002","nmprov":"KALIMANTAN UTARA","nmkab":"NUNUKAN","nmkec":"TULIN ONSOI","nmdesa":"NAPUTI","nmsls":"RT 002"}},{"type":"Feature","geometry":{"type":"MultiPolygon","coordinates":[[[[117.07974,4.09039],[117.06788,4.10362],[117.05212,4.11611],[117.05052,4.11701],[117.04636,4.11934],[117.04207,4.12175],[117.01937,4.13447],[117.01607,4.135],[116.9928,4.14069],[116.99153,4.141],[116.98586,4.14296],[116.98488,4.14314],[116.98448,4.14312],[116.98177,4.14293],[116.98543,4.14442],[116.98647,4.14585],[116.98704,4.14748],[116.98793,4.14763],[116.98887,4.1478],[116.98962,4.14788],[116.99017,4.148],[116.99443,4.14853],[116.99836,4.14755],[116.99896,4.14603],[117.00278,4.14843],[117.00368,4.14825],[117.00445,4.1476],[117.00477,4.14747],[117.00555,4.14804],[117.0066,4.14823],[117.00707,4.14908],[117.0071,4.14916],[117.00752,4.15015],[117.00757,4.15018],[117.00875,4.15039],[117.00922,4.15074],[117.01422,4.14831],[117.01749,4.14697],[117.13753,4.16854],[117.13096,4.16535],[117.12458,4.15897],[117.11759,4.15381],[117.11121,4.14773],[117.10513,4.14226],[117.10148,4.13619],[117.09602,4.13193],[117.09267,4.12616],[117.09024,4.11765],[117.0872,4.11051],[117.08326,4.09654],[117.07991,4.09077],[117.07974,4.09039]]]]},"properties":{"kdprov":"65","kdkab":"04","kdkec":"080","kddesa":"007","kdsls":"0001","idsls":"65040800070001","nmprov":"KALIMANTAN UTARA","nmkab":"NUNUKAN","nmkec":"TULIN ONSOI","nmdesa":"TEMBALANG","nmsls":"RT 001"}},{"type":"Feature","geometry":{"type":"MultiPolygon","coordinates":[[[[117.13804,4.25137],[117.13826,4.25131],[117.13859,4.25122],[117.13885,4.2511],[117.13911,4.25095],[117.1392,4.25077],[117.13926,4.25058],[117.13951,4.25036],[117.13979,4.25],[117.14043,4.24903],[117.14106,4.24838],[117.14135,4.24784],[117.14155,4.2474],[117.11614,4.2316],[117.088,4.21948],[117.04073,4.18723],[117.00453,4.16435],[117.00297,4.16445],[117.00192,4.16365],[117.00107,4.16387],[116.99987,4.1633],[116.99912,4.1636],[116.99892,4.16327],[116.99837,4.1632],[116.99829,4.1624],[116.99779,4.16195],[116.99348,4.16034],[116.98942,4.15881],[116.98903,4.15869],[116.98817,4.15898],[116.98822,4.15918],[116.988,4.15926],[116.98793,4.15902],[116.98762,4.15891],[116.98727,4.15869],[116.98695,4.16004],[116.98698,4.16418],[116.98863,4.16693],[116.98865,4.16695],[117.00499,4.18115],[117.05702,4.22638],[117.05941,4.22846],[117.10848,4.24987],[117.11831,4.25856],[117.11848,4.25827],[117.11858,4.25804],[117.11895,4.25759],[117.11918,4.25736],[117.11941,4.25713],[117.11961,4.25695],[117.11976,4.2568],[117.12027,4.25675],[117.12047,4.25689],[117.12106,4.25721],[117.12124,4.25735],[117.1215,4.25746],[117.12168,4.25752],[117.12217,4.25753],[117.12253,4.25753],[117.12267,4.2575],[117.12311,4.25747],[117.12353,4.25732],[117.12393,4.25726],[117.1242,4.25726],[117.12444,4.25734],[117.12464,4.25748],[117.12503,4.25757],[117.12544,4.25774],[117.12603,4.25807],[117.12617,4.25815],[117.12643,4.25832],[117.12655,4.25839],[117.12676,4.25853],[117.12705,4.25868],[117.12734,4.2588],[117.12764,4.2588],[117.12806,4.2588],[117.12856,4.25879],[117.12932,4.2589],[117.12943,4.25888],[117.12969,4.25882],[117.12989,4.25881],[117.13005,4.25879],[117.13057,4.25863],[117.13088,4.25843],[117.13111,4.25816],[117.13125,4.25788],[117.1314,4.25764],[117.13175,4.25728],[117.13207,4.25708],[117.13233,4.25688],[117.13263,4.25678],[117.1327,4.25678],[117.13316,4.2567],[117.13342,4.25656],[117.1337,4.25625],[117.13389,4.25593],[117.13416,4.25553],[117.13428,4.25526],[117.13459,4.255],[117.13487,4.25485],[117.13518,4.25485],[117.13534,4.25485],[117.13564,4.25482],[117.13578,4.2548],[117.13592,4.25479],[117.13626,4.25471],[117.13659,4.25452],[117.13681,4.2542],[117.13705,4.25353],[117.13717,4.25283],[117.13732,4.25228],[117.13749,4.25198],[117.13763,4.25175],[117.13784,4.25155],[117.13804,4.25137]]]]},"properties":{"kdprov":"65","kdkab":"04","kdkec":"080","kddesa":"002","kdsls":"0001","idsls":"65040800020001","nmprov":"KALIMANTAN UTARA","nmkab":"NUNUKAN","nmkec":"TULIN ONSOI","nmdesa":"NAPUTI","nmsls":"RT 001"}},{"type":"Feature","geometry":{"type":"MultiPolygon","coordinates":[[[[117.00954,4.21182],[117.0033,4.21586],[116.99416,4.22141],[116.9892,4.22519],[116.97954,4.23008],[116.975,4.23287],[116.97592,4.24858],[116.97264,4.26822],[116.97324,4.29558],[116.97443,4.33038],[116.97868,4.34278],[116.9792,4.34201],[116.98013,4.34202],[116.98024,4.34153],[116.98073,4.34133],[116.98184,4.34114],[116.98189,4.34114],[116.98323,4.34109],[116.98417,4.34094],[116.98487,4.34082],[116.98604,4.34098],[116.98732,4.3411],[116.98804,4.34121],[116.9886,4.3419],[116.9886,4.3419],[116.98906,4.34265],[116.99048,4.34257],[116.99122,4.34209],[116.99138,4.34212],[116.99153,4.34214],[116.9926,4.34231],[116.99379,4.34269],[116.99457,4.34314],[116.99469,4.34323],[116.99682,4.3444],[116.99855,4.34462],[116.99872,4.34478],[116.99899,4.34475],[116.99983,4.34465],[117,4.34474],[117.00084,4.34522],[117.00203,4.34547],[117.00299,4.34584],[117.00476,4.34659],[117.00504,4.3467],[117.00622,4.34621],[117.00786,4.34572],[117.00821,4.34483],[117.00822,4.34351],[117.00847,4.3423],[117.00847,4.34123],[117.00823,4.33877],[117.00781,4.33756],[117.00775,4.33439],[117.00744,4.33158],[117.00741,4.32983],[117.00682,4.32901],[117.00643,4.32684],[117.00644,4.32399],[117.00616,4.32203],[117.00617,4.32135],[117.00734,4.32107],[117.00755,4.32105],[117.00755,4.3209],[117.00781,4.32101],[117.00847,4.32093],[117.01039,4.32094],[117.01123,4.32086],[117.01188,4.32081],[117.01195,4.3208],[117.01376,4.32073],[117.01517,4.3202],[117.01652,4.31992],[117.01716,4.3196],[117.01869,4.31907],[117.01904,4.319],[117.01958,4.3189],[117.02001,4.31929],[117.02017,4.31944],[117.02025,4.31951],[117.02187,4.32026],[117.02283,4.32186],[117.02357,4.3229],[117.02456,4.32411],[117.02473,4.32521],[117.02482,4.32579],[117.02494,4.32657],[117.02543,4.32728],[117.02547,4.32736],[117.02688,4.33006],[117.02744,4.33188],[117.02828,4.33341],[117.02877,4.33498],[117.02986,4.33876],[117.03078,4.34007],[117.03099,4.34037],[117.03279,4.3413],[117.03409,4.34163],[117.03417,4.3417],[117.03526,4.34263],[117.03588,4.34286],[117.03594,4.34288],[117.03644,4.34326],[117.03743,4.34384],[117.04026,4.34559],[117.04216,4.34597],[117.04254,4.34635],[117.04319,4.34672],[117.04418,4.3471],[117.04494,4.34652],[117.04556,4.34692],[117.0461,4.34662],[117.0469,4.34709],[117.04736,4.3465],[117.04766,4.34629],[117.04777,4.34629],[117.04926,4.34629],[117.04938,4.3462],[117.04958,4.34606],[117.04981,4.3459],[117.04997,4.34579],[117.05007,4.34571],[117.05097,4.34498],[117.05097,4.34497],[117.0511,4.34483],[117.05125,4.34467],[117.05129,4.34462],[117.0506,4.34047],[117.05047,4.33971],[117.05031,4.33914],[117.05012,4.33857],[117.05002,4.33797],[117.0499,4.33752],[117.04983,4.33728],[117.04976,4.33702],[117.04957,4.33671],[117.04936,4.33651],[117.04919,4.33623],[117.04896,4.33585],[117.04889,4.33556],[117.04884,4.33526],[117.04877,4.33504],[117.04868,4.3348],[117.04857,4.33466],[117.04829,4.33437],[117.04793,4.33401],[117.04769,4.33375],[117.04752,4.33353],[117.0474,4.3333],[117.04732,4.33313],[117.04721,4.33281],[117.04721,4.33242],[117.04732,4.33181],[117.04745,4.33138],[117.04753,4.33074],[117.04759,4.33025],[117.04765,4.32985],[117.04767,4.32964],[117.04771,4.32933],[117.04758,4.32901],[117.04731,4.32865],[117.0472,4.32852],[117.0471,4.3283],[117.04698,4.32799],[117.04676,4.32735],[117.0467,4.32707],[117.04666,4.32692],[117.04652,4.32672],[117.04635,4.32655],[117.04623,4.3264],[117.04609,4.32628],[117.04593,4.32606],[117.04582,4.3259],[117.04575,4.3258],[117.04566,4.32556],[117.04562,4.32539],[117.0456,4.32524],[117.04581,4.325],[117.04607,4.32472],[117.04615,4.32446],[117.04627,4.32407],[117.04641,4.32375],[117.04649,4.32344],[117.04652,4.32321],[117.04652,4.32301],[117.04649,4.32292],[117.04652,4.32271],[117.04673,4.32236],[117.04685,4.32222],[117.04717,4.32198],[117.04742,4.3219],[117.0476,4.32187],[117.04786,4.32184],[117.04813,4.32184],[117.04827,4.32184],[117.04834,4.32184],[117.04845,4.32187],[117.04868,4.32204],[117.04885,4.3221],[117.049,4.32212],[117.04923,4.32212],[117.04941,4.32212],[117.04952,4.32212],[117.04964,4.32215],[117.05008,4.32244],[117.0505,4.32274],[117.05075,4.32285],[117.05093,4.32291],[117.05122,4.32294],[117.05149,4.3229],[117.05178,4.32279],[117.05194,4.32266],[117.05246,4.32212],[117.05258,4.32197],[117.05269,4.32171],[117.0529,4.32144],[117.05302,4.32124],[117.05312,4.32102],[117.05345,4.3209],[117.05363,4.32075],[117.05373,4.32066],[117.05374,4.32048],[117.05374,4.32023],[117.05376,4.31993],[117.0539,4.31954],[117.0541,4.3189],[117.05453,4.31839],[117.05471,4.31816],[117.05514,4.31793],[117.05565,4.31772],[117.056,4.31764],[117.05638,4.31755],[117.05695,4.31747],[117.05711,4.31743],[117.05718,4.31721],[117.05743,4.31676],[117.05763,4.31648],[117.05774,4.31615],[117.05782,4.31566],[117.05795,4.31535],[117.05801,4.31519],[117.05804,4.31497],[117.05811,4.31465],[117.05811,4.31447],[117.0581,4.31413],[117.05796,4.31383],[117.05789,4.31364],[117.05773,4.31337],[117.05772,4.31317],[117.05773,4.31296],[117.05796,4.3129],[117.05837,4.3129],[117.05865,4.31297],[117.05901,4.3131],[117.05929,4.31319],[117.05945,4.31326],[117.05988,4.3133],[117.0602,4.31336],[117.0604,4.31343],[117.06075,4.3135],[117.06117,4.31356],[117.06139,4.31357],[117.06159,4.31357],[117.06189,4.31356],[117.06203,4.3135],[117.06222,4.31324],[117.06245,4.31286],[117.06251,4.31245],[117.06258,4.31205],[117.06271,4.31176],[117.06278,4.31152],[117.06278,4.311],[117.06274,4.31008],[117.06274,4.30974],[117.06272,4.30948],[117.06277,4.30919],[117.06281,4.30897],[117.06285,4.30874],[117.06313,4.3084],[117.06345,4.30807],[117.06364,4.30793],[117.06382,4.30781],[117.06409,4.30772],[117.06431,4.30755],[117.06452,4.30735],[117.06457,4.30679],[117.0648,4.30639],[117.06492,4.30624],[117.06499,4.30616],[117.06511,4.30607],[117.06541,4.30584],[117.06581,4.30557],[117.06608,4.30525],[117.06617,4.30503],[117.06628,4.30474],[117.06652,4.30439],[117.06687,4.30406],[117.06707,4.30374],[117.06736,4.30334],[117.06736,4.30282],[117.06754,4.30252],[117.06763,4.3023],[117.06778,4.30214],[117.0681,4.30182],[117.0685,4.30153],[117.06885,4.30133],[117.06895,4.30119],[117.06927,4.30105],[117.06953,4.30075],[117.07001,4.30005],[117.0703,4.29961],[117.07062,4.29915],[117.07089,4.29887],[117.07172,4.2982],[117.07215,4.29778],[117.0725,4.29747],[117.07276,4.29717],[117.07298,4.29692],[117.0733,4.29659],[117.07358,4.29615],[117.07401,4.29569],[117.0741,4.29545],[117.07436,4.29511],[117.07457,4.29474],[117.07502,4.29438],[117.07551,4.29392],[117.0759,4.29363],[117.07612,4.29336],[117.07631,4.29314],[117.07676,4.29282],[117.07709,4.29253],[117.07729,4.29237],[117.07781,4.292],[117.07808,4.2918],[117.07908,4.29133],[117.07949,4.29101],[117.07973,4.29081],[117.07992,4.29071],[117.08037,4.29051],[117.08066,4.29028],[117.08107,4.29008],[117.08145,4.28998],[117.08176,4.28998],[117.08193,4.28998],[117.08208,4.28999],[117.08215,4.28998],[117.08215,4.28987],[117.08215,4.28966],[117.0822,4.2894],[117.08237,4.28911],[117.08257,4.28893],[117.08273,4.28876],[117.08319,4.28858],[117.08359,4.28852],[117.08395,4.28862],[117.08462,4.28905],[117.08503,4.28919],[117.0853,4.28921],[117.08569,4.28915],[117.08623,4.28901],[117.0865,4.28873],[117.08662,4.28855],[117.08696,4.28826],[117.08702,4.28794],[117.08708,4.28764],[117.08729,4.28744],[117.08743,4.2873],[117.08757,4.28719],[117.08783,4.2871],[117.0881,4.2871],[117.08839,4.28706],[117.08854,4.28695],[117.08866,4.28681],[117.08871,4.28645],[117.08871,4.28627],[117.08862,4.28602],[117.0885,4.28575],[117.08834,4.28555],[117.08819,4.28532],[117.0881,4.28512],[117.08806,4.28491],[117.08791,4.28439],[117.08791,4.2839],[117.08791,4.28361],[117.08786,4.28335],[117.07437,4.27446],[117.05106,4.25733],[117.04203,4.25044],[117.03297,4.24353],[117.01203,4.21545],[117.00954,4.21182]]]]},"properties":{"kdprov":"65","kdkab":"04","kdkec":"080","kddesa":"005","kdsls":"0003","idsls":"65040800050003","nmprov":"KALIMANTAN UTARA","nmkab":"NUNUKAN","nmkec":"TULIN ONSOI","nmdesa":"TINAMPAK I","nmsls":"RT 003"}},{"type":"Feature","geometry":{"type":"MultiPolygon","coordinates":[[[[117.04789,4.24683],[117.05941,4.22846],[117.05702,4.22638],[117.00499,4.18115],[117.00526,4.18265],[117.00596,4.18475],[117.006,4.18767],[117.0053,4.19021],[117.006,4.19161],[117.00847,4.19283],[117.01157,4.1939],[117.01581,4.19464],[117.01714,4.19596],[117.0192,4.19641],[117.02348,4.1998],[117.03071,4.20762],[117.03189,4.21101],[117.03233,4.21736],[117.03602,4.21942],[117.03897,4.2209],[117.04325,4.22149],[117.04605,4.2268],[117.04886,4.23358],[117.04971,4.23772],[117.05012,4.23963],[117.04967,4.24209],[117.04848,4.24368],[117.04771,4.24505],[117.04789,4.24683]]]]},"properties":{"kdprov":"65","kdkab":"04","kdkec":"080","kddesa":"006","kdsls":"0003","idsls":"65040800060003","nmprov":"KALIMANTAN UTARA","nmkab":"NUNUKAN","nmkec":"TULIN ONSOI","nmdesa":"SALANG","nmsls":"RT 003"}},{"type":"Feature","geometry":{"type":"MultiPolygon","coordinates":[[[[116.98598,4.16899],[116.98337,4.15955],[116.98113,4.15567],[116.98024,4.14991],[116.97968,4.14278],[116.97761,4.14264],[116.97287,4.1426],[116.97281,4.14261],[116.97413,4.14665],[116.97786,4.15808],[116.97828,4.15872],[116.97931,4.15954],[116.98051,4.16015],[116.98052,4.16016],[116.98159,4.16083],[116.98163,4.16092],[116.98196,4.16094],[116.98224,4.16103],[116.98246,4.1613],[116.98251,4.16145],[116.98241,4.16163],[116.98226,4.16175],[116.9821,4.1619],[116.98182,4.16215],[116.98182,4.16247],[116.98183,4.16297],[116.98202,4.17174],[116.98406,4.17471],[116.98546,4.17426],[116.98701,4.17249],[116.98546,4.17038],[116.98598,4.16899]]]]},"properties":{"kdprov":"65","kdkab":"04","kdkec":"080","kddesa":"006","kdsls":"0001","idsls":"65040800060001","nmprov":"KALIMANTAN UTARA","nmkab":"NUNUKAN","nmkec":"TULIN ONSOI","nmdesa":"SALANG","nmsls":"RT 001"}},{"type":"Feature","geometry":{"type":"MultiPolygon","coordinates":[[[[117.02149,4.10617],[117.01656,4.09716],[117.02294,4.09189],[117.02951,4.09631],[117.0422,4.08071],[117.05707,4.05918],[117.05378,4.05461],[117.04811,4.0479],[117.0471,4.04671],[117.0462,4.04634],[117.042,4.05026],[117.0393,4.05277],[117.02666,4.06303],[117.01521,4.07077],[117.0051,4.0727],[116.99817,4.07173],[116.99807,4.07171],[116.99694,4.07302],[116.99752,4.07565],[116.99644,4.07583],[116.99518,4.07804],[116.9932,4.07979],[116.99358,4.08107],[116.99413,4.08162],[116.99581,4.08293],[116.99591,4.08466],[116.99543,4.08549],[116.99385,4.08679],[116.99232,4.08905],[116.99139,4.09158],[116.99094,4.09323],[116.99057,4.09462],[116.99087,4.09583],[116.99082,4.09798],[116.98912,4.09804],[116.9891,4.09821],[116.98899,4.09952],[116.98868,4.10069],[116.98849,4.10153],[116.98805,4.10258],[116.98819,4.10381],[116.98819,4.10505],[116.98838,4.10547],[116.98891,4.1065],[116.98882,4.10714],[116.98822,4.10816],[116.98749,4.10881],[116.98732,4.10915],[116.98724,4.10982],[116.9874,4.11019],[116.98763,4.11091],[116.98787,4.11179],[116.98842,4.11215],[116.98906,4.11254],[116.98944,4.11346],[116.98936,4.11451],[116.98936,4.11616],[116.98912,4.11774],[117.02149,4.10617]]]]},"properties":{"kdprov":"65","kdkab":"04","kdkec":"080","kddesa":"009","kdsls":"4004","idsls":"65040800094004","nmprov":"KALIMANTAN UTARA","nmkab":"NUNUKAN","nmkec":"TULIN ONSOI","nmdesa":"SEKIKILAN","nmsls":"CAMP JULIET (PT. KHL 3, AFD. 4)"}},{"type":"Feature","geometry":{"type":"MultiPolygon","coordinates":[[[[117.05012,4.23963],[117.04971,4.23772],[117.04886,4.23358],[117.04605,4.2268],[117.04325,4.22149],[117.03897,4.2209],[117.03602,4.21942],[117.03233,4.21736],[117.03189,4.21101],[117.03071,4.20762],[117.02348,4.1998],[117.0192,4.19641],[117.01714,4.19596],[117.01581,4.19464],[117.01157,4.1939],[117.00847,4.19283],[117.006,4.19161],[117.0053,4.19021],[117.006,4.18767],[117.00596,4.18475],[117.00526,4.18265],[117.00499,4.18115],[116.98865,4.16695],[116.98843,4.16733],[116.98726,4.16771],[116.98625,4.16827],[116.98598,4.16899],[116.98546,4.17038],[116.98701,4.17249],[116.98546,4.17426],[116.98406,4.17471],[116.9994,4.19706],[117.00019,4.19679],[117.00122,4.1965],[117.00178,4.19646],[117.00277,4.19738],[117.00432,4.19716],[117.00539,4.19554],[117.00665,4.19587],[117.00768,4.19797],[117.00772,4.19993],[117.00731,4.20196],[117.00665,4.20343],[117.00602,4.20424],[117.0049,4.20506],[117.00954,4.21182],[117.01203,4.21545],[117.03297,4.24353],[117.04203,4.25044],[117.04457,4.24861],[117.04789,4.24683],[117.04771,4.24505],[117.04848,4.24368],[117.04967,4.24209],[117.05012,4.23963]]]]},"properties":{"kdprov":"65","kdkab":"04","kdkec":"080","kddesa":"006","kdsls":"1002","idsls":"65040800061002","nmprov":"KALIMANTAN UTARA","nmkab":"NUNUKAN","nmkec":"TULIN ONSOI","nmdesa":"SALANG","nmsls":"HUTAN"}},{"type":"Feature","geometry":{"type":"MultiPolygon","coordinates":[[[[117.00057,4.19875],[117.00029,4.19907],[116.99995,4.19959],[116.99949,4.19998],[116.99938,4.20081],[116.99971,4.20176],[117.00038,4.20222],[117.00117,4.20269],[117.00222,4.20298],[117.00334,4.20347],[117.00383,4.20351],[117.00057,4.19875]]]]},"properties":{"kdprov":"65","kdkab":"04","kdkec":"080","kddesa":"005","kdsls":"4002","idsls":"65040800054002","nmprov":"KALIMANTAN UTARA","nmkab":"NUNUKAN","nmkec":"TULIN ONSOI","nmdesa":"TINAMPAK I","nmsls":"CAMP TINAMPAK I (PT. TMSJ 2, AFD. 1)"}},{"type":"Feature","geometry":{"type":"MultiPolygon","coordinates":[[[[116.97852,4.16169],[116.97614,4.16356],[116.97781,4.1657],[116.97908,4.16513],[116.97977,4.16462],[116.98018,4.16429],[116.98005,4.16404],[116.97982,4.16367],[116.97963,4.16341],[116.97953,4.16336],[116.9791,4.16294],[116.97852,4.16169]]]]},"properties":{"kdprov":"65","kdkab":"04","kdkec":"080","kddesa":"005","kdsls":"0002","idsls":"65040800050002","nmprov":"KALIMANTAN UTARA","nmkab":"NUNUKAN","nmkec":"TULIN ONSOI","nmdesa":"TINAMPAK I","nmsls":"RT 002"}},{"type":"Feature","geometry":{"type":"MultiPolygon","coordinates":[[[[117.00954,4.21182],[117.0049,4.20506],[117.00383,4.20351],[117.00334,4.20347],[117.00222,4.20298],[117.00117,4.20269],[117.00038,4.20222],[116.99971,4.20176],[116.99938,4.20081],[116.99949,4.19998],[116.99995,4.19959],[117.00029,4.19907],[117.00057,4.19875],[116.9994,4.19706],[116.98406,4.17471],[116.98202,4.17174],[116.98183,4.16297],[116.98099,4.16365],[116.98018,4.16429],[116.97977,4.16462],[116.97908,4.16513],[116.97781,4.1657],[116.97614,4.16356],[116.97852,4.16169],[116.97921,4.16114],[116.97935,4.16103],[116.98052,4.16016],[116.98051,4.16015],[116.97931,4.15954],[116.97828,4.15872],[116.97786,4.15808],[116.97413,4.14665],[116.97281,4.14261],[116.96836,4.14299],[116.9678,4.14303],[116.96411,4.1431],[116.96338,4.14321],[116.96642,4.15464],[116.97142,4.17128],[116.975,4.23287],[116.97954,4.23008],[116.9892,4.22519],[116.99416,4.22141],[117.0033,4.21586],[117.00954,4.21182]]]]},"properties":{"kdprov":"65","kdkab":"04","kdkec":"080","kddesa":"005","kdsls":"2001","idsls":"65040800052001","nmprov":"KALIMANTAN UTARA","nmkab":"NUNUKAN","nmkec":"TULIN ONSOI","nmdesa":"TINAMPAK I","nmsls":"HUTAN"}},{"type":"Feature","geometry":{"type":"MultiPolygon","coordinates":[[[[117.0048,4.02857],[116.99895,4.02542],[116.99891,4.02643],[116.99798,4.0275],[116.995,4.03054],[116.99392,4.03168],[116.99307,4.03258],[116.99579,4.03498],[116.99852,4.0372],[116.99888,4.03674],[117.00034,4.03487],[117.00109,4.03391],[117.00284,4.03165],[117.0048,4.02857]]]]},"properties":{"kdprov":"65","kdkab":"04","kdkec":"080","kddesa":"011","kdsls":"0015","idsls":"65040800110015","nmprov":"KALIMANTAN UTARA","nmkab":"NUNUKAN","nmkec":"TULIN ONSOI","nmdesa":"SANUR","nmsls":"RT 015"}},{"type":"Feature","geometry":{"type":"MultiPolygon","coordinates":[[[[117.01467,4.03822],[117.01352,4.03479],[117.01339,4.03263],[117.00871,4.03068],[117.00708,4.0298],[117.00358,4.03385],[117.00364,4.03392],[117.00419,4.03445],[117.00804,4.0379],[117.01149,4.0407],[117.01467,4.03822]]]]},"properties":{"kdprov":"65","kdkab":"04","kdkec":"080","kddesa":"012","kdsls":"0013","idsls":"65040800120013","nmprov":"KALIMANTAN UTARA","nmkab":"NUNUKAN","nmkec":"TULIN ONSOI","nmdesa":"MAKMUR","nmsls":"RT 013"}},{"type":"Feature","geometry":{"type":"MultiPolygon","coordinates":[[[[116.98865,4.16695],[116.98863,4.16693],[116.98698,4.16418],[116.98695,4.16004],[116.98727,4.15869],[116.98752,4.15765],[116.98916,4.15586],[116.98977,4.15409],[116.98777,4.15413],[116.98497,4.15318],[116.98704,4.1497],[116.98714,4.14775],[116.98704,4.14748],[116.98647,4.14585],[116.98543,4.14442],[116.98177,4.14293],[116.97968,4.14278],[116.98024,4.14991],[116.98113,4.15567],[116.98337,4.15955],[116.98598,4.16899],[116.98625,4.16827],[116.98726,4.16771],[116.98843,4.16733],[116.98865,4.16695]]]]},"properties":{"kdprov":"65","kdkab":"04","kdkec":"080","kddesa":"006","kdsls":"0002","idsls":"65040800060002","nmprov":"KALIMANTAN UTARA","nmkab":"NUNUKAN","nmkec":"TULIN ONSOI","nmdesa":"SALANG","nmsls":"RT 002"}},{"type":"Feature","geometry":{"type":"MultiPolygon","coordinates":[[[[116.9988,4.03969],[116.99835,4.03926],[116.9986,4.03899],[116.9987,4.03889],[116.99889,4.03869],[116.99987,4.03769],[117.0007,4.03683],[117.00105,4.03715],[117.00186,4.03627],[117.00154,4.03597],[117.00241,4.03509],[117.00244,4.03505],[117.0024,4.03502],[117.00229,4.03492],[117.00339,4.03375],[117.00357,4.03387],[117.00358,4.03385],[117.00708,4.0298],[117.00698,4.02975],[117.00669,4.02959],[117.0048,4.02857],[117.00284,4.03165],[117.00109,4.03391],[117.00034,4.03487],[116.99888,4.03674],[116.99852,4.0372],[116.99782,4.03811],[116.99707,4.03877],[116.998,4.03964],[116.99883,4.04041],[116.99921,4.04011],[116.99906,4.03996],[116.9988,4.03969]]]]},"properties":{"kdprov":"65","kdkab":"04","kdkec":"080","kddesa":"012","kdsls":"0010","idsls":"65040800120010","nmprov":"KALIMANTAN UTARA","nmkab":"NUNUKAN","nmkec":"TULIN ONSOI","nmdesa":"MAKMUR","nmsls":"RT 010"}},{"type":"Feature","geometry":{"type":"MultiPolygon","coordinates":[[[[116.9994,4.19706],[117.00057,4.19875],[117.00383,4.20351],[117.0049,4.20506],[117.00602,4.20424],[117.00665,4.20343],[117.00731,4.20196],[117.00772,4.19993],[117.00768,4.19797],[117.00665,4.19587],[117.00539,4.19554],[117.00432,4.19716],[117.00277,4.19738],[117.00178,4.19646],[117.00122,4.1965],[117.00019,4.19679],[116.9994,4.19706]]]]},"properties":{"kdprov":"65","kdkab":"04","kdkec":"080","kddesa":"006","kdsls":"4003","idsls":"65040800064003","nmprov":"KALIMANTAN UTARA","nmkab":"NUNUKAN","nmkec":"TULIN ONSOI","nmdesa":"SALANG","nmsls":"CAMP SALANG (PT. TMSJ 2, AFD. 1)"}},{"type":"Feature","geometry":{"type":"MultiPolygon","coordinates":[[[[117.02585,4.16597],[117.02778,4.15942],[117.02328,4.15786],[117.02265,4.15934],[117.02199,4.16159],[117.02119,4.16398],[117.02585,4.16597]]]]},"properties":{"kdprov":"65","kdkab":"04","kdkec":"080","kddesa":"007","kdsls":"0002","idsls":"65040800070002","nmprov":"KALIMANTAN UTARA","nmkab":"NUNUKAN","nmkec":"TULIN ONSOI","nmdesa":"TEMBALANG","nmsls":"RT 002"}},{"type":"Feature","geometry":{"type":"MultiPolygon","coordinates":[[[[116.97868,4.34278],[116.97443,4.33038],[116.97324,4.29558],[116.97264,4.26822],[116.97592,4.24858],[116.975,4.23287],[116.97142,4.17128],[116.96642,4.15464],[116.96338,4.14321],[116.96052,4.14362],[116.95455,4.14447],[116.95329,4.14455],[116.95413,4.14849],[116.95584,4.1527],[116.95629,4.16157],[116.95663,4.16229],[116.96088,4.16037],[116.96209,4.16194],[116.96142,4.16338],[116.96147,4.16382],[116.96068,4.16555],[116.95982,4.16608],[116.95985,4.16614],[116.95316,4.30476],[116.9365,4.33427],[116.9334,4.35911],[116.93488,4.35891],[116.93813,4.35847],[116.93918,4.35825],[116.93988,4.35718],[116.94015,4.35679],[116.94064,4.35615],[116.94352,4.35727],[116.94387,4.35741],[116.94392,4.35743],[116.94532,4.35812],[116.94554,4.35823],[116.94561,4.35833],[116.94661,4.35876],[116.94724,4.35858],[116.9497,4.35794],[116.95205,4.35626],[116.9541,4.3563],[116.95425,4.35556],[116.9546,4.35467],[116.95463,4.35459],[116.95654,4.35028],[116.95742,4.34942],[116.95767,4.34846],[116.95819,4.34692],[116.95972,4.34645],[116.95982,4.34642],[116.96071,4.34605],[116.96076,4.34603],[116.96109,4.34589],[116.96131,4.3458],[116.96254,4.34437],[116.96353,4.34327],[116.96416,4.34209],[116.9648,4.34116],[116.96639,4.33885],[116.96699,4.33798],[116.96778,4.33764],[116.96834,4.33766],[116.96918,4.33768],[116.97028,4.33772],[116.9712,4.33807],[116.97217,4.33899],[116.97242,4.33996],[116.9728,4.34121],[116.97306,4.34206],[116.9744,4.34249],[116.97448,4.34252],[116.9749,4.34277],[116.97529,4.34301],[116.97596,4.34343],[116.97599,4.34343],[116.97712,4.34347],[116.97853,4.34301],[116.97868,4.34278]]]]},"properties":{"kdprov":"65","kdkab":"04","kdkec":"080","kddesa":"004","kdsls":"2001","idsls":"65040800042001","nmprov":"KALIMANTAN UTARA","nmkab":"NUNUKAN","nmkec":"TULIN ONSOI","nmdesa":"TINAMPAK II","nmsls":"HUTAN"}},{"type":"Feature","geometry":{"type":"MultiPolygon","coordinates":[[[[116.95951,4.16319],[116.95961,4.16324],[116.96043,4.16324],[116.96041,4.16333],[116.96068,4.16336],[116.9607,4.16325],[116.96071,4.16316],[116.96071,4.16315],[116.96104,4.1632],[116.96102,4.16331],[116.96142,4.16338],[116.96209,4.16194],[116.96088,4.16037],[116.95663,4.16229],[116.95666,4.1623],[116.95668,4.16231],[116.9571,4.16233],[116.95786,4.16236],[116.95917,4.16302],[116.95907,4.1635],[116.95942,4.16364],[116.95951,4.16319]]]]},"properties":{"kdprov":"65","kdkab":"04","kdkec":"080","kddesa":"004","kdsls":"0002","idsls":"65040800040002","nmprov":"KALIMANTAN UTARA","nmkab":"NUNUKAN","nmkec":"TULIN ONSOI","nmdesa":"TINAMPAK II","nmsls":"RT 002"}},{"type":"Feature","geometry":{"type":"MultiPolygon","coordinates":[[[[116.95301,4.16432],[116.953,4.16431],[116.95295,4.16428],[116.95307,4.16411],[116.95314,4.16417],[116.95315,4.16417],[116.95318,4.16396],[116.95379,4.16363],[116.95274,4.16253],[116.95248,4.16225],[116.95205,4.16267],[116.95142,4.16327],[116.95133,4.16336],[116.95132,4.16337],[116.9511,4.16357],[116.95111,4.16358],[116.95262,4.16476],[116.95301,4.16432]]]]},"properties":{"kdprov":"65","kdkab":"04","kdkec":"080","kddesa":"001","kdsls":"0002","idsls":"65040800010002","nmprov":"KALIMANTAN UTARA","nmkab":"NUNUKAN","nmkec":"TULIN ONSOI","nmdesa":"BELATIKAN","nmsls":"RT 002"}},{"type":"Feature","geometry":{"type":"MultiPolygon","coordinates":[[[[116.96142,4.16338],[116.96102,4.16331],[116.96104,4.1632],[116.96071,4.16315],[116.96071,4.16316],[116.9607,4.16325],[116.96068,4.16336],[116.96041,4.16333],[116.96043,4.16324],[116.95961,4.16324],[116.95951,4.16319],[116.95942,4.16364],[116.95907,4.1635],[116.95917,4.16302],[116.95786,4.16236],[116.9571,4.16233],[116.95668,4.16231],[116.95722,4.16263],[116.95768,4.163],[116.95853,4.16374],[116.95855,4.16385],[116.95868,4.16432],[116.95883,4.16488],[116.95911,4.16506],[116.9595,4.1653],[116.95981,4.16604],[116.95982,4.16608],[116.96068,4.16555],[116.96147,4.16382],[116.96142,4.16338]]]]},"properties":{"kdprov":"65","kdkab":"04","kdkec":"080","kddesa":"004","kdsls":"0001","idsls":"65040800040001","nmprov":"KALIMANTAN UTARA","nmkab":"NUNUKAN","nmkec":"TULIN ONSOI","nmdesa":"TINAMPAK II","nmsls":"RT 001"}},{"type":"Feature","geometry":{"type":"MultiPolygon","coordinates":[[[[116.9566,4.16557],[116.95642,4.16551],[116.95573,4.16529],[116.95563,4.16498],[116.95562,4.16494],[116.95557,4.16481],[116.95532,4.16449],[116.95519,4.16484],[116.95503,4.16473],[116.95495,4.16468],[116.95493,4.16471],[116.95485,4.16485],[116.95497,4.16493],[116.95485,4.16504],[116.95471,4.16499],[116.95461,4.16512],[116.95464,4.16514],[116.95467,4.16516],[116.95488,4.1653],[116.95498,4.16511],[116.95644,4.16596],[116.95658,4.16561],[116.9566,4.16557]]]]},"properties":{"kdprov":"65","kdkab":"04","kdkec":"080","kddesa":"003","kdsls":"0003","idsls":"65040800030003","nmprov":"KALIMANTAN UTARA","nmkab":"NUNUKAN","nmkec":"TULIN ONSOI","nmdesa":"TAU BARU","nmsls":"RT 003"}},{"type":"Feature","geometry":{"type":"MultiPolygon","coordinates":[[[[116.70428,4.33285],[116.71058,4.31419],[116.72,4.30518],[116.7194,4.29316],[116.72741,4.28675],[116.73206,4.28903],[116.73642,4.29116],[116.73842,4.27994],[116.74423,4.26893],[116.76426,4.26011],[116.7907,4.25571],[116.81974,4.25571],[116.83476,4.24329],[116.83797,4.22626],[116.83877,4.20704],[116.84438,4.20183],[116.84939,4.19802],[116.84879,4.19281],[116.85199,4.18861],[116.8596,4.19201],[116.86761,4.19001],[116.87082,4.18],[116.87602,4.17519],[116.88203,4.16758],[116.87903,4.16457],[116.88864,4.16297],[116.89701,4.15922],[116.90331,4.15501],[116.91333,4.15246],[116.91844,4.1515],[116.91849,4.15516],[116.91994,4.15686],[116.92067,4.15694],[116.9262,4.15751],[116.92866,4.15967],[116.92905,4.16002],[116.93064,4.16166],[116.93262,4.16187],[116.93585,4.16149],[116.93702,4.16228],[116.93759,4.16266],[116.93885,4.16362],[116.94072,4.16374],[116.94345,4.16447],[116.94504,4.16464],[116.94635,4.16605],[116.94659,4.16838],[116.94777,4.16907],[116.94861,4.16699],[116.94906,4.16529],[116.94793,4.16317],[116.9476,4.16212],[116.94809,4.16142],[116.94896,4.16185],[116.94942,4.16207],[116.9511,4.16357],[116.95132,4.16337],[116.95133,4.16336],[116.95142,4.16327],[116.95205,4.16267],[116.95248,4.16225],[116.95274,4.16253],[116.95379,4.16363],[116.95508,4.16295],[116.9541,4.16143],[116.94924,4.15531],[116.94329,4.1507],[116.93968,4.14542],[116.93228,4.1459],[116.88117,4.1409],[116.85832,4.13547],[116.85361,4.13333],[116.85235,4.12905],[116.8487,4.12206],[116.84445,4.11477],[116.83959,4.10626],[116.83625,4.09927],[116.83685,4.0935],[116.83868,4.08833],[116.84202,4.08256],[116.84475,4.07618],[116.84293,4.07375],[116.83704,4.07151],[116.83655,4.07132],[116.83539,4.07113],[116.82379,4.06919],[116.81103,4.06737],[116.80161,4.06691],[116.78581,4.066],[116.77133,4.06672],[116.76728,4.06691],[116.75178,4.06783],[116.74237,4.06813],[116.72809,4.06995],[116.71624,4.07056],[116.71107,4.07147],[116.70105,4.07664],[116.69193,4.08271],[116.68525,4.08484],[116.68272,4.0876],[116.68542,4.08972],[116.68636,4.09096],[116.68768,4.09269],[116.68935,4.09638],[116.69079,4.10015],[116.69089,4.10043],[116.69078,4.10483],[116.6897,4.10854],[116.68923,4.11018],[116.68671,4.11375],[116.68495,4.11625],[116.68221,4.12041],[116.68066,4.12398],[116.68011,4.12663],[116.68007,4.12684],[116.68078,4.12946],[116.68185,4.13184],[116.6834,4.13297],[116.68411,4.1335],[116.68614,4.13469],[116.68899,4.13493],[116.69149,4.13529],[116.69423,4.13719],[116.69664,4.14015],[116.69684,4.1404],[116.69717,4.14459],[116.6972,4.14492],[116.68994,4.15908],[116.68411,4.16087],[116.68096,4.16379],[116.68065,4.16447],[116.67983,4.16622],[116.67983,4.16702],[116.67983,4.16714],[116.67983,4.16777],[116.68072,4.1694],[116.68126,4.17038],[116.68114,4.17276],[116.67924,4.1749],[116.67305,4.17752],[116.66829,4.17883],[116.66302,4.18044],[116.66282,4.1805],[116.66282,4.1805],[116.65806,4.18371],[116.65237,4.19268],[116.65187,4.19346],[116.65151,4.1968],[116.65161,4.20044],[116.65163,4.20148],[116.65163,4.20155],[116.65175,4.20727],[116.64676,4.2175],[116.64639,4.21816],[116.64485,4.22095],[116.6447,4.22131],[116.64468,4.22135],[116.64455,4.22166],[116.64354,4.22404],[116.64342,4.22832],[116.64461,4.23189],[116.64405,4.23644],[116.6439,4.2376],[116.64361,4.2406],[116.64342,4.24248],[116.64307,4.24486],[116.64309,4.24491],[116.64314,4.24498],[116.64473,4.24772],[116.64604,4.24879],[116.6483,4.24833],[116.65187,4.2476],[116.6543,4.2476],[116.6552,4.2476],[116.65578,4.24741],[116.65782,4.24676],[116.6597,4.2464],[116.66091,4.24617],[116.66199,4.24617],[116.66389,4.24617],[116.66674,4.24522],[116.67019,4.24474],[116.67276,4.24449],[116.67388,4.24439],[116.67415,4.24452],[116.67536,4.24511],[116.67876,4.24676],[116.68185,4.2501],[116.68365,4.25236],[116.68507,4.25414],[116.68531,4.25454],[116.68536,4.25463],[116.68816,4.25926],[116.68906,4.26389],[116.68941,4.26458],[116.69014,4.26603],[116.68014,4.27507],[116.6755,4.27971],[116.6736,4.28387],[116.6734,4.28432],[116.67312,4.28494],[116.66979,4.28887],[116.66546,4.29516],[116.66346,4.29806],[116.66167,4.30066],[116.66124,4.3013],[116.65944,4.30612],[116.65864,4.30888],[116.65779,4.3118],[116.65754,4.31266],[116.6575,4.31287],[116.65693,4.31624],[116.65647,4.31897],[116.65468,4.32599],[116.65307,4.33083],[116.65305,4.33089],[116.6529,4.33134],[116.65199,4.33597],[116.65178,4.33705],[116.65176,4.33713],[116.65165,4.3377],[116.65294,4.33722],[116.65342,4.33704],[116.65505,4.33804],[116.65503,4.33796],[116.65627,4.33867],[116.65679,4.33897],[116.65713,4.33986],[116.65716,4.34107],[116.65718,4.34199],[116.65759,4.34383],[116.65869,4.34656],[116.65881,4.34704],[116.65956,4.34788],[116.65976,4.34828],[116.65975,4.3484],[116.65983,4.34843],[116.66003,4.34884],[116.66063,4.34922],[116.66154,4.34955],[116.66172,4.34957],[116.66276,4.34965],[116.66407,4.34981],[116.66493,4.35029],[116.66524,4.35089],[116.66703,4.35179],[116.66738,4.35149],[116.66743,4.35156],[116.6678,4.35166],[116.66861,4.3524],[116.66927,4.35221],[116.66986,4.35122],[116.67038,4.35085],[116.67051,4.35043],[116.67053,4.35039],[116.67082,4.34974],[116.67115,4.34964],[116.67203,4.34942],[116.67244,4.34956],[116.67307,4.34986],[116.67337,4.35031],[116.67341,4.35031],[116.67389,4.35029],[116.6744,4.35026],[116.67545,4.34973],[116.67606,4.34923],[116.67671,4.3487],[116.67819,4.34812],[116.67906,4.3476],[116.68104,4.34643],[116.68152,4.34605],[116.68228,4.34516],[116.68342,4.34422],[116.68419,4.34343],[116.68527,4.34176],[116.68544,4.34102],[116.68621,4.34068],[116.68662,4.3409],[116.68693,4.34081],[116.68769,4.34059],[116.68924,4.34054],[116.69031,4.34053],[116.69177,4.34036],[116.69339,4.34016],[116.69484,4.33918],[116.69551,4.33855],[116.69855,4.33622],[116.69946,4.3353],[116.70077,4.33458],[116.70116,4.33428],[116.70153,4.334],[116.70194,4.33354],[116.70241,4.33299],[116.7027,4.33242],[116.70317,4.33255],[116.70384,4.33273],[116.70428,4.33285]]]]},"properties":{"kdprov":"65","kdkab":"04","kdkec":"080","kddesa":"001","kdsls":"4001","idsls":"65040800014001","nmprov":"KALIMANTAN UTARA","nmkab":"NUNUKAN","nmkec":"TULIN ONSOI","nmdesa":"BELATIKAN","nmsls":"CAMP LOGGING KSU. MTI"}},{"type":"Feature","geometry":{"type":"MultiPolygon","coordinates":[[[[116.91062,4.36779],[116.91249,4.36647],[116.91361,4.36616],[116.91366,4.36612],[116.91432,4.36579],[116.9149,4.36576],[116.9158,4.36572],[116.91714,4.36494],[116.91782,4.36487],[116.91997,4.36466],[116.92068,4.36466],[116.92139,4.36466],[116.92181,4.36451],[116.92202,4.36369],[116.92315,4.36219],[116.924,4.36169],[116.92524,4.36151],[116.92645,4.3615],[116.92715,4.3615],[116.92786,4.36139],[116.9283,4.36105],[116.92846,4.36092],[116.92847,4.36092],[116.92924,4.36067],[116.93066,4.35974],[116.93175,4.35938],[116.93278,4.3592],[116.93325,4.35913],[116.9334,4.35911],[116.9365,4.33427],[116.95316,4.30476],[116.95985,4.16614],[116.95982,4.16608],[116.95981,4.16604],[116.9595,4.1653],[116.95911,4.16506],[116.95883,4.16488],[116.95868,4.16432],[116.95855,4.16385],[116.95853,4.16374],[116.95768,4.163],[116.95722,4.16263],[116.95668,4.16231],[116.95666,4.1623],[116.95663,4.16229],[116.95629,4.16157],[116.95584,4.1527],[116.95413,4.14849],[116.95329,4.14455],[116.93968,4.14542],[116.94329,4.1507],[116.94924,4.15531],[116.9541,4.16143],[116.95508,4.16295],[116.95538,4.16343],[116.95546,4.16412],[116.95532,4.16449],[116.95557,4.16481],[116.95562,4.16494],[116.95563,4.16498],[116.95573,4.16529],[116.95642,4.16551],[116.9566,4.16557],[116.95658,4.16561],[116.95644,4.16596],[116.95631,4.16626],[116.95633,4.16663],[116.95633,4.16669],[116.95647,4.17325],[116.95354,4.20703],[116.94603,4.24028],[116.89365,4.35566],[116.89566,4.35736],[116.89762,4.35935],[116.89858,4.3606],[116.89904,4.36141],[116.90026,4.36473],[116.90097,4.36586],[116.9015,4.36625],[116.90246,4.3665],[116.90374,4.367],[116.9058,4.36699],[116.90679,4.36698],[116.90753,4.36702],[116.90846,4.36726],[116.90899,4.36769],[116.90998,4.36794],[116.91025,4.36788],[116.91062,4.36779]]]]},"properties":{"kdprov":"65","kdkab":"04","kdkec":"080","kddesa":"003","kdsls":"0002","idsls":"65040800030002","nmprov":"KALIMANTAN UTARA","nmkab":"NUNUKAN","nmkec":"TULIN ONSOI","nmdesa":"TAU BARU","nmsls":"RT 002"}},{"type":"Feature","geometry":{"type":"MultiPolygon","coordinates":[[[[116.85171,4.33928],[116.85385,4.31918],[116.87479,4.29253],[116.91286,4.26683],[116.94427,4.22019],[116.95372,4.16892],[116.95408,4.16696],[116.95438,4.16533],[116.95467,4.16516],[116.95464,4.16514],[116.95461,4.16512],[116.95471,4.16499],[116.95485,4.16504],[116.95497,4.16493],[116.95485,4.16485],[116.95493,4.16471],[116.95495,4.16468],[116.95503,4.16473],[116.95519,4.16484],[116.95532,4.16449],[116.95546,4.16412],[116.95538,4.16343],[116.95508,4.16295],[116.95379,4.16363],[116.95318,4.16396],[116.95315,4.16417],[116.95314,4.16417],[116.95307,4.16411],[116.95295,4.16428],[116.953,4.16431],[116.95301,4.16432],[116.95262,4.16476],[116.95111,4.16358],[116.9511,4.16357],[116.94942,4.16207],[116.94896,4.16185],[116.94809,4.16142],[116.9476,4.16212],[116.94793,4.16317],[116.94906,4.16529],[116.94861,4.16699],[116.94777,4.16907],[116.94659,4.16838],[116.94635,4.16605],[116.94504,4.16464],[116.94345,4.16447],[116.94072,4.16374],[116.93885,4.16362],[116.93759,4.16266],[116.93702,4.16228],[116.93585,4.16149],[116.93262,4.16187],[116.93064,4.16166],[116.92905,4.16002],[116.92866,4.15967],[116.9262,4.15751],[116.92067,4.15694],[116.91994,4.15686],[116.91849,4.15516],[116.91844,4.1515],[116.91333,4.15246],[116.90331,4.15501],[116.89701,4.15922],[116.88864,4.16297],[116.87903,4.16457],[116.88203,4.16758],[116.87602,4.17519],[116.87082,4.18],[116.86761,4.19001],[116.8596,4.19201],[116.85199,4.18861],[116.84879,4.19281],[116.84939,4.19802],[116.84438,4.20183],[116.83877,4.20704],[116.83797,4.22626],[116.83476,4.24329],[116.81974,4.25571],[116.7907,4.25571],[116.76426,4.26011],[116.74423,4.26893],[116.73842,4.27994],[116.73642,4.29116],[116.73206,4.28903],[116.72741,4.28675],[116.7194,4.29316],[116.72,4.30518],[116.71058,4.31419],[116.70428,4.33285],[116.70549,4.33318],[116.70557,4.33324],[116.70649,4.33397],[116.70683,4.33464],[116.70738,4.33614],[116.70748,4.33679],[116.70762,4.33706],[116.70817,4.33811],[116.70825,4.3394],[116.70882,4.34039],[116.70978,4.34122],[116.71133,4.34189],[116.71224,4.34241],[116.71324,4.34285],[116.71336,4.34281],[116.71381,4.34303],[116.71453,4.34361],[116.71487,4.34374],[116.71613,4.34422],[116.71692,4.3446],[116.71724,4.34509],[116.71794,4.3455],[116.71826,4.34582],[116.71877,4.34596],[116.71925,4.34643],[116.71954,4.3468],[116.72016,4.34657],[116.72043,4.34642],[116.72485,4.34792],[116.72609,4.34818],[116.72764,4.34848],[116.72869,4.34913],[116.73041,4.34996],[116.73159,4.35133],[116.73237,4.35197],[116.73289,4.35269],[116.73342,4.35425],[116.73398,4.35626],[116.73431,4.35722],[116.73477,4.35875],[116.7351,4.35935],[116.73514,4.35956],[116.73527,4.36024],[116.73647,4.36124],[116.73704,4.36236],[116.73834,4.36402],[116.73869,4.36435],[116.73885,4.36464],[116.73915,4.36519],[116.73958,4.36602],[116.73958,4.36682],[116.73973,4.36818],[116.74016,4.36969],[116.74038,4.37178],[116.74036,4.37245],[116.74046,4.37374],[116.74055,4.37468],[116.74063,4.37612],[116.74075,4.37736],[116.74104,4.3782],[116.74107,4.38],[116.74107,4.38041],[116.74119,4.38136],[116.74155,4.38218],[116.74167,4.38273],[116.74282,4.38325],[116.74387,4.38368],[116.74419,4.38375],[116.74543,4.38401],[116.74549,4.3841],[116.7456,4.38406],[116.74668,4.38435],[116.7474,4.38446],[116.74764,4.3849],[116.74855,4.38611],[116.74939,4.3871],[116.74995,4.38841],[116.75008,4.38872],[116.75004,4.38872],[116.75089,4.38979],[116.75153,4.39],[116.75252,4.39],[116.75256,4.39018],[116.75302,4.3906],[116.7539,4.39033],[116.75405,4.38999],[116.7545,4.38985],[116.75441,4.38943],[116.75443,4.38898],[116.75445,4.38838],[116.75576,4.38768],[116.75612,4.38727],[116.75656,4.38707],[116.75754,4.38668],[116.75755,4.38612],[116.75803,4.38551],[116.75835,4.38467],[116.75853,4.38404],[116.75886,4.38376],[116.75911,4.38406],[116.75991,4.38329],[116.76033,4.3825],[116.76112,4.38246],[116.76183,4.38181],[116.7625,4.38165],[116.76305,4.38147],[116.76352,4.38138],[116.76363,4.38089],[116.76436,4.38023],[116.76482,4.37942],[116.76521,4.37905],[116.76655,4.37824],[116.76743,4.378],[116.76787,4.37767],[116.7688,4.37743],[116.76992,4.37696],[116.77057,4.37654],[116.77132,4.3762],[116.77132,4.37558],[116.77195,4.3743],[116.7723,4.37361],[116.7726,4.3731],[116.77262,4.37236],[116.77266,4.3718],[116.77289,4.37102],[116.77303,4.37063],[116.77349,4.3704],[116.77355,4.37019],[116.77396,4.36877],[116.77405,4.36783],[116.77448,4.36749],[116.77539,4.36662],[116.77617,4.36646],[116.77664,4.36559],[116.77666,4.36555],[116.77711,4.36521],[116.77774,4.36397],[116.77834,4.36278],[116.77904,4.36118],[116.7807,4.3596],[116.78232,4.35863],[116.78244,4.35856],[116.78254,4.35825],[116.78275,4.3576],[116.7834,4.35652],[116.78399,4.35553],[116.78398,4.35463],[116.78398,4.35435],[116.78415,4.352],[116.78372,4.35025],[116.78311,4.34908],[116.78377,4.34705],[116.78385,4.34679],[116.78388,4.34487],[116.78441,4.34398],[116.78529,4.34158],[116.78713,4.3409],[116.78815,4.34004],[116.79035,4.33868],[116.79102,4.33832],[116.79245,4.33824],[116.79279,4.33822],[116.79294,4.33828],[116.79349,4.33822],[116.7936,4.33822],[116.79407,4.33824],[116.79509,4.33834],[116.79569,4.33836],[116.79602,4.33837],[116.79671,4.33853],[116.79688,4.33857],[116.79726,4.33865],[116.79836,4.34011],[116.79932,4.34164],[116.79958,4.34209],[116.80014,4.34307],[116.80082,4.3442],[116.80214,4.3458],[116.80321,4.34683],[116.80424,4.34783],[116.80562,4.34882],[116.80614,4.34981],[116.8062,4.34993],[116.80669,4.35064],[116.80772,4.35067],[116.80889,4.35067],[116.80925,4.35067],[116.80935,4.35064],[116.8097,4.35084],[116.81021,4.35117],[116.81118,4.35063],[116.81183,4.35058],[116.81208,4.35034],[116.81268,4.35007],[116.81313,4.34979],[116.81351,4.34982],[116.81385,4.34954],[116.81474,4.35001],[116.81552,4.35022],[116.81578,4.35],[116.81612,4.34971],[116.81743,4.34853],[116.81817,4.34728],[116.81845,4.34589],[116.81866,4.34475],[116.81885,4.34316],[116.81886,4.34304],[116.81889,4.34296],[116.81925,4.34204],[116.81942,4.34118],[116.82026,4.33876],[116.82086,4.33669],[116.82086,4.33669],[116.82089,4.3364],[116.82103,4.33634],[116.82114,4.33629],[116.82224,4.3354],[116.82305,4.33458],[116.82369,4.3339],[116.82393,4.33365],[116.82471,4.33247],[116.82545,4.33211],[116.82586,4.33213],[116.8265,4.33216],[116.82684,4.33217],[116.82776,4.33228],[116.82818,4.33181],[116.82853,4.33142],[116.82917,4.33095],[116.83019,4.33115],[116.83062,4.33124],[116.83096,4.33105],[116.83172,4.33063],[116.83239,4.32959],[116.8332,4.32887],[116.83338,4.32823],[116.83354,4.32787],[116.8344,4.32598],[116.83564,4.32598],[116.83613,4.32619],[116.83623,4.32603],[116.83714,4.32606],[116.8382,4.32657],[116.83822,4.32658],[116.83872,4.32672],[116.83991,4.32665],[116.84026,4.32649],[116.84087,4.32675],[116.84134,4.32626],[116.84168,4.32621],[116.84238,4.3261],[116.8434,4.32616],[116.8434,4.32615],[116.84367,4.32598],[116.84394,4.32581],[116.84464,4.32651],[116.84497,4.32726],[116.84573,4.32792],[116.84591,4.32818],[116.84672,4.32929],[116.84697,4.32934],[116.84714,4.32961],[116.849,4.33438],[116.84918,4.33588],[116.84979,4.33723],[116.85015,4.33891],[116.85121,4.3389],[116.85171,4.33928]]]]},"properties":{"kdprov":"65","kdkab":"04","kdkec":"080","kddesa":"001","kdsls":"0001","idsls":"65040800010001","nmprov":"KALIMANTAN UTARA","nmkab":"NUNUKAN","nmkec":"TULIN ONSOI","nmdesa":"BELATIKAN","nmsls":"RT 001"}},{"type":"Feature","geometry":{"type":"MultiPolygon","coordinates":[[[[116.98788,4.0354],[116.98781,4.03527],[116.98764,4.03503],[116.98726,4.0347],[116.98657,4.03409],[116.98604,4.03363],[116.98565,4.03325],[116.98535,4.03291],[116.98506,4.03266],[116.98469,4.03233],[116.97626,4.04085],[116.9775,4.0443],[116.97868,4.04509],[116.97993,4.04378],[116.98166,4.04194],[116.98329,4.0402],[116.98553,4.03787],[116.98725,4.03606],[116.98788,4.0354]]]]},"properties":{"kdprov":"65","kdkab":"04","kdkec":"080","kddesa":"011","kdsls":"0002","idsls":"65040800110002","nmprov":"KALIMANTAN UTARA","nmkab":"NUNUKAN","nmkec":"TULIN ONSOI","nmdesa":"SANUR","nmsls":"RT 002"}},{"type":"Feature","geometry":{"type":"MultiPolygon","coordinates":[[[[116.95644,4.16596],[116.95498,4.16511],[116.95488,4.1653],[116.95467,4.16516],[116.95438,4.16533],[116.95408,4.16696],[116.95468,4.1671],[116.95435,4.16896],[116.95372,4.16892],[116.94427,4.22019],[116.91286,4.26683],[116.87479,4.29253],[116.85385,4.31918],[116.85171,4.33928],[116.85184,4.33937],[116.85216,4.33896],[116.85218,4.33893],[116.85309,4.33864],[116.8533,4.33875],[116.85403,4.33915],[116.85531,4.33908],[116.85629,4.33806],[116.8564,4.33726],[116.85694,4.33663],[116.85799,4.33687],[116.85907,4.33726],[116.85954,4.33672],[116.86117,4.33826],[116.86163,4.33865],[116.86231,4.33869],[116.86232,4.33872],[116.86281,4.33889],[116.86315,4.33872],[116.86382,4.33872],[116.86425,4.33901],[116.86489,4.33889],[116.86551,4.33847],[116.86646,4.33768],[116.86706,4.33722],[116.86789,4.33665],[116.86879,4.33699],[116.86984,4.33761],[116.87,4.3377],[116.87097,4.33807],[116.87156,4.3383],[116.8722,4.33903],[116.87284,4.33914],[116.87354,4.33967],[116.87408,4.33949],[116.87463,4.34066],[116.87517,4.34136],[116.87583,4.34255],[116.87625,4.34371],[116.8765,4.34403],[116.87741,4.34492],[116.878,4.34585],[116.87818,4.3465],[116.87819,4.34722],[116.87832,4.34738],[116.87932,4.3471],[116.8797,4.347],[116.88047,4.34696],[116.88115,4.34689],[116.88183,4.34681],[116.88263,4.34724],[116.88353,4.34735],[116.88421,4.34723],[116.88559,4.34823],[116.88663,4.34926],[116.88787,4.3499],[116.88957,4.35086],[116.89029,4.35185],[116.891,4.35321],[116.89129,4.35367],[116.89365,4.35566],[116.94603,4.24028],[116.95354,4.20703],[116.95647,4.17325],[116.95633,4.16669],[116.95633,4.16663],[116.95631,4.16626],[116.95644,4.16596]]]]},"properties":{"kdprov":"65","kdkab":"04","kdkec":"080","kddesa":"003","kdsls":"4001","idsls":"65040800034001","nmprov":"KALIMANTAN UTARA","nmkab":"NUNUKAN","nmkec":"TULIN ONSOI","nmdesa":"TAU BARU","nmsls":"CAMP HOTEL (PT. KHL 3, AFD. 1, AFD. 2)"}},{"type":"Feature","geometry":{"type":"MultiPolygon","coordinates":[[[[116.95408,4.16696],[116.95372,4.16892],[116.95435,4.16896],[116.95468,4.1671],[116.95408,4.16696]]]]},"properties":{"kdprov":"65","kdkab":"04","kdkec":"080","kddesa":"003","kdsls":"0001","idsls":"65040800030001","nmprov":"KALIMANTAN UTARA","nmkab":"NUNUKAN","nmkec":"TULIN ONSOI","nmdesa":"TAU BARU","nmsls":"RT 001"}},{"type":"Feature","geometry":{"type":"MultiPolygon","coordinates":[[[[116.9852,4.02774],[116.98418,4.02676],[116.98142,4.02928],[116.98199,4.02983],[116.98218,4.02995],[116.98248,4.0303],[116.98358,4.03126],[116.98382,4.0315],[116.98572,4.02959],[116.98642,4.02892],[116.98582,4.02835],[116.9852,4.02774]]]]},"properties":{"kdprov":"65","kdkab":"04","kdkec":"080","kddesa":"011","kdsls":"0010","idsls":"65040800110010","nmprov":"KALIMANTAN UTARA","nmkab":"NUNUKAN","nmkec":"TULIN ONSOI","nmdesa":"SANUR","nmsls":"RT 010"}},{"type":"Feature","geometry":{"type":"MultiPolygon","coordinates":[[[[117.00967,4.05081],[117.00637,4.0482],[117.00533,4.0494],[117.00506,4.04974],[117.00538,4.04999],[117.00813,4.0524],[117.00967,4.05081]]]]},"properties":{"kdprov":"65","kdkab":"04","kdkec":"080","kddesa":"012","kdsls":"0014","idsls":"65040800120014","nmprov":"KALIMANTAN UTARA","nmkab":"NUNUKAN","nmkec":"TULIN ONSOI","nmdesa":"MAKMUR","nmsls":"RT 014"}},{"type":"Feature","geometry":{"type":"MultiPolygon","coordinates":[[[[117.00584,4.05407],[117.00631,4.0535],[117.00668,4.0539],[117.00813,4.0524],[117.00538,4.04999],[117.00506,4.04974],[117.00474,4.05015],[117.00334,4.05173],[117.00554,4.05378],[117.00584,4.05407]]]]},"properties":{"kdprov":"65","kdkab":"04","kdkec":"080","kddesa":"012","kdsls":"0015","idsls":"65040800120015","nmprov":"KALIMANTAN UTARA","nmkab":"NUNUKAN","nmkec":"TULIN ONSOI","nmdesa":"MAKMUR","nmsls":"RT 015"}},{"type":"Feature","geometry":{"type":"MultiPolygon","coordinates":[[[[116.99421,4.04117],[116.99223,4.03935],[116.9907,4.03794],[116.98977,4.03709],[116.98916,4.03649],[116.98814,4.03564],[116.98788,4.0354],[116.98725,4.03606],[116.98553,4.03787],[116.98329,4.0402],[116.98166,4.04194],[116.97993,4.04378],[116.97868,4.04509],[116.98393,4.04858],[116.9876,4.04639],[116.98958,4.04473],[116.99011,4.04428],[116.99025,4.04416],[116.99039,4.04405],[116.99173,4.04304],[116.99321,4.04193],[116.99421,4.04117]]]]},"properties":{"kdprov":"65","kdkab":"04","kdkec":"080","kddesa":"011","kdsls":"0001","idsls":"65040800110001","nmprov":"KALIMANTAN UTARA","nmkab":"NUNUKAN","nmkec":"TULIN ONSOI","nmdesa":"SANUR","nmsls":"RT 001"}},{"type":"Feature","geometry":{"type":"MultiPolygon","coordinates":[[[[117.03168,4.04027],[117.01339,4.03263],[117.01352,4.03479],[117.01467,4.03822],[117.0154,4.04092],[117.01644,4.04476],[117.01652,4.04507],[117.01538,4.0495],[117.01095,4.05678],[117.00948,4.05728],[117.00484,4.05886],[117.00467,4.05892],[116.99582,4.05607],[116.99568,4.056],[116.99556,4.05617],[116.99541,4.05668],[116.9953,4.05717],[116.99535,4.05741],[116.99555,4.05781],[116.99561,4.05815],[116.99558,4.05855],[116.99569,4.05907],[116.99582,4.05922],[116.99645,4.06025],[116.99675,4.06056],[116.99726,4.06087],[116.99783,4.06095],[116.99862,4.06111],[116.99932,4.06139],[116.99977,4.06176],[116.99988,4.06209],[117.0,4.06264],[117.00032,4.06317],[117.0008,4.06393],[117.00101,4.06419],[117.00127,4.06449],[117.00163,4.06486],[117.00181,4.06532],[117.00187,4.06594],[117.00195,4.0664],[117.00218,4.06671],[117.00231,4.06691],[117.00233,4.06704],[117.00229,4.06723],[117.00206,4.0675],[117.00191,4.06769],[117.00178,4.0679],[117.00174,4.06813],[117.00173,4.06931],[117.0017,4.06944],[117.00179,4.0696],[117.00192,4.06972],[117.00256,4.06966],[117.0036,4.06943],[117.00438,4.06919],[117.00514,4.06891],[117.00591,4.06743],[117.00755,4.06643],[117.0099,4.06601],[117.01209,4.06556],[117.012,4.06472],[117.0101,4.06416],[117.00812,4.06447],[117.0073,4.06397],[117.00749,4.0628],[117.00796,4.06224],[117.00878,4.0609],[117.00958,4.05882],[117.01015,4.05819],[117.01127,4.05795],[117.01261,4.05795],[117.0147,4.05641],[117.01528,4.05549],[117.01795,4.05075],[117.0203,4.0498],[117.02273,4.04969],[117.0258,4.04864],[117.02675,4.04914],[117.02585,4.05088],[117.02437,4.05176],[117.02387,4.05252],[117.02403,4.05355],[117.02558,4.05368],[117.02825,4.05181],[117.02952,4.05025],[117.02981,4.04832],[117.02796,4.04663],[117.02471,4.04377],[117.02403,4.042],[117.02503,4.04121],[117.02884,4.04084],[117.03092,4.04066],[117.03168,4.04027]]]]},"properties":{"kdprov":"65","kdkab":"04","kdkec":"080","kddesa":"010","kdsls":"0001","idsls":"65040800100001","nmprov":"KALIMANTAN UTARA","nmkab":"NUNUKAN","nmkec":"TULIN ONSOI","nmdesa":"SEMUNAD","nmsls":"RT 001"}},{"type":"Feature","geometry":{"type":"MultiPolygon","coordinates":[[[[116.9907,4.03794],[116.99097,4.03767],[116.9913,4.0373],[116.99168,4.037],[116.99186,4.0369],[116.99204,4.03652],[116.99226,4.03626],[116.99264,4.03588],[116.99274,4.03574],[116.99302,4.0354],[116.99319,4.03521],[116.99185,4.03387],[116.99044,4.03267],[116.9895,4.03368],[116.98872,4.03449],[116.9881,4.03515],[116.98788,4.0354],[116.98814,4.03564],[116.98916,4.03649],[116.98977,4.03709],[116.9907,4.03794]]]]},"properties":{"kdprov":"65","kdkab":"04","kdkec":"080","kddesa":"011","kdsls":"0003","idsls":"65040800110003","nmprov":"KALIMANTAN UTARA","nmkab":"NUNUKAN","nmkec":"TULIN ONSOI","nmdesa":"SANUR","nmsls":"RT 003"}},{"type":"Feature","geometry":{"type":"MultiPolygon","coordinates":[[[[117.01149,4.0407],[117.00804,4.0379],[117.00419,4.03445],[117.00364,4.03392],[117.00358,4.03385],[117.00357,4.03387],[117.00339,4.03375],[117.00229,4.03492],[117.0024,4.03502],[117.00244,4.03505],[117.00241,4.03509],[117.0066,4.03883],[117.01004,4.04183],[117.01149,4.0407]]]]},"properties":{"kdprov":"65","kdkab":"04","kdkec":"080","kddesa":"012","kdsls":"0011","idsls":"65040800120011","nmprov":"KALIMANTAN UTARA","nmkab":"NUNUKAN","nmkec":"TULIN ONSOI","nmdesa":"MAKMUR","nmsls":"RT 011"}},{"type":"Feature","geometry":{"type":"MultiPolygon","coordinates":[[[[116.99428,4.04112],[116.99502,4.04056],[116.99632,4.03943],[116.99705,4.03878],[116.99553,4.03736],[116.99417,4.03611],[116.99319,4.03521],[116.99302,4.0354],[116.99274,4.03574],[116.99264,4.03588],[116.99226,4.03626],[116.99204,4.03652],[116.99186,4.0369],[116.99168,4.037],[116.9913,4.0373],[116.99097,4.03767],[116.9907,4.03794],[116.99223,4.03935],[116.99421,4.04117],[116.99428,4.04112]]]]},"properties":{"kdprov":"65","kdkab":"04","kdkec":"080","kddesa":"011","kdsls":"0004","idsls":"65040800110004","nmprov":"KALIMANTAN UTARA","nmkab":"NUNUKAN","nmkec":"TULIN ONSOI","nmdesa":"SANUR","nmsls":"RT 004"}},{"type":"Feature","geometry":{"type":"MultiPolygon","coordinates":[[[[117.00432,4.0411],[117.00432,4.04109],[117.003,4.04026],[117.00168,4.03943],[116.99987,4.03769],[116.99889,4.03869],[116.9987,4.03889],[116.9986,4.03899],[116.99835,4.03926],[116.9988,4.03969],[116.99906,4.03996],[116.99921,4.04011],[116.99883,4.04041],[116.99923,4.04078],[116.99976,4.04127],[117.00025,4.0408],[117.00045,4.04061],[117.0005,4.04056],[117.00281,4.04266],[117.00283,4.04267],[117.00392,4.04154],[117.00432,4.0411]]]]},"properties":{"kdprov":"65","kdkab":"04","kdkec":"080","kddesa":"012","kdsls":"0006","idsls":"65040800120006","nmprov":"KALIMANTAN UTARA","nmkab":"NUNUKAN","nmkec":"TULIN ONSOI","nmdesa":"MAKMUR","nmsls":"RT 006"}},{"type":"Feature","geometry":{"type":"MultiPolygon","coordinates":[[[[117.00506,4.04974],[117.00533,4.0494],[117.00637,4.0482],[117.00643,4.04813],[117.00706,4.04745],[117.00745,4.04709],[117.0154,4.04092],[117.01467,4.03822],[117.01149,4.0407],[117.01004,4.04183],[117.00873,4.04285],[117.00698,4.04422],[117.00487,4.04597],[117.00298,4.04791],[117.00202,4.04891],[117.00122,4.04974],[117.00182,4.05032],[117.00266,4.05117],[117.00334,4.05173],[117.00474,4.05015],[117.00506,4.04974]]]]},"properties":{"kdprov":"65","kdkab":"04","kdkec":"080","kddesa":"012","kdsls":"0012","idsls":"65040800120012","nmprov":"KALIMANTAN UTARA","nmkab":"NUNUKAN","nmkec":"TULIN ONSOI","nmdesa":"MAKMUR","nmsls":"RT 012"}},{"type":"Feature","geometry":{"type":"MultiPolygon","coordinates":[[[[117.00487,4.04597],[117.00401,4.04529],[117.00387,4.04518],[117.00347,4.04479],[117.00266,4.04403],[117.00247,4.0442],[117.00229,4.04402],[117.00244,4.04381],[117.00209,4.04346],[117.00195,4.04361],[117.00178,4.04346],[117.00169,4.04339],[117.00152,4.04357],[117.001,4.04313],[117.00134,4.04274],[117.00124,4.04265],[117.001,4.04288],[117.00084,4.04273],[117.00107,4.04249],[117.00043,4.0419],[117.00023,4.04218],[117.00023,4.04218],[117.00007,4.04202],[117.00027,4.04175],[116.99976,4.04127],[116.99923,4.04078],[116.99883,4.04041],[116.99843,4.04073],[116.99768,4.03995],[116.99747,4.04014],[116.99727,4.04033],[116.99643,4.04125],[116.99619,4.04151],[116.9959,4.0418],[116.9956,4.04209],[116.99576,4.04221],[116.99608,4.04245],[116.99969,4.04534],[117.00035,4.04586],[117.00097,4.04633],[117.00161,4.04682],[117.00181,4.04698],[117.00298,4.04791],[117.00487,4.04597]]]]},"properties":{"kdprov":"65","kdkab":"04","kdkec":"080","kddesa":"012","kdsls":"0004","idsls":"65040800120004","nmprov":"KALIMANTAN UTARA","nmkab":"NUNUKAN","nmkec":"TULIN ONSOI","nmdesa":"MAKMUR","nmsls":"RT 004"}},{"type":"Feature","geometry":{"type":"MultiPolygon","coordinates":[[[[117.00698,4.04422],[117.00692,4.04401],[117.00687,4.04384],[117.0069,4.04344],[117.00683,4.04291],[117.00682,4.04284],[117.00653,4.04261],[117.00615,4.0423],[117.00582,4.04161],[117.00562,4.04059],[117.00529,4.04002],[117.00502,4.04032],[117.00432,4.0411],[117.00392,4.04154],[117.00283,4.04267],[117.00281,4.04266],[117.0005,4.04056],[117.00045,4.04061],[117.00025,4.0408],[116.99976,4.04127],[117.00027,4.04175],[117.00007,4.04202],[117.00023,4.04218],[117.00023,4.04218],[117.00043,4.0419],[117.00107,4.04249],[117.00084,4.04273],[117.001,4.04288],[117.00124,4.04265],[117.00134,4.04274],[117.001,4.04313],[117.00152,4.04357],[117.00169,4.04339],[117.00178,4.04346],[117.00195,4.04361],[117.00209,4.04346],[117.00244,4.04381],[117.00229,4.04402],[117.00247,4.0442],[117.00266,4.04403],[117.00347,4.04479],[117.00387,4.04518],[117.00401,4.04529],[117.00487,4.04597],[117.00698,4.04422]]]]},"properties":{"kdprov":"65","kdkab":"04","kdkec":"080","kddesa":"012","kdsls":"0005","idsls":"65040800120005","nmprov":"KALIMANTAN UTARA","nmkab":"NUNUKAN","nmkec":"TULIN ONSOI","nmdesa":"MAKMUR","nmsls":"RT 005"}},{"type":"Feature","geometry":{"type":"MultiPolygon","coordinates":[[[[116.98373,4.0788],[116.98492,4.07732],[116.98613,4.0766],[116.98693,4.0766],[116.98799,4.07682],[116.98834,4.07678],[116.98947,4.07603],[116.99061,4.07522],[116.99165,4.07475],[116.99227,4.07432],[116.99322,4.07431],[116.9937,4.07381],[116.99428,4.07346],[116.99503,4.07371],[116.99538,4.07376],[116.99694,4.07302],[116.99807,4.07171],[116.99558,4.07136],[116.98829,4.06973],[116.97506,4.06199],[116.96554,4.05515],[116.95632,4.04653],[116.95151,4.04162],[116.95048,4.04231],[116.94441,4.04625],[116.93858,4.04986],[116.93803,4.0502],[116.93377,4.05355],[116.92544,4.0585],[116.92253,4.06023],[116.91433,4.066],[116.90795,4.07147],[116.90339,4.07481],[116.90128,4.07715],[116.94481,4.09591],[116.945,4.09528],[116.94488,4.09412],[116.94491,4.09351],[116.94526,4.09307],[116.94574,4.0928],[116.94612,4.09272],[116.94661,4.09288],[116.94699,4.09288],[116.94868,4.09209],[116.949,4.09146],[116.94947,4.0906],[116.95013,4.09011],[116.95063,4.08938],[116.95174,4.08835],[116.95242,4.087],[116.95324,4.08643],[116.95416,4.08643],[116.95474,4.08606],[116.95652,4.08467],[116.95772,4.08421],[116.95893,4.08394],[116.96038,4.08384],[116.9618,4.08301],[116.96291,4.08278],[116.96525,4.08265],[116.96721,4.083],[116.96882,4.08262],[116.97163,4.08255],[116.97338,4.08361],[116.97438,4.08359],[116.97553,4.08312],[116.97602,4.08244],[116.97654,4.08177],[116.97773,4.08106],[116.97924,4.08032],[116.97975,4.08044],[116.98062,4.08052],[116.98116,4.08038],[116.98261,4.07993],[116.98312,4.07962],[116.98373,4.0788]]]]},"properties":{"kdprov":"65","kdkab":"04","kdkec":"080","kddesa":"009","kdsls":"4002","idsls":"65040800094002","nmprov":"KALIMANTAN UTARA","nmkab":"NUNUKAN","nmkec":"TULIN ONSOI","nmdesa":"SEKIKILAN","nmsls":"HUTAN"}},{"type":"Feature","geometry":{"type":"MultiPolygon","coordinates":[[[[117.0002,4.05079],[116.99903,4.04934],[116.99844,4.04891],[116.9936,4.04478],[116.99329,4.04449],[116.99278,4.04503],[116.99193,4.04596],[116.9901,4.04779],[116.98692,4.05127],[116.98797,4.05221],[116.99533,4.05583],[117.0002,4.05079]]]]},"properties":{"kdprov":"65","kdkab":"04","kdkec":"080","kddesa":"012","kdsls":"0001","idsls":"65040800120001","nmprov":"KALIMANTAN UTARA","nmkab":"NUNUKAN","nmkec":"TULIN ONSOI","nmdesa":"MAKMUR","nmsls":"RT 001"}},{"type":"Feature","geometry":{"type":"MultiPolygon","coordinates":[[[[116.93968,4.14542],[116.95329,4.14455],[116.95455,4.14447],[116.96052,4.14362],[116.96338,4.14321],[116.96411,4.1431],[116.9678,4.14303],[116.96836,4.14299],[116.97281,4.14261],[116.97287,4.1426],[116.97761,4.14264],[116.97968,4.14278],[116.98177,4.14293],[116.98448,4.14312],[116.98456,4.14233],[116.98482,4.14091],[116.98435,4.13956],[116.98359,4.138],[116.98422,4.13703],[116.98529,4.13593],[116.98538,4.13535],[116.9862,4.13458],[116.98672,4.13365],[116.98663,4.13299],[116.98594,4.13212],[116.98584,4.13111],[116.98606,4.13123],[116.98655,4.1316],[116.98715,4.13168],[116.98756,4.13194],[116.98787,4.13177],[116.98813,4.13167],[116.98828,4.132],[116.98856,4.1321],[116.98895,4.13162],[116.98986,4.13089],[116.98982,4.13212],[116.98893,4.13378],[116.98912,4.13426],[116.98937,4.13491],[116.99046,4.13568],[116.99211,4.13629],[116.99268,4.13761],[116.99263,4.13973],[116.9928,4.14069],[117.01607,4.135],[117.01937,4.13447],[117.04207,4.12175],[117.03602,4.11359],[117.04353,4.10761],[117.05052,4.11701],[117.05212,4.11611],[117.06788,4.10362],[117.07974,4.09039],[117.07566,4.08165],[117.07312,4.07901],[117.07004,4.07581],[117.06806,4.07375],[117.06077,4.06433],[117.05707,4.05918],[117.0422,4.08071],[117.02951,4.09631],[117.02149,4.10617],[116.98912,4.11774],[116.98223,4.12021],[116.97005,4.12232],[116.96299,4.12354],[116.94511,4.12663],[116.91846,4.12568],[116.88658,4.12449],[116.86359,4.11963],[116.86086,4.12634],[116.86025,4.12783],[116.8566,4.13057],[116.85448,4.13026],[116.85235,4.12905],[116.85361,4.13333],[116.85832,4.13547],[116.88117,4.1409],[116.93228,4.1459],[116.93968,4.14542]]]]},"properties":{"kdprov":"65","kdkab":"04","kdkec":"080","kddesa":"008","kdsls":"4002","idsls":"65040800084002","nmprov":"KALIMANTAN UTARA","nmkab":"NUNUKAN","nmkec":"TULIN ONSOI","nmdesa":"KALUN SAYAN","nmsls":"CAMP JULIET (PT. KHL 3, AFD. 3)"}},{"type":"Feature","geometry":{"type":"MultiPolygon","coordinates":[[[[116.99139,4.09158],[116.99232,4.08905],[116.99385,4.08679],[116.99543,4.08549],[116.99591,4.08466],[116.99581,4.08293],[116.99413,4.08162],[116.99358,4.08107],[116.9932,4.07979],[116.99518,4.07804],[116.99644,4.07583],[116.99752,4.07565],[116.99694,4.07302],[116.99538,4.07376],[116.99503,4.07371],[116.99428,4.07346],[116.9937,4.07381],[116.99322,4.07431],[116.99227,4.07432],[116.99165,4.07475],[116.99061,4.07522],[116.98947,4.07603],[116.98834,4.07678],[116.98799,4.07682],[116.98693,4.0766],[116.98613,4.0766],[116.98492,4.07732],[116.98373,4.0788],[116.98425,4.07904],[116.98526,4.07898],[116.98611,4.07928],[116.9867,4.07983],[116.9871,4.08021],[116.98761,4.08075],[116.98847,4.08205],[116.98914,4.08247],[116.98954,4.08282],[116.98932,4.08412],[116.98905,4.08475],[116.98895,4.08499],[116.9888,4.08617],[116.98876,4.08796],[116.98876,4.08955],[116.98919,4.09003],[116.9893,4.09032],[116.98935,4.09085],[116.98936,4.0916],[116.98922,4.09245],[116.98975,4.09248],[116.9899,4.09178],[116.9907,4.09161],[116.99139,4.09158]]]]},"properties":{"kdprov":"65","kdkab":"04","kdkec":"080","kddesa":"009","kdsls":"0002","idsls":"65040800090002","nmprov":"KALIMANTAN UTARA","nmkab":"NUNUKAN","nmkec":"TULIN ONSOI","nmdesa":"SEKIKILAN","nmsls":"RT 002"}},{"type":"Feature","geometry":{"type":"MultiPolygon","coordinates":[[[[116.98912,4.09804],[116.99082,4.09798],[116.99087,4.09583],[116.99057,4.09462],[116.99094,4.09323],[116.99139,4.09158],[116.9907,4.09161],[116.9899,4.09178],[116.98975,4.09248],[116.98962,4.09367],[116.98957,4.09435],[116.98928,4.09542],[116.98926,4.097],[116.98912,4.09804]]]]},"properties":{"kdprov":"65","kdkab":"04","kdkec":"080","kddesa":"009","kdsls":"0003","idsls":"65040800090003","nmprov":"KALIMANTAN UTARA","nmkab":"NUNUKAN","nmkec":"TULIN ONSOI","nmdesa":"SEKIKILAN","nmsls":"RT 003"}},{"type":"Feature","geometry":{"type":"MultiPolygon","coordinates":[[[[116.97005,4.12232],[116.96682,4.11186],[116.95896,4.1138],[116.96299,4.12354],[116.97005,4.12232]]]]},"properties":{"kdprov":"65","kdkab":"04","kdkec":"080","kddesa":"009","kdsls":"4006","idsls":"65040800094006","nmprov":"KALIMANTAN UTARA","nmkab":"NUNUKAN","nmkec":"TULIN ONSOI","nmdesa":"SEKIKILAN","nmsls":"PT. TMSJ INDUK (PABRIK)"}},{"type":"Feature","geometry":{"type":"MultiPolygon","coordinates":[[[[116.9928,4.14069],[116.99263,4.13973],[116.99268,4.13761],[116.99211,4.13629],[116.99046,4.13568],[116.98937,4.13491],[116.98912,4.13426],[116.98891,4.13434],[116.98821,4.13457],[116.98713,4.13484],[116.98682,4.13485],[116.98662,4.13489],[116.98644,4.13497],[116.98608,4.13518],[116.98578,4.13532],[116.9857,4.13535],[116.98558,4.13537],[116.98538,4.13535],[116.98529,4.13593],[116.98422,4.13703],[116.98359,4.138],[116.98435,4.13956],[116.98482,4.14091],[116.98456,4.14233],[116.98448,4.14312],[116.98488,4.14314],[116.98586,4.14296],[116.99153,4.141],[116.9928,4.14069]]]]},"properties":{"kdprov":"65","kdkab":"04","kdkec":"080","kddesa":"008","kdsls":"0001","idsls":"65040800080001","nmprov":"KALIMANTAN UTARA","nmkab":"NUNUKAN","nmkec":"TULIN ONSOI","nmdesa":"KALUN SAYAN","nmsls":"RT 001"}},{"type":"Feature","geometry":{"type":"MultiPolygon","coordinates":[[[[117.00668,4.0539],[117.00631,4.0535],[117.00584,4.05407],[117.00505,4.05474],[117.00467,4.05513],[117.0043,4.05633],[117.00403,4.05727],[117.00494,4.0573],[117.00507,4.05792],[117.00484,4.05886],[117.00948,4.05728],[117.00779,4.05583],[117.00668,4.0539]]]]},"properties":{"kdprov":"65","kdkab":"04","kdkec":"080","kddesa":"012","kdsls":"0016","idsls":"65040800120016","nmprov":"KALIMANTAN UTARA","nmkab":"NUNUKAN","nmkec":"TULIN ONSOI","nmdesa":"MAKMUR","nmsls":"RT 016"}},{"type":"Feature","geometry":{"type":"MultiPolygon","coordinates":[[[[117.00873,4.04285],[117.00555,4.03979],[117.00287,4.03721],[117.00186,4.03627],[117.00105,4.03715],[117.0007,4.03683],[116.99987,4.03769],[117.00168,4.03943],[117.003,4.04026],[117.00432,4.04109],[117.00432,4.0411],[117.00502,4.04032],[117.00529,4.04002],[117.00562,4.04059],[117.00582,4.04161],[117.00615,4.0423],[117.00653,4.04261],[117.00682,4.04284],[117.00683,4.04291],[117.0069,4.04344],[117.00687,4.04384],[117.00692,4.04401],[117.00698,4.04422],[117.00873,4.04285]]]]},"properties":{"kdprov":"65","kdkab":"04","kdkec":"080","kddesa":"012","kdsls":"0007","idsls":"65040800120007","nmprov":"KALIMANTAN UTARA","nmkab":"NUNUKAN","nmkec":"TULIN ONSOI","nmdesa":"MAKMUR","nmsls":"RT 007"}},{"type":"Feature","geometry":{"type":"MultiPolygon","coordinates":[[[[117.01644,4.04476],[117.01081,4.04976],[117.00967,4.05081],[117.00813,4.0524],[117.00668,4.0539],[117.00779,4.05583],[117.00948,4.05728],[117.01095,4.05678],[117.01538,4.0495],[117.01652,4.04507],[117.01644,4.04476]]]]},"properties":{"kdprov":"65","kdkab":"04","kdkec":"080","kddesa":"012","kdsls":"0017","idsls":"65040800120017","nmprov":"KALIMANTAN UTARA","nmkab":"NUNUKAN","nmkec":"TULIN ONSOI","nmdesa":"MAKMUR","nmsls":"RT 017"}},{"type":"Feature","geometry":{"type":"MultiPolygon","coordinates":[[[[117.01644,4.04476],[117.0154,4.04092],[117.00745,4.04709],[117.00706,4.04745],[117.00643,4.04813],[117.00637,4.0482],[117.00967,4.05081],[117.01081,4.04976],[117.01644,4.04476]]]]},"properties":{"kdprov":"65","kdkab":"04","kdkec":"080","kddesa":"012","kdsls":"0019","idsls":"65040800120019","nmprov":"KALIMANTAN UTARA","nmkab":"NUNUKAN","nmkec":"TULIN ONSOI","nmdesa":"MAKMUR","nmsls":"RT 019"}},{"type":"Feature","geometry":{"type":"MultiPolygon","coordinates":[[[[116.98905,4.08475],[116.98815,4.08517],[116.98738,4.0877],[116.98768,4.09056],[116.98793,4.09299],[116.9882,4.09701],[116.98912,4.09804],[116.98926,4.097],[116.98928,4.09542],[116.98957,4.09435],[116.98962,4.09367],[116.98975,4.09248],[116.98922,4.09245],[116.98936,4.0916],[116.98935,4.09085],[116.9893,4.09032],[116.98919,4.09003],[116.98876,4.08955],[116.98876,4.08796],[116.9888,4.08617],[116.98895,4.08499],[116.98905,4.08475]]]]},"properties":{"kdprov":"65","kdkab":"04","kdkec":"080","kddesa":"009","kdsls":"0001","idsls":"65040800090001","nmprov":"KALIMANTAN UTARA","nmkab":"NUNUKAN","nmkec":"TULIN ONSOI","nmdesa":"SEKIKILAN","nmsls":"RT 001"}},{"type":"Feature","geometry":{"type":"MultiPolygon","coordinates":[[[[116.99329,4.04449],[116.99363,4.04415],[116.99428,4.04346],[116.99462,4.04309],[116.99508,4.04261],[116.9956,4.04209],[116.9959,4.0418],[116.99619,4.04151],[116.99643,4.04125],[116.99727,4.04033],[116.99747,4.04014],[116.99768,4.03995],[116.99843,4.04073],[116.99883,4.04041],[116.998,4.03964],[116.99707,4.03877],[116.99706,4.03877],[116.99705,4.03878],[116.99632,4.03943],[116.99502,4.04056],[116.99428,4.04112],[116.99421,4.04117],[116.99321,4.04193],[116.99173,4.04304],[116.99039,4.04405],[116.99025,4.04416],[116.99011,4.04428],[116.98958,4.04473],[116.9876,4.04639],[116.98393,4.04858],[116.98692,4.05127],[116.9901,4.04779],[116.99193,4.04596],[116.99278,4.04503],[116.99329,4.04449]]]]},"properties":{"kdprov":"65","kdkab":"04","kdkec":"080","kddesa":"012","kdsls":"0009","idsls":"65040800120009","nmprov":"KALIMANTAN UTARA","nmkab":"NUNUKAN","nmkec":"TULIN ONSOI","nmdesa":"MAKMUR","nmsls":"RT 009"}},{"type":"Feature","geometry":{"type":"MultiPolygon","coordinates":[[[[117.00202,4.04891],[117.00298,4.04791],[117.00181,4.04698],[117.00161,4.04682],[117.00097,4.04633],[117.00035,4.04586],[116.99969,4.04534],[116.99608,4.04245],[116.99576,4.04221],[116.9956,4.04209],[116.99508,4.04261],[116.99462,4.04309],[116.99494,4.04336],[116.9979,4.04608],[116.99883,4.04693],[116.99865,4.04715],[116.9986,4.04722],[116.99884,4.04743],[116.99888,4.04747],[116.99912,4.04722],[116.99957,4.04766],[117.00001,4.04809],[117.00005,4.04833],[117.00017,4.04865],[117.00043,4.04901],[117.00101,4.0496],[117.0012,4.04972],[117.00122,4.04974],[117.00202,4.04891]]]]},"properties":{"kdprov":"65","kdkab":"04","kdkec":"080","kddesa":"012","kdsls":"0003","idsls":"65040800120003","nmprov":"KALIMANTAN UTARA","nmkab":"NUNUKAN","nmkec":"TULIN ONSOI","nmdesa":"MAKMUR","nmsls":"RT 003"}},{"type":"Feature","geometry":{"type":"MultiPolygon","coordinates":[[[[116.98912,4.13426],[116.98893,4.13378],[116.98982,4.13212],[116.98986,4.13089],[116.98895,4.13162],[116.98856,4.1321],[116.98828,4.132],[116.98813,4.13167],[116.98787,4.13177],[116.98756,4.13194],[116.98715,4.13168],[116.98655,4.1316],[116.98606,4.13123],[116.98584,4.13111],[116.98594,4.13212],[116.98663,4.13299],[116.98672,4.13365],[116.9862,4.13458],[116.98538,4.13535],[116.98558,4.13537],[116.9857,4.13535],[116.98578,4.13532],[116.98608,4.13518],[116.98644,4.13497],[116.98662,4.13489],[116.98682,4.13485],[116.98713,4.13484],[116.98821,4.13457],[116.98891,4.13434],[116.98912,4.13426]]]]},"properties":{"kdprov":"65","kdkab":"04","kdkec":"080","kddesa":"008","kdsls":"0002","idsls":"65040800080002","nmprov":"KALIMANTAN UTARA","nmkab":"NUNUKAN","nmkec":"TULIN ONSOI","nmdesa":"KALUN SAYAN","nmsls":"RT 002"}},{"type":"Feature","geometry":{"type":"MultiPolygon","coordinates":[[[[117.0017,4.06944],[117.00173,4.06931],[117.00174,4.06813],[117.00178,4.0679],[117.00191,4.06769],[117.00206,4.0675],[117.00169,4.06715],[117.00072,4.06632],[116.99989,4.0671],[116.99939,4.06765],[116.99803,4.06634],[116.99716,4.06718],[116.99671,4.06684],[116.99595,4.0667],[116.99497,4.06683],[116.99451,4.06674],[116.99446,4.06609],[116.99483,4.06551],[116.99483,4.0654],[116.99466,4.06536],[116.99434,4.06567],[116.99392,4.06593],[116.99369,4.06597],[116.99348,4.06577],[116.99361,4.06516],[116.9936,4.06485],[116.99267,4.06413],[116.99209,4.0636],[116.99139,4.06308],[116.99098,4.06228],[116.99083,4.0618],[116.9907,4.06153],[116.99013,4.06109],[116.98966,4.06062],[116.98925,4.0605],[116.98906,4.06045],[116.98867,4.06127],[116.98828,4.06196],[116.98774,4.06251],[116.9868,4.06179],[116.98447,4.05961],[116.98208,4.05725],[116.9808,4.05567],[116.97984,4.05469],[116.9792,4.05436],[116.97901,4.05382],[116.97874,4.05345],[116.97682,4.05202],[116.97338,4.04895],[116.97032,4.04617],[116.96728,4.04322],[116.95973,4.03586],[116.95595,4.03866],[116.95151,4.04162],[116.95632,4.04653],[116.96554,4.05515],[116.97506,4.06199],[116.98829,4.06973],[116.99558,4.07136],[116.99807,4.07171],[116.99817,4.07173],[116.9988,4.07109],[116.9998,4.07004],[117.00005,4.06988],[117.0002,4.06981],[117.00046,4.06979],[117.00125,4.06978],[117.00149,4.06975],[117.00168,4.06953],[117.0017,4.06944]]]]},"properties":{"kdprov":"65","kdkab":"04","kdkec":"080","kddesa":"010","kdsls":"0003","idsls":"65040800100003","nmprov":"KALIMANTAN UTARA","nmkab":"NUNUKAN","nmkec":"TULIN ONSOI","nmdesa":"SEMUNAD","nmsls":"RT 003"}},{"type":"Feature","geometry":{"type":"MultiPolygon","coordinates":[[[[117.01004,4.04183],[117.0066,4.03883],[117.00241,4.03509],[117.00154,4.03597],[117.00186,4.03627],[117.00287,4.03721],[117.00555,4.03979],[117.00873,4.04285],[117.01004,4.04183]]]]},"properties":{"kdprov":"65","kdkab":"04","kdkec":"080","kddesa":"012","kdsls":"0008","idsls":"65040800120008","nmprov":"KALIMANTAN UTARA","nmkab":"NUNUKAN","nmkec":"TULIN ONSOI","nmdesa":"MAKMUR","nmsls":"RT 008"}},{"type":"Feature","geometry":{"type":"MultiPolygon","coordinates":[[[[117.04153,4.04439],[117.0389,4.04798],[117.042,4.05026],[117.0462,4.04634],[117.04153,4.04439]]]]},"properties":{"kdprov":"65","kdkab":"04","kdkec":"080","kddesa":"010","kdsls":"4001","idsls":"65040800104001","nmprov":"KALIMANTAN UTARA","nmkab":"NUNUKAN","nmkec":"TULIN ONSOI","nmdesa":"SEMUNAD","nmsls":"CAMP SEMUNAD (PT. KHL 4, RAYON A)"}},{"type":"Feature","geometry":{"type":"MultiPolygon","coordinates":[[[[117.00122,4.04974],[117.0012,4.04972],[117.00101,4.0496],[117.00043,4.04901],[117.00017,4.04865],[117.00005,4.04833],[117.00001,4.04809],[116.99957,4.04766],[116.99912,4.04722],[116.99888,4.04747],[116.99884,4.04743],[116.9986,4.04722],[116.99865,4.04715],[116.99883,4.04693],[116.9979,4.04608],[116.99494,4.04336],[116.99462,4.04309],[116.99428,4.04346],[116.99363,4.04415],[116.99329,4.04449],[116.9936,4.04478],[116.99844,4.04891],[116.99903,4.04934],[117.0002,4.05079],[117.00122,4.04974]]]]},"properties":{"kdprov":"65","kdkab":"04","kdkec":"080","kddesa":"012","kdsls":"0002","idsls":"65040800120002","nmprov":"KALIMANTAN UTARA","nmkab":"NUNUKAN","nmkec":"TULIN ONSOI","nmdesa":"MAKMUR","nmsls":"RT 002"}},{"type":"Feature","geometry":{"type":"MultiPolygon","coordinates":[[[[117.00484,4.05886],[117.00507,4.05792],[117.00494,4.0573],[117.00403,4.05727],[117.0043,4.05633],[117.00467,4.05513],[117.00505,4.05474],[117.00584,4.05407],[117.00554,4.05378],[117.00334,4.05173],[117.00266,4.05117],[117.00182,4.05032],[117.00122,4.04974],[117.0002,4.05079],[116.99533,4.05583],[116.99568,4.056],[116.99582,4.05607],[117.00467,4.05892],[117.00484,4.05886]]]]},"properties":{"kdprov":"65","kdkab":"04","kdkec":"080","kddesa":"012","kdsls":"0018","idsls":"65040800120018","nmprov":"KALIMANTAN UTARA","nmkab":"NUNUKAN","nmkec":"TULIN ONSOI","nmdesa":"MAKMUR","nmsls":"RT 018"}},{"type":"Feature","geometry":{"type":"MultiPolygon","coordinates":[[[[117.04636,4.11934],[117.05052,4.11701],[117.04353,4.10761],[117.03602,4.11359],[117.04207,4.12175],[117.04636,4.11934]]]]},"properties":{"kdprov":"65","kdkab":"04","kdkec":"080","kddesa":"008","kdsls":"2001","idsls":"65040800082001","nmprov":"KALIMANTAN UTARA","nmkab":"NUNUKAN","nmkec":"TULIN ONSOI","nmdesa":"KALUN SAYAN","nmsls":"HUTAN"}},{"type":"Feature","geometry":{"type":"MultiPolygon","coordinates":[[[[116.95474,4.08606],[116.95628,4.08819],[116.9609,4.08662],[116.96038,4.08384],[116.95893,4.08394],[116.95772,4.08421],[116.95652,4.08467],[116.95474,4.08606]]]]},"properties":{"kdprov":"65","kdkab":"04","kdkec":"080","kddesa":"009","kdsls":"4005","idsls":"65040800094005","nmprov":"KALIMANTAN UTARA","nmkab":"NUNUKAN","nmkec":"TULIN ONSOI","nmdesa":"SEKIKILAN","nmsls":"CAMP V.33 (PT. KHL 3, AFD. 4)"}},{"type":"Feature","geometry":{"type":"MultiPolygon","coordinates":[[[[116.96299,4.12354],[116.95896,4.1138],[116.96682,4.11186],[116.97005,4.12232],[116.98223,4.12021],[116.98912,4.11774],[116.98936,4.11616],[116.98936,4.11451],[116.98944,4.11346],[116.98906,4.11254],[116.98842,4.11215],[116.98787,4.11179],[116.98763,4.11091],[116.9874,4.11019],[116.98724,4.10982],[116.98732,4.10915],[116.98749,4.10881],[116.98822,4.10816],[116.98882,4.10714],[116.98891,4.1065],[116.98838,4.10547],[116.98819,4.10505],[116.98819,4.10381],[116.98805,4.10258],[116.98849,4.10153],[116.98868,4.10069],[116.98899,4.09952],[116.9891,4.09821],[116.98912,4.09804],[116.9882,4.09701],[116.98793,4.09299],[116.98768,4.09056],[116.98738,4.0877],[116.98815,4.08517],[116.98905,4.08475],[116.98932,4.08412],[116.98954,4.08282],[116.98914,4.08247],[116.98847,4.08205],[116.98761,4.08075],[116.9871,4.08021],[116.9867,4.07983],[116.98611,4.07928],[116.98526,4.07898],[116.98425,4.07904],[116.98373,4.0788],[116.98312,4.07962],[116.98261,4.07993],[116.98116,4.08038],[116.98062,4.08052],[116.97975,4.08044],[116.97924,4.08032],[116.97773,4.08106],[116.97654,4.08177],[116.97602,4.08244],[116.97553,4.08312],[116.97438,4.08359],[116.97338,4.08361],[116.97163,4.08255],[116.96882,4.08262],[116.96721,4.083],[116.96525,4.08265],[116.96291,4.08278],[116.9618,4.08301],[116.96038,4.08384],[116.9609,4.08662],[116.95628,4.08819],[116.95474,4.08606],[116.95416,4.08643],[116.95324,4.08643],[116.95242,4.087],[116.95174,4.08835],[116.95063,4.08938],[116.95013,4.09011],[116.94947,4.0906],[116.949,4.09146],[116.94868,4.09209],[116.94699,4.09288],[116.94661,4.09288],[116.94612,4.09272],[116.94574,4.0928],[116.94526,4.09307],[116.94491,4.09351],[116.94488,4.09412],[116.945,4.09528],[116.94481,4.09591],[116.90128,4.07715],[116.89762,4.08119],[116.89306,4.08378],[116.87848,4.09563],[116.87088,4.10444],[116.86724,4.11143],[116.86359,4.11963],[116.88658,4.12449],[116.91846,4.12568],[116.94511,4.12663],[116.96299,4.12354]]]]},"properties":{"kdprov":"65","kdkab":"04","kdkec":"080","kddesa":"009","kdsls":"4001","idsls":"65040800094001","nmprov":"KALIMANTAN UTARA","nmkab":"NUNUKAN","nmkec":"TULIN ONSOI","nmdesa":"SEKIKILAN","nmsls":"HUTAN"}},{"type":"Feature","geometry":{"type":"MultiPolygon","coordinates":[[[[117.02951,4.09631],[117.02294,4.09189],[117.01656,4.09716],[117.02149,4.10617],[117.02951,4.09631]]]]},"properties":{"kdprov":"65","kdkab":"04","kdkec":"080","kddesa":"009","kdsls":"4003","idsls":"65040800094003","nmprov":"KALIMANTAN UTARA","nmkab":"NUNUKAN","nmkec":"TULIN ONSOI","nmdesa":"SEKIKILAN","nmsls":"HUTAN"}},{"type":"Feature","geometry":{"type":"MultiPolygon","coordinates":[[[[117.042,4.05026],[117.0389,4.04798],[117.04153,4.04439],[117.0359,4.04203],[117.03168,4.04027],[117.03092,4.04066],[117.02884,4.04084],[117.02503,4.04121],[117.02403,4.042],[117.02471,4.04377],[117.02796,4.04663],[117.02981,4.04832],[117.02952,4.05025],[117.02825,4.05181],[117.02558,4.05368],[117.02403,4.05355],[117.02387,4.05252],[117.02437,4.05176],[117.02585,4.05088],[117.02675,4.04914],[117.0258,4.04864],[117.02273,4.04969],[117.0203,4.0498],[117.01795,4.05075],[117.01528,4.05549],[117.0147,4.05641],[117.01261,4.05795],[117.01127,4.05795],[117.01015,4.05819],[117.00958,4.05882],[117.00878,4.0609],[117.00796,4.06224],[117.00749,4.0628],[117.0073,4.06397],[117.00812,4.06447],[117.0101,4.06416],[117.012,4.06472],[117.01209,4.06556],[117.0099,4.06601],[117.00755,4.06643],[117.00591,4.06743],[117.00514,4.06891],[117.00438,4.06919],[117.0036,4.06943],[117.00256,4.06966],[117.00192,4.06972],[117.00179,4.0696],[117.0017,4.06944],[117.00168,4.06953],[117.00149,4.06975],[117.00125,4.06978],[117.00046,4.06979],[117.0002,4.06981],[117.00005,4.06988],[116.9998,4.07004],[116.9988,4.07109],[116.99817,4.07173],[117.0051,4.0727],[117.01521,4.07077],[117.02666,4.06303],[117.0393,4.05277],[117.042,4.05026]]]]},"properties":{"kdprov":"65","kdkab":"04","kdkec":"080","kddesa":"010","kdsls":"0004","idsls":"65040800100004","nmprov":"KALIMANTAN UTARA","nmkab":"NUNUKAN","nmkec":"TULIN ONSOI","nmdesa":"SEMUNAD","nmsls":"RT 004"}},{"type":"Feature","geometry":{"type":"MultiPolygon","coordinates":[[[[116.98469,4.03233],[116.98382,4.0315],[116.98358,4.03126],[116.98248,4.0303],[116.98218,4.02995],[116.98199,4.02983],[116.98142,4.02928],[116.98418,4.02676],[116.9852,4.02774],[116.98533,4.02761],[116.98606,4.02685],[116.98664,4.0262],[116.99128,4.02128],[116.98723,4.02085],[116.98299,4.02556],[116.97881,4.0302],[116.97795,4.03109],[116.9739,4.03485],[116.9733,4.03555],[116.9755,4.03873],[116.97626,4.04085],[116.98469,4.03233]]]]},"properties":{"kdprov":"65","kdkab":"04","kdkec":"080","kddesa":"011","kdsls":"0011","idsls":"65040800110011","nmprov":"KALIMANTAN UTARA","nmkab":"NUNUKAN","nmkec":"TULIN ONSOI","nmdesa":"SANUR","nmsls":"RT 011"}},{"type":"Feature","geometry":{"type":"MultiPolygon","coordinates":[[[[116.98581,4.0207],[116.9833,4.02044],[116.98089,4.02317],[116.97507,4.02839],[116.97039,4.03208],[116.97165,4.03317],[116.9721,4.03382],[116.97625,4.02957],[116.98229,4.02484],[116.98581,4.0207]]]]},"properties":{"kdprov":"65","kdkab":"04","kdkec":"080","kddesa":"011","kdsls":"0013","idsls":"65040800110013","nmprov":"KALIMANTAN UTARA","nmkab":"NUNUKAN","nmkec":"TULIN ONSOI","nmdesa":"SANUR","nmsls":"RT 013"}},{"type":"Feature","geometry":{"type":"MultiPolygon","coordinates":[[[[116.98581,4.0207],[116.98229,4.02484],[116.97625,4.02957],[116.9721,4.03382],[116.9733,4.03555],[116.9739,4.03485],[116.97795,4.03109],[116.97881,4.0302],[116.98299,4.02556],[116.98723,4.02085],[116.98581,4.0207]]]]},"properties":{"kdprov":"65","kdkab":"04","kdkec":"080","kddesa":"011","kdsls":"0012","idsls":"65040800110012","nmprov":"KALIMANTAN UTARA","nmkab":"NUNUKAN","nmkec":"TULIN ONSOI","nmdesa":"SANUR","nmsls":"RT 012"}},{"type":"Feature","geometry":{"type":"MultiPolygon","coordinates":[[[[116.99044,4.03267],[116.9894,4.03167],[116.98909,4.03138],[116.98812,4.0305],[116.98642,4.02892],[116.98572,4.02959],[116.98382,4.0315],[116.98469,4.03233],[116.98506,4.03266],[116.98535,4.03291],[116.98565,4.03325],[116.98604,4.03363],[116.98657,4.03409],[116.98726,4.0347],[116.98764,4.03503],[116.98781,4.03527],[116.98788,4.0354],[116.9881,4.03515],[116.98872,4.03449],[116.9895,4.03368],[116.99044,4.03267]]]]},"properties":{"kdprov":"65","kdkab":"04","kdkec":"080","kddesa":"011","kdsls":"0005","idsls":"65040800110005","nmprov":"KALIMANTAN UTARA","nmkab":"NUNUKAN","nmkec":"TULIN ONSOI","nmdesa":"SANUR","nmsls":"RT 005"}},{"type":"Feature","geometry":{"type":"MultiPolygon","coordinates":[[[[116.98664,4.0262],[116.98606,4.02685],[116.98533,4.02761],[116.9852,4.02774],[116.98582,4.02835],[116.98642,4.02892],[116.9866,4.02868],[116.98693,4.0283],[116.98784,4.02743],[116.99297,4.02219],[116.99128,4.02128],[116.98664,4.0262]]]]},"properties":{"kdprov":"65","kdkab":"04","kdkec":"080","kddesa":"011","kdsls":"0009","idsls":"65040800110009","nmprov":"KALIMANTAN UTARA","nmkab":"NUNUKAN","nmkec":"TULIN ONSOI","nmdesa":"SANUR","nmsls":"RT 009"}},{"type":"Feature","geometry":{"type":"MultiPolygon","coordinates":[[[[116.99297,4.02219],[116.98784,4.02743],[116.98693,4.0283],[116.9866,4.02868],[116.98642,4.02892],[116.98812,4.0305],[116.98909,4.03138],[116.9891,4.03137],[116.98952,4.03096],[116.98983,4.03063],[116.99025,4.03021],[116.99042,4.03002],[116.99298,4.02741],[116.99627,4.02397],[116.99297,4.02219]]]]},"properties":{"kdprov":"65","kdkab":"04","kdkec":"080","kddesa":"011","kdsls":"0006","idsls":"65040800110006","nmprov":"KALIMANTAN UTARA","nmkab":"NUNUKAN","nmkec":"TULIN ONSOI","nmdesa":"SANUR","nmsls":"RT 006"}},{"type":"Feature","geometry":{"type":"MultiPolygon","coordinates":[[[[116.99185,4.03387],[116.99215,4.03358],[116.99244,4.0333],[116.99266,4.03306],[116.99281,4.03288],[116.99307,4.03258],[116.99293,4.03241],[116.99262,4.0321],[116.99246,4.03193],[116.99195,4.03144],[116.99106,4.03062],[116.99056,4.03014],[116.99042,4.03002],[116.99025,4.03021],[116.98983,4.03063],[116.98952,4.03096],[116.9891,4.03137],[116.98909,4.03138],[116.9894,4.03167],[116.99044,4.03267],[116.99185,4.03387]]]]},"properties":{"kdprov":"65","kdkab":"04","kdkec":"080","kddesa":"011","kdsls":"0007","idsls":"65040800110007","nmprov":"KALIMANTAN UTARA","nmkab":"NUNUKAN","nmkec":"TULIN ONSOI","nmdesa":"SANUR","nmsls":"RT 007"}},{"type":"Feature","geometry":{"type":"MultiPolygon","coordinates":[[[[116.99895,4.02542],[116.99627,4.02397],[116.99298,4.02741],[116.99042,4.03002],[116.99056,4.03014],[116.99106,4.03062],[116.99195,4.03144],[116.99246,4.03193],[116.99262,4.0321],[116.99293,4.03241],[116.99307,4.03258],[116.99392,4.03168],[116.995,4.03054],[116.99798,4.0275],[116.99891,4.02643],[116.99895,4.02542]]]]},"properties":{"kdprov":"65","kdkab":"04","kdkec":"080","kddesa":"011","kdsls":"0016","idsls":"65040800110016","nmprov":"KALIMANTAN UTARA","nmkab":"NUNUKAN","nmkec":"TULIN ONSOI","nmdesa":"SANUR","nmsls":"RT 016"}},{"type":"Feature","geometry":{"type":"MultiPolygon","coordinates":[[[[116.99707,4.03877],[116.99782,4.03811],[116.99852,4.0372],[116.99579,4.03498],[116.99307,4.03258],[116.99281,4.03288],[116.99266,4.03306],[116.99244,4.0333],[116.99215,4.03358],[116.99185,4.03387],[116.99319,4.03521],[116.99417,4.03611],[116.99553,4.03736],[116.99705,4.03878],[116.99706,4.03877],[116.99707,4.03877]]]]},"properties":{"kdprov":"65","kdkab":"04","kdkec":"080","kddesa":"011","kdsls":"0008","idsls":"65040800110008","nmprov":"KALIMANTAN UTARA","nmkab":"NUNUKAN","nmkec":"TULIN ONSOI","nmdesa":"SANUR","nmsls":"RT 008"}},{"type":"Feature","geometry":{"type":"MultiPolygon","coordinates":[[[[117.00206,4.0675],[117.00229,4.06723],[117.00233,4.06704],[117.00231,4.06691],[117.00218,4.06671],[117.00195,4.0664],[117.00187,4.06594],[117.00181,4.06532],[117.00163,4.06486],[117.00127,4.06449],[117.00101,4.06419],[117.0008,4.06393],[117.00032,4.06317],[117.0,4.06264],[116.99988,4.06209],[116.99977,4.06176],[116.99932,4.06139],[116.99862,4.06111],[116.99783,4.06095],[116.99726,4.06087],[116.99675,4.06056],[116.99645,4.06025],[116.99582,4.05922],[116.99569,4.05907],[116.99558,4.05855],[116.99561,4.05815],[116.99555,4.05781],[116.99535,4.05741],[116.9953,4.05717],[116.99541,4.05668],[116.99556,4.05617],[116.99568,4.056],[116.99533,4.05583],[116.98797,4.05221],[116.98692,4.05127],[116.98393,4.04858],[116.97868,4.04509],[116.9775,4.0443],[116.97626,4.04085],[116.9755,4.03873],[116.9733,4.03555],[116.9721,4.03382],[116.97165,4.03317],[116.97039,4.03208],[116.96785,4.02987],[116.96659,4.03076],[116.95973,4.03586],[116.96728,4.04322],[116.97032,4.04617],[116.97338,4.04895],[116.97682,4.05202],[116.97874,4.05345],[116.97901,4.05382],[116.9792,4.05436],[116.97984,4.05469],[116.9808,4.05567],[116.98208,4.05725],[116.98447,4.05961],[116.9868,4.06179],[116.98774,4.06251],[116.98828,4.06196],[116.98867,4.06127],[116.98906,4.06045],[116.98925,4.0605],[116.98966,4.06062],[116.99013,4.06109],[116.9907,4.06153],[116.99083,4.0618],[116.99098,4.06228],[116.99139,4.06308],[116.99209,4.0636],[116.99267,4.06413],[116.9936,4.06485],[116.99361,4.06516],[116.99348,4.06577],[116.99369,4.06597],[116.99392,4.06593],[116.99434,4.06567],[116.99466,4.06536],[116.99483,4.0654],[116.99483,4.06551],[116.99446,4.06609],[116.99451,4.06674],[116.99497,4.06683],[116.99595,4.0667],[116.99671,4.06684],[116.99716,4.06718],[116.99803,4.06634],[116.99939,4.06765],[116.99989,4.0671],[117.00072,4.06632],[117.00169,4.06715],[117.00206,4.0675]]]]},"properties":{"kdprov":"65","kdkab":"04","kdkec":"080","kddesa":"010","kdsls":"0002","idsls":"65040800100002","nmprov":"KALIMANTAN UTARA","nmkab":"NUNUKAN","nmkec":"TULIN ONSOI","nmdesa":"SEMUNAD","nmsls":"RT 002"}},{"type":"Feature","geometry":{"type":"MultiPolygon","coordinates":[[[[116.9833,4.02044],[116.98052,4.02014],[116.97519,4.02222],[116.97421,4.0227],[116.97327,4.02316],[116.97272,4.02461],[116.97175,4.02711],[116.96785,4.02987],[116.97039,4.03208],[116.97507,4.02839],[116.98089,4.02317],[116.9833,4.02044]]]]},"properties":{"kdprov":"65","kdkab":"04","kdkec":"080","kddesa":"011","kdsls":"0014","idsls":"65040800110014","nmprov":"KALIMANTAN UTARA","nmkab":"NUNUKAN","nmkec":"TULIN ONSOI","nmdesa":"SANUR","nmsls":"RT 014"}},{"type":"Feature","geometry":{"type":"MultiPolygon","coordinates":[[[[117.05941,4.22846],[117.04789,4.24683],[117.04457,4.24861],[117.04203,4.25044],[117.05106,4.25733],[117.07437,4.27446],[117.08786,4.28335],[117.08785,4.28333],[117.0879,4.28225],[117.08811,4.28191],[117.08838,4.28172],[117.08868,4.28164],[117.08896,4.28155],[117.08922,4.28141],[117.08935,4.28115],[117.08957,4.28079],[117.08969,4.2803],[117.0899,4.27978],[117.09027,4.27944],[117.09057,4.27931],[117.09077,4.27925],[117.0912,4.27908],[117.0913,4.27894],[117.09162,4.27879],[117.09188,4.27867],[117.09203,4.27858],[117.09232,4.27847],[117.09244,4.27843],[117.09263,4.27824],[117.0927,4.278],[117.09267,4.27759],[117.09279,4.27705],[117.09294,4.27688],[117.09312,4.27672],[117.09325,4.27653],[117.09334,4.2764],[117.09352,4.27621],[117.0936,4.27605],[117.09364,4.27592],[117.09382,4.27563],[117.09421,4.27542],[117.0946,4.27533],[117.09515,4.27522],[117.09561,4.27512],[117.09597,4.2751],[117.09631,4.27506],[117.09655,4.27498],[117.09679,4.27492],[117.0969,4.27478],[117.09692,4.27471],[117.09689,4.27422],[117.09681,4.27391],[117.09665,4.27336],[117.09664,4.27292],[117.09664,4.27245],[117.09665,4.27211],[117.09671,4.27182],[117.09671,4.27135],[117.09671,4.27106],[117.09664,4.27065],[117.09633,4.2699],[117.09595,4.26967],[117.09569,4.26955],[117.09552,4.26918],[117.09549,4.2688],[117.09546,4.26845],[117.09544,4.26805],[117.09544,4.26782],[117.09549,4.26749],[117.09555,4.26717],[117.09567,4.26675],[117.09567,4.26648],[117.09555,4.26633],[117.09546,4.26622],[117.09514,4.2661],[117.09491,4.26604],[117.09482,4.26587],[117.09473,4.26578],[117.09469,4.26561],[117.09478,4.26523],[117.09485,4.26515],[117.09503,4.26495],[117.09533,4.26469],[117.09553,4.2646],[117.0958,4.26454],[117.09606,4.26441],[117.09614,4.26419],[117.09632,4.26388],[117.09643,4.2634],[117.09647,4.26305],[117.09668,4.26258],[117.09684,4.26236],[117.09703,4.26217],[117.09723,4.26202],[117.09734,4.26199],[117.09747,4.26199],[117.09781,4.26207],[117.09846,4.26242],[117.09855,4.26254],[117.09864,4.26268],[117.09864,4.26285],[117.09861,4.26315],[117.09856,4.26376],[117.09849,4.26433],[117.09847,4.26464],[117.09864,4.26516],[117.09883,4.26548],[117.09917,4.26573],[117.09939,4.26586],[117.09977,4.26595],[117.10012,4.26584],[117.1004,4.26561],[117.10064,4.26533],[117.10085,4.26507],[117.10124,4.2648],[117.10141,4.26458],[117.10146,4.26432],[117.10153,4.26407],[117.10166,4.26375],[117.10181,4.26344],[117.10186,4.26309],[117.10192,4.26287],[117.10203,4.26271],[117.10232,4.26256],[117.1025,4.26252],[117.10263,4.26252],[117.10282,4.26261],[117.10289,4.26273],[117.10325,4.26332],[117.10345,4.26373],[117.10354,4.26402],[117.10356,4.26427],[117.10363,4.26448],[117.10368,4.26465],[117.10394,4.26498],[117.10413,4.26506],[117.1045,4.26507],[117.10469,4.26506],[117.10512,4.26489],[117.10545,4.26477],[117.10606,4.26471],[117.10685,4.26485],[117.10721,4.26502],[117.10735,4.26502],[117.10765,4.26497],[117.10794,4.26485],[117.10846,4.26455],[117.10873,4.26438],[117.10914,4.26415],[117.10948,4.264],[117.10992,4.26393],[117.11049,4.26397],[117.1111,4.26385],[117.11125,4.26375],[117.11148,4.2635],[117.11175,4.26326],[117.11207,4.26285],[117.11249,4.26255],[117.11292,4.26238],[117.11328,4.26231],[117.11365,4.26222],[117.11384,4.26206],[117.11424,4.2619],[117.11442,4.26184],[117.11481,4.26175],[117.11555,4.26149],[117.11578,4.26132],[117.11616,4.26111],[117.11682,4.26069],[117.11714,4.26049],[117.1174,4.26023],[117.11761,4.26003],[117.11785,4.25984],[117.11793,4.25965],[117.11796,4.25952],[117.11801,4.25929],[117.11811,4.25897],[117.11825,4.25867],[117.11831,4.25856],[117.10848,4.24987],[117.05941,4.22846]]]]},"properties":{"kdprov":"65","kdkab":"04","kdkec":"080","kddesa":"006","kdsls":"0004","idsls":"65040800060004","nmprov":"KALIMANTAN UTARA","nmkab":"NUNUKAN","nmkec":"TULIN ONSOI","nmdesa":"SALANG","nmsls":"RT 004"}},{"type":"Feature","geometry":{"type":"MultiPolygon","coordinates":[[[[116.9956,4.15449],[116.99481,4.15467],[116.99408,4.15531],[116.994,4.15586],[116.99375,4.15628],[116.99378,4.15672],[116.99414,4.15795],[116.99342,4.15987],[116.99348,4.16034],[116.99779,4.16195],[116.99829,4.1624],[116.99837,4.1632],[116.99892,4.16327],[116.99912,4.1636],[116.99987,4.1633],[117.00107,4.16387],[117.00192,4.16365],[117.00297,4.16445],[117.00453,4.16435],[117.04073,4.18723],[117.088,4.21948],[117.11614,4.2316],[117.14155,4.2474],[117.14169,4.24709],[117.14198,4.2468],[117.14241,4.24666],[117.14286,4.24653],[117.14336,4.24643],[117.14394,4.2463],[117.14434,4.24621],[117.14522,4.24569],[117.14635,4.24469],[117.14707,4.24365],[117.14767,4.24284],[117.14817,4.24196],[117.1486,4.24029],[117.14907,4.23904],[117.1498,4.23775],[117.15018,4.23685],[117.15079,4.23574],[117.15119,4.23423],[117.15107,4.23321],[117.15107,4.23235],[117.15098,4.23177],[117.15094,4.23113],[117.15094,4.23045],[117.15103,4.22996],[117.1325,4.21712],[117.08682,4.18963],[117.05862,4.18],[117.02585,4.16597],[117.02119,4.16398],[117.01347,4.16067],[117.00782,4.15764],[116.99955,4.15484],[116.9956,4.15449]]]]},"properties":{"kdprov":"65","kdkab":"04","kdkec":"080","kddesa":"002","kdsls":"0003","idsls":"65040800020003","nmprov":"KALIMANTAN UTARA","nmkab":"NUNUKAN","nmkec":"TULIN ONSOI","nmdesa":"NAPUTI","nmsls":"RT 003"}}]}