{"type":"FeatureCollection","features":[{"type":"Feature","geometry":{"type":"MultiPolygon","coordinates":[[[[117.91532,4.05963],[117.91546,4.05954],[117.9156,4.05941],[117.91606,4.05912],[117.91637,4.05902],[117.91667,4.05904],[117.91689,4.05896],[117.91715,4.05873],[117.91744,4.05846],[117.91769,4.05812],[117.91795,4.05785],[117.91816,4.05772],[117.91855,4.05754],[117.91884,4.05737],[117.91914,4.05716],[117.91939,4.05696],[117.9197,4.0567],[117.91983,4.05661],[117.91995,4.05657],[117.91994,4.05656],[117.91964,4.05637],[117.91947,4.05618],[117.91902,4.05574],[117.91841,4.05521],[117.91775,4.05478],[117.91718,4.05433],[117.91679,4.05397],[117.91655,4.05361],[117.91623,4.05319],[117.91582,4.05287],[117.91548,4.05267],[117.9154,4.05255],[117.91533,4.05246],[117.91528,4.05239],[117.91524,4.05237],[117.91489,4.05241],[117.91473,4.05238],[117.91456,4.05242],[117.91446,4.05238],[117.91426,4.05236],[117.91418,4.05244],[117.91414,4.05254],[117.91392,4.05249],[117.91377,4.05258],[117.91337,4.05299],[117.91324,4.05311],[117.91318,4.05304],[117.91316,4.05301],[117.91292,4.05328],[117.91275,4.05369],[117.9125,4.05412],[117.91237,4.05473],[117.91231,4.055],[117.91192,4.05552],[117.91163,4.05566],[117.91099,4.05655],[117.91108,4.0566],[117.91392,4.0582],[117.91418,4.0588],[117.91438,4.05898],[117.91459,4.05914],[117.91479,4.0592],[117.91486,4.05922],[117.91475,4.05936],[117.91475,4.05956],[117.91491,4.05967],[117.91509,4.05978],[117.9152,4.05967],[117.91532,4.05963]]]]},"properties":{"kdprov":"65","kdkab":"04","kdkec":"130","kddesa":"002","kdsls":"0008","idsls":"65041300020008","nmprov":"KALIMANTAN UTARA","nmkab":"NUNUKAN","nmkec":"SEBATIK","nmdesa":"TANJUNG KARANG","nmsls":"RT 008"}},{"type":"Feature","geometry":{"type":"MultiPolygon","coordinates":[[[[117.922,4.05982],[117.92155,4.06016],[117.92145,4.06031],[117.92133,4.06039],[117.92118,4.06036],[117.92087,4.06022],[117.92084,4.06028],[117.92074,4.06085],[117.92107,4.06086],[117.92144,4.06077],[117.92154,4.06077],[117.92237,4.06125],[117.92303,4.06167],[117.92326,4.06183],[117.92362,4.06206],[117.92397,4.06183],[117.92391,4.06174],[117.92376,4.06148],[117.92442,4.06078],[117.92393,4.0602],[117.92436,4.05978],[117.9242,4.05958],[117.92373,4.05979],[117.92362,4.05966],[117.92437,4.05918],[117.92394,4.05852],[117.922,4.05982]]]]},"properties":{"kdprov":"65","kdkab":"04","kdkec":"130","kddesa":"002","kdsls":"0004","idsls":"65041300020004","nmprov":"KALIMANTAN UTARA","nmkab":"NUNUKAN","nmkec":"SEBATIK","nmdesa":"TANJUNG KARANG","nmsls":"RT 004"}},{"type":"Feature","geometry":{"type":"MultiPolygon","coordinates":[[[[117.91956,4.06255],[117.91981,4.06207],[117.92011,4.0616],[117.92028,4.06149],[117.92053,4.06143],[117.92072,4.06145],[117.92074,4.06085],[117.92084,4.06028],[117.92087,4.06022],[117.92073,4.06004],[117.92063,4.05964],[117.92052,4.05939],[117.92035,4.05931],[117.92025,4.05947],[117.92005,4.05973],[117.91991,4.05995],[117.91977,4.06004],[117.9196,4.05991],[117.91943,4.05975],[117.91935,4.05967],[117.91916,4.05967],[117.91908,4.0599],[117.91896,4.06079],[117.91876,4.06097],[117.91857,4.06093],[117.91846,4.06072],[117.91834,4.06064],[117.91824,4.06061],[117.91807,4.06072],[117.91784,4.06073],[117.91752,4.06028],[117.91734,4.06027],[117.91705,4.06047],[117.91694,4.06045],[117.91671,4.06016],[117.91642,4.06022],[117.91615,4.06011],[117.91581,4.05981],[117.91534,4.05962],[117.91532,4.05963],[117.9152,4.05967],[117.91509,4.05978],[117.91486,4.06003],[117.91486,4.06003],[117.91488,4.0603],[117.91505,4.06044],[117.9154,4.06044],[117.91584,4.06057],[117.91614,4.06076],[117.91605,4.06105],[117.91581,4.06139],[117.91541,4.06185],[117.91479,4.06268],[117.91508,4.06407],[117.91641,4.06378],[117.91827,4.06322],[117.91896,4.06311],[117.91956,4.06255]]]]},"properties":{"kdprov":"65","kdkab":"04","kdkec":"130","kddesa":"002","kdsls":"0005","idsls":"65041300020005","nmprov":"KALIMANTAN UTARA","nmkab":"NUNUKAN","nmkec":"SEBATIK","nmdesa":"TANJUNG KARANG","nmsls":"RT 005"}},{"type":"Feature","geometry":{"type":"MultiPolygon","coordinates":[[[[117.921,4.06799],[117.92147,4.0681],[117.92209,4.06823],[117.92242,4.06832],[117.92269,4.06847],[117.92326,4.06746],[117.92386,4.06674],[117.92446,4.06611],[117.92485,4.06598],[117.92509,4.06602],[117.92523,4.06529],[117.92527,4.06448],[117.92499,4.06473],[117.92423,4.06523],[117.92278,4.06586],[117.9223,4.06608],[117.92213,4.06554],[117.92172,4.06434],[117.92156,4.06406],[117.92124,4.06328],[117.92003,4.06454],[117.92017,4.06513],[117.92017,4.06514],[117.91958,4.06543],[117.91919,4.06563],[117.91886,4.06577],[117.91846,4.06582],[117.91815,4.06594],[117.91771,4.06603],[117.91742,4.06611],[117.91722,4.06608],[117.91691,4.06604],[117.91663,4.066],[117.91627,4.06598],[117.91597,4.06603],[117.9157,4.0661],[117.91518,4.06625],[117.91496,4.06625],[117.91479,4.06621],[117.91458,4.06614],[117.91318,4.06554],[117.91291,4.06747],[117.91291,4.06749],[117.91277,4.06855],[117.90757,4.06891],[117.90758,4.06907],[117.90771,4.06922],[117.9079,4.06931],[117.90875,4.07027],[117.90957,4.07083],[117.921,4.06799]]]]},"properties":{"kdprov":"65","kdkab":"04","kdkec":"130","kddesa":"003","kdsls":"0004","idsls":"65041300030004","nmprov":"KALIMANTAN UTARA","nmkab":"NUNUKAN","nmkec":"SEBATIK","nmdesa":"SEI MANURUNG","nmsls":"RT 004 DUSUN 2"}},{"type":"Feature","geometry":{"type":"MultiPolygon","coordinates":[[[[117.921,4.06799],[117.90957,4.07083],[117.91713,4.07594],[117.91724,4.07591],[117.91751,4.07601],[117.91771,4.07611],[117.91804,4.0762],[117.91839,4.07624],[117.91878,4.07627],[117.91958,4.0764],[117.91958,4.07601],[117.91973,4.07527],[117.91979,4.07501],[117.92012,4.07425],[117.92039,4.07374],[117.92068,4.07337],[117.92107,4.07289],[117.92125,4.07259],[117.92134,4.07226],[117.92166,4.07145],[117.92192,4.07064],[117.92269,4.06847],[117.92242,4.06832],[117.92209,4.06823],[117.92147,4.0681],[117.921,4.06799]]]]},"properties":{"kdprov":"65","kdkab":"04","kdkec":"130","kddesa":"003","kdsls":"0003","idsls":"65041300030003","nmprov":"KALIMANTAN UTARA","nmkab":"NUNUKAN","nmkec":"SEBATIK","nmdesa":"SEI MANURUNG","nmsls":"RT 003 DUSUN 2"}},{"type":"Feature","geometry":{"type":"MultiPolygon","coordinates":[[[[117.90209,4.06847],[117.90153,4.06901],[117.9013,4.06956],[117.90077,4.06971],[117.90018,4.06983],[117.89949,4.07021],[117.89886,4.07047],[117.8982,4.07087],[117.89759,4.07144],[117.89725,4.07148],[117.89692,4.07175],[117.89629,4.07257],[117.89664,4.07297],[117.8966,4.07369],[117.89546,4.07365],[117.89542,4.07302],[117.89468,4.07276],[117.89403,4.07276],[117.89259,4.0715],[117.89141,4.07248],[117.88838,4.0754],[117.88714,4.07598],[117.88196,4.07841],[117.87718,4.08033],[117.87689,4.08044],[117.87415,4.08155],[117.87253,4.08364],[117.87235,4.08622],[117.87247,4.08607],[117.8725,4.08608],[117.87741,4.08954],[117.87804,4.08976],[117.8796,4.08974],[117.88109,4.08909],[117.88184,4.08958],[117.88273,4.08958],[117.88421,4.08893],[117.88455,4.08871],[117.88812,4.08957],[117.88942,4.08967],[117.88995,4.08975],[117.8904,4.0896],[117.89067,4.0896],[117.89115,4.08991],[117.89225,4.09013],[117.89259,4.08997],[117.89308,4.08999],[117.89321,4.0902],[117.8934,4.09032],[117.89348,4.091],[117.89358,4.09149],[117.8935,4.09166],[117.89386,4.0921],[117.89404,4.0921],[117.89427,4.09222],[117.89456,4.09227],[117.89475,4.09251],[117.89517,4.09276],[117.89581,4.09284],[117.89595,4.09331],[117.89616,4.09346],[117.8964,4.09402],[117.89645,4.09415],[117.89667,4.09413],[117.89743,4.09086],[117.89915,4.08863],[117.90423,4.08749],[117.9072,4.0876],[117.91057,4.08834],[117.91158,4.08853],[117.91164,4.08846],[117.91174,4.08827],[117.91208,4.08789],[117.91229,4.08758],[117.9125,4.08729],[117.91226,4.08706],[117.91152,4.08634],[117.91099,4.0859],[117.91087,4.08555],[117.9108,4.08553],[117.91059,4.08519],[117.9105,4.08485],[117.91037,4.08469],[117.9101,4.08451],[117.90969,4.08428],[117.9092,4.08396],[117.90891,4.08368],[117.90869,4.08339],[117.9085,4.08303],[117.90833,4.08272],[117.90824,4.08256],[117.908,4.08251],[117.90785,4.08253],[117.90757,4.08276],[117.90723,4.0831],[117.90702,4.0832],[117.90675,4.08328],[117.90641,4.08323],[117.9062,4.08316],[117.9056,4.08318],[117.90535,4.08316],[117.90521,4.08308],[117.90506,4.08279],[117.90494,4.08269],[117.90471,4.08259],[117.90452,4.08248],[117.90436,4.08234],[117.90422,4.08214],[117.90411,4.08205],[117.90397,4.08187],[117.9038,4.08171],[117.90361,4.08161],[117.90339,4.08144],[117.90321,4.08123],[117.90313,4.0811],[117.90303,4.08064],[117.90298,4.08038],[117.90275,4.07998],[117.90252,4.07951],[117.90236,4.07894],[117.90229,4.0786],[117.90213,4.07819],[117.90207,4.078],[117.902,4.0776],[117.90191,4.07717],[117.90189,4.0768],[117.90192,4.07662],[117.90198,4.07653],[117.90209,4.07622],[117.90219,4.07587],[117.90215,4.07566],[117.90202,4.07539],[117.90197,4.07514],[117.90197,4.07437],[117.90201,4.07423],[117.90222,4.07394],[117.90271,4.07338],[117.90292,4.07316],[117.90299,4.07297],[117.90319,4.07286],[117.90379,4.0727],[117.90447,4.07247],[117.90519,4.07185],[117.9056,4.07139],[117.90586,4.07082],[117.90596,4.07067],[117.90678,4.07087],[117.90712,4.07002],[117.90753,4.06924],[117.90758,4.06907],[117.90757,4.06891],[117.90752,4.0687],[117.90739,4.06808],[117.90733,4.06808],[117.9053,4.06825],[117.90212,4.06846],[117.90209,4.06847]]]]},"properties":{"kdprov":"65","kdkab":"04","kdkec":"130","kddesa":"003","kdsls":"0005","idsls":"65041300030005","nmprov":"KALIMANTAN UTARA","nmkab":"NUNUKAN","nmkec":"SEBATIK","nmdesa":"SEI MANURUNG","nmsls":"RT 005 DUSUN 1"}},{"type":"Feature","geometry":{"type":"MultiPolygon","coordinates":[[[[117.91815,4.07991],[117.91824,4.07957],[117.91832,4.07934],[117.91863,4.07894],[117.91888,4.07856],[117.91889,4.07854],[117.91899,4.07824],[117.91909,4.07799],[117.91912,4.0779],[117.91935,4.07719],[117.91954,4.0767],[117.91958,4.07644],[117.91958,4.0764],[117.91878,4.07627],[117.91839,4.07624],[117.91804,4.0762],[117.91771,4.07611],[117.91751,4.07601],[117.91724,4.07591],[117.91713,4.07594],[117.90957,4.07083],[117.90875,4.07027],[117.9079,4.06931],[117.90771,4.06922],[117.90758,4.06907],[117.90753,4.06924],[117.90712,4.07002],[117.90678,4.07087],[117.90596,4.07067],[117.90586,4.07082],[117.9056,4.07139],[117.90519,4.07185],[117.90447,4.07247],[117.90379,4.0727],[117.90319,4.07286],[117.90299,4.07297],[117.90292,4.07316],[117.90271,4.07338],[117.90222,4.07394],[117.90201,4.07423],[117.90197,4.07437],[117.90197,4.07514],[117.90202,4.07539],[117.90215,4.07566],[117.90219,4.07587],[117.90209,4.07622],[117.90198,4.07653],[117.90192,4.07662],[117.91482,4.07967],[117.91673,4.08049],[117.91815,4.07991]]]]},"properties":{"kdprov":"65","kdkab":"04","kdkec":"130","kddesa":"003","kdsls":"0002","idsls":"65041300030002","nmprov":"KALIMANTAN UTARA","nmkab":"NUNUKAN","nmkec":"SEBATIK","nmdesa":"SEI MANURUNG","nmsls":"RT 002 DUSUN 1"}},{"type":"Feature","geometry":{"type":"MultiPolygon","coordinates":[[[[117.91815,4.07991],[117.91673,4.08049],[117.91482,4.07967],[117.90192,4.07662],[117.90189,4.0768],[117.90191,4.07717],[117.902,4.0776],[117.90207,4.078],[117.90213,4.07819],[117.90229,4.0786],[117.90236,4.07894],[117.90252,4.07951],[117.90275,4.07998],[117.90298,4.08038],[117.90303,4.08064],[117.90313,4.0811],[117.90321,4.08123],[117.90339,4.08144],[117.90361,4.08161],[117.9038,4.08171],[117.90397,4.08187],[117.90411,4.08205],[117.90422,4.08214],[117.90436,4.08234],[117.90452,4.08248],[117.90471,4.08259],[117.90494,4.08269],[117.90506,4.08279],[117.90521,4.08308],[117.90535,4.08316],[117.9056,4.08318],[117.9062,4.08316],[117.90641,4.08323],[117.90675,4.08328],[117.90702,4.0832],[117.90723,4.0831],[117.90757,4.08276],[117.90785,4.08253],[117.908,4.08251],[117.90824,4.08256],[117.90833,4.08272],[117.9085,4.08303],[117.90869,4.08339],[117.90891,4.08368],[117.9092,4.08396],[117.90969,4.08428],[117.9101,4.08451],[117.91037,4.08469],[117.9105,4.08485],[117.91059,4.08519],[117.9108,4.08553],[117.91087,4.08555],[117.91099,4.0859],[117.91152,4.08634],[117.91226,4.08706],[117.9125,4.08729],[117.91229,4.08758],[117.91208,4.08789],[117.91174,4.08827],[117.91164,4.08846],[117.91158,4.08853],[117.91165,4.08854],[117.91311,4.08904],[117.91643,4.09023],[117.91806,4.09093],[117.91806,4.09092],[117.91804,4.09055],[117.918,4.09029],[117.91779,4.08995],[117.91779,4.08972],[117.91783,4.08945],[117.91785,4.08906],[117.91785,4.08884],[117.9177,4.08843],[117.9177,4.08826],[117.91769,4.08795],[117.91769,4.08765],[117.91775,4.08703],[117.91767,4.08671],[117.9175,4.08639],[117.91749,4.08614],[117.91749,4.08588],[117.91743,4.08572],[117.91733,4.08555],[117.91736,4.08543],[117.91744,4.08527],[117.91748,4.08476],[117.91748,4.08454],[117.91752,4.08354],[117.91752,4.0831],[117.9176,4.08269],[117.91775,4.08231],[117.91789,4.08164],[117.918,4.08095],[117.91811,4.08031],[117.91815,4.07991],[117.91815,4.07991]]]]},"properties":{"kdprov":"65","kdkab":"04","kdkec":"130","kddesa":"003","kdsls":"0001","idsls":"65041300030001","nmprov":"KALIMANTAN UTARA","nmkab":"NUNUKAN","nmkec":"SEBATIK","nmdesa":"SEI MANURUNG","nmsls":"RT 001 DUSUN 1"}},{"type":"Feature","geometry":{"type":"MultiPolygon","coordinates":[[[[117.90979,4.09422],[117.90979,4.09422],[117.90979,4.09422],[117.90996,4.09421],[117.91027,4.09421],[117.91053,4.09421],[117.91158,4.09424],[117.91205,4.09409],[117.91268,4.09388],[117.9131,4.09384],[117.91352,4.09369],[117.91439,4.09351],[117.91466,4.09336],[117.91518,4.09319],[117.91564,4.09304],[117.91588,4.093],[117.91625,4.09284],[117.91675,4.09263],[117.91708,4.09248],[117.91773,4.0922],[117.91793,4.09211],[117.91811,4.09194],[117.9181,4.09193],[117.91806,4.09155],[117.91806,4.09093],[117.91643,4.09023],[117.91311,4.08904],[117.91165,4.08854],[117.91158,4.08853],[117.91057,4.08834],[117.9072,4.0876],[117.90423,4.08749],[117.89915,4.08863],[117.89743,4.09086],[117.89667,4.09413],[117.89707,4.09411],[117.89716,4.09423],[117.89748,4.09471],[117.89778,4.09481],[117.89801,4.09494],[117.89794,4.09528],[117.89817,4.09551],[117.89884,4.09601],[117.89935,4.09569],[117.89963,4.09533],[117.89992,4.09501],[117.90065,4.09434],[117.9012,4.09386],[117.90124,4.09355],[117.90114,4.09326],[117.90105,4.0931],[117.90126,4.09258],[117.90158,4.09232],[117.90217,4.09235],[117.90236,4.09231],[117.90262,4.09207],[117.90272,4.0918],[117.90296,4.09164],[117.90324,4.09161],[117.90346,4.09174],[117.90385,4.09221],[117.90416,4.0923],[117.9047,4.09239],[117.90488,4.09256],[117.90509,4.09283],[117.90509,4.09297],[117.90532,4.09308],[117.90604,4.09339],[117.90715,4.09375],[117.90777,4.09391],[117.90858,4.09404],[117.90923,4.09412],[117.90972,4.09421],[117.90979,4.0942],[117.90979,4.09422]]]]},"properties":{"kdprov":"65","kdkab":"04","kdkec":"130","kddesa":"004","kdsls":"0004","idsls":"65041300040004","nmprov":"KALIMANTAN UTARA","nmkab":"NUNUKAN","nmkec":"SEBATIK","nmdesa":"PADAIDI","nmsls":"RT 004"}},{"type":"Feature","geometry":{"type":"MultiPolygon","coordinates":[[[[117.91045,4.09816],[117.91129,4.09755],[117.91446,4.0973],[117.91494,4.09782],[117.91536,4.09827],[117.91623,4.09839],[117.91716,4.09851],[117.9175,4.09864],[117.91785,4.09844],[117.91941,4.09819],[117.91941,4.098],[117.91941,4.09785],[117.91949,4.09754],[117.91949,4.09729],[117.91949,4.09722],[117.91949,4.09698],[117.91916,4.09614],[117.9191,4.09603],[117.91885,4.09535],[117.91875,4.09501],[117.91868,4.0945],[117.91859,4.09388],[117.91854,4.09352],[117.91841,4.09315],[117.91829,4.09273],[117.91817,4.09226],[117.91811,4.09201],[117.91811,4.09194],[117.91793,4.09211],[117.91773,4.0922],[117.91708,4.09248],[117.91675,4.09263],[117.91625,4.09284],[117.91588,4.093],[117.91564,4.09304],[117.91518,4.09319],[117.91466,4.09336],[117.91439,4.09351],[117.91352,4.09369],[117.9131,4.09384],[117.91268,4.09388],[117.91205,4.09409],[117.91158,4.09424],[117.91053,4.09421],[117.91027,4.09421],[117.90996,4.09421],[117.90979,4.09422],[117.90979,4.09422],[117.90979,4.09422],[117.90979,4.0942],[117.90972,4.09421],[117.90923,4.09412],[117.90858,4.09404],[117.90777,4.09391],[117.90715,4.09375],[117.90604,4.09339],[117.90532,4.09308],[117.90509,4.09297],[117.90509,4.09283],[117.90488,4.09256],[117.9047,4.09239],[117.90416,4.0923],[117.90385,4.09221],[117.90346,4.09174],[117.90324,4.09161],[117.90296,4.09164],[117.90272,4.0918],[117.90262,4.09207],[117.90236,4.09231],[117.90217,4.09235],[117.90158,4.09232],[117.90126,4.09258],[117.90105,4.0931],[117.90114,4.09326],[117.90124,4.09355],[117.9012,4.09386],[117.90065,4.09434],[117.89992,4.09501],[117.89963,4.09533],[117.89935,4.09569],[117.89884,4.09601],[117.89954,4.09647],[117.89947,4.0968],[117.8998,4.09681],[117.89995,4.09706],[117.90034,4.0972],[117.9008,4.09694],[117.90105,4.09615],[117.90155,4.09601],[117.90187,4.09581],[117.90217,4.09582],[117.90227,4.09577],[117.90289,4.09612],[117.90362,4.09588],[117.90393,4.09595],[117.90428,4.09648],[117.90477,4.09669],[117.90601,4.09659],[117.9061,4.09693],[117.90656,4.09736],[117.90675,4.09842],[117.90694,4.09874],[117.90734,4.09886],[117.90737,4.09889],[117.90758,4.0988],[117.90805,4.09852],[117.90893,4.09858],[117.90957,4.09836],[117.91045,4.09816]]]]},"properties":{"kdprov":"65","kdkab":"04","kdkec":"130","kddesa":"004","kdsls":"0003","idsls":"65041300040003","nmprov":"KALIMANTAN UTARA","nmkab":"NUNUKAN","nmkec":"SEBATIK","nmdesa":"PADAIDI","nmsls":"RT 003"}},{"type":"Feature","geometry":{"type":"MultiPolygon","coordinates":[[[[117.91145,4.10079],[117.9116,4.10078],[117.91178,4.10079],[117.912,4.10083],[117.91216,4.10088],[117.91241,4.10094],[117.91251,4.10097],[117.91262,4.10101],[117.91398,4.10129],[117.91505,4.1011],[117.91677,4.10132],[117.91714,4.10126],[117.91756,4.10041],[117.91842,4.10019],[117.92,4.10012],[117.91993,4.09945],[117.91986,4.09941],[117.91973,4.09935],[117.91957,4.09936],[117.91945,4.09936],[117.91942,4.09928],[117.91944,4.09915],[117.91952,4.09889],[117.91952,4.09872],[117.91946,4.09863],[117.91941,4.09844],[117.91941,4.09834],[117.91941,4.09821],[117.91941,4.09819],[117.91785,4.09844],[117.9175,4.09864],[117.91716,4.09851],[117.91623,4.09839],[117.91536,4.09827],[117.91494,4.09782],[117.91446,4.0973],[117.91129,4.09755],[117.91045,4.09816],[117.90957,4.09836],[117.90893,4.09858],[117.90805,4.09852],[117.90758,4.0988],[117.90737,4.09889],[117.90752,4.09904],[117.90749,4.09953],[117.90758,4.10007],[117.90764,4.10087],[117.90782,4.10127],[117.9084,4.1014],[117.90902,4.10222],[117.90979,4.1026],[117.91002,4.10305],[117.91012,4.1027],[117.9104,4.10235],[117.91072,4.10209],[117.91085,4.10174],[117.91112,4.1014],[117.9114,4.10091],[117.91145,4.10079]]]]},"properties":{"kdprov":"65","kdkab":"04","kdkec":"130","kddesa":"004","kdsls":"0002","idsls":"65041300040002","nmprov":"KALIMANTAN UTARA","nmkab":"NUNUKAN","nmkec":"SEBATIK","nmdesa":"PADAIDI","nmsls":"RT 002"}},{"type":"Feature","geometry":{"type":"MultiPolygon","coordinates":[[[[117.91398,4.10129],[117.91262,4.10101],[117.91251,4.10097],[117.91241,4.10094],[117.91216,4.10088],[117.912,4.10083],[117.91178,4.10079],[117.9116,4.10078],[117.91145,4.10079],[117.9114,4.10091],[117.91112,4.1014],[117.91085,4.10174],[117.91072,4.10209],[117.9104,4.10235],[117.91012,4.1027],[117.91002,4.10305],[117.91045,4.10313],[117.91072,4.10335],[117.91119,4.10349],[117.91155,4.10346],[117.9119,4.1036],[117.91219,4.1041],[117.91264,4.10387],[117.91381,4.10416],[117.91392,4.10494],[117.91408,4.10519],[117.91427,4.10531],[117.91458,4.10536],[117.91458,4.10536],[117.91455,4.10442],[117.91508,4.10376],[117.91523,4.10388],[117.91518,4.10413],[117.91487,4.10511],[117.9158,4.10608],[117.91625,4.10585],[117.9161,4.10478],[117.9168,4.10493],[117.91715,4.10549],[117.9166,4.10598],[117.91673,4.10658],[117.9177,4.10678],[117.91784,4.10655],[117.91791,4.10626],[117.91818,4.10602],[117.9182,4.106],[117.91869,4.10617],[117.91945,4.10654],[117.91995,4.10631],[117.91995,4.10577],[117.91963,4.10507],[117.91969,4.10443],[117.92006,4.10435],[117.92027,4.10451],[117.92037,4.10482],[117.92043,4.10498],[117.92076,4.10542],[117.92126,4.10619],[117.9214,4.10619],[117.92149,4.10608],[117.92151,4.10591],[117.92149,4.1058],[117.92126,4.10566],[117.92105,4.10543],[117.92097,4.10507],[117.92105,4.10475],[117.92109,4.1044],[117.92102,4.10421],[117.92083,4.10385],[117.92069,4.10359],[117.92058,4.10306],[117.92047,4.10248],[117.92031,4.10188],[117.92018,4.10113],[117.92006,4.10054],[117.92006,4.10031],[117.92,4.10014],[117.92,4.10012],[117.91842,4.10019],[117.91756,4.10041],[117.91714,4.10126],[117.91677,4.10132],[117.91505,4.1011],[117.91398,4.10129]]]]},"properties":{"kdprov":"65","kdkab":"04","kdkec":"130","kddesa":"004","kdsls":"0001","idsls":"65041300040001","nmprov":"KALIMANTAN UTARA","nmkab":"NUNUKAN","nmkec":"SEBATIK","nmdesa":"PADAIDI","nmsls":"RT 001"}},{"type":"Feature","geometry":{"type":"MultiPolygon","coordinates":[[[[117.89141,4.07248],[117.89259,4.0715],[117.89403,4.07276],[117.89468,4.07276],[117.89542,4.07302],[117.89546,4.07365],[117.8966,4.07369],[117.89664,4.07297],[117.89629,4.07257],[117.89692,4.07175],[117.89725,4.07148],[117.89759,4.07144],[117.8982,4.07087],[117.89886,4.07047],[117.89949,4.07021],[117.90018,4.06983],[117.90077,4.06971],[117.9013,4.06956],[117.90153,4.06901],[117.90209,4.06847],[117.90212,4.06846],[117.9053,4.06825],[117.90733,4.06808],[117.90739,4.06808],[117.90752,4.0687],[117.90757,4.06891],[117.91277,4.06855],[117.91291,4.06749],[117.91194,4.06353],[117.91175,4.06358],[117.91127,4.0638],[117.91071,4.06402],[117.91054,4.06405],[117.91031,4.0641],[117.90987,4.06425],[117.90946,4.06448],[117.90914,4.06471],[117.90891,4.06503],[117.9088,4.06527],[117.90866,4.0654],[117.9085,4.06548],[117.90835,4.0655],[117.90798,4.06541],[117.90763,4.06538],[117.90734,4.06538],[117.90697,4.06554],[117.90665,4.06567],[117.90644,4.06571],[117.90622,4.06568],[117.90601,4.06561],[117.90545,4.06532],[117.90522,4.0653],[117.90485,4.06532],[117.90443,4.06534],[117.90424,4.0653],[117.904,4.06513],[117.90374,4.06468],[117.90368,4.06429],[117.90368,4.06398],[117.90373,4.06374],[117.90369,4.06354],[117.90362,4.06339],[117.90347,4.06331],[117.90326,4.0632],[117.903,4.06323],[117.90273,4.06333],[117.9026,4.06335],[117.90237,4.06328],[117.90165,4.06299],[117.9014,4.06295],[117.90099,4.06288],[117.90061,4.06286],[117.90037,4.06275],[117.90021,4.06263],[117.90002,4.06249],[117.89982,4.06214],[117.89937,4.06108],[117.89907,4.06042],[117.8989,4.06028],[117.89879,4.06018],[117.89837,4.05999],[117.8981,4.05998],[117.89787,4.06013],[117.89744,4.06046],[117.89729,4.06057],[117.89715,4.0606],[117.89689,4.06055],[117.89618,4.06036],[117.89597,4.06034],[117.89583,4.0603],[117.89576,4.06028],[117.89576,4.06028],[117.89567,4.0604],[117.89352,4.06114],[117.89283,4.06142],[117.89179,4.06218],[117.8917,4.06268],[117.89157,4.06303],[117.89153,4.0638],[117.89151,4.06402],[117.89086,4.06449],[117.89069,4.06454],[117.88978,4.06585],[117.88956,4.066],[117.88918,4.06622],[117.88895,4.06653],[117.88884,4.067],[117.88896,4.06765],[117.88892,4.06812],[117.88906,4.06867],[117.88905,4.06959],[117.88887,4.07012],[117.8885,4.07059],[117.88792,4.07078],[117.88715,4.07109],[117.88689,4.07169],[117.88665,4.07239],[117.88618,4.07334],[117.88615,4.07396],[117.88566,4.07439],[117.88558,4.0745],[117.88623,4.07509],[117.88665,4.07551],[117.88714,4.07598],[117.88838,4.0754],[117.89141,4.07248]]]]},"properties":{"kdprov":"65","kdkab":"04","kdkec":"130","kddesa":"002","kdsls":"0003","idsls":"65041300020003","nmprov":"KALIMANTAN UTARA","nmkab":"NUNUKAN","nmkec":"SEBATIK","nmdesa":"TANJUNG KARANG","nmsls":"RT 003"}},{"type":"Feature","geometry":{"type":"MultiPolygon","coordinates":[[[[117.90734,4.06538],[117.90763,4.06538],[117.90798,4.06541],[117.90835,4.0655],[117.9085,4.06548],[117.90866,4.0654],[117.9088,4.06527],[117.90891,4.06503],[117.90914,4.06471],[117.90946,4.06448],[117.90987,4.06425],[117.91031,4.0641],[117.91054,4.06405],[117.91071,4.06402],[117.91127,4.0638],[117.91175,4.06358],[117.91194,4.06353],[117.91222,4.06345],[117.91247,4.06346],[117.91318,4.06392],[117.91392,4.06421],[117.91461,4.06418],[117.91508,4.06407],[117.91479,4.06268],[117.91541,4.06185],[117.91581,4.06139],[117.91605,4.06105],[117.91614,4.06076],[117.91584,4.06057],[117.9154,4.06044],[117.91505,4.06044],[117.91488,4.0603],[117.91486,4.06003],[117.91486,4.06003],[117.91509,4.05978],[117.91491,4.05967],[117.91475,4.05956],[117.91475,4.05936],[117.91486,4.05922],[117.91479,4.0592],[117.91459,4.05914],[117.91438,4.05898],[117.91418,4.0588],[117.91392,4.0582],[117.91108,4.0566],[117.90562,4.0539],[117.90519,4.0544],[117.90515,4.05469],[117.90522,4.05499],[117.90524,4.055],[117.90522,4.0551],[117.90199,4.05495],[117.90199,4.05513],[117.90132,4.05544],[117.90072,4.05582],[117.90022,4.05622],[117.89983,4.05685],[117.8996,4.05749],[117.89951,4.05805],[117.89953,4.05818],[117.89953,4.05818],[117.89924,4.05894],[117.89905,4.05928],[117.89893,4.05987],[117.8989,4.06028],[117.89907,4.06042],[117.89937,4.06108],[117.89982,4.06214],[117.90002,4.06249],[117.90021,4.06263],[117.90037,4.06275],[117.90061,4.06286],[117.90099,4.06288],[117.9014,4.06295],[117.90165,4.06299],[117.90237,4.06328],[117.9026,4.06335],[117.90273,4.06333],[117.903,4.06323],[117.90326,4.0632],[117.90347,4.06331],[117.90362,4.06339],[117.90369,4.06354],[117.90373,4.06374],[117.90368,4.06398],[117.90368,4.06429],[117.90374,4.06468],[117.904,4.06513],[117.90424,4.0653],[117.90443,4.06534],[117.90485,4.06532],[117.90522,4.0653],[117.90545,4.06532],[117.90601,4.06561],[117.90622,4.06568],[117.90644,4.06571],[117.90665,4.06567],[117.90697,4.06554],[117.90734,4.06538]]]]},"properties":{"kdprov":"65","kdkab":"04","kdkec":"130","kddesa":"002","kdsls":"0006","idsls":"65041300020006","nmprov":"KALIMANTAN UTARA","nmkab":"NUNUKAN","nmkec":"SEBATIK","nmdesa":"TANJUNG KARANG","nmsls":"RT 006"}},{"type":"Feature","geometry":{"type":"MultiPolygon","coordinates":[[[[117.91983,4.05661],[117.9197,4.0567],[117.91939,4.05696],[117.91914,4.05716],[117.91884,4.05737],[117.91855,4.05754],[117.91816,4.05772],[117.91795,4.05785],[117.91769,4.05812],[117.91744,4.05846],[117.91715,4.05873],[117.91689,4.05896],[117.91667,4.05904],[117.91637,4.05902],[117.91606,4.05912],[117.9156,4.05941],[117.91546,4.05954],[117.91532,4.05963],[117.91534,4.05962],[117.91581,4.05981],[117.91615,4.06011],[117.91642,4.06022],[117.91671,4.06016],[117.91694,4.06045],[117.91705,4.06047],[117.91734,4.06027],[117.91752,4.06028],[117.91784,4.06073],[117.91807,4.06072],[117.91824,4.06061],[117.91834,4.06064],[117.91846,4.06072],[117.91857,4.06093],[117.91876,4.06097],[117.91896,4.06079],[117.91908,4.0599],[117.91916,4.05967],[117.91935,4.05967],[117.91943,4.05975],[117.9196,4.05991],[117.91977,4.06004],[117.91991,4.05995],[117.92005,4.05973],[117.92025,4.05947],[117.92035,4.05931],[117.92052,4.05939],[117.92063,4.05964],[117.92073,4.06004],[117.92087,4.06022],[117.92118,4.06036],[117.92133,4.06039],[117.92145,4.06031],[117.92155,4.06016],[117.922,4.05982],[117.92161,4.05961],[117.92152,4.05937],[117.92152,4.05933],[117.92136,4.05942],[117.92126,4.05942],[117.92122,4.05934],[117.92122,4.05924],[117.92122,4.05913],[117.9213,4.05883],[117.9213,4.05869],[117.92119,4.05838],[117.92095,4.05785],[117.92074,4.05747],[117.92032,4.05692],[117.92024,4.05683],[117.92005,4.05663],[117.91996,4.05657],[117.91995,4.05657],[117.91983,4.05661]]]]},"properties":{"kdprov":"65","kdkab":"04","kdkec":"130","kddesa":"002","kdsls":"0007","idsls":"65041300020007","nmprov":"KALIMANTAN UTARA","nmkab":"NUNUKAN","nmkec":"SEBATIK","nmdesa":"TANJUNG KARANG","nmsls":"RT 007"}},{"type":"Feature","geometry":{"type":"MultiPolygon","coordinates":[[[[117.91291,4.06747],[117.91318,4.06554],[117.91458,4.06614],[117.91479,4.06621],[117.91496,4.06625],[117.91518,4.06625],[117.9157,4.0661],[117.91597,4.06603],[117.91627,4.06598],[117.91663,4.066],[117.91691,4.06604],[117.91722,4.06608],[117.91742,4.06611],[117.91771,4.06603],[117.91815,4.06594],[117.91846,4.06582],[117.91886,4.06577],[117.91919,4.06563],[117.91958,4.06543],[117.92017,4.06514],[117.92017,4.06513],[117.92003,4.06454],[117.91958,4.06263],[117.91956,4.06255],[117.91896,4.06311],[117.91827,4.06322],[117.91641,4.06378],[117.91508,4.06407],[117.91461,4.06418],[117.91392,4.06421],[117.91318,4.06392],[117.91247,4.06346],[117.91222,4.06345],[117.91194,4.06353],[117.91291,4.06749],[117.91291,4.06747]]]]},"properties":{"kdprov":"65","kdkab":"04","kdkec":"130","kddesa":"002","kdsls":"0002","idsls":"65041300020002","nmprov":"KALIMANTAN UTARA","nmkab":"NUNUKAN","nmkec":"SEBATIK","nmdesa":"TANJUNG KARANG","nmsls":"RT 002"}},{"type":"Feature","geometry":{"type":"MultiPolygon","coordinates":[[[[117.92397,4.06183],[117.92362,4.06206],[117.92326,4.06183],[117.92303,4.06167],[117.92237,4.06125],[117.92154,4.06077],[117.92144,4.06077],[117.92107,4.06086],[117.92074,4.06085],[117.92072,4.06145],[117.92053,4.06143],[117.92028,4.06149],[117.92011,4.0616],[117.91981,4.06207],[117.91956,4.06255],[117.91958,4.06263],[117.92003,4.06454],[117.92124,4.06328],[117.92156,4.06406],[117.92172,4.06434],[117.92213,4.06554],[117.9223,4.06608],[117.92278,4.06586],[117.92423,4.06523],[117.92499,4.06473],[117.92527,4.06448],[117.92532,4.06401],[117.92497,4.06346],[117.92497,4.06305],[117.92484,4.0628],[117.92483,4.06278],[117.92595,4.06195],[117.9256,4.06157],[117.92451,4.06242],[117.92446,4.06237],[117.92415,4.06207],[117.92435,4.06188],[117.92417,4.06176],[117.92402,4.0619],[117.92397,4.06183]]]]},"properties":{"kdprov":"65","kdkab":"04","kdkec":"130","kddesa":"002","kdsls":"0001","idsls":"65041300020001","nmprov":"KALIMANTAN UTARA","nmkab":"NUNUKAN","nmkec":"SEBATIK","nmdesa":"TANJUNG KARANG","nmsls":"RT 001"}},{"type":"Feature","geometry":{"type":"MultiPolygon","coordinates":[[[[117.84756,4.04693],[117.84869,4.04728],[117.84869,4.04727],[117.84928,4.04706],[117.84972,4.04697],[117.84992,4.04684],[117.84994,4.04647],[117.84995,4.04623],[117.85013,4.04624],[117.85016,4.0452],[117.85123,4.04418],[117.85193,4.0446],[117.85463,4.04262],[117.85463,4.04261],[117.85463,4.04261],[117.85349,4.04167],[117.85347,4.04166],[117.85048,4.03852],[117.84859,4.03626],[117.84535,4.03313],[117.84356,4.03438],[117.84248,4.03575],[117.84326,4.04289],[117.84326,4.0429],[117.8431,4.04319],[117.84308,4.04322],[117.84308,4.04323],[117.84309,4.0436],[117.84365,4.04378],[117.84405,4.04376],[117.84469,4.0436],[117.84547,4.04322],[117.84592,4.04322],[117.84632,4.04343],[117.84669,4.04385],[117.847,4.04404],[117.84702,4.04428],[117.84693,4.04505],[117.84686,4.04588],[117.84698,4.04641],[117.84725,4.04678],[117.84758,4.04688],[117.84756,4.04693]]]]},"properties":{"kdprov":"65","kdkab":"04","kdkec":"130","kddesa":"001","kdsls":"0003","idsls":"65041300010003","nmprov":"KALIMANTAN UTARA","nmkab":"NUNUKAN","nmkec":"SEBATIK","nmdesa":"BALANSIKU","nmsls":"RT 003"}},{"type":"Feature","geometry":{"type":"MultiPolygon","coordinates":[[[[117.85477,4.06514],[117.85485,4.06413],[117.85572,4.06418],[117.8559,4.06364],[117.85655,4.06295],[117.85749,4.06271],[117.85729,4.06136],[117.85726,4.0611],[117.85669,4.05908],[117.85721,4.05719],[117.85837,4.05554],[117.85841,4.05534],[117.85845,4.05486],[117.85837,4.05467],[117.85807,4.05403],[117.85782,4.05378],[117.85787,4.05347],[117.85804,4.05311],[117.8582,4.05292],[117.85811,4.0528],[117.85804,4.05283],[117.85795,4.05297],[117.85784,4.05304],[117.85768,4.05325],[117.85758,4.05314],[117.85751,4.05288],[117.85749,4.05287],[117.85728,4.05274],[117.85688,4.0524],[117.85667,4.05231],[117.85669,4.0522],[117.85674,4.05193],[117.85699,4.05178],[117.85702,4.05147],[117.85678,4.05135],[117.85645,4.05095],[117.85635,4.05065],[117.85592,4.04999],[117.85568,4.04932],[117.85473,4.05029],[117.85237,4.04864],[117.8521,4.04898],[117.85183,4.04935],[117.85162,4.04952],[117.8513,4.04997],[117.85112,4.05032],[117.85096,4.05046],[117.8509,4.05044],[117.85064,4.05048],[117.85005,4.05045],[117.84934,4.05046],[117.84898,4.05046],[117.84883,4.05037],[117.84842,4.04987],[117.84807,4.04953],[117.84783,4.04928],[117.84746,4.04899],[117.84729,4.04866],[117.84711,4.04839],[117.84698,4.0482],[117.84699,4.04818],[117.84764,4.04842],[117.84833,4.04849],[117.84846,4.04765],[117.84862,4.04749],[117.84869,4.04728],[117.84756,4.04693],[117.84758,4.04688],[117.84725,4.04678],[117.84698,4.04641],[117.84686,4.04588],[117.84693,4.04505],[117.84702,4.04428],[117.847,4.04404],[117.84669,4.04385],[117.84632,4.04343],[117.84592,4.04322],[117.84547,4.04322],[117.84469,4.0436],[117.84405,4.04376],[117.84365,4.04378],[117.84309,4.0436],[117.8431,4.04437],[117.8437,4.05283],[117.84567,4.06536],[117.84611,4.06538],[117.84652,4.06543],[117.84696,4.06521],[117.84747,4.06537],[117.84779,4.06539],[117.84843,4.06535],[117.84891,4.06557],[117.84953,4.06572],[117.84994,4.06566],[117.8503,4.06579],[117.85062,4.0657],[117.85101,4.06516],[117.85115,4.06507],[117.85158,4.06528],[117.85193,4.06556],[117.85237,4.06548],[117.85271,4.0657],[117.8533,4.06544],[117.85408,4.06511],[117.85443,4.06503],[117.85477,4.06514]]]]},"properties":{"kdprov":"65","kdkab":"04","kdkec":"130","kddesa":"001","kdsls":"0004","idsls":"65041300010004","nmprov":"KALIMANTAN UTARA","nmkab":"NUNUKAN","nmkec":"SEBATIK","nmdesa":"BALANSIKU","nmsls":"RT 004"}},{"type":"Feature","geometry":{"type":"MultiPolygon","coordinates":[[[[117.88714,4.07598],[117.88665,4.07551],[117.88623,4.07509],[117.88558,4.0745],[117.88566,4.07439],[117.88615,4.07396],[117.88618,4.07334],[117.88665,4.07239],[117.88689,4.07169],[117.88715,4.07109],[117.88792,4.07078],[117.8885,4.07059],[117.88887,4.07012],[117.88905,4.06959],[117.88906,4.06867],[117.88892,4.06812],[117.88896,4.06765],[117.88884,4.067],[117.88895,4.06653],[117.88918,4.06622],[117.88956,4.066],[117.88978,4.06585],[117.89069,4.06454],[117.89086,4.06449],[117.89151,4.06402],[117.89153,4.0638],[117.89157,4.06303],[117.8917,4.06268],[117.89179,4.06218],[117.89283,4.06142],[117.89352,4.06114],[117.89567,4.0604],[117.89576,4.06028],[117.89579,4.05994],[117.89542,4.05918],[117.89473,4.05833],[117.89381,4.05791],[117.89205,4.05775],[117.89132,4.05763],[117.89097,4.05782],[117.89091,4.05779],[117.89063,4.05786],[117.89035,4.05798],[117.88993,4.05803],[117.88968,4.05791],[117.88955,4.05772],[117.88952,4.05736],[117.88969,4.05673],[117.88967,4.05635],[117.88948,4.05592],[117.8891,4.05545],[117.8888,4.05507],[117.88786,4.05491],[117.88725,4.0547],[117.88644,4.05456],[117.88578,4.05425],[117.88516,4.05373],[117.88453,4.05282],[117.88441,4.05253],[117.88418,4.05236],[117.88375,4.05234],[117.88339,4.05235],[117.88322,4.05229],[117.88309,4.05214],[117.88294,4.05167],[117.88258,4.05142],[117.8824,4.0513],[117.88223,4.0512],[117.88212,4.05122],[117.88209,4.05146],[117.88211,4.05198],[117.88204,4.05235],[117.88196,4.05262],[117.88171,4.05285],[117.8815,4.05278],[117.88111,4.05262],[117.88073,4.05262],[117.88037,4.0527],[117.88005,4.05302],[117.87998,4.05316],[117.87982,4.05315],[117.87982,4.05315],[117.87853,4.05303],[117.87781,4.05409],[117.87668,4.05754],[117.87668,4.05755],[117.87602,4.0659],[117.87687,4.0754],[117.87718,4.08033],[117.88196,4.07841],[117.88714,4.07598]]]]},"properties":{"kdprov":"65","kdkab":"04","kdkec":"130","kddesa":"002","kdsls":"0010","idsls":"65041300020010","nmprov":"KALIMANTAN UTARA","nmkab":"NUNUKAN","nmkec":"SEBATIK","nmdesa":"TANJUNG KARANG","nmsls":"RT 010"}},{"type":"Feature","geometry":{"type":"MultiPolygon","coordinates":[[[[117.85985,4.06631],[117.859,4.06256],[117.85933,4.06252],[117.85927,4.06226],[117.85894,4.06231],[117.85893,4.0623],[117.85856,4.06202],[117.85812,4.06176],[117.85784,4.06164],[117.8576,4.06139],[117.85729,4.06136],[117.85749,4.06271],[117.85655,4.06295],[117.8559,4.06364],[117.85572,4.06418],[117.85485,4.06413],[117.85477,4.06514],[117.85443,4.06503],[117.85408,4.06511],[117.8533,4.06544],[117.85271,4.0657],[117.85237,4.06548],[117.85193,4.06556],[117.85158,4.06528],[117.85115,4.06507],[117.85101,4.06516],[117.85062,4.0657],[117.8503,4.06579],[117.84994,4.06566],[117.84953,4.06572],[117.84891,4.06557],[117.84843,4.06535],[117.84779,4.06539],[117.84747,4.06537],[117.84696,4.06521],[117.84652,4.06543],[117.84611,4.06538],[117.84567,4.06536],[117.84639,4.06995],[117.84773,4.07849],[117.84825,4.0818],[117.8485,4.08336],[117.84863,4.08423],[117.8487,4.08469],[117.84897,4.08518],[117.85105,4.08725],[117.85142,4.0903],[117.85165,4.09422],[117.85185,4.09858],[117.85185,4.09858],[117.85186,4.09863],[117.85221,4.09863],[117.85224,4.09863],[117.8541,4.09863],[117.85593,4.09863],[117.85964,4.09863],[117.86242,4.09863],[117.86403,4.09662],[117.86536,4.09496],[117.86964,4.0896],[117.86621,4.07459],[117.85985,4.06631]]]]},"properties":{"kdprov":"65","kdkab":"04","kdkec":"130","kddesa":"001","kdsls":"0008","idsls":"65041300010008","nmprov":"KALIMANTAN UTARA","nmkab":"NUNUKAN","nmkec":"SEBATIK","nmdesa":"BALANSIKU","nmsls":"RT 008"}},{"type":"Feature","geometry":{"type":"MultiPolygon","coordinates":[[[[117.85568,4.04932],[117.85634,4.04857],[117.85681,4.04864],[117.85697,4.04838],[117.85697,4.04838],[117.8555,4.04475],[117.85538,4.04344],[117.85467,4.04272],[117.85463,4.04262],[117.85193,4.0446],[117.85123,4.04418],[117.85016,4.0452],[117.85013,4.04624],[117.84995,4.04623],[117.84994,4.04647],[117.84992,4.04684],[117.84972,4.04697],[117.84928,4.04706],[117.84869,4.04727],[117.84869,4.04728],[117.84862,4.04749],[117.84846,4.04765],[117.84833,4.04849],[117.84764,4.04842],[117.84699,4.04818],[117.84698,4.0482],[117.84711,4.04839],[117.84729,4.04866],[117.84746,4.04899],[117.84783,4.04928],[117.84807,4.04953],[117.84842,4.04987],[117.84883,4.05037],[117.84898,4.05046],[117.84934,4.05046],[117.85005,4.05045],[117.85064,4.05048],[117.8509,4.05044],[117.85096,4.05046],[117.85112,4.05032],[117.8513,4.04997],[117.85162,4.04952],[117.85183,4.04935],[117.8521,4.04898],[117.85237,4.04864],[117.85473,4.05029],[117.85568,4.04932]]]]},"properties":{"kdprov":"65","kdkab":"04","kdkec":"130","kddesa":"001","kdsls":"0005","idsls":"65041300010005","nmprov":"KALIMANTAN UTARA","nmkab":"NUNUKAN","nmkec":"SEBATIK","nmdesa":"BALANSIKU","nmsls":"RT 005"}},{"type":"Feature","geometry":{"type":"MultiPolygon","coordinates":[[[[117.8824,4.0513],[117.88263,4.05114],[117.88319,4.05091],[117.88679,4.05078],[117.8872,4.05082],[117.88771,4.05072],[117.88822,4.0505],[117.88875,4.05027],[117.88909,4.04974],[117.88958,4.04938],[117.89499,4.04131],[117.89407,4.04011],[117.88978,4.03869],[117.88811,4.04014],[117.88788,4.04005],[117.88769,4.04],[117.88731,4.03997],[117.88691,4.03999],[117.88673,4.04001],[117.88663,4.04002],[117.88658,4.04],[117.88376,4.03987],[117.88167,4.04082],[117.88096,4.04165],[117.8809,4.0432],[117.88061,4.04753],[117.88044,4.05011],[117.88042,4.05028],[117.87853,4.05303],[117.87982,4.05315],[117.87982,4.05315],[117.87998,4.05316],[117.88005,4.05302],[117.88037,4.0527],[117.88073,4.05262],[117.88111,4.05262],[117.8815,4.05278],[117.88171,4.05285],[117.88196,4.05262],[117.88204,4.05235],[117.88211,4.05198],[117.88209,4.05146],[117.88212,4.05122],[117.88223,4.0512],[117.8824,4.0513]]]]},"properties":{"kdprov":"65","kdkab":"04","kdkec":"130","kddesa":"002","kdsls":"0012","idsls":"65041300020012","nmprov":"KALIMANTAN UTARA","nmkab":"NUNUKAN","nmkec":"SEBATIK","nmdesa":"TANJUNG KARANG","nmsls":"RT 012"}},{"type":"Feature","geometry":{"type":"MultiPolygon","coordinates":[[[[117.86773,4.04872],[117.86615,4.04043],[117.86647,4.03705],[117.86628,4.03519],[117.86632,4.03117],[117.8662,4.02883],[117.86394,4.02819],[117.86013,4.02782],[117.85626,4.02787],[117.85102,4.02948],[117.84725,4.0315],[117.84535,4.03313],[117.84859,4.03626],[117.85048,4.03852],[117.85347,4.04166],[117.85349,4.04167],[117.85463,4.04261],[117.85463,4.04261],[117.85463,4.04262],[117.85467,4.04272],[117.85538,4.04344],[117.8555,4.04475],[117.85697,4.04838],[117.85697,4.04838],[117.85755,4.04794],[117.85764,4.04757],[117.85784,4.04721],[117.85819,4.04712],[117.85854,4.04727],[117.85864,4.04745],[117.85887,4.04762],[117.85967,4.04859],[117.86113,4.04857],[117.86137,4.04882],[117.86204,4.04915],[117.86235,4.04897],[117.86257,4.04898],[117.86278,4.04912],[117.86318,4.04905],[117.8634,4.04905],[117.86404,4.04892],[117.86462,4.04901],[117.86773,4.04872]]]]},"properties":{"kdprov":"65","kdkab":"04","kdkec":"130","kddesa":"001","kdsls":"0002","idsls":"65041300010002","nmprov":"KALIMANTAN UTARA","nmkab":"NUNUKAN","nmkec":"SEBATIK","nmdesa":"BALANSIKU","nmsls":"RT 002"}},{"type":"Feature","geometry":{"type":"MultiPolygon","coordinates":[[[[117.8989,4.06028],[117.89893,4.05987],[117.89905,4.05928],[117.89924,4.05894],[117.89953,4.05818],[117.89953,4.05818],[117.89951,4.05805],[117.8996,4.05749],[117.89983,4.05685],[117.90022,4.05622],[117.90072,4.05582],[117.90132,4.05544],[117.90199,4.05513],[117.90199,4.05495],[117.90199,4.05454],[117.9021,4.054],[117.90227,4.05356],[117.90256,4.05291],[117.90263,4.05247],[117.90309,4.05094],[117.90382,4.0499],[117.90487,4.04913],[117.9062,4.04865],[117.90622,4.04864],[117.90338,4.03996],[117.90332,4.03996],[117.90141,4.04002],[117.89908,4.04036],[117.89751,4.04074],[117.89714,4.04082],[117.89559,4.04084],[117.89499,4.04131],[117.88958,4.04938],[117.88909,4.04974],[117.88875,4.05027],[117.88822,4.0505],[117.88771,4.05072],[117.8872,4.05082],[117.88679,4.05078],[117.88319,4.05091],[117.88263,4.05114],[117.8824,4.0513],[117.88258,4.05142],[117.88294,4.05167],[117.88309,4.05214],[117.88322,4.05229],[117.88339,4.05235],[117.88375,4.05234],[117.88418,4.05236],[117.88441,4.05253],[117.88453,4.05282],[117.88516,4.05373],[117.88578,4.05425],[117.88644,4.05456],[117.88725,4.0547],[117.88786,4.05491],[117.8888,4.05507],[117.8891,4.05545],[117.88948,4.05592],[117.88967,4.05635],[117.88969,4.05673],[117.88952,4.05736],[117.88955,4.05772],[117.88968,4.05791],[117.88993,4.05803],[117.89035,4.05798],[117.89063,4.05786],[117.89091,4.05779],[117.89097,4.05782],[117.89132,4.05763],[117.89205,4.05775],[117.89381,4.05791],[117.89473,4.05833],[117.89542,4.05918],[117.89579,4.05994],[117.89576,4.06028],[117.89576,4.06028],[117.89583,4.0603],[117.89597,4.06034],[117.89618,4.06036],[117.89689,4.06055],[117.89715,4.0606],[117.89729,4.06057],[117.89744,4.06046],[117.89787,4.06013],[117.8981,4.05998],[117.89837,4.05999],[117.89879,4.06018],[117.8989,4.06028]]]]},"properties":{"kdprov":"65","kdkab":"04","kdkec":"130","kddesa":"002","kdsls":"0011","idsls":"65041300020011","nmprov":"KALIMANTAN UTARA","nmkab":"NUNUKAN","nmkec":"SEBATIK","nmdesa":"TANJUNG KARANG","nmsls":"RT 011"}},{"type":"Feature","geometry":{"type":"MultiPolygon","coordinates":[[[[117.86773,4.04872],[117.88061,4.04753],[117.8809,4.0432],[117.88096,4.04165],[117.88167,4.04082],[117.88376,4.03987],[117.88658,4.04],[117.88663,4.04002],[117.88673,4.04001],[117.88691,4.03999],[117.88731,4.03997],[117.88769,4.04],[117.88788,4.04005],[117.88811,4.04014],[117.88978,4.03869],[117.88827,4.03814],[117.88537,4.03647],[117.88289,4.03435],[117.88091,4.03205],[117.87777,4.03049],[117.8739,4.02929],[117.87098,4.02865],[117.86912,4.02844],[117.86815,4.0286],[117.86721,4.02895],[117.8662,4.02883],[117.86632,4.03117],[117.86628,4.03519],[117.86647,4.03705],[117.86615,4.04043],[117.86773,4.04872]]]]},"properties":{"kdprov":"65","kdkab":"04","kdkec":"130","kddesa":"001","kdsls":"0001","idsls":"65041300010001","nmprov":"KALIMANTAN UTARA","nmkab":"NUNUKAN","nmkec":"SEBATIK","nmdesa":"BALANSIKU","nmsls":"RT 001"}},{"type":"Feature","geometry":{"type":"MultiPolygon","coordinates":[[[[117.86985,4.05879],[117.8685,4.05806],[117.86847,4.058],[117.86874,4.05776],[117.86945,4.05771],[117.86945,4.05771],[117.87666,4.05754],[117.87668,4.05754],[117.87781,4.05409],[117.87853,4.05303],[117.88042,4.05028],[117.88044,4.05011],[117.88061,4.04753],[117.86773,4.04872],[117.86462,4.04901],[117.86404,4.04892],[117.8634,4.04905],[117.86318,4.04905],[117.86278,4.04912],[117.86257,4.04898],[117.86235,4.04897],[117.86204,4.04915],[117.86137,4.04882],[117.86113,4.04857],[117.85967,4.04859],[117.85887,4.04762],[117.85864,4.04745],[117.85854,4.04727],[117.85819,4.04712],[117.85784,4.04721],[117.85764,4.04757],[117.85755,4.04794],[117.85697,4.04838],[117.85681,4.04864],[117.85659,4.04897],[117.857,4.04916],[117.85735,4.04959],[117.85746,4.04981],[117.85706,4.05019],[117.85745,4.05056],[117.85729,4.05091],[117.85748,4.05145],[117.85766,4.05183],[117.85798,4.05207],[117.85783,4.05224],[117.85799,4.05238],[117.85816,4.0522],[117.85882,4.05271],[117.85924,4.05352],[117.85878,4.05371],[117.85901,4.05412],[117.85944,4.05389],[117.85975,4.05448],[117.86002,4.05486],[117.85996,4.05536],[117.85957,4.05631],[117.85937,4.05655],[117.8592,4.05661],[117.85912,4.05681],[117.85927,4.05699],[117.85912,4.05789],[117.85853,4.05788],[117.85853,4.05829],[117.85893,4.05826],[117.85891,4.05837],[117.85892,4.05839],[117.86468,4.05802],[117.86491,4.05831],[117.86525,4.05829],[117.86559,4.05852],[117.8691,4.06109],[117.8702,4.05967],[117.8698,4.05928],[117.86985,4.05879]]]]},"properties":{"kdprov":"65","kdkab":"04","kdkec":"130","kddesa":"001","kdsls":"0006","idsls":"65041300010006","nmprov":"KALIMANTAN UTARA","nmkab":"NUNUKAN","nmkec":"SEBATIK","nmdesa":"BALANSIKU","nmsls":"RT 006"}},{"type":"Feature","geometry":{"type":"MultiPolygon","coordinates":[[[[117.85894,4.06231],[117.85927,4.06226],[117.85933,4.06252],[117.859,4.06256],[117.85985,4.06631],[117.86621,4.07459],[117.86964,4.0896],[117.87235,4.08622],[117.87253,4.08364],[117.87415,4.08155],[117.87689,4.08044],[117.87718,4.08033],[117.87687,4.0754],[117.87602,4.0659],[117.87668,4.05755],[117.87668,4.05754],[117.87666,4.05754],[117.86945,4.05771],[117.86945,4.05771],[117.86874,4.05776],[117.86847,4.058],[117.8685,4.05806],[117.86985,4.05879],[117.8698,4.05928],[117.8702,4.05967],[117.8691,4.06109],[117.86559,4.05852],[117.86525,4.05829],[117.86491,4.05831],[117.86468,4.05802],[117.85892,4.05839],[117.85891,4.05837],[117.85893,4.05826],[117.85853,4.05829],[117.85853,4.05788],[117.85912,4.05789],[117.85927,4.05699],[117.85912,4.05681],[117.8592,4.05661],[117.85937,4.05655],[117.85957,4.05631],[117.85996,4.05536],[117.86002,4.05486],[117.85975,4.05448],[117.85944,4.05389],[117.85901,4.05412],[117.85878,4.05371],[117.85924,4.05352],[117.85882,4.05271],[117.85816,4.0522],[117.85799,4.05238],[117.85783,4.05224],[117.85798,4.05207],[117.85766,4.05183],[117.85748,4.05145],[117.85729,4.05091],[117.85745,4.05056],[117.85706,4.05019],[117.85746,4.04981],[117.85735,4.04959],[117.857,4.04916],[117.85659,4.04897],[117.85681,4.04864],[117.85634,4.04857],[117.85568,4.04932],[117.85592,4.04999],[117.85635,4.05065],[117.85645,4.05095],[117.85678,4.05135],[117.85702,4.05147],[117.85699,4.05178],[117.85674,4.05193],[117.85669,4.0522],[117.85667,4.05231],[117.85688,4.0524],[117.85728,4.05274],[117.85749,4.05287],[117.85751,4.05288],[117.85758,4.05314],[117.85768,4.05325],[117.85784,4.05304],[117.85795,4.05297],[117.85804,4.05283],[117.85811,4.0528],[117.8582,4.05292],[117.85804,4.05311],[117.85787,4.05347],[117.85782,4.05378],[117.85807,4.05403],[117.85837,4.05467],[117.85845,4.05486],[117.85841,4.05534],[117.85837,4.05554],[117.85721,4.05719],[117.85669,4.05908],[117.85726,4.0611],[117.85729,4.06136],[117.8576,4.06139],[117.85784,4.06164],[117.85812,4.06176],[117.85856,4.06202],[117.85893,4.0623],[117.85894,4.06231]]]]},"properties":{"kdprov":"65","kdkab":"04","kdkec":"130","kddesa":"001","kdsls":"0007","idsls":"65041300010007","nmprov":"KALIMANTAN UTARA","nmkab":"NUNUKAN","nmkec":"SEBATIK","nmdesa":"BALANSIKU","nmsls":"RT 007"}},{"type":"Feature","geometry":{"type":"MultiPolygon","coordinates":[[[[117.91337,4.05299],[117.91377,4.05258],[117.91392,4.05249],[117.91414,4.05254],[117.91418,4.05244],[117.91426,4.05236],[117.91446,4.05238],[117.91456,4.05242],[117.91473,4.05238],[117.91489,4.05241],[117.91524,4.05237],[117.91497,4.05219],[117.91461,4.05199],[117.91455,4.05186],[117.91451,4.05165],[117.91427,4.05116],[117.91403,4.05084],[117.9137,4.05044],[117.91353,4.0503],[117.91349,4.05022],[117.91336,4.04981],[117.91313,4.049],[117.9131,4.04886],[117.91309,4.04854],[117.91311,4.04815],[117.91307,4.04798],[117.91294,4.04778],[117.91264,4.04751],[117.91245,4.04723],[117.91232,4.0469],[117.91215,4.04629],[117.91209,4.04601],[117.91185,4.04558],[117.91148,4.04491],[117.91146,4.04477],[117.91136,4.04491],[117.91129,4.04491],[117.91093,4.04483],[117.91061,4.04453],[117.91036,4.04425],[117.9103,4.04421],[117.91008,4.04403],[117.90965,4.04375],[117.9093,4.04355],[117.90887,4.0433],[117.90855,4.04297],[117.90781,4.04237],[117.90724,4.04191],[117.90689,4.04164],[117.90685,4.0416],[117.90668,4.04152],[117.90591,4.04111],[117.90516,4.04064],[117.90469,4.04026],[117.90446,4.03999],[117.9044,4.03999],[117.90414,4.04001],[117.90338,4.03996],[117.90622,4.04864],[117.9062,4.04865],[117.90487,4.04913],[117.90382,4.0499],[117.90309,4.05094],[117.90263,4.05247],[117.90256,4.05291],[117.90227,4.05356],[117.9021,4.054],[117.90199,4.05454],[117.90199,4.05495],[117.90522,4.0551],[117.90524,4.055],[117.90522,4.05499],[117.90515,4.05469],[117.90519,4.0544],[117.90562,4.0539],[117.91108,4.0566],[117.91099,4.05655],[117.91163,4.05566],[117.91192,4.05552],[117.91231,4.055],[117.91237,4.05473],[117.9125,4.05412],[117.91275,4.05369],[117.91292,4.05328],[117.91316,4.05301],[117.91318,4.05304],[117.91324,4.05311],[117.91337,4.05299]]]]},"properties":{"kdprov":"65","kdkab":"04","kdkec":"130","kddesa":"002","kdsls":"0009","idsls":"65041300020009","nmprov":"KALIMANTAN UTARA","nmkab":"NUNUKAN","nmkec":"SEBATIK","nmdesa":"TANJUNG KARANG","nmsls":"RT 009"}}]}