{"type":"FeatureCollection","features":[{"type":"Feature","geometry":{"type":"MultiPolygon","coordinates":[[[[117.92065,4.11728],[117.92101,4.11723],[117.92172,4.11705],[117.92199,4.11755],[117.92285,4.11723],[117.92272,4.11652],[117.92245,4.11542],[117.92228,4.11435],[117.92213,4.11316],[117.92212,4.11316],[117.92155,4.11325],[117.92078,4.11339],[117.9203,4.11349],[117.92036,4.1141],[117.92045,4.11449],[117.92059,4.11498],[117.92061,4.11523],[117.92075,4.1168],[117.92071,4.11714],[117.92065,4.11728]]]]},"properties":{"kdprov":"65","kdkab":"04","kdkec":"140","kddesa":"004","kdsls":"0014","idsls":"65041400040014","nmprov":"KALIMANTAN UTARA","nmkab":"NUNUKAN","nmkec":"SEBATIK TIMUR","nmdesa":"TANJUNG ARU","nmsls":"RT 014 DUSUN MEKAR"}},{"type":"Feature","geometry":{"type":"MultiPolygon","coordinates":[[[[117.92025,4.11888],[117.92412,4.11737],[117.92302,4.1178],[117.923,4.11773],[117.92285,4.11723],[117.92199,4.11755],[117.92172,4.11705],[117.92101,4.11723],[117.92065,4.11728],[117.92058,4.11748],[117.92018,4.11784],[117.92009,4.11806],[117.92009,4.11877],[117.92009,4.11905],[117.92019,4.11891],[117.92025,4.11888]]]]},"properties":{"kdprov":"65","kdkab":"04","kdkec":"140","kddesa":"004","kdsls":"0015","idsls":"65041400040015","nmprov":"KALIMANTAN UTARA","nmkab":"NUNUKAN","nmkec":"SEBATIK TIMUR","nmdesa":"TANJUNG ARU","nmsls":"RT 015 DUSUN MEKAR"}},{"type":"Feature","geometry":{"type":"MultiPolygon","coordinates":[[[[117.92065,4.11728],[117.92071,4.11714],[117.92075,4.1168],[117.92061,4.11523],[117.92059,4.11498],[117.92045,4.11449],[117.92036,4.1141],[117.9203,4.11349],[117.9195,4.1136],[117.91707,4.11353],[117.91524,4.11365],[117.91478,4.1138],[117.91383,4.11351],[117.91249,4.11538],[117.91694,4.11855],[117.91694,4.11855],[117.92007,4.11905],[117.92009,4.11905],[117.92009,4.11877],[117.92009,4.11806],[117.92018,4.11784],[117.92058,4.11748],[117.92065,4.11728]]]]},"properties":{"kdprov":"65","kdkab":"04","kdkec":"140","kddesa":"004","kdsls":"0013","idsls":"65041400040013","nmprov":"KALIMANTAN UTARA","nmkab":"NUNUKAN","nmkec":"SEBATIK TIMUR","nmdesa":"TANJUNG ARU","nmsls":"RT 013 DUSUN MEKAR"}},{"type":"Feature","geometry":{"type":"MultiPolygon","coordinates":[[[[117.91818,4.10602],[117.91834,4.10621],[117.91864,4.10657],[117.91892,4.10699],[117.91918,4.10688],[117.91939,4.10681],[117.91965,4.10681],[117.92022,4.10677],[117.92077,4.10671],[117.92142,4.10654],[117.92212,4.10633],[117.92208,4.10626],[117.9219,4.1061],[117.92167,4.1059],[117.92149,4.1058],[117.92151,4.10591],[117.92149,4.10608],[117.9214,4.10619],[117.92126,4.10619],[117.92076,4.10542],[117.92043,4.10498],[117.92037,4.10482],[117.92027,4.10451],[117.92006,4.10435],[117.91969,4.10443],[117.91963,4.10507],[117.91995,4.10577],[117.91995,4.10631],[117.91945,4.10654],[117.91869,4.10617],[117.9182,4.106],[117.91818,4.10602]]]]},"properties":{"kdprov":"65","kdkab":"04","kdkec":"140","kddesa":"004","kdsls":"0001","idsls":"65041400040001","nmprov":"KALIMANTAN UTARA","nmkab":"NUNUKAN","nmkec":"SEBATIK TIMUR","nmdesa":"TANJUNG ARU","nmsls":"RT 001 DUSUN DUSUN PANTAI INDAH"}},{"type":"Feature","geometry":{"type":"MultiPolygon","coordinates":[[[[117.91972,4.10822],[117.91933,4.10766],[117.91892,4.10699],[117.91864,4.10657],[117.91834,4.10621],[117.91818,4.10602],[117.91791,4.10626],[117.91784,4.10655],[117.9177,4.10678],[117.91795,4.10778],[117.9176,4.10784],[117.91781,4.1081],[117.91874,4.10795],[117.91909,4.10853],[117.9194,4.10922],[117.91997,4.10893],[117.92019,4.10888],[117.91972,4.10822]]]]},"properties":{"kdprov":"65","kdkab":"04","kdkec":"140","kddesa":"004","kdsls":"0005","idsls":"65041400040005","nmprov":"KALIMANTAN UTARA","nmkab":"NUNUKAN","nmkec":"SEBATIK TIMUR","nmdesa":"TANJUNG ARU","nmsls":"RT 005 DUSUN DUSUN SUNGAI BAJAU INDAH"}},{"type":"Feature","geometry":{"type":"MultiPolygon","coordinates":[[[[117.91892,4.10699],[117.91933,4.10766],[117.91972,4.10822],[117.92019,4.10888],[117.92046,4.10867],[117.92076,4.10841],[117.92082,4.10835],[117.92124,4.10822],[117.92154,4.10815],[117.92235,4.108],[117.92234,4.10733],[117.92232,4.10691],[117.92224,4.10662],[117.92212,4.10633],[117.92142,4.10654],[117.92077,4.10671],[117.92022,4.10677],[117.91965,4.10681],[117.91939,4.10681],[117.91918,4.10688],[117.91892,4.10699]]]]},"properties":{"kdprov":"65","kdkab":"04","kdkec":"140","kddesa":"004","kdsls":"0002","idsls":"65041400040002","nmprov":"KALIMANTAN UTARA","nmkab":"NUNUKAN","nmkec":"SEBATIK TIMUR","nmdesa":"TANJUNG ARU","nmsls":"RT 002 DUSUN DUSUN PANTAI INDAH"}},{"type":"Feature","geometry":{"type":"MultiPolygon","coordinates":[[[[117.9138,4.10964],[117.91386,4.10962],[117.91389,4.10963],[117.91389,4.10964],[117.91462,4.10962],[117.91592,4.10958],[117.91716,4.10954],[117.91726,4.10954],[117.91787,4.10948],[117.91834,4.10949],[117.91849,4.10948],[117.91846,4.10923],[117.91847,4.1091],[117.91841,4.10885],[117.91754,4.10901],[117.91747,4.10901],[117.91725,4.10909],[117.91673,4.10916],[117.91608,4.10915],[117.91615,4.10767],[117.91463,4.10762],[117.91392,4.10905],[117.91392,4.1091],[117.91318,4.1091],[117.9132,4.10966],[117.91357,4.10967],[117.9138,4.10964]]]]},"properties":{"kdprov":"65","kdkab":"04","kdkec":"140","kddesa":"004","kdsls":"0007","idsls":"65041400040007","nmprov":"KALIMANTAN UTARA","nmkab":"NUNUKAN","nmkec":"SEBATIK TIMUR","nmdesa":"TANJUNG ARU","nmsls":"RT 007 DUSUN DUSUN SUNGAI BAJAU INDAH"}},{"type":"Feature","geometry":{"type":"MultiPolygon","coordinates":[[[[117.91874,4.10795],[117.91781,4.1081],[117.91841,4.10885],[117.91847,4.1091],[117.91846,4.10923],[117.91849,4.10948],[117.91872,4.10947],[117.9189,4.10944],[117.91916,4.10933],[117.9194,4.10922],[117.91909,4.10853],[117.91874,4.10795]]]]},"properties":{"kdprov":"65","kdkab":"04","kdkec":"140","kddesa":"004","kdsls":"0006","idsls":"65041400040006","nmprov":"KALIMANTAN UTARA","nmkab":"NUNUKAN","nmkec":"SEBATIK TIMUR","nmdesa":"TANJUNG ARU","nmsls":"RT 006 DUSUN DUSUN SUNGAI BAJAU INDAH"}},{"type":"Feature","geometry":{"type":"MultiPolygon","coordinates":[[[[117.92019,4.10888],[117.9203,4.10912],[117.92028,4.10926],[117.92018,4.1096],[117.92015,4.10986],[117.9202,4.11031],[117.92024,4.11102],[117.92058,4.11104],[117.92092,4.11104],[117.9215,4.11095],[117.92169,4.11089],[117.92196,4.11084],[117.92243,4.1108],[117.9226,4.11078],[117.92258,4.1106],[117.92258,4.11051],[117.92255,4.11011],[117.92242,4.10925],[117.92242,4.10896],[117.92235,4.10852],[117.92235,4.108],[117.92154,4.10815],[117.92124,4.10822],[117.92082,4.10835],[117.92076,4.10841],[117.92046,4.10867],[117.92019,4.10888]]]]},"properties":{"kdprov":"65","kdkab":"04","kdkec":"140","kddesa":"004","kdsls":"0003","idsls":"65041400040003","nmprov":"KALIMANTAN UTARA","nmkab":"NUNUKAN","nmkec":"SEBATIK TIMUR","nmdesa":"TANJUNG ARU","nmsls":"RT 003 DUSUN DUSUN PANTAI INDAH"}},{"type":"Feature","geometry":{"type":"MultiPolygon","coordinates":[[[[117.91762,4.1103],[117.91837,4.11018],[117.91895,4.11004],[117.9203,4.10912],[117.92019,4.10888],[117.91997,4.10893],[117.9194,4.10922],[117.91916,4.10933],[117.9189,4.10944],[117.91872,4.10947],[117.91849,4.10948],[117.91834,4.10949],[117.91787,4.10948],[117.91726,4.10954],[117.91716,4.10954],[117.91722,4.11039],[117.91762,4.1103]]]]},"properties":{"kdprov":"65","kdkab":"04","kdkec":"140","kddesa":"004","kdsls":"0011","idsls":"65041400040011","nmprov":"KALIMANTAN UTARA","nmkab":"NUNUKAN","nmkec":"SEBATIK TIMUR","nmdesa":"TANJUNG ARU","nmsls":"RT 011 DUSUN PADAELO"}},{"type":"Feature","geometry":{"type":"MultiPolygon","coordinates":[[[[117.91707,4.11353],[117.9195,4.1136],[117.9203,4.11349],[117.92028,4.11309],[117.92025,4.11155],[117.92024,4.11102],[117.9202,4.11031],[117.92015,4.10986],[117.92018,4.1096],[117.92028,4.10926],[117.9203,4.10912],[117.91895,4.11004],[117.91837,4.11018],[117.91762,4.1103],[117.91707,4.11353]]]]},"properties":{"kdprov":"65","kdkab":"04","kdkec":"140","kddesa":"004","kdsls":"0012","idsls":"65041400040012","nmprov":"KALIMANTAN UTARA","nmkab":"NUNUKAN","nmkec":"SEBATIK TIMUR","nmdesa":"TANJUNG ARU","nmsls":"RT 012 DUSUN PADAELO"}},{"type":"Feature","geometry":{"type":"MultiPolygon","coordinates":[[[[117.91383,4.11351],[117.91478,4.1138],[117.91524,4.11365],[117.91707,4.11353],[117.91762,4.1103],[117.91722,4.11039],[117.91716,4.10954],[117.91592,4.10958],[117.91462,4.10962],[117.91461,4.10965],[117.91383,4.11351]]]]},"properties":{"kdprov":"65","kdkab":"04","kdkec":"140","kddesa":"004","kdsls":"0010","idsls":"65041400040010","nmprov":"KALIMANTAN UTARA","nmkab":"NUNUKAN","nmkec":"SEBATIK TIMUR","nmdesa":"TANJUNG ARU","nmsls":"RT 010 DUSUN PADAELO"}},{"type":"Feature","geometry":{"type":"MultiPolygon","coordinates":[[[[117.92213,4.11316],[117.92307,4.11305],[117.923,4.11257],[117.92292,4.11213],[117.92279,4.11172],[117.92263,4.11114],[117.9226,4.11078],[117.92243,4.1108],[117.92196,4.11084],[117.92169,4.11089],[117.9215,4.11095],[117.92092,4.11104],[117.92058,4.11104],[117.92024,4.11102],[117.92025,4.11155],[117.92028,4.11309],[117.9203,4.11349],[117.92078,4.11339],[117.92155,4.11325],[117.92212,4.11316],[117.92213,4.11316]]]]},"properties":{"kdprov":"65","kdkab":"04","kdkec":"140","kddesa":"004","kdsls":"0004","idsls":"65041400040004","nmprov":"KALIMANTAN UTARA","nmkab":"NUNUKAN","nmkec":"SEBATIK TIMUR","nmdesa":"TANJUNG ARU","nmsls":"RT 004 DUSUN DUSUN PANTAI INDAH"}},{"type":"Feature","geometry":{"type":"MultiPolygon","coordinates":[[[[117.92285,4.11723],[117.923,4.11773],[117.92302,4.1178],[117.92412,4.11737],[117.92399,4.11699],[117.92383,4.11663],[117.92378,4.11611],[117.92375,4.11577],[117.9236,4.11483],[117.92347,4.11442],[117.92331,4.11408],[117.92313,4.11359],[117.92308,4.11312],[117.92307,4.11305],[117.92213,4.11316],[117.92228,4.11435],[117.92245,4.11542],[117.92272,4.11652],[117.92285,4.11723]]]]},"properties":{"kdprov":"65","kdkab":"04","kdkec":"140","kddesa":"004","kdsls":"0016","idsls":"65041400040016","nmprov":"KALIMANTAN UTARA","nmkab":"NUNUKAN","nmkec":"SEBATIK TIMUR","nmdesa":"TANJUNG ARU","nmsls":"RT 016 DUSUN MEKAR"}},{"type":"Feature","geometry":{"type":"MultiPolygon","coordinates":[[[[117.91963,4.12216],[117.91962,4.12215],[117.92016,4.12042],[117.92017,4.12003],[117.92009,4.11905],[117.92007,4.11905],[117.91694,4.11855],[117.91694,4.11855],[117.91694,4.11855],[117.91647,4.1204],[117.91448,4.12313],[117.91433,4.12334],[117.91469,4.12344],[117.91898,4.12457],[117.91901,4.12458],[117.91901,4.12458],[117.91907,4.12427],[117.91923,4.12355],[117.91963,4.12216]]]]},"properties":{"kdprov":"65","kdkab":"04","kdkec":"140","kddesa":"003","kdsls":"0010","idsls":"65041400030010","nmprov":"KALIMANTAN UTARA","nmkab":"NUNUKAN","nmkec":"SEBATIK TIMUR","nmdesa":"BUKIT ARU INDAH","nmsls":"RT 010 DUSUN HAMPARAN"}},{"type":"Feature","geometry":{"type":"MultiPolygon","coordinates":[[[[117.9117,4.12178],[117.91129,4.12149],[117.91105,4.12145],[117.91086,4.12133],[117.91057,4.12117],[117.91051,4.12105],[117.91035,4.12133],[117.91044,4.12141],[117.9103,4.12167],[117.91002,4.12144],[117.90964,4.12134],[117.90939,4.1213],[117.90938,4.12134],[117.90917,4.12127],[117.90905,4.12164],[117.90929,4.12174],[117.90897,4.12323],[117.9101,4.1235],[117.90931,4.12494],[117.91189,4.12537],[117.91234,4.12371],[117.91239,4.12315],[117.91261,4.12249],[117.91253,4.12231],[117.9117,4.12178]]]]},"properties":{"kdprov":"65","kdkab":"04","kdkec":"140","kddesa":"003","kdsls":"0015","idsls":"65041400030015","nmprov":"KALIMANTAN UTARA","nmkab":"NUNUKAN","nmkec":"SEBATIK TIMUR","nmdesa":"BUKIT ARU INDAH","nmsls":"RT 015 DUSUN KAMPUNG BARU"}},{"type":"Feature","geometry":{"type":"MultiPolygon","coordinates":[[[[117.91457,4.124],[117.91451,4.12387],[117.91469,4.12344],[117.91433,4.12334],[117.91448,4.12313],[117.91274,4.12224],[117.91267,4.12251],[117.91261,4.12249],[117.91239,4.12315],[117.91234,4.12371],[117.91189,4.12537],[117.91405,4.12572],[117.91441,4.12402],[117.91457,4.124]]]]},"properties":{"kdprov":"65","kdkab":"04","kdkec":"140","kddesa":"003","kdsls":"0014","idsls":"65041400030014","nmprov":"KALIMANTAN UTARA","nmkab":"NUNUKAN","nmkec":"SEBATIK TIMUR","nmdesa":"BUKIT ARU INDAH","nmsls":"RT 014 DUSUN KAMPUNG BARU"}},{"type":"Feature","geometry":{"type":"MultiPolygon","coordinates":[[[[117.9205,4.12497],[117.92048,4.12414],[117.92048,4.12322],[117.92163,4.12321],[117.92163,4.12268],[117.92144,4.12266],[117.92133,4.12232],[117.92025,4.11888],[117.92019,4.11891],[117.92009,4.11905],[117.92017,4.12003],[117.92016,4.12042],[117.91962,4.12215],[117.91963,4.12216],[117.91923,4.12355],[117.91907,4.12427],[117.91901,4.12458],[117.91901,4.12458],[117.91898,4.12474],[117.91892,4.12497],[117.91896,4.12498],[117.91896,4.12498],[117.91921,4.12503],[117.91959,4.12519],[117.9197,4.12527],[117.91997,4.1249],[117.9205,4.12497]]]]},"properties":{"kdprov":"65","kdkab":"04","kdkec":"140","kddesa":"003","kdsls":"0009","idsls":"65041400030009","nmprov":"KALIMANTAN UTARA","nmkab":"NUNUKAN","nmkec":"SEBATIK TIMUR","nmdesa":"BUKIT ARU INDAH","nmsls":"RT 009 DUSUN HAMPARAN"}},{"type":"Feature","geometry":{"type":"MultiPolygon","coordinates":[[[[117.92537,4.12235],[117.92519,4.12192],[117.9249,4.12119],[117.92485,4.12059],[117.92479,4.1202],[117.92479,4.12005],[117.92479,4.11976],[117.92485,4.1194],[117.92484,4.11904],[117.92466,4.11854],[117.9244,4.11815],[117.92412,4.11737],[117.92025,4.11888],[117.92133,4.12232],[117.92144,4.12266],[117.92163,4.12268],[117.92193,4.12271],[117.92197,4.12271],[117.92283,4.12274],[117.92338,4.12272],[117.92441,4.12256],[117.92537,4.12235]]]]},"properties":{"kdprov":"65","kdkab":"04","kdkec":"140","kddesa":"003","kdsls":"0001","idsls":"65041400030001","nmprov":"KALIMANTAN UTARA","nmkab":"NUNUKAN","nmkec":"SEBATIK TIMUR","nmdesa":"BUKIT ARU INDAH","nmsls":"RT 001 DUSUN RAWAH INDAH"}},{"type":"Feature","geometry":{"type":"MultiPolygon","coordinates":[[[[117.91383,4.11351],[117.91461,4.10965],[117.91462,4.10962],[117.91389,4.10964],[117.91389,4.10963],[117.91386,4.10962],[117.9138,4.10964],[117.91357,4.10967],[117.9132,4.10966],[117.91284,4.10965],[117.91259,4.10966],[117.9122,4.10961],[117.91205,4.10963],[117.91111,4.11052],[117.91093,4.11065],[117.91069,4.1109],[117.91047,4.11119],[117.90974,4.11089],[117.90941,4.11063],[117.90901,4.11049],[117.90837,4.10995],[117.90806,4.10984],[117.90788,4.10965],[117.90794,4.10912],[117.90791,4.10877],[117.90733,4.10795],[117.907,4.1075],[117.9068,4.10708],[117.90679,4.10649],[117.90677,4.1061],[117.9065,4.10554],[117.90633,4.10525],[117.90603,4.10493],[117.90565,4.10441],[117.90537,4.10423],[117.90514,4.10389],[117.90499,4.10373],[117.90474,4.10347],[117.90449,4.10337],[117.90412,4.10318],[117.90379,4.10279],[117.90386,4.102],[117.90367,4.10158],[117.90268,4.10129],[117.90213,4.10137],[117.9015,4.10163],[117.90054,4.10118],[117.90015,4.10077],[117.89967,4.10063],[117.89942,4.10037],[117.89838,4.10016],[117.89789,4.09958],[117.89702,4.09829],[117.89677,4.09813],[117.89657,4.0978],[117.89631,4.09753],[117.89605,4.09744],[117.89584,4.09758],[117.89523,4.09743],[117.89488,4.09736],[117.89471,4.09736],[117.89441,4.09719],[117.89417,4.09709],[117.89387,4.09713],[117.89355,4.09703],[117.8934,4.09689],[117.89337,4.09594],[117.8933,4.0956],[117.8932,4.09546],[117.89307,4.09533],[117.89291,4.09531],[117.89264,4.0953],[117.89244,4.09529],[117.89223,4.0952],[117.89215,4.09506],[117.89199,4.09497],[117.89174,4.0949],[117.89146,4.09481],[117.89134,4.09474],[117.8912,4.09462],[117.89108,4.09447],[117.89085,4.0943],[117.89054,4.09416],[117.89038,4.09417],[117.89008,4.09423],[117.88991,4.09425],[117.88968,4.09432],[117.88944,4.0944],[117.88928,4.09444],[117.88915,4.09461],[117.88905,4.09479],[117.88889,4.09484],[117.88872,4.09491],[117.88856,4.0951],[117.88843,4.09528],[117.88832,4.09539],[117.88815,4.09546],[117.88794,4.09554],[117.88777,4.09562],[117.88754,4.09562],[117.88729,4.09549],[117.88697,4.09537],[117.8865,4.09526],[117.8862,4.0951],[117.88591,4.09504],[117.88567,4.09505],[117.8853,4.09492],[117.88486,4.09487],[117.88468,4.09493],[117.88442,4.09507],[117.88412,4.0952],[117.88378,4.09546],[117.8835,4.09558],[117.88278,4.09577],[117.88212,4.09574],[117.88185,4.09612],[117.8804,4.09727],[117.8802,4.09727],[117.87984,4.09733],[117.87875,4.09813],[117.87838,4.09809],[117.87807,4.09809],[117.87746,4.09828],[117.87721,4.09851],[117.87708,4.09903],[117.87708,4.09946],[117.87714,4.09969],[117.87738,4.10012],[117.91183,4.11491],[117.91186,4.11494],[117.91249,4.11538],[117.91383,4.11351]]]]},"properties":{"kdprov":"65","kdkab":"04","kdkec":"140","kddesa":"004","kdsls":"0009","idsls":"65041400040009","nmprov":"KALIMANTAN UTARA","nmkab":"NUNUKAN","nmkec":"SEBATIK TIMUR","nmdesa":"TANJUNG ARU","nmsls":"RT 009 DUSUN PADAELO"}},{"type":"Feature","geometry":{"type":"MultiPolygon","coordinates":[[[[117.9054,4.14506],[117.90504,4.14512],[117.9045,4.14507],[117.90423,4.14508],[117.9042,4.14526],[117.9043,4.14543],[117.9056,4.14666],[117.90579,4.14663],[117.90638,4.14657],[117.90699,4.14655],[117.90728,4.14653],[117.90835,4.14682],[117.90784,4.14762],[117.90789,4.14764],[117.90802,4.1477],[117.90828,4.14787],[117.90847,4.14798],[117.9086,4.14805],[117.90883,4.14815],[117.9089,4.1482],[117.90917,4.14782],[117.90965,4.14717],[117.90996,4.14679],[117.90962,4.14651],[117.90928,4.14621],[117.90915,4.14612],[117.90866,4.14591],[117.90827,4.14577],[117.90783,4.14568],[117.90674,4.14544],[117.90618,4.1453],[117.9054,4.14506]]]]},"properties":{"kdprov":"65","kdkab":"04","kdkec":"140","kddesa":"001","kdsls":"0002","idsls":"65041400010002","nmprov":"KALIMANTAN UTARA","nmkab":"NUNUKAN","nmkec":"SEBATIK TIMUR","nmdesa":"SUNGAI NYAMUK","nmsls":"RT 002 DUSUN MULIA"}},{"type":"Feature","geometry":{"type":"MultiPolygon","coordinates":[[[[117.91694,4.11855],[117.91249,4.11538],[117.91186,4.11494],[117.91183,4.11491],[117.87738,4.10012],[117.86536,4.09496],[117.86403,4.09662],[117.91023,4.11718],[117.91043,4.11725],[117.91045,4.11728],[117.91045,4.11728],[117.91647,4.1204],[117.91694,4.11855],[117.91694,4.11855]]]]},"properties":{"kdprov":"65","kdkab":"04","kdkec":"140","kddesa":"003","kdsls":"0011","idsls":"65041400030011","nmprov":"KALIMANTAN UTARA","nmkab":"NUNUKAN","nmkec":"SEBATIK TIMUR","nmdesa":"BUKIT ARU INDAH","nmsls":"RT 011 DUSUN HAMPARAN"}},{"type":"Feature","geometry":{"type":"MultiPolygon","coordinates":[[[[117.91267,4.12251],[117.91274,4.12224],[117.91448,4.12313],[117.91647,4.1204],[117.91045,4.11728],[117.91045,4.11728],[117.91043,4.11725],[117.91023,4.11718],[117.86403,4.09662],[117.86242,4.09863],[117.85964,4.09863],[117.90926,4.12039],[117.91023,4.12089],[117.91051,4.12105],[117.91057,4.12117],[117.91086,4.12133],[117.91105,4.12145],[117.91129,4.12149],[117.9117,4.12178],[117.91253,4.12231],[117.91261,4.12249],[117.91267,4.12251]]]]},"properties":{"kdprov":"65","kdkab":"04","kdkec":"140","kddesa":"003","kdsls":"0012","idsls":"65041400030012","nmprov":"KALIMANTAN UTARA","nmkab":"NUNUKAN","nmkec":"SEBATIK TIMUR","nmdesa":"BUKIT ARU INDAH","nmsls":"RT 012 DUSUN HAMPARAN"}},{"type":"Feature","geometry":{"type":"MultiPolygon","coordinates":[[[[117.91044,4.12141],[117.91035,4.12133],[117.91051,4.12105],[117.91023,4.12089],[117.90926,4.12039],[117.85964,4.09863],[117.85593,4.09863],[117.8541,4.09863],[117.85224,4.09863],[117.85221,4.09863],[117.85186,4.09863],[117.85185,4.09858],[117.84733,4.09858],[117.84728,4.09858],[117.84652,4.09927],[117.84586,4.09988],[117.84729,4.10075],[117.85223,4.10284],[117.86567,4.10801],[117.88275,4.11503],[117.88995,4.11955],[117.90428,4.12437],[117.90679,4.12475],[117.90697,4.12476],[117.90698,4.12476],[117.90706,4.12428],[117.90835,4.12454],[117.90829,4.12486],[117.90861,4.12489],[117.90931,4.12494],[117.9101,4.1235],[117.90897,4.12323],[117.90929,4.12174],[117.90905,4.12164],[117.90917,4.12127],[117.90938,4.12134],[117.90939,4.1213],[117.90964,4.12134],[117.91002,4.12144],[117.9103,4.12167],[117.91044,4.12141]]]]},"properties":{"kdprov":"65","kdkab":"04","kdkec":"140","kddesa":"003","kdsls":"0016","idsls":"65041400030016","nmprov":"KALIMANTAN UTARA","nmkab":"NUNUKAN","nmkec":"SEBATIK TIMUR","nmdesa":"BUKIT ARU INDAH","nmsls":"RT 016 DUSUN KAMPUNG BARU"}},{"type":"Feature","geometry":{"type":"MultiPolygon","coordinates":[[[[117.90454,4.14376],[117.90502,4.14357],[117.90536,4.14337],[117.90823,4.14411],[117.91013,4.14462],[117.91017,4.14482],[117.91088,4.14539],[117.91099,4.14557],[117.91102,4.14554],[117.91103,4.14555],[117.91104,4.14551],[117.91103,4.14542],[117.911,4.14512],[117.91096,4.14491],[117.91091,4.14472],[117.91088,4.14445],[117.91083,4.1442],[117.91082,4.14407],[117.91077,4.14392],[117.91068,4.14371],[117.91059,4.14352],[117.91052,4.14339],[117.9105,4.14336],[117.91022,4.14366],[117.90237,4.13885],[117.89942,4.14115],[117.89951,4.14121],[117.8999,4.14166],[117.90047,4.14204],[117.90177,4.14256],[117.90313,4.14309],[117.90444,4.14369],[117.90454,4.14376]]]]},"properties":{"kdprov":"65","kdkab":"04","kdkec":"140","kddesa":"001","kdsls":"0004","idsls":"65041400010004","nmprov":"KALIMANTAN UTARA","nmkab":"NUNUKAN","nmkec":"SEBATIK TIMUR","nmdesa":"SUNGAI NYAMUK","nmsls":"RT 004 DUSUN MULIA"}},{"type":"Feature","geometry":{"type":"MultiPolygon","coordinates":[[[[117.90625,4.12846],[117.90624,4.12794],[117.90657,4.12691],[117.90668,4.12634],[117.9067,4.12623],[117.90681,4.1258],[117.90697,4.12476],[117.90679,4.12475],[117.90428,4.12437],[117.88995,4.11955],[117.88275,4.11503],[117.86567,4.10801],[117.85223,4.10284],[117.84729,4.10075],[117.84586,4.09988],[117.84585,4.09988],[117.84026,4.10497],[117.83582,4.10901],[117.83554,4.10927],[117.83801,4.11079],[117.83918,4.1115],[117.84556,4.11541],[117.84557,4.1154],[117.84557,4.11493],[117.84557,4.11392],[117.84575,4.11286],[117.84611,4.11169],[117.84673,4.11091],[117.84863,4.11032],[117.85176,4.1098],[117.85213,4.10984],[117.85191,4.10879],[117.85267,4.10872],[117.85283,4.1095],[117.85285,4.10993],[117.85285,4.10993],[117.85288,4.11065],[117.85321,4.11129],[117.85501,4.11394],[117.85506,4.1141],[117.85538,4.11419],[117.8566,4.11668],[117.85769,4.11747],[117.8585,4.11775],[117.85898,4.1182],[117.85934,4.11832],[117.8601,4.11813],[117.86062,4.1177],[117.86474,4.12251],[117.86478,4.12382],[117.865,4.12406],[117.86559,4.1243],[117.866,4.12475],[117.86624,4.12518],[117.86676,4.12527],[117.86724,4.12496],[117.86774,4.12489],[117.86824,4.12453],[117.86869,4.12408],[117.86926,4.12342],[117.86985,4.12263],[117.8704,4.1217],[117.87064,4.12139],[117.87126,4.12127],[117.87202,4.12139],[117.87245,4.12139],[117.87275,4.1208],[117.87279,4.12082],[117.87322,4.12012],[117.87397,4.11962],[117.8749,4.11951],[117.87586,4.12044],[117.87639,4.12097],[117.87682,4.12162],[117.87754,4.12183],[117.87864,4.12165],[117.87929,4.12215],[117.88018,4.12226],[117.88111,4.12208],[117.88193,4.12215],[117.88246,4.12269],[117.88253,4.12326],[117.88264,4.12408],[117.88328,4.12429],[117.88378,4.12433],[117.88435,4.12469],[117.88496,4.12526],[117.8853,4.12545],[117.88663,4.12544],[117.88783,4.12587],[117.88852,4.1261],[117.88866,4.12645],[117.88865,4.12645],[117.88931,4.12811],[117.88959,4.12856],[117.89045,4.12849],[117.89136,4.12847],[117.89254,4.12824],[117.89382,4.1278],[117.89458,4.12807],[117.89517,4.12814],[117.8958,4.12833],[117.8974,4.12845],[117.89852,4.12834],[117.90591,4.13034],[117.90649,4.13046],[117.90644,4.13005],[117.90636,4.12974],[117.9064,4.12949],[117.9065,4.12937],[117.90639,4.12906],[117.90625,4.12847],[117.90625,4.12846]]]]},"properties":{"kdprov":"65","kdkab":"04","kdkec":"140","kddesa":"002","kdsls":"0007","idsls":"65041400020007","nmprov":"KALIMANTAN UTARA","nmkab":"NUNUKAN","nmkec":"SEBATIK TIMUR","nmdesa":"TANJUNG HARAPAN","nmsls":"RT 007 DUSUN MAKMUR"}},{"type":"Feature","geometry":{"type":"MultiPolygon","coordinates":[[[[117.89584,4.14163],[117.89583,4.1416],[117.89558,4.14162],[117.89549,4.14134],[117.89574,4.14125],[117.8957,4.14113],[117.89545,4.14022],[117.89541,4.13974],[117.89555,4.13923],[117.89555,4.13923],[117.89563,4.13915],[117.89563,4.13914],[117.89563,4.13902],[117.89571,4.13895],[117.89571,4.13895],[117.89584,4.13877],[117.89589,4.13865],[117.89591,4.13846],[117.89563,4.13815],[117.89534,4.13787],[117.89519,4.13757],[117.89535,4.13675],[117.89432,4.13681],[117.8939,4.13583],[117.89338,4.13542],[117.89309,4.13505],[117.89262,4.13441],[117.89329,4.13399],[117.89339,4.13382],[117.89287,4.1333],[117.89208,4.13397],[117.89204,4.13395],[117.8914,4.13385],[117.89073,4.13296],[117.89041,4.13196],[117.89035,4.13071],[117.8905,4.13011],[117.89048,4.12961],[117.89019,4.12923],[117.88987,4.12904],[117.88959,4.12856],[117.88931,4.12811],[117.88865,4.12645],[117.88866,4.12645],[117.88852,4.1261],[117.88783,4.12587],[117.88663,4.12544],[117.8853,4.12545],[117.88496,4.12526],[117.88435,4.12469],[117.88378,4.12433],[117.88328,4.12429],[117.88264,4.12408],[117.88253,4.12326],[117.88246,4.12269],[117.88193,4.12215],[117.88111,4.12208],[117.88018,4.12226],[117.87929,4.12215],[117.87864,4.12165],[117.87754,4.12183],[117.87682,4.12162],[117.87639,4.12097],[117.87586,4.12044],[117.8749,4.11951],[117.87397,4.11962],[117.87322,4.12012],[117.87279,4.12082],[117.87275,4.1208],[117.87245,4.12139],[117.87202,4.12139],[117.87126,4.12127],[117.87064,4.12139],[117.8704,4.1217],[117.86985,4.12263],[117.86926,4.12342],[117.86869,4.12408],[117.86824,4.12453],[117.86774,4.12489],[117.86724,4.12496],[117.86676,4.12527],[117.86624,4.12518],[117.866,4.12475],[117.86559,4.1243],[117.865,4.12406],[117.86478,4.12382],[117.86474,4.12251],[117.86062,4.1177],[117.8601,4.11813],[117.85934,4.11832],[117.85898,4.1182],[117.8585,4.11775],[117.85769,4.11747],[117.8566,4.11668],[117.85538,4.11419],[117.85506,4.1141],[117.85501,4.11394],[117.85321,4.11129],[117.85288,4.11065],[117.85285,4.10993],[117.85285,4.10993],[117.85283,4.1095],[117.85267,4.10872],[117.85191,4.10879],[117.85213,4.10984],[117.85176,4.1098],[117.84863,4.11032],[117.84673,4.11091],[117.84611,4.11169],[117.84575,4.11286],[117.84557,4.11392],[117.84557,4.11493],[117.84557,4.1154],[117.84556,4.11541],[117.84557,4.11542],[117.84825,4.11706],[117.84867,4.11732],[117.85393,4.12055],[117.85344,4.12267],[117.85454,4.12307],[117.85449,4.12311],[117.85434,4.12324],[117.85416,4.12346],[117.85502,4.12377],[117.85523,4.12332],[117.85581,4.12353],[117.85757,4.12396],[117.86115,4.12486],[117.86224,4.12516],[117.86496,4.12593],[117.86871,4.12588],[117.87195,4.12588],[117.87289,4.12607],[117.87471,4.12645],[117.87975,4.13007],[117.88185,4.13435],[117.88366,4.13787],[117.88594,4.14006],[117.88807,4.14065],[117.89108,4.14149],[117.8921,4.14181],[117.8947,4.14263],[117.89538,4.14292],[117.8956,4.1422],[117.89584,4.14165],[117.89584,4.14163]]]]},"properties":{"kdprov":"65","kdkab":"04","kdkec":"140","kddesa":"001","kdsls":"0003","idsls":"65041400010003","nmprov":"KALIMANTAN UTARA","nmkab":"NUNUKAN","nmkec":"SEBATIK TIMUR","nmdesa":"SUNGAI NYAMUK","nmsls":"RT 003 DUSUN MULIA"}},{"type":"Feature","geometry":{"type":"MultiPolygon","coordinates":[[[[117.91342,4.14112],[117.91392,4.14149],[117.91403,4.14136],[117.91422,4.14149],[117.91419,4.14154],[117.91429,4.14163],[117.91468,4.14192],[117.91505,4.14212],[117.91506,4.14222],[117.91509,4.14225],[117.91534,4.14243],[117.91583,4.14285],[117.91779,4.14446],[117.91865,4.14342],[117.91902,4.14287],[117.91727,4.14163],[117.91613,4.14085],[117.91613,4.14085],[117.91564,4.14038],[117.91566,4.14032],[117.91539,4.14016],[117.91461,4.13969],[117.91453,4.13982],[117.9138,4.14061],[117.91342,4.14112]]]]},"properties":{"kdprov":"65","kdkab":"04","kdkec":"140","kddesa":"001","kdsls":"0010","idsls":"65041400010010","nmprov":"KALIMANTAN UTARA","nmkab":"NUNUKAN","nmkec":"SEBATIK TIMUR","nmdesa":"SUNGAI NYAMUK","nmsls":"RT 010 DUSUN DAMAI"}},{"type":"Feature","geometry":{"type":"MultiPolygon","coordinates":[[[[117.92574,4.12314],[117.92537,4.12235],[117.92537,4.12235],[117.92537,4.12235],[117.92441,4.12256],[117.92338,4.12272],[117.92283,4.12274],[117.92197,4.12271],[117.92193,4.12271],[117.92163,4.12268],[117.92163,4.12321],[117.92048,4.12322],[117.92048,4.12414],[117.9205,4.12497],[117.92102,4.12504],[117.92212,4.12512],[117.92203,4.12458],[117.92249,4.12451],[117.92249,4.12451],[117.92249,4.12449],[117.92406,4.12433],[117.92406,4.12433],[117.9241,4.12432],[117.92476,4.12425],[117.92477,4.12425],[117.92477,4.12425],[117.92479,4.12416],[117.92615,4.12399],[117.92615,4.12399],[117.92574,4.12314]]]]},"properties":{"kdprov":"65","kdkab":"04","kdkec":"140","kddesa":"003","kdsls":"0002","idsls":"65041400030002","nmprov":"KALIMANTAN UTARA","nmkab":"NUNUKAN","nmkec":"SEBATIK TIMUR","nmdesa":"BUKIT ARU INDAH","nmsls":"RT 002 DUSUN RAWAH INDAH"}},{"type":"Feature","geometry":{"type":"MultiPolygon","coordinates":[[[[117.9132,4.10966],[117.91318,4.1091],[117.91392,4.1091],[117.91392,4.10905],[117.91463,4.10762],[117.91615,4.10767],[117.91608,4.10915],[117.91673,4.10916],[117.91725,4.10909],[117.91747,4.10901],[117.91754,4.10901],[117.91841,4.10885],[117.91781,4.1081],[117.9176,4.10784],[117.91795,4.10778],[117.9177,4.10678],[117.91673,4.10658],[117.9166,4.10598],[117.91715,4.10549],[117.9168,4.10493],[117.9161,4.10478],[117.91625,4.10585],[117.9158,4.10608],[117.91487,4.10511],[117.91518,4.10413],[117.91523,4.10388],[117.91508,4.10376],[117.91455,4.10442],[117.91458,4.10536],[117.91458,4.10536],[117.91427,4.10531],[117.91408,4.10519],[117.91392,4.10494],[117.91381,4.10416],[117.91264,4.10387],[117.91219,4.1041],[117.9119,4.1036],[117.91155,4.10346],[117.91119,4.10349],[117.91072,4.10335],[117.91045,4.10313],[117.91002,4.10305],[117.90979,4.1026],[117.90902,4.10222],[117.9084,4.1014],[117.90782,4.10127],[117.90764,4.10087],[117.90758,4.10007],[117.90749,4.09953],[117.90752,4.09904],[117.90737,4.09889],[117.90734,4.09886],[117.90694,4.09874],[117.90675,4.09842],[117.90656,4.09736],[117.9061,4.09693],[117.90601,4.09659],[117.90477,4.09669],[117.90428,4.09648],[117.90393,4.09595],[117.90362,4.09588],[117.90289,4.09612],[117.90227,4.09577],[117.90217,4.09582],[117.90187,4.09581],[117.90155,4.09601],[117.90105,4.09615],[117.9008,4.09694],[117.90034,4.0972],[117.89995,4.09706],[117.8998,4.09681],[117.89947,4.0968],[117.89954,4.09647],[117.89884,4.09601],[117.89817,4.09551],[117.89794,4.09528],[117.89801,4.09494],[117.89778,4.09481],[117.89748,4.09471],[117.89716,4.09423],[117.89707,4.09411],[117.89667,4.09413],[117.89645,4.09415],[117.8964,4.09402],[117.89616,4.09346],[117.89595,4.09331],[117.89581,4.09284],[117.89517,4.09276],[117.89475,4.09251],[117.89456,4.09227],[117.89427,4.09222],[117.89404,4.0921],[117.89386,4.0921],[117.8935,4.09166],[117.89358,4.09149],[117.89348,4.091],[117.8934,4.09032],[117.89321,4.0902],[117.89308,4.08999],[117.89259,4.08997],[117.89225,4.09013],[117.89115,4.08991],[117.89067,4.0896],[117.8904,4.0896],[117.88995,4.08975],[117.88942,4.08967],[117.88812,4.08957],[117.88455,4.08871],[117.88421,4.08893],[117.88273,4.08958],[117.88184,4.08958],[117.88109,4.08909],[117.8796,4.08974],[117.87804,4.08976],[117.87741,4.08954],[117.8725,4.08608],[117.87247,4.08607],[117.87235,4.08622],[117.86964,4.0896],[117.86536,4.09496],[117.87738,4.10012],[117.87714,4.09969],[117.87708,4.09946],[117.87708,4.09903],[117.87721,4.09851],[117.87746,4.09828],[117.87807,4.09809],[117.87838,4.09809],[117.87875,4.09813],[117.87984,4.09733],[117.8802,4.09727],[117.8804,4.09727],[117.88185,4.09612],[117.88212,4.09574],[117.88278,4.09577],[117.8835,4.09558],[117.88378,4.09546],[117.88412,4.0952],[117.88442,4.09507],[117.88468,4.09493],[117.88486,4.09487],[117.8853,4.09492],[117.88567,4.09505],[117.88591,4.09504],[117.8862,4.0951],[117.8865,4.09526],[117.88697,4.09537],[117.88729,4.09549],[117.88754,4.09562],[117.88777,4.09562],[117.88794,4.09554],[117.88815,4.09546],[117.88832,4.09539],[117.88843,4.09528],[117.88856,4.0951],[117.88872,4.09491],[117.88889,4.09484],[117.88905,4.09479],[117.88915,4.09461],[117.88928,4.09444],[117.88944,4.0944],[117.88968,4.09432],[117.88991,4.09425],[117.89008,4.09423],[117.89038,4.09417],[117.89054,4.09416],[117.89085,4.0943],[117.89108,4.09447],[117.8912,4.09462],[117.89134,4.09474],[117.89146,4.09481],[117.89174,4.0949],[117.89199,4.09497],[117.89215,4.09506],[117.89223,4.0952],[117.89244,4.09529],[117.89264,4.0953],[117.89291,4.09531],[117.89307,4.09533],[117.8932,4.09546],[117.8933,4.0956],[117.89337,4.09594],[117.8934,4.09689],[117.89355,4.09703],[117.89387,4.09713],[117.89417,4.09709],[117.89441,4.09719],[117.89471,4.09736],[117.89488,4.09736],[117.89523,4.09743],[117.89584,4.09758],[117.89605,4.09744],[117.89631,4.09753],[117.89657,4.0978],[117.89677,4.09813],[117.89702,4.09829],[117.89789,4.09958],[117.89838,4.10016],[117.89942,4.10037],[117.89967,4.10063],[117.90015,4.10077],[117.90054,4.10118],[117.9015,4.10163],[117.90213,4.10137],[117.90268,4.10129],[117.90367,4.10158],[117.90386,4.102],[117.90379,4.10279],[117.90412,4.10318],[117.90449,4.10337],[117.90474,4.10347],[117.90499,4.10373],[117.90514,4.10389],[117.90537,4.10423],[117.90565,4.10441],[117.90603,4.10493],[117.90633,4.10525],[117.9065,4.10554],[117.90677,4.1061],[117.90679,4.10649],[117.9068,4.10708],[117.907,4.1075],[117.90733,4.10795],[117.90791,4.10877],[117.90794,4.10912],[117.90788,4.10965],[117.90806,4.10984],[117.90837,4.10995],[117.90901,4.11049],[117.90941,4.11063],[117.90974,4.11089],[117.91047,4.11119],[117.91069,4.1109],[117.91093,4.11065],[117.91111,4.11052],[117.91205,4.10963],[117.9122,4.10961],[117.91259,4.10966],[117.91284,4.10965],[117.9132,4.10966]]]]},"properties":{"kdprov":"65","kdkab":"04","kdkec":"140","kddesa":"004","kdsls":"0008","idsls":"65041400040008","nmprov":"KALIMANTAN UTARA","nmkab":"NUNUKAN","nmkec":"SEBATIK TIMUR","nmdesa":"TANJUNG ARU","nmsls":"RT 008 DUSUN DUSUN SUNGAI BAJAU INDAH"}},{"type":"Feature","geometry":{"type":"MultiPolygon","coordinates":[[[[117.92708,4.12821],[117.92485,4.12748],[117.925,4.1272],[117.92493,4.12718],[117.92327,4.12676],[117.92322,4.12869],[117.92322,4.12887],[117.92341,4.12903],[117.92372,4.12923],[117.92397,4.12928],[117.9244,4.12935],[117.92536,4.12969],[117.9259,4.13005],[117.92708,4.12821]]]]},"properties":{"kdprov":"65","kdkab":"04","kdkec":"140","kddesa":"003","kdsls":"0007","idsls":"65041400030007","nmprov":"KALIMANTAN UTARA","nmkab":"NUNUKAN","nmkec":"SEBATIK TIMUR","nmdesa":"BUKIT ARU INDAH","nmsls":"RT 007 DUSUN TANJUNG ARU"}},{"type":"Feature","geometry":{"type":"MultiPolygon","coordinates":[[[[117.89852,4.12834],[117.8974,4.12845],[117.8958,4.12833],[117.89517,4.12814],[117.89458,4.12807],[117.89382,4.1278],[117.89254,4.12824],[117.89136,4.12847],[117.89045,4.12849],[117.88959,4.12856],[117.88987,4.12904],[117.89019,4.12923],[117.89048,4.12961],[117.8905,4.13011],[117.89035,4.13071],[117.89041,4.13196],[117.89073,4.13296],[117.8914,4.13385],[117.89204,4.13395],[117.89208,4.13397],[117.89287,4.1333],[117.89339,4.13382],[117.89329,4.13399],[117.89262,4.13441],[117.89309,4.13505],[117.89338,4.13542],[117.8939,4.13583],[117.89432,4.13681],[117.89535,4.13675],[117.89519,4.13757],[117.89534,4.13787],[117.89563,4.13815],[117.89591,4.13846],[117.89631,4.13867],[117.89687,4.13891],[117.89764,4.13923],[117.89836,4.13965],[117.89869,4.13998],[117.89891,4.1407],[117.89913,4.14097],[117.89942,4.14115],[117.90237,4.13885],[117.91022,4.14366],[117.9105,4.14336],[117.91052,4.14333],[117.91045,4.14331],[117.91045,4.14308],[117.91045,4.14267],[117.91044,4.1424],[117.91043,4.14218],[117.91043,4.1418],[117.9108,4.14177],[117.91079,4.14218],[117.91079,4.14218],[117.91079,4.1424],[117.91082,4.14238],[117.91189,4.14305],[117.91287,4.14367],[117.91354,4.14411],[117.91373,4.14421],[117.91387,4.14405],[117.91415,4.14359],[117.91443,4.14315],[117.91472,4.14267],[117.91506,4.14222],[117.91505,4.14212],[117.91468,4.14192],[117.91429,4.14163],[117.91419,4.14154],[117.91422,4.14149],[117.91403,4.14136],[117.91392,4.14149],[117.91342,4.14112],[117.91327,4.14133],[117.91073,4.13973],[117.91081,4.13951],[117.91013,4.13948],[117.90911,4.14009],[117.90853,4.13925],[117.90838,4.13854],[117.9082,4.13747],[117.90806,4.13673],[117.90787,4.13647],[117.90712,4.13563],[117.90709,4.13548],[117.90702,4.13356],[117.90678,4.13297],[117.90659,4.13217],[117.90652,4.13149],[117.90649,4.13047],[117.90649,4.13046],[117.90591,4.13034],[117.89852,4.12834]]]]},"properties":{"kdprov":"65","kdkab":"04","kdkec":"140","kddesa":"001","kdsls":"0009","idsls":"65041400010009","nmprov":"KALIMANTAN UTARA","nmkab":"NUNUKAN","nmkec":"SEBATIK TIMUR","nmdesa":"SUNGAI NYAMUK","nmsls":"RT 009 DUSUN BAHAGIA"}},{"type":"Feature","geometry":{"type":"MultiPolygon","coordinates":[[[[117.92397,4.12928],[117.92372,4.12923],[117.92341,4.12903],[117.92322,4.12887],[117.92308,4.12876],[117.92287,4.12873],[117.92224,4.12839],[117.92164,4.12984],[117.92182,4.12992],[117.92308,4.13036],[117.92345,4.13047],[117.92372,4.1298],[117.92397,4.12928]]]]},"properties":{"kdprov":"65","kdkab":"04","kdkec":"140","kddesa":"002","kdsls":"0008","idsls":"65041400020008","nmprov":"KALIMANTAN UTARA","nmkab":"NUNUKAN","nmkec":"SEBATIK TIMUR","nmdesa":"TANJUNG HARAPAN","nmsls":"RT 008 DUSUN SENTOSA"}},{"type":"Feature","geometry":{"type":"MultiPolygon","coordinates":[[[[117.9259,4.13005],[117.92536,4.12969],[117.9244,4.12935],[117.92397,4.12928],[117.92372,4.1298],[117.92345,4.13047],[117.92365,4.13054],[117.92392,4.13065],[117.92416,4.13078],[117.92526,4.13141],[117.92582,4.13018],[117.9259,4.13005]]]]},"properties":{"kdprov":"65","kdkab":"04","kdkec":"140","kddesa":"002","kdsls":"0009","idsls":"65041400020009","nmprov":"KALIMANTAN UTARA","nmkab":"NUNUKAN","nmkec":"SEBATIK TIMUR","nmdesa":"TANJUNG HARAPAN","nmsls":"RT 009 DUSUN SENTOSA"}},{"type":"Feature","geometry":{"type":"MultiPolygon","coordinates":[[[[117.91809,4.13508],[117.91817,4.13498],[117.91828,4.13504],[117.91822,4.13515],[117.91849,4.13528],[117.91911,4.1356],[117.91901,4.13645],[117.9192,4.13656],[117.91965,4.13687],[117.91997,4.13719],[117.92022,4.13731],[117.92016,4.13745],[117.92059,4.13769],[117.92069,4.13755],[117.92187,4.13813],[117.92207,4.13765],[117.92221,4.13746],[117.92221,4.13739],[117.92219,4.13734],[117.9221,4.13724],[117.92186,4.13709],[117.92179,4.13709],[117.92144,4.13673],[117.92081,4.13635],[117.92088,4.13626],[117.92051,4.13605],[117.92036,4.13584],[117.92027,4.1359],[117.91783,4.13472],[117.9178,4.1349],[117.9178,4.1349],[117.91802,4.13505],[117.91809,4.13508]]]]},"properties":{"kdprov":"65","kdkab":"04","kdkec":"140","kddesa":"002","kdsls":"0001","idsls":"65041400020001","nmprov":"KALIMANTAN UTARA","nmkab":"NUNUKAN","nmkec":"SEBATIK TIMUR","nmdesa":"TANJUNG HARAPAN","nmsls":"RT 001 DUSUN MAKMUR"}},{"type":"Feature","geometry":{"type":"MultiPolygon","coordinates":[[[[117.91638,4.13836],[117.91738,4.13922],[117.91773,4.1388],[117.91893,4.13991],[117.91937,4.14022],[117.92024,4.141],[117.92145,4.13916],[117.92187,4.13813],[117.92069,4.13755],[117.92059,4.13769],[117.92016,4.13745],[117.92022,4.13731],[117.91997,4.13719],[117.91965,4.13687],[117.9192,4.13656],[117.91901,4.13645],[117.91911,4.1356],[117.91849,4.13528],[117.91822,4.13515],[117.91828,4.13504],[117.91817,4.13498],[117.91809,4.13508],[117.91802,4.13505],[117.9178,4.1349],[117.91776,4.13509],[117.91762,4.13563],[117.91729,4.13622],[117.91731,4.13623],[117.91682,4.13714],[117.9167,4.13747],[117.91638,4.13836]]]]},"properties":{"kdprov":"65","kdkab":"04","kdkec":"140","kddesa":"001","kdsls":"0011","idsls":"65041400010011","nmprov":"KALIMANTAN UTARA","nmkab":"NUNUKAN","nmkec":"SEBATIK TIMUR","nmdesa":"SUNGAI NYAMUK","nmsls":"RT 011 DUSUN DAMAI"}},{"type":"Feature","geometry":{"type":"MultiPolygon","coordinates":[[[[117.91276,4.1454],[117.91322,4.14454],[117.91341,4.14461],[117.91347,4.14459],[117.91373,4.14421],[117.91354,4.14411],[117.91287,4.14367],[117.91189,4.14305],[117.91082,4.14238],[117.91079,4.1424],[117.91079,4.14218],[117.91079,4.14218],[117.9108,4.14177],[117.91043,4.1418],[117.91043,4.14218],[117.91044,4.1424],[117.91045,4.14267],[117.91045,4.14308],[117.91045,4.14331],[117.91052,4.14333],[117.9105,4.14336],[117.91052,4.14339],[117.91059,4.14352],[117.91068,4.14371],[117.91077,4.14392],[117.91082,4.14407],[117.91083,4.1442],[117.91088,4.14445],[117.91091,4.14472],[117.91096,4.14491],[117.911,4.14512],[117.91103,4.14542],[117.91104,4.14551],[117.91103,4.14555],[117.91123,4.14561],[117.91154,4.14575],[117.91156,4.14575],[117.9116,4.14587],[117.91159,4.14602],[117.91167,4.14616],[117.91182,4.14635],[117.91199,4.14646],[117.91208,4.14634],[117.91229,4.14604],[117.91237,4.14595],[117.91276,4.1454]]]]},"properties":{"kdprov":"65","kdkab":"04","kdkec":"140","kddesa":"001","kdsls":"0007","idsls":"65041400010007","nmprov":"KALIMANTAN UTARA","nmkab":"NUNUKAN","nmkec":"SEBATIK TIMUR","nmdesa":"SUNGAI NYAMUK","nmsls":"RT 007 DUSUN BAHAGIA"}},{"type":"Feature","geometry":{"type":"MultiPolygon","coordinates":[[[[117.91779,4.14446],[117.91583,4.14285],[117.91534,4.14243],[117.91509,4.14225],[117.91506,4.14222],[117.91472,4.14267],[117.91443,4.14315],[117.91415,4.14359],[117.91387,4.14405],[117.91373,4.14421],[117.91347,4.14459],[117.91341,4.14461],[117.91322,4.14454],[117.91276,4.1454],[117.91237,4.14595],[117.91229,4.14604],[117.91249,4.14619],[117.9125,4.1462],[117.91253,4.14627],[117.91284,4.14648],[117.91311,4.14673],[117.91342,4.14712],[117.91378,4.14726],[117.91379,4.14726],[117.91418,4.14752],[117.91508,4.14813],[117.91567,4.14698],[117.91779,4.14446]]]]},"properties":{"kdprov":"65","kdkab":"04","kdkec":"140","kddesa":"001","kdsls":"0008","idsls":"65041400010008","nmprov":"KALIMANTAN UTARA","nmkab":"NUNUKAN","nmkec":"SEBATIK TIMUR","nmdesa":"SUNGAI NYAMUK","nmsls":"RT 008 DUSUN BAHAGIA"}},{"type":"Feature","geometry":{"type":"MultiPolygon","coordinates":[[[[117.91214,4.14675],[117.91188,4.14658],[117.91199,4.14646],[117.91182,4.14635],[117.91167,4.14616],[117.91159,4.14602],[117.9116,4.14587],[117.91156,4.14575],[117.91154,4.14575],[117.91123,4.14561],[117.91103,4.14555],[117.91102,4.14554],[117.91066,4.14594],[117.91041,4.14623],[117.91099,4.14674],[117.91168,4.14738],[117.91174,4.1473],[117.91187,4.14701],[117.91202,4.14686],[117.91214,4.14675]]]]},"properties":{"kdprov":"65","kdkab":"04","kdkec":"140","kddesa":"001","kdsls":"0005","idsls":"65041400010005","nmprov":"KALIMANTAN UTARA","nmkab":"NUNUKAN","nmkec":"SEBATIK TIMUR","nmdesa":"SUNGAI NYAMUK","nmsls":"RT 005 DUSUN SEJAHTERA"}},{"type":"Feature","geometry":{"type":"MultiPolygon","coordinates":[[[[117.91249,4.14619],[117.91229,4.14604],[117.91208,4.14634],[117.91199,4.14646],[117.91188,4.14658],[117.91214,4.14675],[117.91202,4.14686],[117.91187,4.14701],[117.91174,4.1473],[117.91168,4.14738],[117.91163,4.14743],[117.91151,4.14762],[117.91264,4.15035],[117.91365,4.15089],[117.91508,4.14813],[117.91418,4.14752],[117.91379,4.14726],[117.91378,4.14726],[117.91342,4.14712],[117.91311,4.14673],[117.91284,4.14648],[117.91253,4.14627],[117.9125,4.1462],[117.91249,4.14619]]]]},"properties":{"kdprov":"65","kdkab":"04","kdkec":"140","kddesa":"001","kdsls":"0006","idsls":"65041400010006","nmprov":"KALIMANTAN UTARA","nmkab":"NUNUKAN","nmkec":"SEBATIK TIMUR","nmdesa":"SUNGAI NYAMUK","nmsls":"RT 006 DUSUN SEJAHTERA"}},{"type":"Feature","geometry":{"type":"MultiPolygon","coordinates":[[[[117.91168,4.14738],[117.91099,4.14674],[117.91041,4.14623],[117.90996,4.14679],[117.90965,4.14717],[117.90917,4.14782],[117.9089,4.1482],[117.90882,4.14831],[117.91264,4.15035],[117.91151,4.14762],[117.91163,4.14743],[117.91168,4.14738]]]]},"properties":{"kdprov":"65","kdkab":"04","kdkec":"140","kddesa":"001","kdsls":"0001","idsls":"65041400010001","nmprov":"KALIMANTAN UTARA","nmkab":"NUNUKAN","nmkec":"SEBATIK TIMUR","nmdesa":"SUNGAI NYAMUK","nmsls":"RT 001 DUSUN SEJAHTERA"}},{"type":"Feature","geometry":{"type":"MultiPolygon","coordinates":[[[[117.92337,4.13556],[117.92262,4.13523],[117.92181,4.13479],[117.91859,4.13338],[117.91818,4.13318],[117.91798,4.13384],[117.91798,4.13385],[117.91831,4.13397],[117.91831,4.13409],[117.91847,4.13412],[117.91848,4.13403],[117.91863,4.13408],[117.91929,4.13429],[117.91994,4.13452],[117.92036,4.13467],[117.92027,4.13481],[117.92057,4.13492],[117.92068,4.13482],[117.92093,4.13494],[117.9213,4.13517],[117.92153,4.13529],[117.92153,4.13529],[117.9219,4.13551],[117.92205,4.1356],[117.92232,4.13574],[117.92307,4.13621],[117.92337,4.13556]]]]},"properties":{"kdprov":"65","kdkab":"04","kdkec":"140","kddesa":"002","kdsls":"0003","idsls":"65041400020003","nmprov":"KALIMANTAN UTARA","nmkab":"NUNUKAN","nmkec":"SEBATIK TIMUR","nmdesa":"TANJUNG HARAPAN","nmsls":"RT 003 DUSUN MAKMUR"}},{"type":"Feature","geometry":{"type":"MultiPolygon","coordinates":[[[[117.92232,4.1373],[117.92285,4.13659],[117.92331,4.13679],[117.92343,4.13652],[117.92302,4.13632],[117.92307,4.13621],[117.92232,4.13574],[117.92205,4.1356],[117.9219,4.13551],[117.92153,4.13529],[117.92153,4.13529],[117.9213,4.13517],[117.92093,4.13494],[117.92068,4.13482],[117.92057,4.13492],[117.92027,4.13481],[117.92036,4.13467],[117.91994,4.13452],[117.91929,4.13429],[117.91863,4.13408],[117.91848,4.13403],[117.91847,4.13412],[117.91831,4.13409],[117.91831,4.13397],[117.91798,4.13385],[117.91796,4.13415],[117.91788,4.13429],[117.91783,4.13472],[117.92027,4.1359],[117.92036,4.13584],[117.92051,4.13605],[117.92088,4.13626],[117.92081,4.13635],[117.92144,4.13673],[117.92179,4.13709],[117.92186,4.13709],[117.9221,4.13724],[117.92219,4.13734],[117.92221,4.13739],[117.92221,4.13746],[117.92232,4.1373]]]]},"properties":{"kdprov":"65","kdkab":"04","kdkec":"140","kddesa":"002","kdsls":"0002","idsls":"65041400020002","nmprov":"KALIMANTAN UTARA","nmkab":"NUNUKAN","nmkec":"SEBATIK TIMUR","nmdesa":"TANJUNG HARAPAN","nmsls":"RT 002 DUSUN MAKMUR"}},{"type":"Feature","geometry":{"type":"MultiPolygon","coordinates":[[[[117.9178,4.1349],[117.9178,4.1349],[117.91783,4.13472],[117.91788,4.13429],[117.91796,4.13415],[117.91798,4.13385],[117.91798,4.13384],[117.91818,4.13318],[117.91841,4.13259],[117.91865,4.1319],[117.91876,4.13144],[117.91878,4.13099],[117.91882,4.13079],[117.91888,4.13045],[117.919,4.13017],[117.91913,4.12953],[117.9191,4.12915],[117.91885,4.12858],[117.91878,4.12838],[117.91877,4.12783],[117.91888,4.12724],[117.91902,4.12672],[117.91903,4.12663],[117.91902,4.12662],[117.91902,4.12641],[117.91865,4.12634],[117.91861,4.12648],[117.91451,4.1258],[117.91405,4.12572],[117.91189,4.12537],[117.90931,4.12494],[117.90861,4.12489],[117.90829,4.12486],[117.90835,4.12454],[117.90706,4.12428],[117.90698,4.12476],[117.90697,4.12476],[117.90681,4.1258],[117.9067,4.12623],[117.90668,4.12634],[117.90657,4.12691],[117.90624,4.12794],[117.90625,4.12846],[117.90625,4.12847],[117.90639,4.12906],[117.9065,4.12937],[117.9064,4.12949],[117.90636,4.12974],[117.90644,4.13005],[117.90649,4.13046],[117.90649,4.13047],[117.91043,4.13245],[117.91098,4.1326],[117.91151,4.13277],[117.91225,4.13308],[117.91344,4.13352],[117.91451,4.13391],[117.91547,4.13421],[117.91606,4.13441],[117.91636,4.13461],[117.91668,4.13476],[117.91735,4.13495],[117.91776,4.13509],[117.9178,4.1349]]]]},"properties":{"kdprov":"65","kdkab":"04","kdkec":"140","kddesa":"002","kdsls":"0004","idsls":"65041400020004","nmprov":"KALIMANTAN UTARA","nmkab":"NUNUKAN","nmkec":"SEBATIK TIMUR","nmdesa":"TANJUNG HARAPAN","nmsls":"RT 004 DUSUN MAKMUR"}},{"type":"Feature","geometry":{"type":"MultiPolygon","coordinates":[[[[117.91342,4.14112],[117.9138,4.14061],[117.91453,4.13982],[117.91461,4.13969],[117.91539,4.14016],[117.91596,4.13918],[117.91635,4.13845],[117.9167,4.13747],[117.91682,4.13714],[117.91731,4.13623],[117.91729,4.13622],[117.91762,4.13563],[117.91776,4.13509],[117.91735,4.13495],[117.91668,4.13476],[117.91636,4.13461],[117.91606,4.13441],[117.91547,4.13421],[117.91451,4.13391],[117.91344,4.13352],[117.91225,4.13308],[117.91151,4.13277],[117.91098,4.1326],[117.91043,4.13245],[117.90649,4.13047],[117.90652,4.13149],[117.90659,4.13217],[117.90678,4.13297],[117.90702,4.13356],[117.90709,4.13548],[117.90712,4.13563],[117.90787,4.13647],[117.90806,4.13673],[117.9082,4.13747],[117.90838,4.13854],[117.90853,4.13925],[117.90911,4.14009],[117.91013,4.13948],[117.91081,4.13951],[117.91073,4.13973],[117.91327,4.14133],[117.91342,4.14112]]]]},"properties":{"kdprov":"65","kdkab":"04","kdkec":"140","kddesa":"001","kdsls":"0012","idsls":"65041400010012","nmprov":"KALIMANTAN UTARA","nmkab":"NUNUKAN","nmkec":"SEBATIK TIMUR","nmdesa":"SUNGAI NYAMUK","nmsls":"RT 012 DUSUN DAMAI"}},{"type":"Feature","geometry":{"type":"MultiPolygon","coordinates":[[[[117.92031,4.1314],[117.92042,4.13116],[117.92055,4.13115],[117.92085,4.13134],[117.92145,4.13167],[117.92177,4.13184],[117.9222,4.13201],[117.92253,4.13216],[117.92291,4.13228],[117.92327,4.13241],[117.92355,4.13249],[117.92398,4.1326],[117.92422,4.13269],[117.92462,4.13281],[117.92526,4.13141],[117.92416,4.13078],[117.92392,4.13065],[117.92365,4.13054],[117.92345,4.13047],[117.92308,4.13036],[117.92182,4.12992],[117.92164,4.12984],[117.92105,4.12958],[117.91885,4.12858],[117.9191,4.12915],[117.91913,4.12953],[117.919,4.13017],[117.91888,4.13045],[117.91882,4.13079],[117.91883,4.13079],[117.92026,4.13137],[117.92031,4.1314]]]]},"properties":{"kdprov":"65","kdkab":"04","kdkec":"140","kddesa":"002","kdsls":"0006","idsls":"65041400020006","nmprov":"KALIMANTAN UTARA","nmkab":"NUNUKAN","nmkec":"SEBATIK TIMUR","nmdesa":"TANJUNG HARAPAN","nmsls":"RT 006 DUSUN SENTOSA"}},{"type":"Feature","geometry":{"type":"MultiPolygon","coordinates":[[[[117.92462,4.13281],[117.92422,4.13269],[117.92398,4.1326],[117.92355,4.13249],[117.92327,4.13241],[117.92291,4.13228],[117.92253,4.13216],[117.9222,4.13201],[117.92177,4.13184],[117.92145,4.13167],[117.92085,4.13134],[117.92055,4.13115],[117.92042,4.13116],[117.92031,4.1314],[117.92026,4.13137],[117.91883,4.13079],[117.91882,4.13079],[117.91878,4.13099],[117.91876,4.13144],[117.91865,4.1319],[117.91841,4.13259],[117.91818,4.13318],[117.91859,4.13338],[117.92181,4.13479],[117.92262,4.13523],[117.92337,4.13556],[117.9245,4.13308],[117.92462,4.13281]]]]},"properties":{"kdprov":"65","kdkab":"04","kdkec":"140","kddesa":"002","kdsls":"0005","idsls":"65041400020005","nmprov":"KALIMANTAN UTARA","nmkab":"NUNUKAN","nmkec":"SEBATIK TIMUR","nmdesa":"TANJUNG HARAPAN","nmsls":"RT 005 DUSUN SENTOSA"}},{"type":"Feature","geometry":{"type":"MultiPolygon","coordinates":[[[[117.92736,4.12778],[117.92685,4.12538],[117.9253,4.1254],[117.9253,4.12558],[117.92531,4.1259],[117.92531,4.12613],[117.92532,4.12653],[117.92532,4.12708],[117.92519,4.12705],[117.92501,4.12698],[117.92493,4.12718],[117.925,4.1272],[117.92485,4.12748],[117.92708,4.12821],[117.92736,4.12778]]]]},"properties":{"kdprov":"65","kdkab":"04","kdkec":"140","kddesa":"003","kdsls":"0006","idsls":"65041400030006","nmprov":"KALIMANTAN UTARA","nmkab":"NUNUKAN","nmkec":"SEBATIK TIMUR","nmdesa":"BUKIT ARU INDAH","nmsls":"RT 006 DUSUN TANJUNG ARU"}},{"type":"Feature","geometry":{"type":"MultiPolygon","coordinates":[[[[117.92519,4.12705],[117.92532,4.12708],[117.92532,4.12653],[117.92531,4.12613],[117.92531,4.1259],[117.9253,4.12558],[117.9253,4.1254],[117.92522,4.1254],[117.92406,4.12541],[117.92399,4.12576],[117.92389,4.12575],[117.92371,4.12573],[117.92366,4.12609],[117.92364,4.12619],[117.92323,4.12618],[117.92327,4.12676],[117.92493,4.12718],[117.92501,4.12698],[117.92519,4.12705]]]]},"properties":{"kdprov":"65","kdkab":"04","kdkec":"140","kddesa":"003","kdsls":"0005","idsls":"65041400030005","nmprov":"KALIMANTAN UTARA","nmkab":"NUNUKAN","nmkec":"SEBATIK TIMUR","nmdesa":"BUKIT ARU INDAH","nmsls":"RT 005 DUSUN TANJUNG ARU"}},{"type":"Feature","geometry":{"type":"MultiPolygon","coordinates":[[[[117.92327,4.12676],[117.92323,4.12618],[117.92306,4.12618],[117.92305,4.12609],[117.92301,4.12592],[117.92297,4.12572],[117.92293,4.12554],[117.9228,4.12555],[117.9227,4.12557],[117.92261,4.12506],[117.92231,4.12514],[117.92212,4.12512],[117.92102,4.12504],[117.9205,4.12497],[117.91997,4.1249],[117.9197,4.12527],[117.91959,4.12519],[117.91921,4.12503],[117.91896,4.12498],[117.91896,4.12498],[117.91897,4.12562],[117.91903,4.12614],[117.91903,4.12615],[117.91936,4.12634],[117.92034,4.12694],[117.92104,4.12737],[117.92189,4.1279],[117.92253,4.12827],[117.92299,4.12855],[117.92322,4.12869],[117.92327,4.12676]]]]},"properties":{"kdprov":"65","kdkab":"04","kdkec":"140","kddesa":"003","kdsls":"0008","idsls":"65041400030008","nmprov":"KALIMANTAN UTARA","nmkab":"NUNUKAN","nmkec":"SEBATIK TIMUR","nmdesa":"BUKIT ARU INDAH","nmsls":"RT 008 DUSUN TANJUNG ARU"}},{"type":"Feature","geometry":{"type":"MultiPolygon","coordinates":[[[[117.92322,4.12887],[117.92322,4.12869],[117.92299,4.12855],[117.92253,4.12827],[117.92189,4.1279],[117.92104,4.12737],[117.92034,4.12694],[117.91936,4.12634],[117.91903,4.12615],[117.91902,4.12641],[117.91902,4.12662],[117.91903,4.12663],[117.91902,4.12672],[117.91888,4.12724],[117.91877,4.12783],[117.91878,4.12838],[117.91885,4.12858],[117.92105,4.12958],[117.92164,4.12984],[117.92224,4.12839],[117.92287,4.12873],[117.92308,4.12876],[117.92322,4.12887]]]]},"properties":{"kdprov":"65","kdkab":"04","kdkec":"140","kddesa":"002","kdsls":"0010","idsls":"65041400020010","nmprov":"KALIMANTAN UTARA","nmkab":"NUNUKAN","nmkec":"SEBATIK TIMUR","nmdesa":"TANJUNG HARAPAN","nmsls":"RT 010 DUSUN SENTOSA"}},{"type":"Feature","geometry":{"type":"MultiPolygon","coordinates":[[[[117.91861,4.12648],[117.91865,4.12634],[117.91902,4.12641],[117.91903,4.12615],[117.91903,4.12614],[117.91897,4.12562],[117.91896,4.12498],[117.91892,4.12497],[117.91898,4.12474],[117.91901,4.12458],[117.91898,4.12457],[117.91469,4.12344],[117.91451,4.12387],[117.91457,4.124],[117.91441,4.12402],[117.91405,4.12572],[117.91451,4.1258],[117.91861,4.12648]]]]},"properties":{"kdprov":"65","kdkab":"04","kdkec":"140","kddesa":"003","kdsls":"0013","idsls":"65041400030013","nmprov":"KALIMANTAN UTARA","nmkab":"NUNUKAN","nmkec":"SEBATIK TIMUR","nmdesa":"BUKIT ARU INDAH","nmsls":"RT 013 DUSUN KAMPUNG BARU"}},{"type":"Feature","geometry":{"type":"MultiPolygon","coordinates":[[[[117.92677,4.12504],[117.92616,4.124],[117.92616,4.124],[117.92616,4.124],[117.92615,4.12399],[117.92615,4.12399],[117.92615,4.12399],[117.92479,4.12416],[117.92477,4.12425],[117.92477,4.12425],[117.92476,4.12425],[117.9241,4.12432],[117.92414,4.12464],[117.92411,4.12515],[117.92406,4.12541],[117.92522,4.1254],[117.9253,4.1254],[117.92685,4.12538],[117.92677,4.12504]]]]},"properties":{"kdprov":"65","kdkab":"04","kdkec":"140","kddesa":"003","kdsls":"0004","idsls":"65041400030004","nmprov":"KALIMANTAN UTARA","nmkab":"NUNUKAN","nmkec":"SEBATIK TIMUR","nmdesa":"BUKIT ARU INDAH","nmsls":"RT 004 DUSUN RAWAH INDAH"}},{"type":"Feature","geometry":{"type":"MultiPolygon","coordinates":[[[[117.92366,4.12609],[117.92371,4.12573],[117.92389,4.12575],[117.92399,4.12576],[117.92406,4.12541],[117.92411,4.12515],[117.92414,4.12464],[117.9241,4.12432],[117.92406,4.12433],[117.92406,4.12433],[117.92249,4.12449],[117.92249,4.12451],[117.92249,4.12451],[117.92203,4.12458],[117.92212,4.12512],[117.92231,4.12514],[117.92261,4.12506],[117.9227,4.12557],[117.9228,4.12555],[117.92293,4.12554],[117.92297,4.12572],[117.92301,4.12592],[117.92305,4.12609],[117.92306,4.12618],[117.92323,4.12618],[117.92364,4.12619],[117.92366,4.12609]]]]},"properties":{"kdprov":"65","kdkab":"04","kdkec":"140","kddesa":"003","kdsls":"0003","idsls":"65041400030003","nmprov":"KALIMANTAN UTARA","nmkab":"NUNUKAN","nmkec":"SEBATIK TIMUR","nmdesa":"BUKIT ARU INDAH","nmsls":"RT 003 DUSUN RAWAH INDAH"}},{"type":"Feature","geometry":{"type":"MultiPolygon","coordinates":[[[[117.91099,4.14557],[117.91088,4.14539],[117.91017,4.14482],[117.91013,4.14462],[117.90823,4.14411],[117.90536,4.14337],[117.90502,4.14357],[117.90454,4.14376],[117.90478,4.14392],[117.90497,4.14418],[117.90518,4.14473],[117.90528,4.14491],[117.9054,4.14506],[117.90618,4.1453],[117.90674,4.14544],[117.90783,4.14568],[117.90827,4.14577],[117.90866,4.14591],[117.90915,4.14612],[117.90928,4.14621],[117.90962,4.14651],[117.90996,4.14679],[117.91041,4.14623],[117.91066,4.14594],[117.91099,4.14557]]]]},"properties":{"kdprov":"65","kdkab":"04","kdkec":"140","kddesa":"001","kdsls":"0004","idsls":"65041400010004","nmprov":"KALIMANTAN UTARA","nmkab":"NUNUKAN","nmkec":"SEBATIK TIMUR","nmdesa":"SUNGAI NYAMUK","nmsls":"RT 004 DUSUN MULIA"}},{"type":"Feature","geometry":{"type":"MultiPolygon","coordinates":[[[[117.92024,4.141],[117.91937,4.14022],[117.91893,4.13991],[117.91773,4.1388],[117.91738,4.13922],[117.91638,4.13836],[117.91635,4.13845],[117.91596,4.13918],[117.91539,4.14016],[117.91566,4.14032],[117.91564,4.14038],[117.91613,4.14085],[117.91613,4.14085],[117.91727,4.14163],[117.91902,4.14287],[117.92024,4.141]]]]},"properties":{"kdprov":"65","kdkab":"04","kdkec":"140","kddesa":"001","kdsls":"0011","idsls":"65041400010011","nmprov":"KALIMANTAN UTARA","nmkab":"NUNUKAN","nmkec":"SEBATIK TIMUR","nmdesa":"SUNGAI NYAMUK","nmsls":"RT 011 DUSUN DAMAI"}},{"type":"Feature","geometry":{"type":"MultiPolygon","coordinates":[[[[117.90784,4.14762],[117.90835,4.14682],[117.90728,4.14653],[117.90699,4.14655],[117.90638,4.14657],[117.90579,4.14663],[117.9056,4.14666],[117.9043,4.14543],[117.9042,4.14526],[117.90423,4.14508],[117.9045,4.14507],[117.90504,4.14512],[117.9054,4.14506],[117.90528,4.14491],[117.90518,4.14473],[117.90497,4.14418],[117.90478,4.14392],[117.90444,4.14369],[117.90313,4.14309],[117.90177,4.14256],[117.90047,4.14204],[117.8999,4.14166],[117.89951,4.14121],[117.89942,4.14115],[117.89913,4.14097],[117.89891,4.1407],[117.89869,4.13998],[117.89836,4.13965],[117.89764,4.13923],[117.89687,4.13891],[117.89631,4.13867],[117.89591,4.13846],[117.89589,4.13865],[117.89584,4.13877],[117.89571,4.13895],[117.89571,4.13895],[117.89563,4.13902],[117.89563,4.13914],[117.89563,4.13915],[117.89555,4.13923],[117.89555,4.13923],[117.89541,4.13974],[117.89545,4.14022],[117.8957,4.14113],[117.89574,4.14125],[117.89549,4.14134],[117.89558,4.14162],[117.89583,4.1416],[117.89584,4.14163],[117.89584,4.14165],[117.8956,4.1422],[117.89538,4.14292],[117.89736,4.14377],[117.90184,4.14577],[117.90278,4.14632],[117.90351,4.14674],[117.9059,4.14777],[117.90593,4.14777],[117.90601,4.14765],[117.90616,4.14745],[117.90626,4.14736],[117.90631,4.14733],[117.90648,4.14733],[117.90668,4.14738],[117.9069,4.14742],[117.90709,4.14747],[117.90725,4.14748],[117.90745,4.14751],[117.90759,4.14754],[117.90776,4.14759],[117.90784,4.14762]]]]},"properties":{"kdprov":"65","kdkab":"04","kdkec":"140","kddesa":"001","kdsls":"0002","idsls":"65041400010002","nmprov":"KALIMANTAN UTARA","nmkab":"NUNUKAN","nmkec":"SEBATIK TIMUR","nmdesa":"SUNGAI NYAMUK","nmsls":"RT 002 DUSUN MULIA"}}]}