{"type":"FeatureCollection","features":[{"type":"Feature","geometry":{"type":"MultiPolygon","coordinates":[[[[117.83933,4.12984],[117.83924,4.12957],[117.83926,4.12957],[117.83935,4.12956],[117.83939,4.12941],[117.83946,4.12929],[117.83957,4.12913],[117.8397,4.12893],[117.83978,4.12885],[117.83984,4.12883],[117.83993,4.12887],[117.84005,4.12896],[117.8401,4.12904],[117.84014,4.12912],[117.84023,4.12916],[117.84032,4.12922],[117.84044,4.12929],[117.84054,4.12931],[117.84065,4.12926],[117.84071,4.12924],[117.84082,4.12927],[117.84103,4.12929],[117.84113,4.1293],[117.8413,4.12929],[117.84137,4.12928],[117.84141,4.12927],[117.84123,4.12812],[117.84101,4.12691],[117.84078,4.12593],[117.84034,4.11918],[117.84296,4.11857],[117.84494,4.11854],[117.84509,4.11857],[117.84522,4.11861],[117.84541,4.11864],[117.84564,4.1186],[117.84563,4.11827],[117.84647,4.11828],[117.84693,4.11806],[117.84732,4.11773],[117.84825,4.11706],[117.84557,4.11542],[117.84556,4.11541],[117.83918,4.1115],[117.83801,4.11079],[117.83554,4.10927],[117.8346,4.11],[117.83394,4.11053],[117.83271,4.1115],[117.83118,4.1127],[117.83073,4.11299],[117.82718,4.1152],[117.82633,4.11569],[117.82639,4.11577],[117.82644,4.11584],[117.82654,4.11587],[117.8266,4.11591],[117.82662,4.116],[117.82663,4.11607],[117.82673,4.11619],[117.82686,4.11631],[117.82701,4.11634],[117.82718,4.11634],[117.82733,4.11635],[117.82746,4.11641],[117.82761,4.11644],[117.82773,4.11648],[117.82778,4.11655],[117.82778,4.11664],[117.82772,4.11677],[117.82764,4.11689],[117.82759,4.11695],[117.82758,4.11706],[117.82769,4.11713],[117.82779,4.11721],[117.82776,4.11734],[117.82795,4.1195],[117.83112,4.12728],[117.83137,4.1279],[117.83143,4.12802],[117.83147,4.12771],[117.83153,4.12748],[117.83154,4.12731],[117.83162,4.1272],[117.83186,4.12707],[117.83197,4.12702],[117.83225,4.12689],[117.83246,4.12682],[117.83265,4.12677],[117.83291,4.12673],[117.83316,4.12667],[117.83334,4.12661],[117.83353,4.12656],[117.83372,4.12645],[117.83385,4.12637],[117.83398,4.12624],[117.83413,4.12616],[117.83427,4.12605],[117.83437,4.12597],[117.83457,4.1259],[117.83469,4.12585],[117.83481,4.12584],[117.83498,4.12586],[117.83506,4.12589],[117.83522,4.12592],[117.83536,4.12594],[117.8355,4.12595],[117.83562,4.12593],[117.83574,4.1259],[117.83593,4.12589],[117.83616,4.12585],[117.83626,4.12582],[117.8364,4.12575],[117.83646,4.12572],[117.83649,4.12591],[117.83653,4.12599],[117.83659,4.12608],[117.8366,4.12619],[117.83658,4.12629],[117.83661,4.12641],[117.83661,4.12651],[117.83657,4.12661],[117.83653,4.1267],[117.83655,4.12681],[117.8366,4.12694],[117.83665,4.12718],[117.83667,4.12727],[117.83673,4.12738],[117.83674,4.1276],[117.83674,4.12779],[117.83685,4.12788],[117.83695,4.12799],[117.83703,4.12805],[117.83718,4.1281],[117.83743,4.12815],[117.83759,4.12814],[117.83769,4.12805],[117.83784,4.12793],[117.83797,4.12788],[117.83817,4.12785],[117.83825,4.12782],[117.83825,4.12798],[117.83831,4.12861],[117.83835,4.12905],[117.83837,4.1297],[117.83844,4.12978],[117.83855,4.12975],[117.8387,4.12967],[117.83891,4.13003],[117.83933,4.12984]]]]},"properties":{"kdprov":"65","kdkab":"04","kdkec":"150","kddesa":"004","kdsls":"0004","idsls":"65041500040004","nmprov":"KALIMANTAN UTARA","nmkab":"NUNUKAN","nmkec":"SEBATIK TENGAH","nmdesa":"BUKIT HARAPAN","nmsls":"RT 004 DUSUN BUKIT INDAH"}},{"type":"Feature","geometry":{"type":"MultiPolygon","coordinates":[[[[117.84495,4.12812],[117.84511,4.12804],[117.84514,4.12804],[117.84531,4.12804],[117.84553,4.12803],[117.84567,4.12804],[117.84587,4.12804],[117.84591,4.12804],[117.84602,4.12805],[117.84616,4.12805],[117.8463,4.1281],[117.84641,4.12816],[117.84666,4.12824],[117.84646,4.12783],[117.84647,4.12768],[117.84635,4.12768],[117.84634,4.12752],[117.84647,4.12746],[117.8464,4.12726],[117.84645,4.12692],[117.8464,4.12669],[117.8464,4.1265],[117.84674,4.12652],[117.84687,4.12653],[117.84692,4.12537],[117.84695,4.12463],[117.84726,4.12463],[117.84765,4.1246],[117.84806,4.12457],[117.84831,4.12453],[117.8485,4.12448],[117.84878,4.12445],[117.84899,4.1244],[117.84932,4.12445],[117.84959,4.12447],[117.85016,4.12448],[117.85043,4.12445],[117.85068,4.12448],[117.85102,4.12448],[117.85134,4.12443],[117.85156,4.12439],[117.85214,4.12437],[117.85269,4.12433],[117.85327,4.1243],[117.85374,4.12428],[117.8539,4.12427],[117.85389,4.12418],[117.85389,4.12411],[117.85393,4.12398],[117.854,4.12381],[117.85403,4.12369],[117.85409,4.12355],[117.85416,4.12346],[117.85434,4.12324],[117.85449,4.12311],[117.85454,4.12307],[117.85344,4.12267],[117.85393,4.12055],[117.84867,4.11732],[117.84825,4.11706],[117.84732,4.11773],[117.84693,4.11806],[117.84647,4.11828],[117.84563,4.11827],[117.84564,4.1186],[117.84541,4.11864],[117.84522,4.11861],[117.84509,4.11857],[117.84494,4.11854],[117.84296,4.11857],[117.84034,4.11918],[117.84078,4.12593],[117.84101,4.12691],[117.84123,4.12812],[117.84141,4.12927],[117.8415,4.12924],[117.84257,4.12884],[117.84371,4.12875],[117.84428,4.12839],[117.84443,4.12833],[117.84461,4.12826],[117.84495,4.12812]]]]},"properties":{"kdprov":"65","kdkab":"04","kdkec":"150","kddesa":"004","kdsls":"0003","idsls":"65041500040003","nmprov":"KALIMANTAN UTARA","nmkab":"NUNUKAN","nmkec":"SEBATIK TENGAH","nmdesa":"BUKIT HARAPAN","nmsls":"RT 003 DUSUN MASAGO BARU"}},{"type":"Feature","geometry":{"type":"MultiPolygon","coordinates":[[[[117.85523,4.12332],[117.85502,4.12377],[117.85416,4.12346],[117.85409,4.12355],[117.85403,4.12369],[117.854,4.12381],[117.85393,4.12398],[117.85389,4.12411],[117.85389,4.12418],[117.8539,4.12427],[117.85374,4.12428],[117.85327,4.1243],[117.85269,4.12433],[117.85214,4.12437],[117.85156,4.12439],[117.85134,4.12443],[117.85102,4.12448],[117.85068,4.12448],[117.85043,4.12445],[117.85016,4.12448],[117.84959,4.12447],[117.84932,4.12445],[117.84899,4.1244],[117.84878,4.12445],[117.8485,4.12448],[117.84831,4.12453],[117.84806,4.12457],[117.84765,4.1246],[117.84726,4.12463],[117.84695,4.12463],[117.84692,4.12537],[117.84687,4.12653],[117.84674,4.12652],[117.8464,4.1265],[117.8464,4.12669],[117.84645,4.12692],[117.8464,4.12726],[117.84647,4.12746],[117.84634,4.12752],[117.84635,4.12768],[117.84647,4.12768],[117.84646,4.12783],[117.84666,4.12824],[117.84674,4.12827],[117.84682,4.12828],[117.847,4.12829],[117.84721,4.12829],[117.84751,4.12828],[117.84774,4.12828],[117.84798,4.12828],[117.84827,4.12827],[117.8486,4.12827],[117.84882,4.12828],[117.84912,4.12828],[117.84941,4.12829],[117.84963,4.12829],[117.84984,4.12832],[117.85005,4.12837],[117.85014,4.12841],[117.85024,4.12849],[117.85033,4.12857],[117.85039,4.12868],[117.8504,4.12885],[117.85039,4.12913],[117.85038,4.12931],[117.85036,4.12947],[117.85032,4.12966],[117.85027,4.12987],[117.85024,4.13],[117.85018,4.13018],[117.85018,4.13025],[117.85016,4.1304],[117.85014,4.13047],[117.85008,4.13059],[117.85002,4.13071],[117.85,4.13079],[117.85,4.13089],[117.84999,4.13112],[117.84997,4.13128],[117.84994,4.13145],[117.84992,4.13167],[117.84992,4.13175],[117.84989,4.13184],[117.84985,4.1319],[117.84979,4.13198],[117.84969,4.1321],[117.84958,4.13226],[117.84944,4.13242],[117.84934,4.13251],[117.84919,4.13266],[117.84906,4.13282],[117.84905,4.13287],[117.84904,4.1331],[117.84904,4.13337],[117.84904,4.13352],[117.84904,4.13368],[117.84908,4.13377],[117.84916,4.13387],[117.84923,4.13396],[117.84926,4.13407],[117.8494,4.13417],[117.84949,4.13421],[117.8496,4.13424],[117.84978,4.13428],[117.84997,4.13433],[117.85017,4.13437],[117.85033,4.1344],[117.85053,4.13442],[117.85067,4.13445],[117.8508,4.13445],[117.85093,4.1344],[117.85109,4.13432],[117.85123,4.13426],[117.85138,4.13426],[117.8515,4.13429],[117.85171,4.13431],[117.85186,4.13426],[117.85202,4.13419],[117.85225,4.13419],[117.8525,4.13415],[117.85288,4.13425],[117.85312,4.13436],[117.85344,4.13456],[117.85366,4.13469],[117.85398,4.1349],[117.85417,4.13511],[117.85431,4.13537],[117.85436,4.13556],[117.85473,4.13556],[117.85471,4.13491],[117.85471,4.13487],[117.85585,4.13482],[117.8563,4.13483],[117.85635,4.13474],[117.85623,4.133],[117.85614,4.13269],[117.85594,4.13212],[117.85594,4.13163],[117.8562,4.13125],[117.85905,4.13142],[117.85739,4.12566],[117.85757,4.12396],[117.85581,4.12353],[117.85523,4.12332]]]]},"properties":{"kdprov":"65","kdkab":"04","kdkec":"150","kddesa":"004","kdsls":"0001","idsls":"65041500040001","nmprov":"KALIMANTAN UTARA","nmkab":"NUNUKAN","nmkec":"SEBATIK TENGAH","nmdesa":"BUKIT HARAPAN","nmsls":"RT 001 DUSUN MASAGO BARU"}},{"type":"Feature","geometry":{"type":"MultiPolygon","coordinates":[[[[117.84704,4.1428],[117.84713,4.14279],[117.84733,4.14281],[117.84743,4.14284],[117.84784,4.14292],[117.84798,4.14287],[117.84796,4.14271],[117.84788,4.14262],[117.84798,4.14242],[117.84795,4.14233],[117.8479,4.14218],[117.84789,4.142],[117.84789,4.14183],[117.8479,4.14175],[117.84788,4.14165],[117.84787,4.14155],[117.84786,4.14142],[117.84786,4.14129],[117.84786,4.14111],[117.84784,4.14095],[117.84685,4.1409],[117.84631,4.14088],[117.84488,4.14078],[117.84485,4.14074],[117.84453,4.14045],[117.8443,4.14024],[117.84402,4.13997],[117.84367,4.13967],[117.84336,4.13942],[117.84331,4.13939],[117.84371,4.13918],[117.84334,4.13883],[117.84286,4.13907],[117.8428,4.13903],[117.84273,4.13899],[117.84264,4.13897],[117.84251,4.13893],[117.84238,4.13885],[117.84215,4.13869],[117.842,4.13857],[117.84185,4.13847],[117.84168,4.13835],[117.84157,4.13824],[117.84151,4.1381],[117.84146,4.13797],[117.84141,4.13777],[117.8414,4.13763],[117.84138,4.13747],[117.84133,4.13737],[117.84127,4.13729],[117.84123,4.13724],[117.84122,4.13713],[117.8413,4.13573],[117.84134,4.13442],[117.84136,4.13351],[117.84137,4.13148],[117.84128,4.13107],[117.84156,4.13009],[117.84145,4.12939],[117.84141,4.12927],[117.84137,4.12928],[117.8413,4.12929],[117.84113,4.1293],[117.84103,4.12929],[117.84082,4.12927],[117.84071,4.12924],[117.84065,4.12926],[117.84054,4.12931],[117.84044,4.12929],[117.84032,4.12922],[117.84023,4.12916],[117.84014,4.12912],[117.8401,4.12904],[117.84005,4.12896],[117.83993,4.12887],[117.83984,4.12883],[117.83978,4.12885],[117.8397,4.12893],[117.83957,4.12913],[117.83946,4.12929],[117.83939,4.12941],[117.83935,4.12956],[117.83926,4.12957],[117.83924,4.12957],[117.83933,4.12984],[117.83891,4.13003],[117.8387,4.12967],[117.83855,4.12975],[117.83844,4.12978],[117.83837,4.1297],[117.83835,4.12905],[117.83831,4.12861],[117.83825,4.12798],[117.83825,4.12782],[117.83817,4.12785],[117.83797,4.12788],[117.83784,4.12793],[117.83769,4.12805],[117.83759,4.12814],[117.83743,4.12815],[117.83718,4.1281],[117.83703,4.12805],[117.83695,4.12799],[117.83685,4.12788],[117.83674,4.12779],[117.83674,4.1276],[117.83673,4.12738],[117.83667,4.12727],[117.83665,4.12718],[117.8366,4.12694],[117.83655,4.12681],[117.83653,4.1267],[117.83657,4.12661],[117.83661,4.12651],[117.83661,4.12641],[117.83658,4.12629],[117.8366,4.12619],[117.83659,4.12608],[117.83653,4.12599],[117.83649,4.12591],[117.83646,4.12572],[117.8364,4.12575],[117.83626,4.12582],[117.83616,4.12585],[117.83593,4.12589],[117.83574,4.1259],[117.83562,4.12593],[117.8355,4.12595],[117.83536,4.12594],[117.83522,4.12592],[117.83506,4.12589],[117.83498,4.12586],[117.83481,4.12584],[117.83469,4.12585],[117.83457,4.1259],[117.83437,4.12597],[117.83427,4.12605],[117.83413,4.12616],[117.83398,4.12624],[117.83385,4.12637],[117.83372,4.12645],[117.83353,4.12656],[117.83334,4.12661],[117.83316,4.12667],[117.83291,4.12673],[117.83265,4.12677],[117.83246,4.12682],[117.83225,4.12689],[117.83197,4.12702],[117.83186,4.12707],[117.83162,4.1272],[117.83154,4.12731],[117.83153,4.12748],[117.83147,4.12771],[117.83143,4.12802],[117.83142,4.12806],[117.83135,4.12826],[117.83129,4.12843],[117.83129,4.12853],[117.83129,4.12871],[117.83129,4.1289],[117.83127,4.12908],[117.83136,4.12921],[117.8315,4.12937],[117.83168,4.12953],[117.83189,4.12964],[117.83205,4.12971],[117.83222,4.12982],[117.83229,4.12986],[117.83234,4.12996],[117.83227,4.13006],[117.83214,4.13015],[117.83196,4.13027],[117.83181,4.13038],[117.83159,4.13053],[117.83146,4.13073],[117.83137,4.13084],[117.83128,4.1309],[117.83115,4.13092],[117.83104,4.13096],[117.83104,4.13099],[117.83155,4.13324],[117.83168,4.13323],[117.83187,4.13334],[117.83207,4.13348],[117.83221,4.13365],[117.83231,4.1338],[117.83234,4.13391],[117.83236,4.13407],[117.83238,4.13433],[117.83241,4.13447],[117.83246,4.13458],[117.83249,4.1347],[117.83252,4.13482],[117.8325,4.13497],[117.83254,4.13514],[117.83263,4.13528],[117.83276,4.13538],[117.83297,4.13546],[117.83322,4.13548],[117.83339,4.13547],[117.83356,4.13551],[117.8337,4.13564],[117.83386,4.13576],[117.83405,4.13593],[117.83414,4.13604],[117.83427,4.13631],[117.8344,4.13664],[117.83449,4.13682],[117.8346,4.13692],[117.83477,4.13699],[117.83502,4.13707],[117.83529,4.13713],[117.83557,4.13719],[117.83565,4.13719],[117.83573,4.13717],[117.83585,4.13709],[117.83594,4.13704],[117.83604,4.13699],[117.83613,4.13696],[117.83623,4.13694],[117.83637,4.13697],[117.83652,4.13704],[117.83662,4.1371],[117.83671,4.13718],[117.83681,4.1373],[117.83687,4.13737],[117.83694,4.13745],[117.83704,4.13756],[117.83714,4.13766],[117.83724,4.13768],[117.83734,4.13766],[117.8374,4.1376],[117.83744,4.13752],[117.83749,4.13748],[117.83751,4.13755],[117.83754,4.13776],[117.83757,4.13793],[117.83758,4.13809],[117.83757,4.13822],[117.83751,4.13838],[117.83743,4.13848],[117.83738,4.13857],[117.83735,4.13865],[117.83732,4.1388],[117.83729,4.13901],[117.83729,4.13919],[117.83729,4.13935],[117.83724,4.1395],[117.83716,4.13983],[117.83714,4.13991],[117.83701,4.13991],[117.83694,4.13996],[117.83672,4.13999],[117.83634,4.13999],[117.83622,4.14009],[117.83596,4.14043],[117.83596,4.14068],[117.83543,4.14117],[117.83574,4.14132],[117.83585,4.14147],[117.83591,4.14158],[117.83583,4.14191],[117.83551,4.14247],[117.83526,4.14284],[117.83527,4.14284],[117.8367,4.14392],[117.83788,4.14466],[117.8379,4.14459],[117.83792,4.14451],[117.83795,4.14444],[117.83803,4.14427],[117.83806,4.14421],[117.83806,4.14421],[117.83808,4.14412],[117.83808,4.14403],[117.83807,4.14396],[117.83804,4.14388],[117.83797,4.14373],[117.83791,4.14357],[117.83788,4.14347],[117.83786,4.14342],[117.8378,4.14336],[117.83774,4.1433],[117.83759,4.14315],[117.8375,4.14304],[117.83749,4.14297],[117.83747,4.14292],[117.83744,4.14286],[117.8374,4.14282],[117.83734,4.14275],[117.83722,4.14269],[117.83717,4.14263],[117.83705,4.14255],[117.83695,4.14246],[117.83692,4.14244],[117.83686,4.14239],[117.83681,4.14232],[117.83678,4.14224],[117.83675,4.14215],[117.83674,4.14207],[117.83675,4.14198],[117.83677,4.14179],[117.8368,4.14169],[117.83685,4.14159],[117.83689,4.14151],[117.83699,4.14152],[117.83709,4.14153],[117.83719,4.14155],[117.83728,4.14156],[117.83734,4.14157],[117.83744,4.14162],[117.83754,4.14164],[117.83779,4.14171],[117.83792,4.14174],[117.83802,4.14176],[117.83808,4.14178],[117.83818,4.1418],[117.83828,4.14184],[117.8384,4.14181],[117.83844,4.14181],[117.83843,4.14172],[117.83846,4.14156],[117.83844,4.14145],[117.83845,4.14143],[117.83854,4.14125],[117.83856,4.14111],[117.83857,4.14099],[117.8386,4.14089],[117.8386,4.1407],[117.83863,4.14047],[117.83871,4.14016],[117.83872,4.14],[117.83874,4.13981],[117.83879,4.13966],[117.83882,4.1395],[117.83884,4.13936],[117.83889,4.13931],[117.839,4.13924],[117.83923,4.13924],[117.83938,4.13926],[117.83959,4.13924],[117.83974,4.13925],[117.83985,4.13923],[117.84002,4.13923],[117.84015,4.1392],[117.84026,4.13919],[117.84036,4.13919],[117.84054,4.13916],[117.84076,4.13914],[117.84082,4.13914],[117.84095,4.13913],[117.84109,4.13914],[117.84117,4.13915],[117.84117,4.13923],[117.8412,4.13939],[117.84114,4.13955],[117.84117,4.13965],[117.84116,4.13997],[117.84118,4.14013],[117.8413,4.14036],[117.84132,4.14058],[117.84131,4.14074],[117.84133,4.14102],[117.84136,4.14127],[117.84132,4.14155],[117.84131,4.14165],[117.84131,4.14171],[117.8413,4.14181],[117.84135,4.14182],[117.84149,4.14184],[117.84161,4.14185],[117.84176,4.14188],[117.8419,4.14191],[117.84208,4.14196],[117.84215,4.14196],[117.84224,4.14201],[117.84228,4.142],[117.84237,4.14205],[117.84244,4.14207],[117.84258,4.1421],[117.84271,4.14215],[117.84288,4.14217],[117.84304,4.14225],[117.84327,4.14237],[117.84333,4.1424],[117.84326,4.1427],[117.84326,4.14306],[117.84343,4.14366],[117.84353,4.1441],[117.84377,4.14447],[117.84424,4.14477],[117.84465,4.14493],[117.84532,4.14508],[117.84567,4.14512],[117.84594,4.14499],[117.84619,4.14479],[117.8462,4.14478],[117.84644,4.14457],[117.84669,4.14429],[117.84691,4.14393],[117.84703,4.14349],[117.84704,4.14306],[117.84704,4.1428]]]]},"properties":{"kdprov":"65","kdkab":"04","kdkec":"150","kddesa":"004","kdsls":"0005","idsls":"65041500040005","nmprov":"KALIMANTAN UTARA","nmkab":"NUNUKAN","nmkec":"SEBATIK TENGAH","nmdesa":"BUKIT HARAPAN","nmsls":"RT 005 DUSUN BUKIT INDAH"}},{"type":"Feature","geometry":{"type":"MultiPolygon","coordinates":[[[[117.84286,4.13907],[117.84334,4.13883],[117.84371,4.13918],[117.84331,4.13939],[117.84336,4.13942],[117.84367,4.13967],[117.84402,4.13997],[117.8443,4.14024],[117.84453,4.14045],[117.84485,4.14074],[117.84488,4.14078],[117.84631,4.14088],[117.84685,4.1409],[117.84784,4.14095],[117.84791,4.14087],[117.8483,4.14068],[117.84799,4.14034],[117.84796,4.14004],[117.84796,4.13998],[117.84795,4.13991],[117.84798,4.13985],[117.84804,4.13986],[117.84815,4.13982],[117.84823,4.13981],[117.84838,4.13979],[117.84845,4.1398],[117.84852,4.13979],[117.84865,4.13982],[117.84877,4.13984],[117.84891,4.13979],[117.84897,4.13973],[117.84897,4.13966],[117.84916,4.13968],[117.84917,4.13959],[117.84931,4.13961],[117.84946,4.13944],[117.85001,4.13974],[117.85018,4.13964],[117.85046,4.1395],[117.85041,4.13917],[117.85033,4.13885],[117.84986,4.1387],[117.85022,4.13845],[117.85068,4.1384],[117.85098,4.13855],[117.8512,4.13847],[117.85126,4.13848],[117.85127,4.13846],[117.85129,4.13842],[117.8513,4.13838],[117.85207,4.13858],[117.85214,4.13838],[117.8523,4.13812],[117.85251,4.13807],[117.85288,4.13808],[117.85362,4.13816],[117.85397,4.13816],[117.85444,4.13837],[117.85467,4.13842],[117.85479,4.1376],[117.85473,4.13556],[117.85436,4.13556],[117.85431,4.13537],[117.85417,4.13511],[117.85398,4.1349],[117.85366,4.13469],[117.85344,4.13456],[117.85312,4.13436],[117.85288,4.13425],[117.8525,4.13415],[117.85225,4.13419],[117.85202,4.13419],[117.85186,4.13426],[117.85171,4.13431],[117.8515,4.13429],[117.85138,4.13426],[117.85123,4.13426],[117.85109,4.13432],[117.85093,4.1344],[117.8508,4.13445],[117.85067,4.13445],[117.85053,4.13442],[117.85033,4.1344],[117.85017,4.13437],[117.84997,4.13433],[117.84978,4.13428],[117.8496,4.13424],[117.84949,4.13421],[117.8494,4.13417],[117.84926,4.13407],[117.84923,4.13396],[117.84916,4.13387],[117.84908,4.13377],[117.84904,4.13368],[117.84904,4.13352],[117.84904,4.13337],[117.84904,4.1331],[117.84905,4.13287],[117.84906,4.13282],[117.84919,4.13266],[117.84934,4.13251],[117.84944,4.13242],[117.84958,4.13226],[117.84969,4.1321],[117.84979,4.13198],[117.84985,4.1319],[117.84989,4.13184],[117.84992,4.13175],[117.84992,4.13167],[117.84994,4.13145],[117.84997,4.13128],[117.84999,4.13112],[117.85,4.13089],[117.85,4.13079],[117.85002,4.13071],[117.85008,4.13059],[117.85014,4.13047],[117.85016,4.1304],[117.85018,4.13025],[117.85018,4.13018],[117.85024,4.13],[117.85027,4.12987],[117.85032,4.12966],[117.85036,4.12947],[117.85038,4.12931],[117.85039,4.12913],[117.8504,4.12885],[117.85039,4.12868],[117.85033,4.12857],[117.85024,4.12849],[117.85014,4.12841],[117.85005,4.12837],[117.84984,4.12832],[117.84963,4.12829],[117.84941,4.12829],[117.84912,4.12828],[117.84882,4.12828],[117.8486,4.12827],[117.84827,4.12827],[117.84798,4.12828],[117.84774,4.12828],[117.84751,4.12828],[117.84721,4.12829],[117.847,4.12829],[117.84682,4.12828],[117.84674,4.12827],[117.84666,4.12824],[117.84641,4.12816],[117.8463,4.1281],[117.84616,4.12805],[117.84602,4.12805],[117.84591,4.12804],[117.84587,4.12804],[117.84567,4.12804],[117.84553,4.12803],[117.84531,4.12804],[117.84514,4.12804],[117.84511,4.12804],[117.84495,4.12812],[117.84461,4.12826],[117.84443,4.12833],[117.84428,4.12839],[117.84371,4.12875],[117.84257,4.12884],[117.8415,4.12924],[117.84141,4.12927],[117.84145,4.12939],[117.84156,4.13009],[117.84128,4.13107],[117.84137,4.13148],[117.84136,4.13351],[117.84134,4.13442],[117.8413,4.13573],[117.84122,4.13713],[117.84123,4.13724],[117.84127,4.13729],[117.84133,4.13737],[117.84138,4.13747],[117.8414,4.13763],[117.84141,4.13777],[117.84146,4.13797],[117.84151,4.1381],[117.84157,4.13824],[117.84168,4.13835],[117.84185,4.13847],[117.842,4.13857],[117.84215,4.13869],[117.84238,4.13885],[117.84251,4.13893],[117.84264,4.13897],[117.84273,4.13899],[117.8428,4.13903],[117.84286,4.13907]]]]},"properties":{"kdprov":"65","kdkab":"04","kdkec":"150","kddesa":"004","kdsls":"0002","idsls":"65041500040002","nmprov":"KALIMANTAN UTARA","nmkab":"NUNUKAN","nmkec":"SEBATIK TENGAH","nmdesa":"BUKIT HARAPAN","nmsls":"RT 002 DUSUN MASAGO BARU"}},{"type":"Feature","geometry":{"type":"MultiPolygon","coordinates":[[[[117.83526,4.14284],[117.83551,4.14247],[117.83583,4.14191],[117.83591,4.14158],[117.83585,4.14147],[117.83574,4.14132],[117.83543,4.14117],[117.83596,4.14068],[117.83596,4.14043],[117.83622,4.14009],[117.83634,4.13999],[117.83672,4.13999],[117.83694,4.13996],[117.83701,4.13991],[117.83714,4.13991],[117.83716,4.13983],[117.83724,4.1395],[117.83729,4.13935],[117.83729,4.13919],[117.83729,4.13901],[117.83732,4.1388],[117.83735,4.13865],[117.83738,4.13857],[117.83743,4.13848],[117.83751,4.13838],[117.83757,4.13822],[117.83758,4.13809],[117.83757,4.13793],[117.83754,4.13776],[117.83751,4.13755],[117.83749,4.13748],[117.83744,4.13752],[117.8374,4.1376],[117.83734,4.13766],[117.83724,4.13768],[117.83714,4.13766],[117.83704,4.13756],[117.83694,4.13745],[117.83687,4.13737],[117.83681,4.1373],[117.83671,4.13718],[117.83662,4.1371],[117.83652,4.13704],[117.83637,4.13697],[117.83623,4.13694],[117.83613,4.13696],[117.83604,4.13699],[117.83594,4.13704],[117.83585,4.13709],[117.83573,4.13717],[117.83565,4.13719],[117.83557,4.13719],[117.83529,4.13713],[117.83502,4.13707],[117.83477,4.13699],[117.8346,4.13692],[117.83449,4.13682],[117.8344,4.13664],[117.83427,4.13631],[117.83414,4.13604],[117.83405,4.13593],[117.83386,4.13576],[117.8337,4.13564],[117.83356,4.13551],[117.83339,4.13547],[117.83322,4.13548],[117.83297,4.13546],[117.83276,4.13538],[117.83263,4.13528],[117.83254,4.13514],[117.8325,4.13497],[117.83252,4.13482],[117.83249,4.1347],[117.83246,4.13458],[117.83241,4.13447],[117.83238,4.13433],[117.83236,4.13407],[117.83234,4.13391],[117.83231,4.1338],[117.83221,4.13365],[117.83207,4.13348],[117.83187,4.13334],[117.83168,4.13323],[117.83155,4.13324],[117.83148,4.13324],[117.83139,4.1334],[117.8313,4.13371],[117.83121,4.13378],[117.8311,4.13361],[117.83099,4.13329],[117.83099,4.133],[117.83092,4.13289],[117.8309,4.13268],[117.83081,4.13255],[117.83069,4.13243],[117.83044,4.13232],[117.83027,4.13231],[117.83008,4.13235],[117.8299,4.13245],[117.82983,4.13255],[117.8298,4.13265],[117.82979,4.13281],[117.82978,4.13292],[117.82973,4.13305],[117.82968,4.13314],[117.82961,4.13322],[117.82955,4.13329],[117.82944,4.1334],[117.82913,4.13353],[117.82843,4.13368],[117.82738,4.134],[117.82714,4.13405],[117.82714,4.13426],[117.82714,4.13434],[117.82713,4.13446],[117.82713,4.13456],[117.82716,4.13466],[117.82718,4.13471],[117.82721,4.13477],[117.82727,4.13481],[117.82734,4.13484],[117.82744,4.13487],[117.82756,4.13487],[117.82763,4.1349],[117.82769,4.13495],[117.82775,4.13502],[117.82777,4.1351],[117.8278,4.13521],[117.82781,4.1353],[117.82782,4.13542],[117.82782,4.1355],[117.82782,4.1356],[117.82783,4.13568],[117.82785,4.13576],[117.82788,4.13579],[117.82786,4.13587],[117.82801,4.13661],[117.82819,4.13754],[117.82829,4.13802],[117.8284,4.13806],[117.82842,4.13806],[117.83091,4.13984],[117.83165,4.14027],[117.83172,4.1408],[117.83184,4.14165],[117.83203,4.14196],[117.83222,4.1421],[117.8324,4.14212],[117.83325,4.14222],[117.83427,4.14244],[117.83526,4.14284]]]]},"properties":{"kdprov":"65","kdkab":"04","kdkec":"150","kddesa":"004","kdsls":"0006","idsls":"65041500040006","nmprov":"KALIMANTAN UTARA","nmkab":"NUNUKAN","nmkec":"SEBATIK TENGAH","nmdesa":"BUKIT HARAPAN","nmsls":"RT 006 DUSUN BUKIT INDAH"}},{"type":"Feature","geometry":{"type":"MultiPolygon","coordinates":[[[[117.83769,4.15618],[117.8349,4.15573],[117.83446,4.15646],[117.83357,4.16188],[117.83356,4.16194],[117.83389,4.16206],[117.83414,4.16231],[117.83422,4.16251],[117.8342,4.16269],[117.83415,4.16308],[117.83427,4.16362],[117.83461,4.16383],[117.83502,4.16479],[117.83623,4.16583],[117.83757,4.16656],[117.83775,4.16674],[117.83801,4.16674],[117.83871,4.16673],[117.83871,4.1664],[117.83872,4.16563],[117.84075,4.16364],[117.84095,4.16325],[117.84042,4.16255],[117.83952,4.1596],[117.83854,4.15925],[117.83769,4.15618]]]]},"properties":{"kdprov":"65","kdkab":"04","kdkec":"150","kddesa":"002","kdsls":"0001","idsls":"65041500020001","nmprov":"KALIMANTAN UTARA","nmkab":"NUNUKAN","nmkec":"SEBATIK TENGAH","nmdesa":"MASPUL","nmsls":"RT 001 DUSUN RAWA JADI"}},{"type":"Feature","geometry":{"type":"MultiPolygon","coordinates":[[[[117.8368,4.15019],[117.83702,4.15013],[117.8373,4.15002],[117.83739,4.15],[117.83752,4.14993],[117.83768,4.1499],[117.83788,4.1499],[117.83802,4.14993],[117.83816,4.14999],[117.83828,4.15008],[117.83835,4.15014],[117.83854,4.14982],[117.83861,4.14967],[117.83856,4.14952],[117.8385,4.14947],[117.83851,4.14947],[117.83852,4.14921],[117.83853,4.14904],[117.83852,4.1489],[117.83851,4.14878],[117.83853,4.14866],[117.83854,4.14853],[117.83853,4.1483],[117.8385,4.14809],[117.83847,4.14791],[117.83844,4.14775],[117.83839,4.14767],[117.83838,4.14757],[117.8384,4.14744],[117.83842,4.14729],[117.83839,4.14715],[117.83835,4.14697],[117.83835,4.14684],[117.83835,4.14673],[117.83837,4.14662],[117.83838,4.14656],[117.83876,4.14658],[117.83878,4.14623],[117.83851,4.14621],[117.83851,4.14614],[117.8385,4.14603],[117.83847,4.14594],[117.83857,4.14583],[117.83865,4.14565],[117.83869,4.14536],[117.83859,4.14508],[117.83854,4.1448],[117.83858,4.14453],[117.83868,4.1444],[117.83878,4.14422],[117.83885,4.14402],[117.83868,4.14398],[117.83843,4.14408],[117.83822,4.1442],[117.83806,4.14421],[117.83806,4.14421],[117.83803,4.14427],[117.83795,4.14444],[117.83792,4.14451],[117.8379,4.14459],[117.83788,4.14466],[117.8367,4.14392],[117.83527,4.14284],[117.83526,4.14284],[117.83427,4.14244],[117.83325,4.14222],[117.8324,4.14212],[117.8324,4.14217],[117.83238,4.14225],[117.82976,4.14522],[117.82967,4.14532],[117.82966,4.14546],[117.82958,4.14565],[117.82944,4.14585],[117.8293,4.14607],[117.82925,4.14627],[117.82923,4.14645],[117.82928,4.14658],[117.82927,4.1468],[117.82932,4.14691],[117.82936,4.14705],[117.82945,4.14718],[117.82958,4.14712],[117.8297,4.14708],[117.82987,4.14707],[117.83,4.14708],[117.83023,4.14719],[117.83043,4.14729],[117.83058,4.14735],[117.83089,4.14741],[117.83121,4.14746],[117.83145,4.14746],[117.83155,4.14745],[117.83162,4.14744],[117.83186,4.14727],[117.83203,4.14714],[117.83221,4.14701],[117.83238,4.14696],[117.83256,4.14699],[117.83282,4.14706],[117.83302,4.14713],[117.83324,4.14718],[117.8334,4.14719],[117.83365,4.14728],[117.83378,4.14738],[117.83383,4.14753],[117.83394,4.14774],[117.83409,4.148],[117.83432,4.14832],[117.83463,4.14872],[117.83484,4.14902],[117.83514,4.14931],[117.83548,4.14967],[117.83572,4.14997],[117.83594,4.15016],[117.83601,4.1502],[117.83609,4.15019],[117.83632,4.15022],[117.83661,4.15021],[117.8368,4.15019]]]]},"properties":{"kdprov":"65","kdkab":"04","kdkec":"150","kddesa":"002","kdsls":"0003","idsls":"65041500020003","nmprov":"KALIMANTAN UTARA","nmkab":"NUNUKAN","nmkec":"SEBATIK TENGAH","nmdesa":"MASPUL","nmsls":"RT 003 DUSUN RAWA JADI"}},{"type":"Feature","geometry":{"type":"MultiPolygon","coordinates":[[[[117.83197,4.16197],[117.83219,4.16176],[117.83245,4.16154],[117.83286,4.16145],[117.83326,4.16166],[117.83346,4.1619],[117.83356,4.16194],[117.83357,4.16188],[117.83446,4.15646],[117.8349,4.15573],[117.83502,4.15562],[117.8351,4.15552],[117.8351,4.15534],[117.83511,4.15483],[117.83517,4.15444],[117.83521,4.15426],[117.83522,4.15372],[117.83511,4.15325],[117.8351,4.153],[117.83513,4.15269],[117.83514,4.15212],[117.83523,4.15201],[117.83525,4.15178],[117.83522,4.15149],[117.83523,4.15116],[117.83527,4.15088],[117.83533,4.15063],[117.83542,4.15048],[117.83561,4.15036],[117.8359,4.15021],[117.83601,4.1502],[117.83594,4.15016],[117.83572,4.14997],[117.83548,4.14967],[117.83514,4.14931],[117.83484,4.14902],[117.83463,4.14872],[117.83432,4.14832],[117.83409,4.148],[117.83394,4.14774],[117.83383,4.14753],[117.83378,4.14738],[117.83365,4.14728],[117.8334,4.14719],[117.83324,4.14718],[117.83302,4.14713],[117.83282,4.14706],[117.83256,4.14699],[117.83238,4.14696],[117.83221,4.14701],[117.83203,4.14714],[117.83186,4.14727],[117.83162,4.14744],[117.83155,4.14745],[117.83155,4.14756],[117.83155,4.14769],[117.83152,4.14779],[117.83148,4.14791],[117.83143,4.14804],[117.83133,4.14814],[117.83123,4.14832],[117.83119,4.14842],[117.83119,4.14854],[117.83122,4.14866],[117.83124,4.14875],[117.83129,4.14888],[117.83135,4.14905],[117.83136,4.14918],[117.83135,4.14931],[117.8313,4.14948],[117.83125,4.14959],[117.83117,4.1497],[117.83112,4.14986],[117.831,4.15013],[117.83097,4.15024],[117.83093,4.15036],[117.83092,4.1505],[117.83092,4.15063],[117.83091,4.15077],[117.83084,4.15092],[117.83081,4.15107],[117.83082,4.15131],[117.8308,4.15146],[117.83073,4.15159],[117.8306,4.1517],[117.83044,4.15182],[117.83026,4.15197],[117.83014,4.15208],[117.83004,4.15224],[117.83001,4.15232],[117.82994,4.15245],[117.82988,4.15251],[117.82974,4.15262],[117.8296,4.15272],[117.82943,4.15282],[117.82923,4.1529],[117.82908,4.15299],[117.82887,4.15317],[117.82874,4.1533],[117.82864,4.1534],[117.82823,4.15353],[117.82784,4.15399],[117.82768,4.15424],[117.82778,4.15491],[117.82784,4.15621],[117.82659,4.15624],[117.82646,4.15624],[117.82646,4.15643],[117.82644,4.15687],[117.82645,4.15728],[117.82647,4.15753],[117.82645,4.15785],[117.82646,4.15804],[117.82648,4.15821],[117.82653,4.15874],[117.82657,4.1591],[117.82664,4.15957],[117.82671,4.15991],[117.82674,4.16014],[117.82705,4.16015],[117.82746,4.16027],[117.82781,4.16044],[117.82825,4.16066],[117.82843,4.16104],[117.82845,4.16104],[117.82848,4.16115],[117.82858,4.16131],[117.82862,4.16157],[117.8292,4.16196],[117.8297,4.16226],[117.83006,4.16238],[117.83039,4.16231],[117.83071,4.1622],[117.83104,4.16219],[117.83142,4.16218],[117.83171,4.16212],[117.83187,4.16206],[117.83197,4.16197]]]]},"properties":{"kdprov":"65","kdkab":"04","kdkec":"150","kddesa":"002","kdsls":"0004","idsls":"65041500020004","nmprov":"KALIMANTAN UTARA","nmkab":"NUNUKAN","nmkec":"SEBATIK TENGAH","nmdesa":"MASPUL","nmsls":"RT 004 DUSUN MAIWAH"}},{"type":"Feature","geometry":{"type":"MultiPolygon","coordinates":[[[[117.84704,4.1428],[117.84704,4.14306],[117.84703,4.14349],[117.84691,4.14393],[117.84669,4.14429],[117.84644,4.14457],[117.8462,4.14478],[117.84619,4.14479],[117.84679,4.14521],[117.84797,4.14652],[117.84797,4.14786],[117.8483,4.14836],[117.84902,4.14928],[117.84891,4.15037],[117.84833,4.15144],[117.84805,4.15217],[117.84793,4.15326],[117.84829,4.15419],[117.84929,4.15417],[117.84976,4.1541],[117.85,4.15422],[117.8502,4.1546],[117.85057,4.15478],[117.85085,4.15506],[117.85158,4.15518],[117.85196,4.15542],[117.85274,4.1557],[117.85352,4.15559],[117.85396,4.15556],[117.85442,4.15553],[117.85489,4.15548],[117.85569,4.15557],[117.8559,4.15559],[117.8567,4.15578],[117.85704,4.15594],[117.8577,4.15621],[117.85792,4.15639],[117.85844,4.15653],[117.85916,4.1566],[117.85995,4.15669],[117.86029,4.15675],[117.86107,4.15685],[117.8614,4.15675],[117.86152,4.15671],[117.86149,4.15667],[117.86182,4.15607],[117.86217,4.15528],[117.86263,4.15465],[117.86291,4.15388],[117.86295,4.15377],[117.86335,4.15347],[117.86369,4.1532],[117.86363,4.15319],[117.86354,4.15315],[117.86343,4.1531],[117.86325,4.15303],[117.86322,4.15301],[117.8631,4.15295],[117.86306,4.15292],[117.86292,4.15289],[117.86277,4.15289],[117.86267,4.15283],[117.86258,4.15285],[117.86244,4.15285],[117.86236,4.15285],[117.86233,4.15283],[117.86221,4.15281],[117.86215,4.15282],[117.86204,4.15278],[117.86199,4.15279],[117.86191,4.15273],[117.86179,4.15268],[117.86171,4.15265],[117.86161,4.15264],[117.8616,4.15267],[117.8616,4.15281],[117.86163,4.15286],[117.86159,4.15288],[117.8615,4.15293],[117.86138,4.15299],[117.86135,4.15302],[117.86131,4.15306],[117.86123,4.15307],[117.8611,4.15307],[117.86103,4.15305],[117.86091,4.15305],[117.86083,4.15304],[117.86079,4.15304],[117.86066,4.15304],[117.8606,4.15303],[117.86051,4.15304],[117.86048,4.15305],[117.86039,4.15309],[117.86024,4.15305],[117.86012,4.15303],[117.86001,4.15302],[117.85995,4.15303],[117.85978,4.15305],[117.85971,4.15303],[117.85964,4.15302],[117.85955,4.15303],[117.85949,4.15302],[117.85948,4.15302],[117.85947,4.15295],[117.85947,4.15291],[117.85949,4.1528],[117.8595,4.15269],[117.8595,4.15257],[117.85951,4.15248],[117.85954,4.15231],[117.85957,4.15223],[117.85958,4.15212],[117.85958,4.15205],[117.85958,4.15192],[117.85961,4.15186],[117.85956,4.15171],[117.85958,4.15161],[117.85963,4.1515],[117.85967,4.15142],[117.85966,4.15132],[117.85965,4.15126],[117.85966,4.15117],[117.85967,4.15108],[117.85966,4.151],[117.85967,4.15086],[117.85969,4.15075],[117.85967,4.15068],[117.85984,4.15069],[117.8599,4.1507],[117.85996,4.15074],[117.8601,4.15078],[117.86012,4.1508],[117.86017,4.15073],[117.8602,4.1507],[117.8602,4.15061],[117.86023,4.15049],[117.86028,4.1504],[117.86032,4.15032],[117.86037,4.15019],[117.86039,4.1501],[117.86039,4.15008],[117.86041,4.14999],[117.86043,4.14994],[117.86044,4.14991],[117.86046,4.14986],[117.86049,4.14982],[117.86053,4.14971],[117.86053,4.14966],[117.86056,4.14961],[117.86057,4.14955],[117.86066,4.14926],[117.86073,4.14905],[117.86082,4.14884],[117.86066,4.14872],[117.86058,4.14869],[117.86043,4.14863],[117.86022,4.14857],[117.86017,4.14853],[117.86013,4.14852],[117.86015,4.14833],[117.86014,4.1482],[117.86016,4.14813],[117.86018,4.14805],[117.86017,4.1479],[117.86017,4.14779],[117.86016,4.14772],[117.86016,4.14757],[117.86015,4.14749],[117.86013,4.14739],[117.86015,4.14728],[117.86013,4.1472],[117.86014,4.14705],[117.86013,4.14692],[117.86013,4.14678],[117.86013,4.1467],[117.86013,4.14658],[117.86011,4.14649],[117.86013,4.14639],[117.86014,4.14635],[117.86014,4.14626],[117.86007,4.14625],[117.85998,4.14626],[117.85994,4.14627],[117.85989,4.14627],[117.85986,4.14626],[117.85975,4.14629],[117.85973,4.14629],[117.85971,4.1463],[117.85962,4.14627],[117.85962,4.14621],[117.85962,4.14617],[117.85962,4.14609],[117.85962,4.14607],[117.85957,4.14594],[117.85948,4.14579],[117.85949,4.14567],[117.85952,4.1454],[117.85945,4.14521],[117.85946,4.14515],[117.85944,4.14502],[117.85945,4.14496],[117.85944,4.14489],[117.85946,4.14478],[117.85946,4.14471],[117.85944,4.14462],[117.85944,4.14454],[117.85942,4.14449],[117.85943,4.14441],[117.85943,4.14433],[117.85943,4.14425],[117.85941,4.14416],[117.85942,4.14412],[117.85943,4.14406],[117.85943,4.14403],[117.85944,4.144],[117.85942,4.14392],[117.8594,4.14384],[117.85934,4.14385],[117.85932,4.14384],[117.85929,4.14382],[117.85923,4.14383],[117.85911,4.14382],[117.85906,4.14381],[117.85898,4.14377],[117.8587,4.14373],[117.85863,4.14368],[117.8586,4.14366],[117.85855,4.14369],[117.85852,4.1437],[117.85847,4.14373],[117.85843,4.14377],[117.85781,4.14363],[117.85746,4.14369],[117.85709,4.14363],[117.85674,4.14368],[117.85662,4.14374],[117.85638,4.14387],[117.85637,4.14384],[117.85635,4.14378],[117.85632,4.14374],[117.85629,4.14374],[117.85624,4.14372],[117.85616,4.14375],[117.85604,4.14378],[117.85577,4.14381],[117.85562,4.1438],[117.85557,4.14379],[117.85549,4.14378],[117.85531,4.14378],[117.85528,4.14382],[117.85523,4.14387],[117.85519,4.14382],[117.85512,4.14374],[117.85502,4.14357],[117.855,4.14347],[117.85502,4.14322],[117.85504,4.1431],[117.85507,4.14297],[117.8551,4.14282],[117.85511,4.14267],[117.85514,4.14252],[117.85516,4.14239],[117.85516,4.14232],[117.85516,4.14222],[117.85517,4.142],[117.85525,4.14178],[117.85528,4.14162],[117.85529,4.14159],[117.85533,4.14157],[117.85552,4.14166],[117.85562,4.14169],[117.85571,4.14172],[117.85582,4.14174],[117.85591,4.14177],[117.856,4.14178],[117.85617,4.14185],[117.85637,4.14189],[117.85642,4.1418],[117.85644,4.14169],[117.85648,4.14161],[117.85648,4.14152],[117.85648,4.14144],[117.85647,4.14137],[117.85648,4.14132],[117.8565,4.14114],[117.85661,4.14077],[117.85667,4.14049],[117.85667,4.14033],[117.85669,4.14017],[117.85671,4.14001],[117.85672,4.13992],[117.85677,4.13982],[117.85686,4.13969],[117.85684,4.13964],[117.85672,4.13959],[117.85669,4.13957],[117.85658,4.13954],[117.85653,4.13952],[117.85651,4.13952],[117.85648,4.13952],[117.85645,4.13953],[117.85639,4.13957],[117.85632,4.13958],[117.85643,4.13865],[117.85506,4.13851],[117.85467,4.13842],[117.85444,4.13837],[117.85397,4.13816],[117.85362,4.13816],[117.85288,4.13808],[117.85251,4.13807],[117.8523,4.13812],[117.85214,4.13838],[117.85207,4.13858],[117.8513,4.13838],[117.85129,4.13842],[117.85127,4.13846],[117.85126,4.13848],[117.8512,4.13847],[117.85098,4.13855],[117.85068,4.1384],[117.85022,4.13845],[117.84986,4.1387],[117.85033,4.13885],[117.85041,4.13917],[117.85046,4.1395],[117.85018,4.13964],[117.85001,4.13974],[117.84946,4.13944],[117.84931,4.13961],[117.84917,4.13959],[117.84916,4.13968],[117.84897,4.13966],[117.84897,4.13973],[117.84891,4.13979],[117.84877,4.13984],[117.84865,4.13982],[117.84852,4.13979],[117.84845,4.1398],[117.84838,4.13979],[117.84823,4.13981],[117.84815,4.13982],[117.84804,4.13986],[117.84798,4.13985],[117.84795,4.13991],[117.84796,4.13998],[117.84796,4.14004],[117.84799,4.14034],[117.8483,4.14068],[117.84791,4.14087],[117.84784,4.14095],[117.84786,4.14111],[117.84786,4.14129],[117.84786,4.14142],[117.84787,4.14155],[117.84788,4.14165],[117.8479,4.14175],[117.84789,4.14183],[117.84789,4.142],[117.8479,4.14218],[117.84795,4.14233],[117.84798,4.14242],[117.84788,4.14262],[117.84796,4.14271],[117.84798,4.14287],[117.84784,4.14292],[117.84743,4.14284],[117.84733,4.14281],[117.84713,4.14279],[117.84704,4.1428]]]]},"properties":{"kdprov":"65","kdkab":"04","kdkec":"150","kddesa":"003","kdsls":"0013","idsls":"65041500030013","nmprov":"KALIMANTAN UTARA","nmkab":"NUNUKAN","nmkec":"SEBATIK TENGAH","nmdesa":"AJI KUNING","nmsls":"RT 013 DUSUN ABADI II"}},{"type":"Feature","geometry":{"type":"MultiPolygon","coordinates":[[[[117.87005,4.16782],[117.86977,4.16646],[117.86977,4.16618],[117.86977,4.16599],[117.86977,4.16584],[117.86976,4.16545],[117.86977,4.16504],[117.86979,4.16454],[117.86975,4.1641],[117.86975,4.16401],[117.86975,4.16383],[117.86976,4.16378],[117.86978,4.16354],[117.86979,4.16324],[117.86979,4.16303],[117.86979,4.16295],[117.86979,4.16295],[117.86976,4.16294],[117.8696,4.16288],[117.86903,4.16267],[117.86827,4.16249],[117.86686,4.16228],[117.86602,4.1623],[117.86505,4.1624],[117.86504,4.1624],[117.86404,4.16253],[117.86404,4.16253],[117.864,4.16253],[117.86379,4.16256],[117.86379,4.16271],[117.86379,4.16317],[117.86378,4.1634],[117.86382,4.164],[117.86393,4.16608],[117.86392,4.16657],[117.86392,4.16657],[117.86393,4.16675],[117.86396,4.16684],[117.86398,4.16692],[117.86401,4.16696],[117.86403,4.16703],[117.86407,4.16712],[117.86408,4.16722],[117.86404,4.16732],[117.86401,4.16738],[117.86395,4.16744],[117.86391,4.16753],[117.86394,4.16763],[117.86485,4.16776],[117.86613,4.16779],[117.86857,4.16785],[117.87005,4.16782]]]]},"properties":{"kdprov":"65","kdkab":"04","kdkec":"150","kddesa":"003","kdsls":"0001","idsls":"65041500030001","nmprov":"KALIMANTAN UTARA","nmkab":"NUNUKAN","nmkec":"SEBATIK TENGAH","nmdesa":"AJI KUNING","nmsls":"RT 001 DUSUN ABADI 1"}},{"type":"Feature","geometry":{"type":"MultiPolygon","coordinates":[[[[117.83851,4.14621],[117.83878,4.14623],[117.83876,4.14658],[117.83838,4.14656],[117.83837,4.14662],[117.83835,4.14673],[117.83835,4.14684],[117.83835,4.14697],[117.83839,4.14715],[117.83842,4.14729],[117.8384,4.14744],[117.83838,4.14757],[117.83839,4.14767],[117.83844,4.14775],[117.83847,4.14791],[117.8385,4.14809],[117.83853,4.1483],[117.83854,4.14853],[117.83853,4.14866],[117.83851,4.14878],[117.83852,4.1489],[117.83853,4.14904],[117.83852,4.14921],[117.83851,4.14947],[117.8385,4.14947],[117.83856,4.14952],[117.83861,4.14967],[117.83854,4.14982],[117.83835,4.15014],[117.83837,4.15016],[117.83871,4.15034],[117.83888,4.15047],[117.83904,4.15059],[117.83911,4.15068],[117.83925,4.15085],[117.8394,4.15095],[117.83971,4.15118],[117.83994,4.15131],[117.84019,4.15144],[117.84027,4.15154],[117.8403,4.15155],[117.84038,4.15172],[117.84046,4.15189],[117.84054,4.15216],[117.84064,4.15256],[117.84071,4.15289],[117.84077,4.15308],[117.84089,4.15336],[117.841,4.15366],[117.84107,4.15384],[117.84113,4.15397],[117.84125,4.15411],[117.84141,4.15429],[117.84156,4.15444],[117.84177,4.15461],[117.842,4.1548],[117.84227,4.15502],[117.8425,4.15524],[117.84262,4.1554],[117.84271,4.15557],[117.84278,4.1558],[117.84279,4.15598],[117.84279,4.15615],[117.84278,4.15639],[117.84275,4.15668],[117.84276,4.15685],[117.84279,4.15698],[117.84287,4.15712],[117.84295,4.15723],[117.84313,4.15735],[117.84328,4.1575],[117.8434,4.15765],[117.84347,4.15784],[117.84351,4.15805],[117.84353,4.15838],[117.84356,4.15861],[117.84359,4.15874],[117.84364,4.1589],[117.84381,4.15919],[117.84396,4.15937],[117.84412,4.15949],[117.84434,4.15963],[117.84449,4.15979],[117.84467,4.16007],[117.84479,4.16038],[117.84485,4.16057],[117.84487,4.1606],[117.84491,4.16085],[117.84494,4.16115],[117.84497,4.16132],[117.845,4.16145],[117.8451,4.16182],[117.84517,4.16231],[117.84518,4.16271],[117.84517,4.16306],[117.84518,4.16318],[117.84521,4.1634],[117.84522,4.16357],[117.84557,4.16359],[117.84616,4.16362],[117.84647,4.16363],[117.84695,4.16358],[117.84744,4.16355],[117.84787,4.16356],[117.84825,4.16356],[117.84882,4.16356],[117.84912,4.16355],[117.84933,4.16353],[117.84969,4.16346],[117.85012,4.16337],[117.85053,4.16334],[117.85098,4.16329],[117.85108,4.16328],[117.85108,4.16321],[117.85102,4.16303],[117.85099,4.16289],[117.85096,4.16283],[117.85091,4.16276],[117.85088,4.16268],[117.85083,4.16249],[117.85076,4.1621],[117.85068,4.16171],[117.8506,4.16131],[117.85051,4.16093],[117.85043,4.16058],[117.85039,4.16038],[117.85033,4.16034],[117.85014,4.16031],[117.84992,4.16034],[117.84984,4.1603],[117.84974,4.16001],[117.84963,4.15958],[117.84958,4.1594],[117.84963,4.15932],[117.84972,4.15909],[117.84974,4.15897],[117.8498,4.15887],[117.84983,4.15875],[117.84978,4.15864],[117.84973,4.15852],[117.84971,4.15831],[117.84974,4.15816],[117.84982,4.15803],[117.84984,4.15793],[117.84989,4.15782],[117.84995,4.15775],[117.84998,4.15758],[117.84993,4.15739],[117.84997,4.15718],[117.85006,4.15684],[117.8501,4.15662],[117.85008,4.15638],[117.85004,4.15611],[117.85009,4.15587],[117.85021,4.1557],[117.85018,4.15526],[117.85024,4.15505],[117.8502,4.1546],[117.85,4.15422],[117.84976,4.1541],[117.84929,4.15417],[117.84829,4.15419],[117.84793,4.15326],[117.84805,4.15217],[117.84833,4.15144],[117.84891,4.15037],[117.84902,4.14928],[117.8483,4.14836],[117.84797,4.14786],[117.84797,4.14652],[117.84679,4.14521],[117.84619,4.14479],[117.84594,4.14499],[117.84567,4.14512],[117.84532,4.14508],[117.84465,4.14493],[117.84424,4.14477],[117.84377,4.14447],[117.84353,4.1441],[117.84343,4.14366],[117.84326,4.14306],[117.84326,4.1427],[117.84333,4.1424],[117.84327,4.14237],[117.84304,4.14225],[117.84288,4.14217],[117.84271,4.14215],[117.84258,4.1421],[117.84244,4.14207],[117.84237,4.14205],[117.84228,4.142],[117.84224,4.14201],[117.84215,4.14196],[117.84208,4.14196],[117.8419,4.14191],[117.84176,4.14188],[117.84161,4.14185],[117.84149,4.14184],[117.84135,4.14182],[117.8413,4.14181],[117.84131,4.14171],[117.84131,4.14165],[117.84132,4.14155],[117.84136,4.14127],[117.84133,4.14102],[117.84131,4.14074],[117.84132,4.14058],[117.8413,4.14036],[117.84118,4.14013],[117.84116,4.13997],[117.84117,4.13965],[117.84114,4.13955],[117.8412,4.13939],[117.84117,4.13923],[117.84117,4.13915],[117.84109,4.13914],[117.84095,4.13913],[117.84082,4.13914],[117.84076,4.13914],[117.84054,4.13916],[117.84036,4.13919],[117.84026,4.13919],[117.84015,4.1392],[117.84002,4.13923],[117.83985,4.13923],[117.83974,4.13925],[117.83959,4.13924],[117.83938,4.13926],[117.83923,4.13924],[117.839,4.13924],[117.83889,4.13931],[117.83884,4.13936],[117.83882,4.1395],[117.83879,4.13966],[117.83874,4.13981],[117.83872,4.14],[117.83871,4.14016],[117.83863,4.14047],[117.8386,4.1407],[117.8386,4.14089],[117.83857,4.14099],[117.83856,4.14111],[117.83854,4.14125],[117.83845,4.14143],[117.83844,4.14145],[117.83846,4.14156],[117.83843,4.14172],[117.83844,4.14181],[117.8384,4.14181],[117.83828,4.14184],[117.83818,4.1418],[117.83808,4.14178],[117.83802,4.14176],[117.83792,4.14174],[117.83779,4.14171],[117.83754,4.14164],[117.83744,4.14162],[117.83734,4.14157],[117.83728,4.14156],[117.83719,4.14155],[117.83709,4.14153],[117.83699,4.14152],[117.83689,4.14151],[117.83685,4.14159],[117.8368,4.14169],[117.83677,4.14179],[117.83675,4.14198],[117.83674,4.14207],[117.83675,4.14215],[117.83678,4.14224],[117.83681,4.14232],[117.83686,4.14239],[117.83692,4.14244],[117.83695,4.14246],[117.83705,4.14255],[117.83717,4.14263],[117.83722,4.14269],[117.83734,4.14275],[117.8374,4.14282],[117.83744,4.14286],[117.83747,4.14292],[117.83749,4.14297],[117.8375,4.14304],[117.83759,4.14315],[117.83774,4.1433],[117.8378,4.14336],[117.83786,4.14342],[117.83788,4.14347],[117.83791,4.14357],[117.83797,4.14373],[117.83804,4.14388],[117.83807,4.14396],[117.83808,4.14403],[117.83808,4.14412],[117.83806,4.14421],[117.83822,4.1442],[117.83843,4.14408],[117.83868,4.14398],[117.83885,4.14402],[117.83878,4.14422],[117.83868,4.1444],[117.83858,4.14453],[117.83854,4.1448],[117.83859,4.14508],[117.83869,4.14536],[117.83865,4.14565],[117.83857,4.14583],[117.83847,4.14594],[117.8385,4.14603],[117.83851,4.14614],[117.83851,4.14621]]]]},"properties":{"kdprov":"65","kdkab":"04","kdkec":"150","kddesa":"003","kdsls":"0012","idsls":"65041500030012","nmprov":"KALIMANTAN UTARA","nmkab":"NUNUKAN","nmkec":"SEBATIK TENGAH","nmdesa":"AJI KUNING","nmsls":"RT 012 DUSUN ABADI II"}},{"type":"Feature","geometry":{"type":"MultiPolygon","coordinates":[[[[117.85383,4.16313],[117.85399,4.16312],[117.85435,4.16312],[117.85458,4.1631],[117.85484,4.1631],[117.85524,4.16308],[117.85559,4.16306],[117.85608,4.16303],[117.85618,4.16303],[117.85616,4.1628],[117.85613,4.16252],[117.85611,4.16226],[117.85609,4.16193],[117.85603,4.16171],[117.85595,4.16128],[117.85589,4.16086],[117.85589,4.1605],[117.85578,4.15899],[117.85562,4.15843],[117.85569,4.15557],[117.85489,4.15548],[117.85442,4.15553],[117.85396,4.15556],[117.85352,4.15559],[117.85274,4.1557],[117.85196,4.15542],[117.85158,4.15518],[117.85085,4.15506],[117.85057,4.15478],[117.8502,4.1546],[117.85024,4.15505],[117.85018,4.15526],[117.85021,4.1557],[117.85009,4.15587],[117.85004,4.15611],[117.85008,4.15638],[117.8501,4.15662],[117.85006,4.15684],[117.84997,4.15718],[117.84993,4.15739],[117.84998,4.15758],[117.84995,4.15775],[117.84989,4.15782],[117.84984,4.15793],[117.84982,4.15803],[117.84974,4.15816],[117.84971,4.15831],[117.84973,4.15852],[117.84978,4.15864],[117.84983,4.15875],[117.8498,4.15887],[117.84974,4.15897],[117.84972,4.15909],[117.84963,4.15932],[117.84958,4.1594],[117.84963,4.15958],[117.84974,4.16001],[117.84984,4.1603],[117.84992,4.16034],[117.85014,4.16031],[117.85033,4.16034],[117.85039,4.16038],[117.85043,4.16058],[117.85051,4.16093],[117.8506,4.16131],[117.85068,4.16171],[117.85076,4.1621],[117.85083,4.16249],[117.85088,4.16268],[117.85091,4.16276],[117.85096,4.16283],[117.85099,4.16289],[117.85102,4.16303],[117.85108,4.16321],[117.85108,4.16328],[117.85153,4.16323],[117.85202,4.1632],[117.85249,4.16318],[117.85289,4.16316],[117.85367,4.16314],[117.85383,4.16313]]]]},"properties":{"kdprov":"65","kdkab":"04","kdkec":"150","kddesa":"003","kdsls":"0011","idsls":"65041500030011","nmprov":"KALIMANTAN UTARA","nmkab":"NUNUKAN","nmkec":"SEBATIK TENGAH","nmdesa":"AJI KUNING","nmsls":"RT 011 DUSUN ABADI II"}},{"type":"Feature","geometry":{"type":"MultiPolygon","coordinates":[[[[117.86359,4.16743],[117.86374,4.16751],[117.86373,4.16775],[117.86388,4.16775],[117.86387,4.16759],[117.86394,4.16763],[117.86391,4.16753],[117.86395,4.16744],[117.86401,4.16738],[117.86404,4.16732],[117.86408,4.16722],[117.86407,4.16712],[117.86403,4.16703],[117.86401,4.16696],[117.86398,4.16692],[117.86396,4.16684],[117.86393,4.16675],[117.86392,4.16657],[117.86392,4.16657],[117.86393,4.16608],[117.86382,4.164],[117.86378,4.1634],[117.86379,4.16317],[117.86379,4.16271],[117.86379,4.16256],[117.86362,4.16256],[117.86328,4.16261],[117.86319,4.16262],[117.863,4.16265],[117.863,4.16267],[117.86301,4.16277],[117.86301,4.16291],[117.86303,4.16326],[117.86304,4.16368],[117.86306,4.16414],[117.86311,4.16496],[117.86315,4.16498],[117.86327,4.16501],[117.86327,4.1653],[117.86317,4.16529],[117.86323,4.16617],[117.86321,4.16631],[117.8632,4.16635],[117.86314,4.16658],[117.86315,4.16729],[117.86359,4.16743]]]]},"properties":{"kdprov":"65","kdkab":"04","kdkec":"150","kddesa":"003","kdsls":"0002","idsls":"65041500030002","nmprov":"KALIMANTAN UTARA","nmkab":"NUNUKAN","nmkec":"SEBATIK TENGAH","nmdesa":"AJI KUNING","nmsls":"RT 002 DUSUN ABADI 1"}},{"type":"Feature","geometry":{"type":"MultiPolygon","coordinates":[[[[117.84042,4.16255],[117.84095,4.16325],[117.84075,4.16364],[117.83872,4.16563],[117.83871,4.1664],[117.83871,4.16673],[117.84604,4.1668],[117.84592,4.16641],[117.84577,4.16595],[117.84575,4.16573],[117.84573,4.16559],[117.84571,4.16543],[117.8457,4.16533],[117.84565,4.16505],[117.84562,4.16497],[117.84556,4.16484],[117.84549,4.16475],[117.84542,4.16467],[117.84536,4.16461],[117.8454,4.16448],[117.84541,4.1644],[117.84542,4.16432],[117.84538,4.1642],[117.84534,4.16412],[117.84529,4.16399],[117.84528,4.16388],[117.84526,4.1638],[117.84522,4.16364],[117.84522,4.16357],[117.84521,4.1634],[117.84518,4.16318],[117.84517,4.16306],[117.84518,4.16271],[117.84517,4.16231],[117.8451,4.16182],[117.845,4.16145],[117.84497,4.16132],[117.84494,4.16115],[117.84491,4.16085],[117.84487,4.1606],[117.84485,4.16057],[117.84479,4.16038],[117.84467,4.16007],[117.84449,4.15979],[117.84434,4.15963],[117.84412,4.15949],[117.84396,4.15937],[117.84381,4.15919],[117.84364,4.1589],[117.84359,4.15874],[117.84356,4.15861],[117.84353,4.15838],[117.84351,4.15805],[117.84347,4.15784],[117.8434,4.15765],[117.84328,4.1575],[117.84313,4.15735],[117.84295,4.15723],[117.84287,4.15712],[117.84279,4.15698],[117.84276,4.15685],[117.84275,4.15668],[117.84278,4.15639],[117.84279,4.15615],[117.84279,4.15598],[117.84278,4.1558],[117.84271,4.15557],[117.84262,4.1554],[117.8425,4.15524],[117.84227,4.15502],[117.842,4.1548],[117.84177,4.15461],[117.84156,4.15444],[117.84141,4.15429],[117.84125,4.15411],[117.84113,4.15397],[117.84107,4.15384],[117.841,4.15366],[117.84089,4.15336],[117.84077,4.15308],[117.84071,4.15289],[117.84064,4.15256],[117.84054,4.15216],[117.84046,4.15189],[117.84038,4.15172],[117.8403,4.15155],[117.84027,4.15154],[117.84019,4.15144],[117.83994,4.15131],[117.83971,4.15118],[117.8394,4.15095],[117.83925,4.15085],[117.83911,4.15068],[117.83904,4.15059],[117.83888,4.15047],[117.83871,4.15034],[117.83837,4.15016],[117.83835,4.15014],[117.83828,4.15008],[117.83816,4.14999],[117.83802,4.14993],[117.83788,4.1499],[117.83768,4.1499],[117.83752,4.14993],[117.83739,4.15],[117.8373,4.15002],[117.83702,4.15013],[117.8368,4.15019],[117.83661,4.15021],[117.83632,4.15022],[117.83609,4.15019],[117.83601,4.1502],[117.8359,4.15021],[117.83561,4.15036],[117.83542,4.15048],[117.83533,4.15063],[117.83527,4.15088],[117.83523,4.15116],[117.83522,4.15149],[117.83525,4.15178],[117.83523,4.15201],[117.83514,4.15212],[117.83513,4.15269],[117.8351,4.153],[117.83511,4.15325],[117.83522,4.15372],[117.83521,4.15426],[117.83517,4.15444],[117.83511,4.15483],[117.8351,4.15534],[117.8351,4.15552],[117.83502,4.15562],[117.8349,4.15573],[117.83769,4.15618],[117.83854,4.15925],[117.83952,4.1596],[117.84042,4.16255]]]]},"properties":{"kdprov":"65","kdkab":"04","kdkec":"150","kddesa":"002","kdsls":"0002","idsls":"65041500020002","nmprov":"KALIMANTAN UTARA","nmkab":"NUNUKAN","nmkec":"SEBATIK TENGAH","nmdesa":"MASPUL","nmsls":"RT 002 DUSUN RAWA JADI"}},{"type":"Feature","geometry":{"type":"MultiPolygon","coordinates":[[[[117.8623,4.16277],[117.86282,4.16269],[117.863,4.16265],[117.86319,4.16262],[117.86319,4.16248],[117.86318,4.1622],[117.86316,4.16194],[117.86303,4.16167],[117.86298,4.16131],[117.86297,4.16069],[117.86295,4.16048],[117.86293,4.1599],[117.86284,4.15814],[117.86282,4.15806],[117.86286,4.15715],[117.86315,4.15706],[117.86396,4.15716],[117.86396,4.15708],[117.86402,4.15697],[117.86405,4.15689],[117.86411,4.15679],[117.86414,4.15671],[117.86418,4.15659],[117.86421,4.15648],[117.86419,4.15637],[117.86428,4.1563],[117.86434,4.15621],[117.86443,4.15611],[117.86447,4.15605],[117.86456,4.15594],[117.86459,4.15584],[117.86467,4.15574],[117.86453,4.15567],[117.86443,4.15561],[117.86432,4.1555],[117.86436,4.15543],[117.86439,4.15528],[117.86446,4.15525],[117.86452,4.15518],[117.86458,4.15506],[117.86462,4.15503],[117.86469,4.15484],[117.86475,4.15474],[117.86483,4.1546],[117.86493,4.1545],[117.86494,4.15448],[117.8651,4.15423],[117.86517,4.15412],[117.86526,4.15399],[117.86531,4.15394],[117.8652,4.15385],[117.86509,4.15375],[117.86503,4.15376],[117.86499,4.15371],[117.86494,4.15371],[117.86484,4.15373],[117.86469,4.15368],[117.86457,4.1536],[117.86453,4.15358],[117.86448,4.15354],[117.86438,4.15344],[117.86419,4.15339],[117.86404,4.15333],[117.86389,4.15324],[117.86387,4.15324],[117.86378,4.15323],[117.86369,4.1532],[117.86335,4.15347],[117.86295,4.15377],[117.86291,4.15388],[117.86263,4.15465],[117.86217,4.15528],[117.86182,4.15607],[117.86149,4.15667],[117.86152,4.15671],[117.86155,4.15675],[117.86165,4.15691],[117.86174,4.15717],[117.86169,4.15756],[117.86168,4.15787],[117.86165,4.15843],[117.86158,4.1592],[117.86155,4.15967],[117.86153,4.1602],[117.86152,4.1607],[117.86149,4.16115],[117.86149,4.16157],[117.86146,4.16193],[117.86144,4.16229],[117.86145,4.16257],[117.86147,4.16285],[117.8617,4.16283],[117.86211,4.16279],[117.86227,4.16276],[117.8623,4.16277]]]]},"properties":{"kdprov":"65","kdkab":"04","kdkec":"150","kddesa":"003","kdsls":"0009","idsls":"65041500030009","nmprov":"KALIMANTAN UTARA","nmkab":"NUNUKAN","nmkec":"SEBATIK TENGAH","nmdesa":"AJI KUNING","nmsls":"RT 009 DUSUN ABADI II"}},{"type":"Feature","geometry":{"type":"MultiPolygon","coordinates":[[[[117.83197,4.16197],[117.83187,4.16206],[117.83171,4.16212],[117.83142,4.16218],[117.83104,4.16219],[117.83071,4.1622],[117.83039,4.16231],[117.83006,4.16238],[117.8297,4.16226],[117.8292,4.16196],[117.82862,4.16157],[117.82858,4.16131],[117.82848,4.16115],[117.82845,4.16104],[117.82843,4.16104],[117.82825,4.16066],[117.82781,4.16044],[117.82746,4.16027],[117.82705,4.16015],[117.82674,4.16014],[117.82671,4.15991],[117.82664,4.15957],[117.82657,4.1591],[117.82653,4.15874],[117.82648,4.15821],[117.82646,4.15804],[117.82645,4.15785],[117.82647,4.15753],[117.82645,4.15728],[117.82644,4.15687],[117.82646,4.15643],[117.82646,4.15624],[117.82646,4.15623],[117.82634,4.15434],[117.82691,4.1535],[117.82668,4.15345],[117.82624,4.15341],[117.82603,4.15341],[117.82577,4.15343],[117.82549,4.15345],[117.82537,4.15348],[117.82536,4.15348],[117.82536,4.15348],[117.82528,4.15652],[117.8253,4.16014],[117.8254,4.16236],[117.82561,4.16552],[117.82564,4.1664],[117.82563,4.16667],[117.83775,4.16674],[117.83757,4.16656],[117.83623,4.16583],[117.83502,4.16479],[117.83461,4.16383],[117.83427,4.16362],[117.83415,4.16308],[117.8342,4.16269],[117.83422,4.16251],[117.83414,4.16231],[117.83389,4.16206],[117.83356,4.16194],[117.83346,4.1619],[117.83326,4.16166],[117.83286,4.16145],[117.83245,4.16154],[117.83219,4.16176],[117.83197,4.16197]]]]},"properties":{"kdprov":"65","kdkab":"04","kdkec":"150","kddesa":"001","kdsls":"0001","idsls":"65041500010001","nmprov":"KALIMANTAN UTARA","nmkab":"NUNUKAN","nmkec":"SEBATIK TENGAH","nmdesa":"SUNGAI LIMAU","nmsls":"RT 001 DUSUN LIMAU"}},{"type":"Feature","geometry":{"type":"MultiPolygon","coordinates":[[[[117.85906,4.16298],[117.85963,4.16296],[117.85993,4.16294],[117.86039,4.16292],[117.86093,4.16289],[117.86142,4.16285],[117.86147,4.16285],[117.86145,4.16257],[117.86144,4.16229],[117.86146,4.16193],[117.86149,4.16157],[117.86149,4.16115],[117.86152,4.1607],[117.86153,4.1602],[117.86155,4.15967],[117.86158,4.1592],[117.86165,4.15843],[117.86168,4.15787],[117.86169,4.15756],[117.86174,4.15717],[117.86165,4.15691],[117.86155,4.15675],[117.86152,4.15671],[117.8614,4.15675],[117.86107,4.15685],[117.86029,4.15675],[117.85995,4.15669],[117.85916,4.1566],[117.85844,4.15653],[117.85792,4.15639],[117.8577,4.15621],[117.85704,4.15594],[117.8567,4.15578],[117.8559,4.15559],[117.85569,4.15557],[117.85562,4.15843],[117.85578,4.15899],[117.85589,4.1605],[117.85589,4.16086],[117.85595,4.16128],[117.85603,4.16171],[117.85609,4.16193],[117.85611,4.16226],[117.85613,4.16252],[117.85616,4.1628],[117.85618,4.16303],[117.85649,4.16301],[117.85693,4.163],[117.85749,4.16299],[117.85786,4.16299],[117.85822,4.16299],[117.85868,4.16299],[117.85906,4.16298]]]]},"properties":{"kdprov":"65","kdkab":"04","kdkec":"150","kddesa":"003","kdsls":"0010","idsls":"65041500030010","nmprov":"KALIMANTAN UTARA","nmkab":"NUNUKAN","nmkec":"SEBATIK TENGAH","nmdesa":"AJI KUNING","nmsls":"RT 010 DUSUN ABADI II"}},{"type":"Feature","geometry":{"type":"MultiPolygon","coordinates":[[[[117.86404,4.16253],[117.86404,4.16228],[117.86404,4.16111],[117.86399,4.15821],[117.86399,4.15716],[117.86396,4.15716],[117.86315,4.15706],[117.86286,4.15715],[117.86282,4.15806],[117.86284,4.15814],[117.86293,4.1599],[117.86295,4.16048],[117.86297,4.16069],[117.86298,4.16131],[117.86303,4.16167],[117.86316,4.16194],[117.86318,4.1622],[117.86319,4.16248],[117.86319,4.16262],[117.86328,4.16261],[117.86362,4.16256],[117.86379,4.16256],[117.864,4.16253],[117.86404,4.16253],[117.86404,4.16253]]]]},"properties":{"kdprov":"65","kdkab":"04","kdkec":"150","kddesa":"003","kdsls":"0008","idsls":"65041500030008","nmprov":"KALIMANTAN UTARA","nmkab":"NUNUKAN","nmkec":"SEBATIK TENGAH","nmdesa":"AJI KUNING","nmsls":"RT 008 DUSUN ABADI II"}},{"type":"Feature","geometry":{"type":"MultiPolygon","coordinates":[[[[117.86399,4.15716],[117.86399,4.15821],[117.86404,4.16111],[117.86404,4.16228],[117.86404,4.16253],[117.86504,4.1624],[117.86505,4.1624],[117.86602,4.1623],[117.86686,4.16228],[117.86827,4.16249],[117.86903,4.16267],[117.8696,4.16288],[117.8696,4.16286],[117.86961,4.16283],[117.86966,4.16273],[117.8697,4.16268],[117.86978,4.16256],[117.86981,4.16245],[117.86986,4.16233],[117.86993,4.16218],[117.86999,4.16205],[117.87005,4.16193],[117.87007,4.16179],[117.87014,4.16169],[117.87022,4.16157],[117.8703,4.16145],[117.87041,4.16132],[117.87045,4.16129],[117.87054,4.16125],[117.87062,4.16121],[117.87072,4.16116],[117.8706,4.16089],[117.87068,4.16072],[117.87072,4.16063],[117.87079,4.16053],[117.87088,4.16036],[117.87092,4.16023],[117.87099,4.16011],[117.87095,4.16008],[117.87083,4.16],[117.87071,4.15992],[117.87055,4.15982],[117.87042,4.15972],[117.87032,4.15963],[117.87025,4.15959],[117.87021,4.15957],[117.87007,4.15947],[117.86988,4.15934],[117.86978,4.15929],[117.86972,4.15928],[117.86951,4.15935],[117.86941,4.15938],[117.86935,4.1594],[117.86936,4.15928],[117.86939,4.15909],[117.86943,4.15898],[117.86949,4.15887],[117.86954,4.15867],[117.8695,4.15861],[117.86966,4.15863],[117.86968,4.1586],[117.86971,4.15853],[117.86975,4.15839],[117.86977,4.15824],[117.8698,4.15821],[117.86986,4.15816],[117.86989,4.15813],[117.86995,4.15802],[117.86999,4.15788],[117.86997,4.15786],[117.86991,4.15779],[117.86981,4.15781],[117.86971,4.15782],[117.86963,4.15791],[117.86952,4.15791],[117.86947,4.1579],[117.86942,4.15792],[117.86933,4.1579],[117.86924,4.15787],[117.8692,4.15784],[117.86906,4.1578],[117.86901,4.1578],[117.86889,4.15774],[117.8688,4.15781],[117.86865,4.1578],[117.86862,4.15771],[117.86863,4.15762],[117.86862,4.15757],[117.86858,4.15754],[117.86853,4.15753],[117.8685,4.15757],[117.8685,4.15762],[117.86853,4.15768],[117.86849,4.15776],[117.86844,4.1578],[117.86822,4.15775],[117.868,4.15777],[117.86796,4.15769],[117.86792,4.15766],[117.86789,4.15758],[117.86782,4.15753],[117.86775,4.15747],[117.86771,4.15743],[117.86753,4.15771],[117.86748,4.15792],[117.86743,4.15799],[117.86738,4.15808],[117.86723,4.15829],[117.86719,4.15835],[117.86713,4.1583],[117.86702,4.15827],[117.86687,4.15821],[117.86679,4.15819],[117.86668,4.15815],[117.86654,4.15812],[117.86641,4.15808],[117.86631,4.15805],[117.86617,4.158],[117.86601,4.15792],[117.86588,4.15786],[117.8657,4.15781],[117.86551,4.15772],[117.8654,4.15765],[117.86526,4.1576],[117.86495,4.15749],[117.86494,4.15748],[117.86492,4.15747],[117.8649,4.15746],[117.86489,4.15745],[117.86477,4.15735],[117.86466,4.15729],[117.86456,4.15726],[117.86444,4.15722],[117.86431,4.15719],[117.86423,4.15717],[117.86409,4.15716],[117.86399,4.15716]]]]},"properties":{"kdprov":"65","kdkab":"04","kdkec":"150","kddesa":"003","kdsls":"0007","idsls":"65041500030007","nmprov":"KALIMANTAN UTARA","nmkab":"NUNUKAN","nmkec":"SEBATIK TENGAH","nmdesa":"AJI KUNING","nmsls":"RT 007 DUSUN ABADI II"}},{"type":"Feature","geometry":{"type":"MultiPolygon","coordinates":[[[[117.86268,4.16659],[117.86274,4.16713],[117.86315,4.16729],[117.86314,4.16658],[117.8632,4.16635],[117.86321,4.16631],[117.86323,4.16617],[117.86317,4.16529],[117.86327,4.1653],[117.86327,4.16501],[117.86315,4.16498],[117.86311,4.16496],[117.86306,4.16414],[117.86304,4.16368],[117.86303,4.16326],[117.86301,4.16291],[117.86301,4.16277],[117.863,4.16267],[117.863,4.16265],[117.86282,4.16269],[117.8623,4.16277],[117.86235,4.16324],[117.86236,4.16359],[117.86241,4.16405],[117.86245,4.16463],[117.86249,4.1652],[117.86254,4.16588],[117.86258,4.16609],[117.86261,4.16625],[117.86264,4.16637],[117.86268,4.16659]]]]},"properties":{"kdprov":"65","kdkab":"04","kdkec":"150","kddesa":"003","kdsls":"0003","idsls":"65041500030003","nmprov":"KALIMANTAN UTARA","nmkab":"NUNUKAN","nmkec":"SEBATIK TENGAH","nmdesa":"AJI KUNING","nmsls":"RT 003 DUSUN ABADI 1"}},{"type":"Feature","geometry":{"type":"MultiPolygon","coordinates":[[[[117.86009,4.16695],[117.86071,4.16696],[117.86071,4.1671],[117.86098,4.16712],[117.86097,4.16697],[117.86155,4.16698],[117.86179,4.16707],[117.86196,4.16706],[117.86274,4.16713],[117.86268,4.16659],[117.86264,4.16637],[117.86261,4.16625],[117.86258,4.16609],[117.86254,4.16588],[117.86249,4.1652],[117.86245,4.16463],[117.86241,4.16405],[117.86236,4.16359],[117.86235,4.16324],[117.8623,4.16277],[117.86227,4.16276],[117.86211,4.16279],[117.8617,4.16283],[117.86147,4.16285],[117.86142,4.16285],[117.86093,4.16289],[117.86039,4.16292],[117.85993,4.16294],[117.85963,4.16296],[117.85906,4.16298],[117.85906,4.16303],[117.85909,4.16312],[117.8592,4.16335],[117.85932,4.16354],[117.85948,4.1638],[117.85952,4.16397],[117.85953,4.16412],[117.85953,4.16434],[117.85951,4.16456],[117.85951,4.16481],[117.85953,4.16503],[117.85953,4.16532],[117.85958,4.16554],[117.85962,4.16583],[117.85968,4.1662],[117.8597,4.16639],[117.85992,4.16638],[117.85995,4.16644],[117.85999,4.1666],[117.86001,4.16664],[117.86009,4.16695]]]]},"properties":{"kdprov":"65","kdkab":"04","kdkec":"150","kddesa":"003","kdsls":"0004","idsls":"65041500030004","nmprov":"KALIMANTAN UTARA","nmkab":"NUNUKAN","nmkec":"SEBATIK TENGAH","nmdesa":"AJI KUNING","nmsls":"RT 004 DUSUN ABADI 1"}},{"type":"Feature","geometry":{"type":"MultiPolygon","coordinates":[[[[117.86001,4.16664],[117.85999,4.1666],[117.85995,4.16644],[117.85992,4.16638],[117.8597,4.16639],[117.85968,4.1662],[117.85962,4.16583],[117.85958,4.16554],[117.85953,4.16532],[117.85953,4.16503],[117.85951,4.16481],[117.85951,4.16456],[117.85953,4.16434],[117.85953,4.16412],[117.85952,4.16397],[117.85948,4.1638],[117.85932,4.16354],[117.8592,4.16335],[117.85909,4.16312],[117.85906,4.16303],[117.85906,4.16298],[117.85868,4.16299],[117.85822,4.16299],[117.85786,4.16299],[117.85749,4.16299],[117.85693,4.163],[117.85649,4.16301],[117.85618,4.16303],[117.85608,4.16303],[117.85559,4.16306],[117.85524,4.16308],[117.85484,4.1631],[117.85458,4.1631],[117.85435,4.16312],[117.85399,4.16312],[117.85383,4.16313],[117.85392,4.16332],[117.8541,4.16377],[117.85434,4.16449],[117.85469,4.16558],[117.85485,4.16588],[117.85493,4.16625],[117.85503,4.16654],[117.85516,4.16691],[117.85586,4.16689],[117.86009,4.16695],[117.86001,4.16664]]]]},"properties":{"kdprov":"65","kdkab":"04","kdkec":"150","kddesa":"003","kdsls":"0005","idsls":"65041500030005","nmprov":"KALIMANTAN UTARA","nmkab":"NUNUKAN","nmkec":"SEBATIK TENGAH","nmdesa":"AJI KUNING","nmsls":"RT 005 DUSUN ABADI 1"}},{"type":"Feature","geometry":{"type":"MultiPolygon","coordinates":[[[[117.85516,4.16691],[117.85503,4.16654],[117.85493,4.16625],[117.85485,4.16588],[117.85469,4.16558],[117.85434,4.16449],[117.8541,4.16377],[117.85392,4.16332],[117.85383,4.16313],[117.85367,4.16314],[117.85289,4.16316],[117.85249,4.16318],[117.85202,4.1632],[117.85153,4.16323],[117.85108,4.16328],[117.85098,4.16329],[117.85053,4.16334],[117.85012,4.16337],[117.84969,4.16346],[117.84933,4.16353],[117.84912,4.16355],[117.84882,4.16356],[117.84825,4.16356],[117.84787,4.16356],[117.84744,4.16355],[117.84695,4.16358],[117.84647,4.16363],[117.84616,4.16362],[117.84557,4.16359],[117.84522,4.16357],[117.84522,4.16364],[117.84526,4.1638],[117.84528,4.16388],[117.84529,4.16399],[117.84534,4.16412],[117.84538,4.1642],[117.84542,4.16432],[117.84541,4.1644],[117.8454,4.16448],[117.84536,4.16461],[117.84542,4.16467],[117.84549,4.16475],[117.84556,4.16484],[117.84562,4.16497],[117.84565,4.16505],[117.8457,4.16533],[117.84571,4.16543],[117.84573,4.16559],[117.84575,4.16573],[117.84577,4.16595],[117.84592,4.16641],[117.84604,4.1668],[117.85106,4.167],[117.85516,4.16691]]]]},"properties":{"kdprov":"65","kdkab":"04","kdkec":"150","kddesa":"003","kdsls":"0006","idsls":"65041500030006","nmprov":"KALIMANTAN UTARA","nmkab":"NUNUKAN","nmkec":"SEBATIK TENGAH","nmdesa":"AJI KUNING","nmsls":"RT 006 DUSUN ABADI 1"}},{"type":"Feature","geometry":{"type":"MultiPolygon","coordinates":[[[[117.78276,4.15954],[117.78248,4.15971],[117.78218,4.15923],[117.78251,4.15903],[117.78109,4.1573],[117.78008,4.15674],[117.78001,4.15622],[117.77977,4.15586],[117.77928,4.15555],[117.77909,4.15539],[117.77906,4.15539],[117.7789,4.15568],[117.77785,4.15631],[117.77649,4.15766],[117.77637,4.15855],[117.77632,4.16578],[117.77632,4.16641],[117.77631,4.16667],[117.78202,4.16666],[117.78201,4.1664],[117.78192,4.16383],[117.78195,4.16381],[117.78191,4.16375],[117.7819,4.16355],[117.78189,4.16319],[117.782,4.16285],[117.78213,4.16245],[117.78221,4.16222],[117.78233,4.16207],[117.7825,4.16193],[117.78262,4.16176],[117.78274,4.16156],[117.78293,4.16121],[117.78307,4.16113],[117.78307,4.16106],[117.78289,4.15978],[117.78276,4.15954]]]]},"properties":{"kdprov":"65","kdkab":"04","kdkec":"150","kddesa":"001","kdsls":"0013","idsls":"65041500010013","nmprov":"KALIMANTAN UTARA","nmkab":"NUNUKAN","nmkec":"SEBATIK TENGAH","nmdesa":"SUNGAI LIMAU","nmsls":"RT 013 DUSUN BERJOKO"}},{"type":"Feature","geometry":{"type":"MultiPolygon","coordinates":[[[[117.80597,4.15515],[117.80112,4.15473],[117.79649,4.15512],[117.79315,4.15472],[117.79316,4.15676],[117.79319,4.15883],[117.79314,4.16186],[117.79327,4.1626],[117.79333,4.16404],[117.79328,4.16571],[117.79329,4.1664],[117.79329,4.16666],[117.80533,4.16667],[117.80531,4.1664],[117.80531,4.16616],[117.80555,4.16508],[117.80553,4.16343],[117.80549,4.1634],[117.80532,4.16328],[117.8052,4.16314],[117.80512,4.16288],[117.80549,4.16282],[117.80552,4.16182],[117.80564,4.1618],[117.80573,4.15975],[117.80608,4.1552],[117.80608,4.15516],[117.80597,4.15515]]]]},"properties":{"kdprov":"65","kdkab":"04","kdkec":"150","kddesa":"001","kdsls":"0006","idsls":"65041500010006","nmprov":"KALIMANTAN UTARA","nmkab":"NUNUKAN","nmkec":"SEBATIK TENGAH","nmdesa":"SUNGAI LIMAU","nmsls":"RT 006 DUSUN LIMAU"}},{"type":"Feature","geometry":{"type":"MultiPolygon","coordinates":[[[[117.80552,4.16182],[117.80549,4.16282],[117.80512,4.16288],[117.8052,4.16314],[117.80532,4.16328],[117.80549,4.1634],[117.80553,4.16343],[117.80555,4.16508],[117.80531,4.16616],[117.80531,4.1664],[117.80533,4.16667],[117.81682,4.16669],[117.81683,4.1664],[117.81684,4.16605],[117.81693,4.16379],[117.81693,4.16291],[117.81689,4.16227],[117.81691,4.16216],[117.81683,4.1606],[117.81682,4.15873],[117.81676,4.15742],[117.81673,4.15546],[117.81471,4.1548],[117.81137,4.15467],[117.81017,4.15522],[117.80966,4.15549],[117.80901,4.15542],[117.80869,4.15524],[117.80829,4.15526],[117.80608,4.15516],[117.80608,4.1552],[117.80573,4.15975],[117.80564,4.1618],[117.80552,4.16182]]]]},"properties":{"kdprov":"65","kdkab":"04","kdkec":"150","kddesa":"001","kdsls":"0003","idsls":"65041500010003","nmprov":"KALIMANTAN UTARA","nmkab":"NUNUKAN","nmkec":"SEBATIK TENGAH","nmdesa":"SUNGAI LIMAU","nmsls":"RT 003 DUSUN LIMAU"}},{"type":"Feature","geometry":{"type":"MultiPolygon","coordinates":[[[[117.82563,4.16667],[117.82564,4.1664],[117.82561,4.16552],[117.8254,4.16236],[117.8253,4.16014],[117.82528,4.15652],[117.82536,4.15348],[117.82536,4.15348],[117.82457,4.15361],[117.82221,4.15406],[117.82051,4.15486],[117.81888,4.15506],[117.81798,4.15496],[117.81708,4.15507],[117.81673,4.15546],[117.81676,4.15742],[117.81682,4.15873],[117.81683,4.1606],[117.81691,4.16216],[117.81689,4.16227],[117.81693,4.16291],[117.81693,4.16379],[117.81684,4.16605],[117.81683,4.1664],[117.81682,4.16669],[117.82563,4.16667]]]]},"properties":{"kdprov":"65","kdkab":"04","kdkec":"150","kddesa":"001","kdsls":"0002","idsls":"65041500010002","nmprov":"KALIMANTAN UTARA","nmkab":"NUNUKAN","nmkec":"SEBATIK TENGAH","nmdesa":"SUNGAI LIMAU","nmsls":"RT 002 DUSUN LIMAU"}},{"type":"Feature","geometry":{"type":"MultiPolygon","coordinates":[[[[117.79314,4.16186],[117.79319,4.15883],[117.79316,4.15676],[117.79315,4.15472],[117.78651,4.156],[117.78643,4.15594],[117.78621,4.15573],[117.78449,4.15573],[117.77909,4.15539],[117.77928,4.15555],[117.77977,4.15586],[117.78001,4.15622],[117.78008,4.15674],[117.78109,4.1573],[117.78251,4.15903],[117.78218,4.15923],[117.78248,4.15971],[117.78276,4.15954],[117.78289,4.15978],[117.78307,4.16106],[117.78307,4.16113],[117.78293,4.16121],[117.78274,4.16156],[117.78262,4.16176],[117.7825,4.16193],[117.78233,4.16207],[117.78221,4.16222],[117.78213,4.16245],[117.782,4.16285],[117.78189,4.16319],[117.7819,4.16355],[117.78191,4.16375],[117.78195,4.16381],[117.78192,4.16383],[117.78201,4.1664],[117.78202,4.16666],[117.79329,4.16666],[117.79329,4.1664],[117.79328,4.16571],[117.79333,4.16404],[117.79327,4.1626],[117.79314,4.16186]]]]},"properties":{"kdprov":"65","kdkab":"04","kdkec":"150","kddesa":"001","kdsls":"0012","idsls":"65041500010012","nmprov":"KALIMANTAN UTARA","nmkab":"NUNUKAN","nmkec":"SEBATIK TENGAH","nmdesa":"SUNGAI LIMAU","nmsls":"RT 012 DUSUN BERJOKO"}},{"type":"Feature","geometry":{"type":"MultiPolygon","coordinates":[[[[117.77632,4.16578],[117.77637,4.15855],[117.77649,4.15766],[117.77785,4.15631],[117.7789,4.15568],[117.77906,4.15539],[117.77228,4.15535],[117.76563,4.15533],[117.76327,4.15527],[117.76291,4.15964],[117.76247,4.15961],[117.76246,4.16012],[117.76287,4.16013],[117.76235,4.1664],[117.76231,4.16666],[117.77631,4.16667],[117.77632,4.16641],[117.77632,4.16578]]]]},"properties":{"kdprov":"65","kdkab":"04","kdkec":"150","kddesa":"001","kdsls":"0014","idsls":"65041500010014","nmprov":"KALIMANTAN UTARA","nmkab":"NUNUKAN","nmkec":"SEBATIK TENGAH","nmdesa":"SUNGAI LIMAU","nmsls":"RT 014 DUSUN BERJOKO"}},{"type":"Feature","geometry":{"type":"MultiPolygon","coordinates":[[[[117.83008,4.13235],[117.83027,4.13231],[117.83044,4.13232],[117.83069,4.13243],[117.83081,4.13255],[117.8309,4.13268],[117.83092,4.13289],[117.83099,4.133],[117.83099,4.13329],[117.8311,4.13361],[117.83121,4.13378],[117.8313,4.13371],[117.83139,4.1334],[117.83148,4.13324],[117.83155,4.13324],[117.83104,4.13099],[117.83104,4.13096],[117.83115,4.13092],[117.83128,4.1309],[117.83137,4.13084],[117.83146,4.13073],[117.83159,4.13053],[117.83181,4.13038],[117.83196,4.13027],[117.83214,4.13015],[117.83227,4.13006],[117.83234,4.12996],[117.83229,4.12986],[117.83222,4.12982],[117.83205,4.12971],[117.83189,4.12964],[117.83168,4.12953],[117.8315,4.12937],[117.83136,4.12921],[117.83127,4.12908],[117.83129,4.1289],[117.83129,4.12871],[117.83129,4.12853],[117.83129,4.12843],[117.83135,4.12826],[117.83142,4.12806],[117.83143,4.12802],[117.83137,4.1279],[117.83112,4.12728],[117.82795,4.1195],[117.82776,4.11734],[117.82779,4.11721],[117.82769,4.11713],[117.82758,4.11706],[117.82759,4.11695],[117.82764,4.11689],[117.82772,4.11677],[117.82778,4.11664],[117.82778,4.11655],[117.82773,4.11648],[117.82761,4.11644],[117.82746,4.11641],[117.82733,4.11635],[117.82718,4.11634],[117.82701,4.11634],[117.82686,4.11631],[117.82673,4.11619],[117.82663,4.11607],[117.82662,4.116],[117.8266,4.11591],[117.82654,4.11587],[117.82644,4.11584],[117.82639,4.11577],[117.82633,4.11569],[117.82427,4.1169],[117.82297,4.11773],[117.81804,4.1209],[117.8163,4.12213],[117.81372,4.12396],[117.81129,4.12536],[117.81129,4.12536],[117.81108,4.12548],[117.81083,4.12562],[117.80771,4.12742],[117.80811,4.12766],[117.80846,4.12781],[117.8087,4.12809],[117.80912,4.12827],[117.80945,4.12855],[117.80962,4.1287],[117.81004,4.12868],[117.81044,4.12903],[117.81072,4.12916],[117.8111,4.12889],[117.81192,4.12882],[117.81247,4.12899],[117.81287,4.12918],[117.81329,4.12969],[117.81367,4.13011],[117.81386,4.13044],[117.8143,4.13059],[117.81466,4.13057],[117.81474,4.13106],[117.81493,4.13118],[117.8217,4.13577],[117.82442,4.13671],[117.82442,4.13671],[117.82495,4.13689],[117.82829,4.13802],[117.82819,4.13754],[117.82801,4.13661],[117.82786,4.13587],[117.82788,4.13579],[117.82785,4.13576],[117.82783,4.13568],[117.82782,4.1356],[117.82782,4.1355],[117.82782,4.13542],[117.82781,4.1353],[117.8278,4.13521],[117.82777,4.1351],[117.82775,4.13502],[117.82769,4.13495],[117.82763,4.1349],[117.82756,4.13487],[117.82744,4.13487],[117.82734,4.13484],[117.82727,4.13481],[117.82721,4.13477],[117.82718,4.13471],[117.82716,4.13466],[117.82713,4.13456],[117.82713,4.13446],[117.82714,4.13434],[117.82714,4.13426],[117.82714,4.13405],[117.82738,4.134],[117.82843,4.13368],[117.82913,4.13353],[117.82944,4.1334],[117.82955,4.13329],[117.82961,4.13322],[117.82968,4.13314],[117.82973,4.13305],[117.82978,4.13292],[117.82979,4.13281],[117.8298,4.13265],[117.82983,4.13255],[117.8299,4.13245],[117.83008,4.13235]]]]},"properties":{"kdprov":"65","kdkab":"04","kdkec":"150","kddesa":"004","kdsls":"0007","idsls":"65041500040007","nmprov":"KALIMANTAN UTARA","nmkab":"NUNUKAN","nmkec":"SEBATIK TENGAH","nmdesa":"BUKIT HARAPAN","nmsls":"RT 007 DUSUN BUKIT INDAH"}},{"type":"Feature","geometry":{"type":"MultiPolygon","coordinates":[[[[117.82442,4.13671],[117.8217,4.13577],[117.81493,4.13118],[117.81474,4.13106],[117.81466,4.13057],[117.8143,4.13059],[117.81386,4.13044],[117.81367,4.13011],[117.81329,4.12969],[117.81287,4.12918],[117.81247,4.12899],[117.81192,4.12882],[117.8111,4.12889],[117.81072,4.12916],[117.81044,4.12903],[117.81004,4.12868],[117.80962,4.1287],[117.80945,4.12855],[117.80912,4.12827],[117.8087,4.12809],[117.80846,4.12781],[117.80811,4.12766],[117.80771,4.12742],[117.80696,4.12785],[117.80665,4.12802],[117.80223,4.12938],[117.80207,4.12943],[117.80189,4.12952],[117.80259,4.13002],[117.80545,4.13259],[117.80813,4.13522],[117.80882,4.13785],[117.80882,4.13979],[117.80928,4.14196],[117.81116,4.14324],[117.81155,4.14316],[117.81207,4.1431],[117.81245,4.14308],[117.81287,4.14315],[117.81368,4.14265],[117.81516,4.14253],[117.81686,4.14229],[117.81711,4.14224],[117.81727,4.14222],[117.8174,4.14212],[117.81764,4.14202],[117.8177,4.14194],[117.81773,4.14178],[117.81785,4.14159],[117.81807,4.14155],[117.81828,4.14159],[117.81832,4.14165],[117.81837,4.14172],[117.81847,4.14174],[117.81857,4.14176],[117.81864,4.1418],[117.81865,4.14188],[117.81871,4.14199],[117.81881,4.14209],[117.81893,4.14218],[117.81905,4.14225],[117.81913,4.14231],[117.81919,4.1424],[117.81928,4.14248],[117.8194,4.14257],[117.81964,4.14259],[117.81979,4.14262],[117.82012,4.14257],[117.82026,4.14252],[117.82029,4.14249],[117.82032,4.1424],[117.82036,4.14229],[117.82046,4.1422],[117.82056,4.14214],[117.82067,4.14209],[117.82081,4.14206],[117.82104,4.14205],[117.82119,4.14207],[117.82138,4.1421],[117.82153,4.14212],[117.82168,4.14213],[117.82181,4.14209],[117.82191,4.14207],[117.82206,4.14206],[117.82217,4.14204],[117.82224,4.14207],[117.82232,4.14206],[117.82242,4.14203],[117.82249,4.14199],[117.82266,4.14185],[117.82276,4.14173],[117.82298,4.14162],[117.82325,4.14156],[117.82346,4.14161],[117.8236,4.14165],[117.82381,4.14173],[117.82388,4.14179],[117.82396,4.14193],[117.82403,4.14216],[117.82414,4.14231],[117.82421,4.1425],[117.82439,4.14268],[117.82459,4.14285],[117.82478,4.14307],[117.82494,4.14322],[117.82495,4.14333],[117.82495,4.14359],[117.82493,4.14386],[117.8249,4.14399],[117.82492,4.14413],[117.82495,4.1442],[117.82512,4.14443],[117.82527,4.14462],[117.82535,4.14485],[117.8254,4.14506],[117.82546,4.14519],[117.82561,4.14537],[117.82586,4.14564],[117.82592,4.1458],[117.82594,4.14594],[117.82597,4.14609],[117.82607,4.14625],[117.82624,4.14651],[117.82639,4.14678],[117.82655,4.14692],[117.82675,4.14704],[117.82712,4.14726],[117.82734,4.14738],[117.82757,4.14758],[117.82783,4.14784],[117.82796,4.14793],[117.82813,4.14793],[117.82805,4.14761],[117.82863,4.14744],[117.82874,4.14774],[117.82889,4.14766],[117.82899,4.14759],[117.82905,4.14754],[117.82915,4.14745],[117.82925,4.14735],[117.82936,4.14726],[117.82945,4.14718],[117.82936,4.14705],[117.82932,4.14691],[117.82927,4.1468],[117.82928,4.14658],[117.82923,4.14645],[117.82925,4.14627],[117.8293,4.14607],[117.82944,4.14585],[117.82958,4.14565],[117.82966,4.14546],[117.82967,4.14532],[117.82976,4.14522],[117.83238,4.14225],[117.8324,4.14217],[117.8324,4.14212],[117.83222,4.1421],[117.83203,4.14196],[117.83184,4.14165],[117.83172,4.1408],[117.83165,4.14027],[117.83091,4.13984],[117.82842,4.13806],[117.8284,4.13806],[117.82829,4.13802],[117.82495,4.13689],[117.82442,4.13671],[117.82442,4.13671]]]]},"properties":{"kdprov":"65","kdkab":"04","kdkec":"150","kddesa":"002","kdsls":"0006","idsls":"65041500020006","nmprov":"KALIMANTAN UTARA","nmkab":"NUNUKAN","nmkec":"SEBATIK TENGAH","nmdesa":"MASPUL","nmsls":"RT 006 DUSUN MAIWAH"}},{"type":"Feature","geometry":{"type":"MultiPolygon","coordinates":[[[[117.81284,4.14385],[117.81261,4.14381],[117.81273,4.14351],[117.81282,4.14318],[117.81287,4.14315],[117.81245,4.14308],[117.81207,4.1431],[117.81155,4.14316],[117.81116,4.14324],[117.80928,4.14196],[117.80882,4.13979],[117.80882,4.13785],[117.80813,4.13522],[117.80545,4.13259],[117.80259,4.13002],[117.80189,4.12952],[117.79888,4.13094],[117.79335,4.13292],[117.78986,4.13406],[117.78869,4.13444],[117.78861,4.13446],[117.78883,4.13506],[117.78915,4.13625],[117.7894,4.13748],[117.79031,4.14104],[117.79067,4.14353],[117.79067,4.14353],[117.79088,4.14352],[117.79164,4.14348],[117.79447,4.14333],[117.80362,4.14379],[117.80366,4.14379],[117.80417,4.14382],[117.80527,4.14387],[117.80633,4.1439],[117.80769,4.14403],[117.80721,4.14451],[117.80692,4.14504],[117.80675,4.14591],[117.8067,4.14693],[117.81,4.14469],[117.81013,4.14467],[117.81032,4.14465],[117.81049,4.1446],[117.81069,4.1446],[117.81095,4.14457],[117.81115,4.14457],[117.81129,4.14452],[117.81143,4.14448],[117.81156,4.14442],[117.81168,4.14435],[117.8118,4.14427],[117.81198,4.14423],[117.81214,4.14422],[117.81234,4.14422],[117.81248,4.14419],[117.81257,4.14412],[117.81271,4.14395],[117.81284,4.14385]]]]},"properties":{"kdprov":"65","kdkab":"04","kdkec":"150","kddesa":"001","kdsls":"0005","idsls":"65041500010005","nmprov":"KALIMANTAN UTARA","nmkab":"NUNUKAN","nmkec":"SEBATIK TENGAH","nmdesa":"SUNGAI LIMAU","nmsls":"RT 005 DUSUN LIMAU"}},{"type":"Feature","geometry":{"type":"MultiPolygon","coordinates":[[[[117.77289,4.14327],[117.77459,4.14459],[117.78711,4.14852],[117.79067,4.14354],[117.79067,4.14353],[117.79067,4.14353],[117.79031,4.14104],[117.7894,4.13748],[117.78915,4.13625],[117.78883,4.13506],[117.78861,4.13446],[117.7877,4.13476],[117.78334,4.13763],[117.78076,4.13886],[117.77983,4.13932],[117.77701,4.1407],[117.77378,4.14286],[117.77289,4.14327]]]]},"properties":{"kdprov":"65","kdkab":"04","kdkec":"150","kddesa":"001","kdsls":"0008","idsls":"65041500010008","nmprov":"KALIMANTAN UTARA","nmkab":"NUNUKAN","nmkec":"SEBATIK TENGAH","nmdesa":"SUNGAI LIMAU","nmsls":"RT 008 DUSUN BERJOKO"}},{"type":"Feature","geometry":{"type":"MultiPolygon","coordinates":[[[[117.83082,4.15131],[117.83081,4.15107],[117.83084,4.15092],[117.83091,4.15077],[117.83092,4.15063],[117.83092,4.1505],[117.83093,4.15036],[117.83097,4.15024],[117.831,4.15013],[117.83112,4.14986],[117.83117,4.1497],[117.83125,4.14959],[117.8313,4.14948],[117.83135,4.14931],[117.83136,4.14918],[117.83135,4.14905],[117.83129,4.14888],[117.83124,4.14875],[117.83122,4.14866],[117.83119,4.14854],[117.83119,4.14842],[117.83123,4.14832],[117.83133,4.14814],[117.83143,4.14804],[117.83148,4.14791],[117.83152,4.14779],[117.83155,4.14769],[117.83155,4.14756],[117.83155,4.14745],[117.83145,4.14746],[117.83121,4.14746],[117.83089,4.14741],[117.83058,4.14735],[117.83043,4.14729],[117.83023,4.14719],[117.83,4.14708],[117.82987,4.14707],[117.8297,4.14708],[117.82958,4.14712],[117.82945,4.14718],[117.82936,4.14726],[117.82925,4.14735],[117.82915,4.14745],[117.82905,4.14754],[117.82899,4.14759],[117.82889,4.14766],[117.82874,4.14774],[117.82863,4.14744],[117.82805,4.14761],[117.82813,4.14793],[117.82796,4.14793],[117.82783,4.14784],[117.82757,4.14758],[117.82734,4.14738],[117.82712,4.14726],[117.82675,4.14704],[117.82655,4.14692],[117.82639,4.14678],[117.82624,4.14651],[117.82607,4.14625],[117.82597,4.14609],[117.82594,4.14594],[117.82592,4.1458],[117.82586,4.14564],[117.82561,4.14537],[117.82546,4.14519],[117.8254,4.14506],[117.82535,4.14485],[117.82527,4.14462],[117.82512,4.14443],[117.82495,4.1442],[117.82492,4.14413],[117.8249,4.14399],[117.82493,4.14386],[117.82495,4.14359],[117.82495,4.14333],[117.82494,4.14322],[117.82478,4.14307],[117.82459,4.14285],[117.82439,4.14268],[117.82421,4.1425],[117.82414,4.14231],[117.82403,4.14216],[117.82396,4.14193],[117.82388,4.14179],[117.82381,4.14173],[117.8236,4.14165],[117.82346,4.14161],[117.82325,4.14156],[117.82298,4.14162],[117.82276,4.14173],[117.82266,4.14185],[117.82249,4.14199],[117.82242,4.14203],[117.82232,4.14206],[117.82224,4.14207],[117.82217,4.14204],[117.82206,4.14206],[117.82191,4.14207],[117.82181,4.14209],[117.82168,4.14213],[117.82153,4.14212],[117.82138,4.1421],[117.82119,4.14207],[117.82104,4.14205],[117.82081,4.14206],[117.82067,4.14209],[117.82056,4.14214],[117.82046,4.1422],[117.82036,4.14229],[117.82032,4.1424],[117.82029,4.14249],[117.82026,4.14252],[117.82012,4.14257],[117.81979,4.14262],[117.81964,4.14259],[117.8194,4.14257],[117.81928,4.14248],[117.81919,4.1424],[117.81913,4.14231],[117.81905,4.14225],[117.81893,4.14218],[117.81881,4.14209],[117.81871,4.14199],[117.81865,4.14188],[117.81864,4.1418],[117.81857,4.14176],[117.81847,4.14174],[117.81837,4.14172],[117.81832,4.14165],[117.81828,4.14159],[117.81807,4.14155],[117.81785,4.14159],[117.81773,4.14178],[117.8177,4.14194],[117.81764,4.14202],[117.8174,4.14212],[117.81727,4.14222],[117.81711,4.14224],[117.81686,4.14229],[117.81516,4.14253],[117.81368,4.14265],[117.81287,4.14315],[117.81282,4.14318],[117.81273,4.14351],[117.81261,4.14381],[117.81284,4.14385],[117.81431,4.14417],[117.81693,4.14509],[117.81818,4.14637],[117.81919,4.14783],[117.82044,4.14948],[117.82067,4.14967],[117.82115,4.15047],[117.82158,4.15102],[117.82206,4.1514],[117.82245,4.1516],[117.82577,4.15123],[117.82653,4.15156],[117.8271,4.15179],[117.82756,4.15225],[117.82727,4.15298],[117.82691,4.1535],[117.82634,4.15434],[117.82646,4.15623],[117.82646,4.15624],[117.82659,4.15624],[117.82784,4.15621],[117.82778,4.15491],[117.82768,4.15424],[117.82784,4.15399],[117.82823,4.15353],[117.82864,4.1534],[117.82874,4.1533],[117.82887,4.15317],[117.82908,4.15299],[117.82923,4.1529],[117.82943,4.15282],[117.8296,4.15272],[117.82974,4.15262],[117.82988,4.15251],[117.82994,4.15245],[117.83001,4.15232],[117.83004,4.15224],[117.83014,4.15208],[117.83026,4.15197],[117.83044,4.15182],[117.8306,4.1517],[117.83073,4.15159],[117.8308,4.15146],[117.83082,4.15131]]]]},"properties":{"kdprov":"65","kdkab":"04","kdkec":"150","kddesa":"002","kdsls":"0005","idsls":"65041500020005","nmprov":"KALIMANTAN UTARA","nmkab":"NUNUKAN","nmkec":"SEBATIK TENGAH","nmdesa":"MASPUL","nmsls":"RT 005 DUSUN MAIWAH"}},{"type":"Feature","geometry":{"type":"MultiPolygon","coordinates":[[[[117.78032,4.15214],[117.78047,4.15183],[117.78148,4.15258],[117.7813,4.15283],[117.7814,4.15289],[117.78165,4.15292],[117.78204,4.15293],[117.7823,4.15295],[117.78245,4.15302],[117.78257,4.1532],[117.78284,4.15327],[117.78315,4.15335],[117.78359,4.15345],[117.78399,4.15372],[117.78428,4.15382],[117.7845,4.15381],[117.78485,4.15372],[117.78511,4.15367],[117.78517,4.15368],[117.78521,4.15332],[117.78576,4.15331],[117.78573,4.1536],[117.78586,4.15355],[117.7859,4.15354],[117.78597,4.15353],[117.78666,4.15301],[117.78697,4.15259],[117.78693,4.15224],[117.78696,4.15191],[117.78701,4.15167],[117.78711,4.15134],[117.78716,4.15114],[117.78719,4.14882],[117.78714,4.14864],[117.78711,4.14852],[117.77459,4.14459],[117.77289,4.14327],[117.77159,4.14386],[117.77128,4.144],[117.77019,4.14449],[117.7691,4.14492],[117.76415,4.14686],[117.76412,4.14716],[117.76412,4.14716],[117.76423,4.14732],[117.76432,4.14745],[117.76461,4.14782],[117.76485,4.14807],[117.76507,4.14818],[117.76526,4.14826],[117.76542,4.14827],[117.76559,4.14828],[117.76573,4.14832],[117.76593,4.14851],[117.76628,4.14879],[117.76656,4.149],[117.7669,4.14921],[117.76711,4.14935],[117.76724,4.14953],[117.76736,4.14968],[117.76746,4.14973],[117.76767,4.14969],[117.7679,4.14963],[117.7681,4.14956],[117.76821,4.14955],[117.76832,4.14962],[117.76847,4.14981],[117.76861,4.14998],[117.7688,4.1501],[117.76906,4.15017],[117.76945,4.15023],[117.76992,4.1504],[117.77018,4.1505],[117.77049,4.15064],[117.77064,4.15066],[117.77089,4.15055],[117.77121,4.15041],[117.77141,4.15031],[117.7716,4.15023],[117.77176,4.1502],[117.77191,4.15024],[117.77205,4.15032],[117.77226,4.15046],[117.77247,4.15058],[117.77276,4.15069],[117.77303,4.15075],[117.77339,4.15079],[117.77368,4.15084],[117.77385,4.15095],[117.774,4.15119],[117.77408,4.15144],[117.77416,4.15165],[117.77423,4.15175],[117.77439,4.15179],[117.77458,4.15182],[117.77469,4.15183],[117.77479,4.1518],[117.77487,4.15164],[117.77493,4.15151],[117.77496,4.15138],[117.77495,4.15114],[117.77492,4.1509],[117.77492,4.1506],[117.77497,4.15031],[117.77504,4.15011],[117.7751,4.1499],[117.77521,4.1497],[117.7753,4.14958],[117.77548,4.14947],[117.77564,4.1494],[117.7759,4.14938],[117.77609,4.14941],[117.77624,4.14953],[117.77633,4.14971],[117.77649,4.1499],[117.77658,4.15],[117.77667,4.15022],[117.77676,4.15052],[117.7768,4.15081],[117.77687,4.15096],[117.77699,4.1511],[117.77721,4.15133],[117.77739,4.15152],[117.77751,4.1516],[117.77767,4.15162],[117.7778,4.15162],[117.77795,4.15162],[117.77807,4.15165],[117.77817,4.15175],[117.77842,4.15204],[117.77862,4.15224],[117.77874,4.15236],[117.77882,4.15241],[117.77896,4.15241],[117.77929,4.1523],[117.77953,4.15218],[117.77964,4.1521],[117.77979,4.15202],[117.77988,4.15199],[117.78002,4.15199],[117.78014,4.15202],[117.78032,4.15214]]]]},"properties":{"kdprov":"65","kdkab":"04","kdkec":"150","kddesa":"001","kdsls":"0009","idsls":"65041500010009","nmprov":"KALIMANTAN UTARA","nmkab":"NUNUKAN","nmkec":"SEBATIK TENGAH","nmdesa":"SUNGAI LIMAU","nmsls":"RT 009 DUSUN BERJOKO"}},{"type":"Feature","geometry":{"type":"MultiPolygon","coordinates":[[[[117.78566,4.15399],[117.78593,4.1547],[117.78607,4.15498],[117.78608,4.15513],[117.78609,4.15522],[117.78612,4.15541],[117.78619,4.15571],[117.78621,4.15573],[117.78643,4.15594],[117.78651,4.156],[117.79315,4.15472],[117.79649,4.15512],[117.79649,4.15127],[117.79477,4.14755],[117.79502,4.14736],[117.79537,4.14719],[117.79586,4.14708],[117.79594,4.14708],[117.7966,4.14675],[117.79907,4.14572],[117.80167,4.14482],[117.80296,4.14451],[117.80301,4.14437],[117.80305,4.14427],[117.80319,4.14415],[117.80343,4.14399],[117.80354,4.14392],[117.80361,4.14383],[117.80362,4.14379],[117.79447,4.14333],[117.79164,4.14348],[117.79088,4.14352],[117.79067,4.14353],[117.79067,4.14354],[117.78711,4.14852],[117.78714,4.14864],[117.78719,4.14882],[117.78716,4.15114],[117.78711,4.15134],[117.78701,4.15167],[117.78696,4.15191],[117.78693,4.15224],[117.78697,4.15259],[117.78666,4.15301],[117.78597,4.15353],[117.7859,4.15354],[117.78584,4.15367],[117.78566,4.15399]]]]},"properties":{"kdprov":"65","kdkab":"04","kdkec":"150","kddesa":"001","kdsls":"0010","idsls":"65041500010010","nmprov":"KALIMANTAN UTARA","nmkab":"NUNUKAN","nmkec":"SEBATIK TENGAH","nmdesa":"SUNGAI LIMAU","nmsls":"RT 010 DUSUN BERJOKO"}},{"type":"Feature","geometry":{"type":"MultiPolygon","coordinates":[[[[117.80296,4.14451],[117.80167,4.14482],[117.79907,4.14572],[117.7966,4.14675],[117.79594,4.14708],[117.79586,4.14708],[117.79537,4.14719],[117.79502,4.14736],[117.79477,4.14755],[117.79649,4.15127],[117.79649,4.15512],[117.80112,4.15473],[117.80597,4.15515],[117.80608,4.15516],[117.80829,4.15526],[117.80869,4.15524],[117.80901,4.15542],[117.80966,4.15549],[117.81017,4.15522],[117.81137,4.15467],[117.81089,4.1539],[117.80796,4.15207],[117.80451,4.14841],[117.8067,4.14693],[117.80675,4.14591],[117.80692,4.14504],[117.80721,4.14451],[117.80769,4.14403],[117.80633,4.1439],[117.80527,4.14387],[117.80417,4.14382],[117.80366,4.14379],[117.80362,4.14379],[117.80361,4.14383],[117.80354,4.14392],[117.80343,4.14399],[117.80319,4.14415],[117.80305,4.14427],[117.80301,4.14437],[117.80296,4.14451]]]]},"properties":{"kdprov":"65","kdkab":"04","kdkec":"150","kddesa":"001","kdsls":"0007","idsls":"65041500010007","nmprov":"KALIMANTAN UTARA","nmkab":"NUNUKAN","nmkec":"SEBATIK TENGAH","nmdesa":"SUNGAI LIMAU","nmsls":"RT 007 DUSUN LIMAU"}},{"type":"Feature","geometry":{"type":"MultiPolygon","coordinates":[[[[117.82577,4.15123],[117.82245,4.1516],[117.82206,4.1514],[117.82158,4.15102],[117.82115,4.15047],[117.82067,4.14967],[117.82044,4.14948],[117.81919,4.14783],[117.81818,4.14637],[117.81693,4.14509],[117.81431,4.14417],[117.81284,4.14385],[117.81271,4.14395],[117.81257,4.14412],[117.81248,4.14419],[117.81234,4.14422],[117.81214,4.14422],[117.81198,4.14423],[117.8118,4.14427],[117.81168,4.14435],[117.81156,4.14442],[117.81143,4.14448],[117.81129,4.14452],[117.81115,4.14457],[117.81095,4.14457],[117.81069,4.1446],[117.81049,4.1446],[117.81032,4.14465],[117.81013,4.14467],[117.81,4.14469],[117.8067,4.14693],[117.80451,4.14841],[117.80796,4.15207],[117.81089,4.1539],[117.81137,4.15467],[117.81471,4.1548],[117.81673,4.15546],[117.81708,4.15507],[117.81798,4.15496],[117.81888,4.15506],[117.82051,4.15486],[117.82221,4.15406],[117.82457,4.15361],[117.82536,4.15348],[117.82537,4.15348],[117.82549,4.15345],[117.82577,4.15343],[117.82603,4.15341],[117.82624,4.15341],[117.82668,4.15345],[117.82691,4.1535],[117.82727,4.15298],[117.82756,4.15225],[117.8271,4.15179],[117.82653,4.15156],[117.82577,4.15123]]]]},"properties":{"kdprov":"65","kdkab":"04","kdkec":"150","kddesa":"001","kdsls":"0004","idsls":"65041500010004","nmprov":"KALIMANTAN UTARA","nmkab":"NUNUKAN","nmkec":"SEBATIK TENGAH","nmdesa":"SUNGAI LIMAU","nmsls":"RT 004 DUSUN LIMAU"}},{"type":"Feature","geometry":{"type":"MultiPolygon","coordinates":[[[[117.78566,4.15399],[117.78584,4.15367],[117.7859,4.15354],[117.78586,4.15355],[117.78573,4.1536],[117.78576,4.15331],[117.78521,4.15332],[117.78517,4.15368],[117.78511,4.15367],[117.78485,4.15372],[117.7845,4.15381],[117.78428,4.15382],[117.78399,4.15372],[117.78359,4.15345],[117.78315,4.15335],[117.78284,4.15327],[117.78257,4.1532],[117.78245,4.15302],[117.7823,4.15295],[117.78204,4.15293],[117.78165,4.15292],[117.7814,4.15289],[117.7813,4.15283],[117.78148,4.15258],[117.78047,4.15183],[117.78032,4.15214],[117.78014,4.15202],[117.78002,4.15199],[117.77988,4.15199],[117.77979,4.15202],[117.77964,4.1521],[117.77953,4.15218],[117.77929,4.1523],[117.77896,4.15241],[117.77882,4.15241],[117.77874,4.15236],[117.77862,4.15224],[117.77842,4.15204],[117.77817,4.15175],[117.77807,4.15165],[117.77795,4.15162],[117.7778,4.15162],[117.77767,4.15162],[117.77751,4.1516],[117.77739,4.15152],[117.77721,4.15133],[117.77699,4.1511],[117.77687,4.15096],[117.7768,4.15081],[117.77676,4.15052],[117.77667,4.15022],[117.77658,4.15],[117.77649,4.1499],[117.77633,4.14971],[117.77624,4.14953],[117.77609,4.14941],[117.7759,4.14938],[117.77564,4.1494],[117.77548,4.14947],[117.7753,4.14958],[117.77521,4.1497],[117.7751,4.1499],[117.77504,4.15011],[117.77497,4.15031],[117.77492,4.1506],[117.77492,4.1509],[117.77495,4.15114],[117.77496,4.15138],[117.77493,4.15151],[117.77487,4.15164],[117.77479,4.1518],[117.77469,4.15183],[117.77458,4.15182],[117.77439,4.15179],[117.77423,4.15175],[117.77416,4.15165],[117.77408,4.15144],[117.774,4.15119],[117.77385,4.15095],[117.77368,4.15084],[117.77339,4.15079],[117.77303,4.15075],[117.77276,4.15069],[117.77247,4.15058],[117.77226,4.15046],[117.77205,4.15032],[117.77191,4.15024],[117.77176,4.1502],[117.7716,4.15023],[117.77141,4.15031],[117.77121,4.15041],[117.77089,4.15055],[117.77064,4.15066],[117.77049,4.15064],[117.77018,4.1505],[117.76992,4.1504],[117.76945,4.15023],[117.76906,4.15017],[117.7688,4.1501],[117.76861,4.14998],[117.76847,4.14981],[117.76832,4.14962],[117.76821,4.14955],[117.7681,4.14956],[117.7679,4.14963],[117.76767,4.14969],[117.76746,4.14973],[117.76736,4.14968],[117.76724,4.14953],[117.76711,4.14935],[117.7669,4.14921],[117.76656,4.149],[117.76628,4.14879],[117.76593,4.14851],[117.76573,4.14832],[117.76559,4.14828],[117.76542,4.14827],[117.76526,4.14826],[117.76507,4.14818],[117.76485,4.14807],[117.76461,4.14782],[117.76432,4.14745],[117.76423,4.14732],[117.76412,4.14716],[117.76412,4.14716],[117.76412,4.14716],[117.76327,4.15527],[117.76563,4.15533],[117.77228,4.15535],[117.77906,4.15539],[117.77909,4.15539],[117.78449,4.15573],[117.78621,4.15573],[117.78619,4.15571],[117.78612,4.15541],[117.78609,4.15522],[117.78608,4.15513],[117.78607,4.15498],[117.78593,4.1547],[117.78566,4.15399]]]]},"properties":{"kdprov":"65","kdkab":"04","kdkec":"150","kddesa":"001","kdsls":"0011","idsls":"65041500010011","nmprov":"KALIMANTAN UTARA","nmkab":"NUNUKAN","nmkec":"SEBATIK TENGAH","nmdesa":"SUNGAI LIMAU","nmsls":"RT 011 DUSUN BERJOKO"}}]}