{"type":"FeatureCollection","features":[{"type":"Feature","geometry":{"type":"MultiPolygon","coordinates":[[[[117.85739,4.12566],[117.85905,4.13142],[117.8562,4.13125],[117.85594,4.13163],[117.85594,4.13212],[117.85614,4.13269],[117.85623,4.133],[117.85635,4.13474],[117.8563,4.13483],[117.85631,4.13483],[117.85633,4.13491],[117.85638,4.13509],[117.85649,4.13537],[117.85656,4.13569],[117.8568,4.13622],[117.85691,4.13676],[117.85709,4.13753],[117.85726,4.13784],[117.85894,4.13812],[117.86465,4.139],[117.87004,4.13959],[117.87793,4.14395],[117.87798,4.14401],[117.87812,4.14407],[117.8786,4.14427],[117.87895,4.14441],[117.87921,4.14453],[117.87959,4.14469],[117.87971,4.14474],[117.87973,4.1446],[117.87979,4.14433],[117.87979,4.14418],[117.87979,4.14403],[117.87984,4.14385],[117.87989,4.14369],[117.87991,4.14349],[117.87993,4.14317],[117.87993,4.14294],[117.87995,4.14264],[117.87999,4.14239],[117.88005,4.14207],[117.88005,4.14201],[117.88006,4.14197],[117.87966,4.14177],[117.87967,4.14089],[117.87965,4.13983],[117.87957,4.13871],[117.87961,4.13829],[117.87961,4.13802],[117.87959,4.13776],[117.87949,4.13748],[117.87942,4.13722],[117.8793,4.13675],[117.87915,4.13639],[117.87896,4.13585],[117.87852,4.13574],[117.87792,4.13534],[117.8749,4.13411],[117.87388,4.1337],[117.87197,4.1331],[117.87121,4.13296],[117.87142,4.13238],[117.87164,4.13184],[117.87192,4.13068],[117.87227,4.13036],[117.87289,4.12987],[117.87318,4.1294],[117.87306,4.129],[117.87312,4.1287],[117.87313,4.12846],[117.87312,4.12817],[117.87319,4.12796],[117.87311,4.12769],[117.87325,4.12742],[117.87316,4.1272],[117.8731,4.1269],[117.87296,4.12681],[117.87283,4.1265],[117.87284,4.12619],[117.87289,4.12607],[117.87195,4.12588],[117.86871,4.12588],[117.86496,4.12593],[117.86224,4.12516],[117.86115,4.12486],[117.85757,4.12396],[117.85739,4.12566]]]]},"properties":{"kdprov":"65","kdkab":"04","kdkec":"160","kddesa":"001","kdsls":"0006","idsls":"65041600010006","nmprov":"KALIMANTAN UTARA","nmkab":"NUNUKAN","nmkec":"SEBATIK UTARA","nmdesa":"LAPRI","nmsls":"RT 006 DUSUN 002"}},{"type":"Feature","geometry":{"type":"MultiPolygon","coordinates":[[[[117.88157,4.14611],[117.88181,4.14537],[117.88193,4.14541],[117.88225,4.14551],[117.88233,4.14555],[117.88254,4.14507],[117.88283,4.14485],[117.883,4.14465],[117.88359,4.14364],[117.88369,4.14342],[117.88421,4.14242],[117.88467,4.14201],[117.88495,4.14153],[117.88515,4.14127],[117.8855,4.14097],[117.88553,4.14093],[117.88552,4.14089],[117.88549,4.14085],[117.88549,4.1408],[117.88552,4.14071],[117.88554,4.14062],[117.88563,4.14047],[117.88572,4.14034],[117.88582,4.14023],[117.88592,4.14011],[117.88594,4.14006],[117.88366,4.13787],[117.88185,4.13435],[117.87975,4.13007],[117.87471,4.12645],[117.87289,4.12607],[117.87284,4.12619],[117.87283,4.1265],[117.87296,4.12681],[117.8731,4.1269],[117.87316,4.1272],[117.87325,4.12742],[117.87311,4.12769],[117.87319,4.12796],[117.87312,4.12817],[117.87313,4.12846],[117.87312,4.1287],[117.87306,4.129],[117.87318,4.1294],[117.87289,4.12987],[117.87227,4.13036],[117.87192,4.13068],[117.87164,4.13184],[117.87142,4.13238],[117.87121,4.13296],[117.87197,4.1331],[117.87388,4.1337],[117.8749,4.13411],[117.87792,4.13534],[117.87852,4.13574],[117.87896,4.13585],[117.87915,4.13639],[117.8793,4.13675],[117.87942,4.13722],[117.87949,4.13748],[117.87959,4.13776],[117.87961,4.13802],[117.87961,4.13829],[117.87957,4.13871],[117.87965,4.13983],[117.87967,4.14089],[117.87966,4.14177],[117.88006,4.14197],[117.88005,4.14201],[117.88005,4.14207],[117.87999,4.14239],[117.87995,4.14264],[117.87993,4.14294],[117.87993,4.14317],[117.87991,4.14349],[117.87989,4.14369],[117.87984,4.14385],[117.87979,4.14403],[117.87979,4.14418],[117.87979,4.14433],[117.87973,4.1446],[117.87971,4.14474],[117.87948,4.1455],[117.88157,4.14611]]]]},"properties":{"kdprov":"65","kdkab":"04","kdkec":"160","kddesa":"001","kdsls":"0005","idsls":"65041600010005","nmprov":"KALIMANTAN UTARA","nmkab":"NUNUKAN","nmkec":"SEBATIK UTARA","nmdesa":"LAPRI","nmsls":"RT 005 DUSUN 002"}},{"type":"Feature","geometry":{"type":"MultiPolygon","coordinates":[[[[117.88807,4.14065],[117.88661,4.14493],[117.88659,4.14509],[117.88648,4.14537],[117.88635,4.14569],[117.88619,4.14626],[117.88614,4.14651],[117.88601,4.14669],[117.88587,4.14671],[117.88564,4.1466],[117.88414,4.15044],[117.88386,4.15139],[117.8838,4.15138],[117.88365,4.15136],[117.88293,4.15285],[117.88292,4.15293],[117.88579,4.15306],[117.88657,4.15355],[117.88711,4.15437],[117.88741,4.15509],[117.88758,4.15572],[117.88812,4.15637],[117.88876,4.15662],[117.88878,4.15662],[117.88878,4.15662],[117.88877,4.15648],[117.88868,4.15605],[117.88867,4.15591],[117.88867,4.1557],[117.88863,4.15548],[117.88855,4.15502],[117.88848,4.15464],[117.88846,4.15449],[117.88848,4.15433],[117.88852,4.15418],[117.88853,4.15405],[117.88857,4.15385],[117.88863,4.15364],[117.88869,4.15343],[117.88881,4.15324],[117.88904,4.15285],[117.88919,4.15263],[117.8894,4.15231],[117.8896,4.152],[117.88984,4.15167],[117.88997,4.1515],[117.89009,4.15125],[117.89023,4.15102],[117.89029,4.15091],[117.89037,4.15068],[117.89046,4.15045],[117.89051,4.1502],[117.89057,4.15002],[117.8906,4.14989],[117.89067,4.14966],[117.89072,4.14955],[117.89085,4.14926],[117.89098,4.14896],[117.89104,4.14879],[117.89105,4.14874],[117.89102,4.14872],[117.89105,4.14863],[117.8911,4.14845],[117.89114,4.14827],[117.89105,4.14824],[117.89098,4.14821],[117.89097,4.14815],[117.89101,4.14807],[117.89106,4.14794],[117.89107,4.1479],[117.89114,4.14768],[117.89117,4.14764],[117.89123,4.14746],[117.8913,4.14729],[117.89131,4.14727],[117.89142,4.14731],[117.89161,4.1474],[117.89173,4.14746],[117.89182,4.14749],[117.89191,4.14753],[117.89203,4.14753],[117.8921,4.14748],[117.89224,4.14741],[117.89231,4.14735],[117.89239,4.14731],[117.89242,4.14729],[117.89249,4.14717],[117.89258,4.147],[117.89267,4.14683],[117.89269,4.14671],[117.89272,4.14663],[117.89277,4.14654],[117.89282,4.14645],[117.89291,4.14637],[117.89298,4.14622],[117.893,4.14612],[117.89298,4.14601],[117.89296,4.14594],[117.89294,4.14582],[117.89295,4.1457],[117.89297,4.14558],[117.89301,4.14542],[117.89301,4.14532],[117.89302,4.14524],[117.89303,4.14516],[117.89302,4.14506],[117.89301,4.145],[117.893,4.1449],[117.89301,4.14483],[117.89299,4.14472],[117.893,4.14467],[117.89302,4.14461],[117.89302,4.14455],[117.893,4.14451],[117.89299,4.14444],[117.893,4.14436],[117.89301,4.1443],[117.89302,4.14422],[117.89302,4.14417],[117.89301,4.1441],[117.89302,4.14401],[117.893,4.14391],[117.89298,4.14384],[117.89289,4.14366],[117.89278,4.14355],[117.89269,4.14344],[117.89263,4.14336],[117.89259,4.14329],[117.8925,4.14316],[117.89242,4.14304],[117.89236,4.14294],[117.89231,4.14281],[117.89225,4.14271],[117.89221,4.14264],[117.8922,4.14256],[117.89213,4.14232],[117.89208,4.14199],[117.8921,4.14181],[117.89108,4.14149],[117.88807,4.14065]]]]},"properties":{"kdprov":"65","kdkab":"04","kdkec":"160","kddesa":"001","kdsls":"0002","idsls":"65041600010002","nmprov":"KALIMANTAN UTARA","nmkab":"NUNUKAN","nmkec":"SEBATIK UTARA","nmdesa":"LAPRI","nmsls":"RT 002 DUSUN 001"}},{"type":"Feature","geometry":{"type":"MultiPolygon","coordinates":[[[[117.89112,4.15662],[117.89114,4.15656],[117.89168,4.15526],[117.89325,4.15293],[117.89474,4.15071],[117.89502,4.15049],[117.89578,4.14991],[117.90201,4.14671],[117.90278,4.14632],[117.90184,4.14577],[117.89736,4.14377],[117.89538,4.14292],[117.8947,4.14263],[117.8921,4.14181],[117.89208,4.14199],[117.89213,4.14232],[117.8922,4.14256],[117.89221,4.14264],[117.89225,4.14271],[117.89231,4.14281],[117.89236,4.14294],[117.89242,4.14304],[117.8925,4.14316],[117.89259,4.14329],[117.89263,4.14336],[117.89269,4.14344],[117.89278,4.14355],[117.89289,4.14366],[117.89298,4.14384],[117.893,4.14391],[117.89302,4.14401],[117.89301,4.1441],[117.89302,4.14417],[117.89302,4.14422],[117.89301,4.1443],[117.893,4.14436],[117.89299,4.14444],[117.893,4.14451],[117.89302,4.14455],[117.89302,4.14461],[117.893,4.14467],[117.89299,4.14472],[117.89301,4.14483],[117.893,4.1449],[117.89301,4.145],[117.89302,4.14506],[117.89303,4.14516],[117.89302,4.14524],[117.89301,4.14532],[117.89301,4.14542],[117.89297,4.14558],[117.89295,4.1457],[117.89294,4.14582],[117.89296,4.14594],[117.89298,4.14601],[117.893,4.14612],[117.89298,4.14622],[117.89291,4.14637],[117.89282,4.14645],[117.89277,4.14654],[117.89272,4.14663],[117.89269,4.14671],[117.89267,4.14683],[117.89258,4.147],[117.89249,4.14717],[117.89242,4.14729],[117.89239,4.14731],[117.89231,4.14735],[117.89224,4.14741],[117.8921,4.14748],[117.89203,4.14753],[117.89191,4.14753],[117.89182,4.14749],[117.89173,4.14746],[117.89161,4.1474],[117.89142,4.14731],[117.89131,4.14727],[117.8913,4.14729],[117.89123,4.14746],[117.89117,4.14764],[117.89114,4.14768],[117.89107,4.1479],[117.89106,4.14794],[117.89101,4.14807],[117.89097,4.14815],[117.89098,4.14821],[117.89105,4.14824],[117.89114,4.14827],[117.8911,4.14845],[117.89105,4.14863],[117.89102,4.14872],[117.89105,4.14874],[117.89104,4.14879],[117.89098,4.14896],[117.89085,4.14926],[117.89072,4.14955],[117.89067,4.14966],[117.8906,4.14989],[117.89057,4.15002],[117.89051,4.1502],[117.89046,4.15045],[117.89037,4.15068],[117.89029,4.15091],[117.89023,4.15102],[117.89009,4.15125],[117.88997,4.1515],[117.88984,4.15167],[117.8896,4.152],[117.8894,4.15231],[117.88919,4.15263],[117.88904,4.15285],[117.88881,4.15324],[117.88869,4.15343],[117.88863,4.15364],[117.88857,4.15385],[117.88853,4.15405],[117.88852,4.15418],[117.88848,4.15433],[117.88846,4.15449],[117.88848,4.15464],[117.88855,4.15502],[117.88863,4.15548],[117.88867,4.1557],[117.88867,4.15591],[117.88868,4.15605],[117.88877,4.15648],[117.88878,4.15662],[117.88878,4.15662],[117.88879,4.15662],[117.88881,4.15662],[117.8889,4.15663],[117.89112,4.15662]]]]},"properties":{"kdprov":"65","kdkab":"04","kdkec":"160","kddesa":"001","kdsls":"0001","idsls":"65041600010001","nmprov":"KALIMANTAN UTARA","nmkab":"NUNUKAN","nmkec":"SEBATIK UTARA","nmdesa":"LAPRI","nmsls":"RT 001 DUSUN 001"}},{"type":"Feature","geometry":{"type":"MultiPolygon","coordinates":[[[[117.89502,4.15049],[117.89523,4.15057],[117.89564,4.15073],[117.89666,4.15148],[117.89681,4.15134],[117.89691,4.15112],[117.89712,4.15082],[117.8974,4.15018],[117.90043,4.15169],[117.90156,4.15235],[117.90249,4.15293],[117.90302,4.1533],[117.90355,4.15372],[117.90418,4.1541],[117.90429,4.15388],[117.90452,4.15358],[117.90508,4.15282],[117.90554,4.15218],[117.90596,4.15166],[117.90649,4.15088],[117.90666,4.15068],[117.90692,4.15041],[117.90712,4.15024],[117.90706,4.15019],[117.90702,4.15016],[117.90685,4.15001],[117.9066,4.14982],[117.90618,4.14952],[117.90577,4.14926],[117.90552,4.14911],[117.90519,4.14891],[117.90468,4.14859],[117.90417,4.14825],[117.90359,4.14786],[117.90322,4.14761],[117.90287,4.14742],[117.90201,4.14671],[117.89578,4.14991],[117.89502,4.15049]]]]},"properties":{"kdprov":"65","kdkab":"04","kdkec":"160","kddesa":"002","kdsls":"0007","idsls":"65041600020007","nmprov":"KALIMANTAN UTARA","nmkab":"NUNUKAN","nmkec":"SEBATIK UTARA","nmdesa":"PANCANG","nmsls":"RT 007 DUSUN HB 003"}},{"type":"Feature","geometry":{"type":"MultiPolygon","coordinates":[[[[117.91365,4.15089],[117.91264,4.15035],[117.90882,4.14831],[117.90873,4.14848],[117.90851,4.14883],[117.90793,4.14938],[117.90756,4.1498],[117.90724,4.15014],[117.90712,4.15024],[117.90692,4.15041],[117.90666,4.15068],[117.90672,4.15072],[117.90694,4.15085],[117.90731,4.15105],[117.90778,4.1513],[117.90794,4.1514],[117.91121,4.15336],[117.91131,4.15326],[117.91315,4.1516],[117.91352,4.15107],[117.91365,4.15089]]]]},"properties":{"kdprov":"65","kdkab":"04","kdkec":"160","kddesa":"002","kdsls":"0005","idsls":"65041600020005","nmprov":"KALIMANTAN UTARA","nmkab":"NUNUKAN","nmkec":"SEBATIK UTARA","nmdesa":"PANCANG","nmsls":"RT 005 DUSUN HB 004"}},{"type":"Feature","geometry":{"type":"MultiPolygon","coordinates":[[[[117.90046,4.15645],[117.90095,4.15554],[117.9013,4.15577],[117.90177,4.15602],[117.9019,4.15606],[117.90193,4.15599],[117.9021,4.15606],[117.9025,4.15528],[117.90275,4.15538],[117.90297,4.15495],[117.9032,4.15508],[117.90356,4.15525],[117.90366,4.15504],[117.90381,4.15475],[117.90389,4.15461],[117.90403,4.15436],[117.90418,4.1541],[117.90355,4.15372],[117.90302,4.1533],[117.90249,4.15293],[117.90156,4.15235],[117.90043,4.15169],[117.8974,4.15018],[117.89712,4.15082],[117.89691,4.15112],[117.89681,4.15134],[117.89666,4.15148],[117.89564,4.15073],[117.89523,4.15057],[117.89502,4.15049],[117.89474,4.15071],[117.89325,4.15293],[117.89441,4.15354],[117.89574,4.15419],[117.89587,4.15424],[117.89605,4.15433],[117.89631,4.15444],[117.8965,4.15455],[117.89673,4.1547],[117.89691,4.15483],[117.89712,4.155],[117.89749,4.15517],[117.89791,4.15535],[117.89835,4.15552],[117.89854,4.15559],[117.89891,4.15574],[117.8993,4.15597],[117.89985,4.15617],[117.90046,4.15645]]]]},"properties":{"kdprov":"65","kdkab":"04","kdkec":"160","kddesa":"002","kdsls":"0008","idsls":"65041600020008","nmprov":"KALIMANTAN UTARA","nmkab":"NUNUKAN","nmkec":"SEBATIK UTARA","nmdesa":"PANCANG","nmsls":"RT 008 DUSUN HB 003"}},{"type":"Feature","geometry":{"type":"MultiPolygon","coordinates":[[[[117.90838,4.156],[117.91121,4.15336],[117.90794,4.1514],[117.90778,4.1513],[117.90731,4.15105],[117.90694,4.15085],[117.90672,4.15072],[117.90666,4.15068],[117.90649,4.15088],[117.90596,4.15166],[117.90554,4.15218],[117.90508,4.15282],[117.90452,4.15358],[117.90429,4.15388],[117.90418,4.1541],[117.90403,4.15436],[117.90389,4.15461],[117.90517,4.15532],[117.90524,4.15518],[117.90549,4.15531],[117.9057,4.15498],[117.90791,4.15644],[117.90838,4.156]]]]},"properties":{"kdprov":"65","kdkab":"04","kdkec":"160","kddesa":"002","kdsls":"0004","idsls":"65041600020004","nmprov":"KALIMANTAN UTARA","nmkab":"NUNUKAN","nmkec":"SEBATIK UTARA","nmdesa":"PANCANG","nmsls":"RT 004 DUSUN HB 004"}},{"type":"Feature","geometry":{"type":"MultiPolygon","coordinates":[[[[117.90791,4.15644],[117.9057,4.15498],[117.90549,4.15531],[117.90524,4.15518],[117.90517,4.15532],[117.90389,4.15461],[117.90381,4.15475],[117.90366,4.15504],[117.90343,4.15548],[117.90315,4.15608],[117.90329,4.15616],[117.90349,4.15628],[117.90368,4.15638],[117.90394,4.15651],[117.90418,4.15664],[117.90443,4.15679],[117.90464,4.15692],[117.90499,4.15712],[117.90524,4.15728],[117.90546,4.15739],[117.90564,4.15749],[117.90576,4.15754],[117.90579,4.15756],[117.90595,4.15763],[117.90672,4.15804],[117.9075,4.15683],[117.90791,4.15644]]]]},"properties":{"kdprov":"65","kdkab":"04","kdkec":"160","kddesa":"002","kdsls":"0003","idsls":"65041600020003","nmprov":"KALIMANTAN UTARA","nmkab":"NUNUKAN","nmkec":"SEBATIK UTARA","nmdesa":"PANCANG","nmsls":"RT 003 DUSUN HB 003"}},{"type":"Feature","geometry":{"type":"MultiPolygon","coordinates":[[[[117.90672,4.15804],[117.90595,4.15763],[117.90579,4.15756],[117.90576,4.15754],[117.90564,4.15749],[117.90546,4.15739],[117.90524,4.15728],[117.90499,4.15712],[117.90464,4.15692],[117.90443,4.15679],[117.90418,4.15664],[117.90394,4.15651],[117.90368,4.15638],[117.90349,4.15628],[117.90329,4.15616],[117.90315,4.15608],[117.90307,4.1562],[117.90287,4.15659],[117.90269,4.15693],[117.90262,4.15708],[117.90256,4.15724],[117.90244,4.15753],[117.90235,4.15778],[117.90225,4.15806],[117.90216,4.15831],[117.90207,4.15861],[117.90193,4.15897],[117.90178,4.1594],[117.90177,4.15958],[117.90196,4.15969],[117.90212,4.15978],[117.90225,4.15986],[117.90309,4.15992],[117.90368,4.16],[117.90493,4.16056],[117.90505,4.16062],[117.90672,4.15804]]]]},"properties":{"kdprov":"65","kdkab":"04","kdkec":"160","kddesa":"002","kdsls":"0002","idsls":"65041600020002","nmprov":"KALIMANTAN UTARA","nmkab":"NUNUKAN","nmkec":"SEBATIK UTARA","nmdesa":"PANCANG","nmsls":"RT 002 DUSUN HB 001"}},{"type":"Feature","geometry":{"type":"MultiPolygon","coordinates":[[[[117.90212,4.15978],[117.90196,4.15969],[117.90177,4.15958],[117.90178,4.1594],[117.90193,4.15897],[117.90207,4.15861],[117.90216,4.15831],[117.90225,4.15806],[117.90235,4.15778],[117.90244,4.15753],[117.90256,4.15724],[117.90262,4.15708],[117.90247,4.15703],[117.90211,4.15694],[117.90162,4.15677],[117.90111,4.15663],[117.90057,4.15648],[117.90046,4.1569],[117.90039,4.15708],[117.9002,4.15755],[117.89986,4.15834],[117.89971,4.1586],[117.89948,4.159],[117.89918,4.15941],[117.89897,4.15982],[117.89879,4.16009],[117.89869,4.16024],[117.90045,4.1608],[117.90138,4.16104],[117.90152,4.16056],[117.90163,4.16012],[117.90194,4.16023],[117.90196,4.16019],[117.90212,4.15978]]]]},"properties":{"kdprov":"65","kdkab":"04","kdkec":"160","kddesa":"002","kdsls":"0009","idsls":"65041600020009","nmprov":"KALIMANTAN UTARA","nmkab":"NUNUKAN","nmkec":"SEBATIK UTARA","nmdesa":"PANCANG","nmsls":"RT 009 DUSUN HB 001"}},{"type":"Feature","geometry":{"type":"MultiPolygon","coordinates":[[[[117.89119,4.15686],[117.89131,4.15696],[117.89161,4.15726],[117.89201,4.15768],[117.89233,4.15805],[117.89265,4.15841],[117.89266,4.15897],[117.89299,4.15911],[117.8937,4.15928],[117.8939,4.15923],[117.8939,4.15925],[117.89425,4.15932],[117.89443,4.15938],[117.89461,4.15953],[117.89476,4.15971],[117.89489,4.15989],[117.89496,4.16001],[117.89504,4.16003],[117.89544,4.16003],[117.89569,4.16],[117.89592,4.15997],[117.89598,4.15997],[117.89635,4.1599],[117.89654,4.15985],[117.89677,4.15965],[117.89697,4.15943],[117.89714,4.15932],[117.89741,4.15916],[117.89764,4.15892],[117.89789,4.15856],[117.89803,4.15837],[117.89817,4.15809],[117.89832,4.15762],[117.89859,4.15701],[117.89879,4.15668],[117.89907,4.15628],[117.89924,4.15606],[117.8993,4.15597],[117.89891,4.15574],[117.89854,4.15559],[117.89835,4.15552],[117.89791,4.15535],[117.89749,4.15517],[117.89712,4.155],[117.89691,4.15483],[117.89673,4.1547],[117.8965,4.15455],[117.89631,4.15444],[117.89605,4.15433],[117.89587,4.15424],[117.89574,4.15419],[117.89441,4.15354],[117.89325,4.15293],[117.89168,4.15526],[117.89114,4.15656],[117.89112,4.15662],[117.89112,4.15663],[117.89115,4.15674],[117.89119,4.15686]]]]},"properties":{"kdprov":"65","kdkab":"04","kdkec":"160","kddesa":"002","kdsls":"0011","idsls":"65041600020011","nmprov":"KALIMANTAN UTARA","nmkab":"NUNUKAN","nmkec":"SEBATIK UTARA","nmdesa":"PANCANG","nmsls":"RT 011 DUSUN HB 002"}},{"type":"Feature","geometry":{"type":"MultiPolygon","coordinates":[[[[117.90201,4.14671],[117.90287,4.14742],[117.90322,4.14761],[117.90359,4.14786],[117.90417,4.14825],[117.90468,4.14859],[117.90519,4.14891],[117.90552,4.14911],[117.90577,4.14926],[117.90618,4.14952],[117.9066,4.14982],[117.90685,4.15001],[117.90702,4.15016],[117.90706,4.15019],[117.90712,4.15024],[117.90724,4.15014],[117.90756,4.1498],[117.90793,4.14938],[117.90851,4.14883],[117.90873,4.14848],[117.90882,4.14831],[117.9089,4.1482],[117.90883,4.14815],[117.9086,4.14805],[117.90847,4.14798],[117.90828,4.14787],[117.90802,4.1477],[117.90789,4.14764],[117.90776,4.14759],[117.90759,4.14754],[117.90745,4.14751],[117.90725,4.14748],[117.90709,4.14747],[117.9069,4.14742],[117.90668,4.14738],[117.90648,4.14733],[117.90631,4.14733],[117.90626,4.14736],[117.90616,4.14745],[117.90601,4.14765],[117.90593,4.14777],[117.9059,4.14777],[117.90351,4.14674],[117.90278,4.14632],[117.90201,4.14671]]]]},"properties":{"kdprov":"65","kdkab":"04","kdkec":"160","kddesa":"002","kdsls":"0006","idsls":"65041600020006","nmprov":"KALIMANTAN UTARA","nmkab":"NUNUKAN","nmkec":"SEBATIK UTARA","nmdesa":"PANCANG","nmsls":"RT 006 DUSUN HB 004"}},{"type":"Feature","geometry":{"type":"MultiPolygon","coordinates":[[[[117.90342,4.16314],[117.90505,4.16062],[117.90493,4.16056],[117.90368,4.16],[117.90309,4.15992],[117.90225,4.15986],[117.90212,4.15978],[117.90196,4.16019],[117.90194,4.16023],[117.90163,4.16012],[117.90152,4.16056],[117.90138,4.16104],[117.90045,4.1608],[117.89869,4.16024],[117.89854,4.16057],[117.89838,4.16097],[117.89823,4.16128],[117.89807,4.16163],[117.89785,4.16217],[117.89767,4.16254],[117.89758,4.16268],[117.89758,4.1627],[117.89697,4.16401],[117.89704,4.16415],[117.89705,4.1643],[117.89695,4.16443],[117.89686,4.16455],[117.89679,4.16467],[117.89677,4.1647],[117.89642,4.16525],[117.89682,4.1654],[117.89807,4.16641],[117.89834,4.16788],[117.90025,4.16792],[117.90173,4.16654],[117.90226,4.16588],[117.90241,4.16548],[117.90241,4.16547],[117.90252,4.16523],[117.90268,4.16485],[117.90287,4.16446],[117.90305,4.16393],[117.90322,4.16349],[117.90342,4.16314]]]]},"properties":{"kdprov":"65","kdkab":"04","kdkec":"160","kddesa":"002","kdsls":"0001","idsls":"65041600020001","nmprov":"KALIMANTAN UTARA","nmkab":"NUNUKAN","nmkec":"SEBATIK UTARA","nmdesa":"PANCANG","nmsls":"RT 001 DUSUN HB 001"}},{"type":"Feature","geometry":{"type":"MultiPolygon","coordinates":[[[[117.88181,4.14537],[117.88157,4.14611],[117.87948,4.1455],[117.87971,4.14474],[117.87959,4.14469],[117.87921,4.14453],[117.87895,4.14441],[117.8786,4.14427],[117.87812,4.14407],[117.87798,4.14401],[117.87793,4.14395],[117.87004,4.13959],[117.86465,4.139],[117.85894,4.13812],[117.85726,4.13784],[117.85709,4.13753],[117.85691,4.13676],[117.8568,4.13622],[117.85656,4.13569],[117.85649,4.13537],[117.85638,4.13509],[117.85633,4.13491],[117.85631,4.13483],[117.8563,4.13483],[117.85585,4.13482],[117.85471,4.13487],[117.85471,4.13491],[117.85473,4.13556],[117.85479,4.1376],[117.85467,4.13842],[117.85506,4.13851],[117.85643,4.13865],[117.85632,4.13958],[117.85639,4.13957],[117.85645,4.13953],[117.85648,4.13952],[117.85651,4.13952],[117.85653,4.13952],[117.85658,4.13954],[117.85669,4.13957],[117.85672,4.13959],[117.85684,4.13964],[117.85686,4.13969],[117.85677,4.13982],[117.85672,4.13992],[117.85671,4.14001],[117.85669,4.14017],[117.85667,4.14033],[117.85667,4.14049],[117.85661,4.14077],[117.8565,4.14114],[117.85648,4.14132],[117.85647,4.14137],[117.85648,4.14144],[117.85648,4.14152],[117.85648,4.14161],[117.85644,4.14169],[117.85642,4.1418],[117.85637,4.14189],[117.85617,4.14185],[117.856,4.14178],[117.85591,4.14177],[117.85582,4.14174],[117.85571,4.14172],[117.85562,4.14169],[117.85552,4.14166],[117.85533,4.14157],[117.85529,4.14159],[117.85528,4.14162],[117.85525,4.14178],[117.85517,4.142],[117.85516,4.14222],[117.85516,4.14232],[117.85516,4.14239],[117.85514,4.14252],[117.85511,4.14267],[117.8551,4.14282],[117.85507,4.14297],[117.85504,4.1431],[117.85502,4.14322],[117.855,4.14347],[117.85502,4.14357],[117.85512,4.14374],[117.85519,4.14382],[117.85523,4.14387],[117.85528,4.14382],[117.85531,4.14378],[117.85549,4.14378],[117.85557,4.14379],[117.85562,4.1438],[117.85577,4.14381],[117.85604,4.14378],[117.85616,4.14375],[117.85624,4.14372],[117.85629,4.14374],[117.85632,4.14374],[117.85635,4.14378],[117.85637,4.14384],[117.85638,4.14387],[117.85662,4.14374],[117.85674,4.14368],[117.85709,4.14363],[117.85746,4.14369],[117.85781,4.14363],[117.85843,4.14377],[117.85847,4.14373],[117.85852,4.1437],[117.85855,4.14369],[117.8586,4.14366],[117.85863,4.14368],[117.8587,4.14373],[117.85898,4.14377],[117.85906,4.14381],[117.85911,4.14382],[117.85923,4.14383],[117.85929,4.14382],[117.85932,4.14384],[117.85934,4.14385],[117.8594,4.14384],[117.86115,4.1439],[117.86574,4.14389],[117.86852,4.14388],[117.86923,4.14388],[117.87186,4.14518],[117.87321,4.14618],[117.87496,4.14749],[117.87792,4.14969],[117.87834,4.15],[117.88233,4.1529],[117.88246,4.15148],[117.8825,4.15058],[117.8825,4.15042],[117.88253,4.15016],[117.88257,4.15007],[117.88257,4.1499],[117.88267,4.14954],[117.88275,4.14925],[117.88285,4.14889],[117.88294,4.14858],[117.88307,4.14818],[117.88322,4.14786],[117.88336,4.14753],[117.88345,4.14726],[117.88354,4.14709],[117.88366,4.14683],[117.88379,4.14636],[117.88386,4.14608],[117.88435,4.145],[117.88486,4.14419],[117.88494,4.14404],[117.88515,4.14369],[117.88549,4.143],[117.88546,4.14267],[117.88552,4.14238],[117.88566,4.14202],[117.8857,4.14184],[117.88556,4.1416],[117.88554,4.14139],[117.88555,4.1412],[117.88554,4.14107],[117.88553,4.14101],[117.88553,4.141],[117.88554,4.14096],[117.88553,4.14093],[117.8855,4.14097],[117.88515,4.14127],[117.88495,4.14153],[117.88467,4.14201],[117.88421,4.14242],[117.88369,4.14342],[117.88359,4.14364],[117.883,4.14465],[117.88283,4.14485],[117.88254,4.14507],[117.88233,4.14555],[117.88225,4.14551],[117.88193,4.14541],[117.88181,4.14537]]]]},"properties":{"kdprov":"65","kdkab":"04","kdkec":"160","kddesa":"001","kdsls":"0004","idsls":"65041600010004","nmprov":"KALIMANTAN UTARA","nmkab":"NUNUKAN","nmkec":"SEBATIK UTARA","nmdesa":"LAPRI","nmsls":"RT 004 DUSUN 002"}},{"type":"Feature","geometry":{"type":"MultiPolygon","coordinates":[[[[117.8737,4.16057],[117.87437,4.16065],[117.87437,4.1607],[117.87435,4.16082],[117.8742,4.16118],[117.87394,4.16177],[117.87363,4.16158],[117.87372,4.16257],[117.87383,4.16437],[117.87434,4.16662],[117.87435,4.16779],[117.87589,4.16778],[117.87601,4.16659],[117.87772,4.16119],[117.87774,4.16113],[117.87793,4.16062],[117.87806,4.16025],[117.8781,4.15974],[117.87811,4.15931],[117.87819,4.15775],[117.87825,4.15365],[117.87834,4.15],[117.87792,4.14969],[117.87496,4.14749],[117.87482,4.15068],[117.87476,4.15153],[117.87471,4.15225],[117.87419,4.15409],[117.8737,4.16057]]]]},"properties":{"kdprov":"65","kdkab":"04","kdkec":"160","kddesa":"003","kdsls":"0005","idsls":"65041600030005","nmprov":"KALIMANTAN UTARA","nmkab":"NUNUKAN","nmkec":"SEBATIK UTARA","nmdesa":"SEBERANG","nmsls":"RT 005 DUSUN GUNUNG BELAH"}},{"type":"Feature","geometry":{"type":"MultiPolygon","coordinates":[[[[117.88807,4.14065],[117.88594,4.14006],[117.88592,4.14011],[117.88582,4.14023],[117.88572,4.14034],[117.88563,4.14047],[117.88554,4.14062],[117.88552,4.14071],[117.88549,4.1408],[117.88549,4.14085],[117.88552,4.14089],[117.88553,4.14093],[117.88554,4.14096],[117.88553,4.141],[117.88553,4.14101],[117.88554,4.14107],[117.88555,4.1412],[117.88554,4.14139],[117.88556,4.1416],[117.8857,4.14184],[117.88566,4.14202],[117.88552,4.14238],[117.88546,4.14267],[117.88549,4.143],[117.88515,4.14369],[117.88494,4.14404],[117.88486,4.14419],[117.88435,4.145],[117.88386,4.14608],[117.88379,4.14636],[117.88366,4.14683],[117.88354,4.14709],[117.88345,4.14726],[117.88336,4.14753],[117.88322,4.14786],[117.88307,4.14818],[117.88294,4.14858],[117.88285,4.14889],[117.88275,4.14925],[117.88267,4.14954],[117.88257,4.1499],[117.88257,4.15007],[117.88253,4.15016],[117.8825,4.15042],[117.8825,4.15058],[117.88246,4.15148],[117.88233,4.1529],[117.88253,4.15291],[117.88292,4.15293],[117.88293,4.15285],[117.88365,4.15136],[117.8838,4.15138],[117.88386,4.15139],[117.88414,4.15044],[117.88564,4.1466],[117.88587,4.14671],[117.88601,4.14669],[117.88614,4.14651],[117.88619,4.14626],[117.88635,4.14569],[117.88648,4.14537],[117.88659,4.14509],[117.88661,4.14493],[117.88807,4.14065]]]]},"properties":{"kdprov":"65","kdkab":"04","kdkec":"160","kddesa":"001","kdsls":"0003","idsls":"65041600010003","nmprov":"KALIMANTAN UTARA","nmkab":"NUNUKAN","nmkec":"SEBATIK UTARA","nmdesa":"LAPRI","nmsls":"RT 003 DUSUN 001"}},{"type":"Feature","geometry":{"type":"MultiPolygon","coordinates":[[[[117.86494,4.15371],[117.86498,4.1501],[117.86485,4.14873],[117.86516,4.14771],[117.86575,4.14441],[117.86574,4.14389],[117.86115,4.1439],[117.8594,4.14384],[117.85942,4.14392],[117.85944,4.144],[117.85943,4.14403],[117.85943,4.14406],[117.85942,4.14412],[117.85941,4.14416],[117.85943,4.14425],[117.85943,4.14433],[117.85943,4.14441],[117.85942,4.14449],[117.85944,4.14454],[117.85944,4.14462],[117.85946,4.14471],[117.85946,4.14478],[117.85944,4.14489],[117.85945,4.14496],[117.85944,4.14502],[117.85946,4.14515],[117.85945,4.14521],[117.85952,4.1454],[117.85949,4.14567],[117.85948,4.14579],[117.85957,4.14594],[117.85962,4.14607],[117.85962,4.14609],[117.85962,4.14617],[117.85962,4.14621],[117.85962,4.14627],[117.85971,4.1463],[117.85973,4.14629],[117.85975,4.14629],[117.85986,4.14626],[117.85989,4.14627],[117.85994,4.14627],[117.85998,4.14626],[117.86007,4.14625],[117.86014,4.14626],[117.86014,4.14635],[117.86013,4.14639],[117.86011,4.14649],[117.86013,4.14658],[117.86013,4.1467],[117.86013,4.14678],[117.86013,4.14692],[117.86014,4.14705],[117.86013,4.1472],[117.86015,4.14728],[117.86013,4.14739],[117.86015,4.14749],[117.86016,4.14757],[117.86016,4.14772],[117.86017,4.14779],[117.86017,4.1479],[117.86018,4.14805],[117.86016,4.14813],[117.86014,4.1482],[117.86015,4.14833],[117.86013,4.14852],[117.86017,4.14853],[117.86022,4.14857],[117.86043,4.14863],[117.86058,4.14869],[117.86066,4.14872],[117.86082,4.14884],[117.86073,4.14905],[117.86066,4.14926],[117.86057,4.14955],[117.86056,4.14961],[117.86053,4.14966],[117.86053,4.14971],[117.86049,4.14982],[117.86046,4.14986],[117.86044,4.14991],[117.86043,4.14994],[117.86041,4.14999],[117.86039,4.15008],[117.86039,4.1501],[117.86037,4.15019],[117.86032,4.15032],[117.86028,4.1504],[117.86023,4.15049],[117.8602,4.15061],[117.8602,4.1507],[117.86017,4.15073],[117.86012,4.1508],[117.8601,4.15078],[117.85996,4.15074],[117.8599,4.1507],[117.85984,4.15069],[117.85967,4.15068],[117.85969,4.15075],[117.85967,4.15086],[117.85966,4.151],[117.85967,4.15108],[117.85966,4.15117],[117.85965,4.15126],[117.85966,4.15132],[117.85967,4.15142],[117.85963,4.1515],[117.85958,4.15161],[117.85956,4.15171],[117.85961,4.15186],[117.85958,4.15192],[117.85958,4.15205],[117.85958,4.15212],[117.85957,4.15223],[117.85954,4.15231],[117.85951,4.15248],[117.8595,4.15257],[117.8595,4.15269],[117.85949,4.1528],[117.85947,4.15291],[117.85947,4.15295],[117.85948,4.15302],[117.85949,4.15302],[117.85955,4.15303],[117.85964,4.15302],[117.85971,4.15303],[117.85978,4.15305],[117.85995,4.15303],[117.86001,4.15302],[117.86012,4.15303],[117.86024,4.15305],[117.86039,4.15309],[117.86048,4.15305],[117.86051,4.15304],[117.8606,4.15303],[117.86066,4.15304],[117.86079,4.15304],[117.86083,4.15304],[117.86091,4.15305],[117.86103,4.15305],[117.8611,4.15307],[117.86123,4.15307],[117.86131,4.15306],[117.86135,4.15302],[117.86138,4.15299],[117.8615,4.15293],[117.86159,4.15288],[117.86163,4.15286],[117.8616,4.15281],[117.8616,4.15267],[117.86161,4.15264],[117.86171,4.15265],[117.86179,4.15268],[117.86191,4.15273],[117.86199,4.15279],[117.86204,4.15278],[117.86215,4.15282],[117.86221,4.15281],[117.86233,4.15283],[117.86236,4.15285],[117.86244,4.15285],[117.86258,4.15285],[117.86267,4.15283],[117.86277,4.15289],[117.86292,4.15289],[117.86306,4.15292],[117.8631,4.15295],[117.86322,4.15301],[117.86325,4.15303],[117.86343,4.1531],[117.86354,4.15315],[117.86363,4.15319],[117.86369,4.1532],[117.86378,4.15323],[117.86387,4.15324],[117.86389,4.15324],[117.86404,4.15333],[117.86419,4.15339],[117.86438,4.15344],[117.86448,4.15354],[117.86453,4.15358],[117.86457,4.1536],[117.86469,4.15368],[117.86484,4.15373],[117.86494,4.15371]]]]},"properties":{"kdprov":"65","kdkab":"04","kdkec":"160","kddesa":"003","kdsls":"0008","idsls":"65041600030008","nmprov":"KALIMANTAN UTARA","nmkab":"NUNUKAN","nmkec":"SEBATIK UTARA","nmdesa":"SEBERANG","nmsls":"RT 008 DUSUN GUNUNG BELAH"}},{"type":"Feature","geometry":{"type":"MultiPolygon","coordinates":[[[[117.86753,4.15771],[117.86771,4.15743],[117.86775,4.15747],[117.86782,4.15753],[117.86789,4.15758],[117.86792,4.15766],[117.86796,4.15769],[117.868,4.15777],[117.86822,4.15775],[117.86844,4.1578],[117.86849,4.15776],[117.86853,4.15768],[117.8685,4.15762],[117.8685,4.15757],[117.86853,4.15753],[117.86858,4.15754],[117.86862,4.15757],[117.86863,4.15762],[117.86862,4.15771],[117.86865,4.1578],[117.8688,4.15781],[117.86889,4.15774],[117.86901,4.1578],[117.86906,4.1578],[117.8692,4.15784],[117.86924,4.15787],[117.86933,4.1579],[117.86942,4.15792],[117.86947,4.1579],[117.86952,4.15791],[117.86963,4.15791],[117.86971,4.15782],[117.86981,4.15781],[117.86991,4.15779],[117.86997,4.15786],[117.87149,4.1537],[117.87263,4.15132],[117.87321,4.14618],[117.87186,4.14518],[117.86923,4.14388],[117.86852,4.14388],[117.86574,4.14389],[117.86575,4.14441],[117.86516,4.14771],[117.86485,4.14873],[117.86498,4.1501],[117.86494,4.15371],[117.86499,4.15371],[117.86503,4.15376],[117.86509,4.15375],[117.8652,4.15385],[117.86531,4.15394],[117.86526,4.15399],[117.86517,4.15412],[117.8651,4.15423],[117.86494,4.15448],[117.86493,4.1545],[117.86483,4.1546],[117.86475,4.15474],[117.86469,4.15484],[117.86462,4.15503],[117.86458,4.15506],[117.86452,4.15518],[117.86446,4.15525],[117.86439,4.15528],[117.86436,4.15543],[117.86432,4.1555],[117.86443,4.15561],[117.86453,4.15567],[117.86467,4.15574],[117.86459,4.15584],[117.86456,4.15594],[117.86447,4.15605],[117.86443,4.15611],[117.86434,4.15621],[117.86428,4.1563],[117.86419,4.15637],[117.86421,4.15648],[117.86418,4.15659],[117.86414,4.15671],[117.86411,4.15679],[117.86405,4.15689],[117.86402,4.15697],[117.86396,4.15708],[117.86396,4.15716],[117.86399,4.15716],[117.86409,4.15716],[117.86423,4.15717],[117.86431,4.15719],[117.86444,4.15722],[117.86456,4.15726],[117.86466,4.15729],[117.86477,4.15735],[117.86489,4.15745],[117.8649,4.15746],[117.86492,4.15747],[117.86494,4.15748],[117.86495,4.15749],[117.86526,4.1576],[117.8654,4.15765],[117.86551,4.15772],[117.8657,4.15781],[117.86588,4.15786],[117.86601,4.15792],[117.86617,4.158],[117.86631,4.15805],[117.86641,4.15808],[117.86654,4.15812],[117.86668,4.15815],[117.86679,4.15819],[117.86687,4.15821],[117.86702,4.15827],[117.86713,4.1583],[117.86719,4.15835],[117.86723,4.15829],[117.86738,4.15808],[117.86743,4.15799],[117.86748,4.15792],[117.86753,4.15771]]]]},"properties":{"kdprov":"65","kdkab":"04","kdkec":"160","kddesa":"003","kdsls":"0007","idsls":"65041600030007","nmprov":"KALIMANTAN UTARA","nmkab":"NUNUKAN","nmkec":"SEBATIK UTARA","nmdesa":"SEBERANG","nmsls":"RT 007 DUSUN GUNUNG BELAH"}},{"type":"Feature","geometry":{"type":"MultiPolygon","coordinates":[[[[117.87372,4.16257],[117.87363,4.16158],[117.87394,4.16177],[117.8742,4.16118],[117.87435,4.16082],[117.87437,4.1607],[117.87437,4.16065],[117.8737,4.16057],[117.87419,4.15409],[117.87471,4.15225],[117.87476,4.15153],[117.87482,4.15068],[117.87496,4.14749],[117.87321,4.14618],[117.87263,4.15132],[117.87149,4.1537],[117.86997,4.15786],[117.86999,4.15788],[117.86995,4.15802],[117.86989,4.15813],[117.86986,4.15816],[117.8698,4.15821],[117.86977,4.15824],[117.86975,4.15839],[117.86971,4.15853],[117.86968,4.1586],[117.86966,4.15863],[117.8695,4.15861],[117.86954,4.15867],[117.86949,4.15887],[117.86943,4.15898],[117.86939,4.15909],[117.86936,4.15928],[117.86935,4.1594],[117.86941,4.15938],[117.86951,4.15935],[117.86972,4.15928],[117.86978,4.15929],[117.86988,4.15934],[117.87007,4.15947],[117.87021,4.15957],[117.87025,4.15959],[117.87032,4.15963],[117.87042,4.15972],[117.87055,4.15982],[117.87071,4.15992],[117.87083,4.16],[117.87095,4.16008],[117.87099,4.16011],[117.87092,4.16023],[117.87088,4.16036],[117.87079,4.16053],[117.87072,4.16063],[117.87068,4.16072],[117.8706,4.16089],[117.87072,4.16116],[117.87062,4.16121],[117.87054,4.16125],[117.87045,4.16129],[117.87041,4.16132],[117.8703,4.16145],[117.87022,4.16157],[117.87014,4.16169],[117.87007,4.16179],[117.87005,4.16193],[117.86999,4.16205],[117.86993,4.16218],[117.86986,4.16233],[117.86981,4.16245],[117.86978,4.16256],[117.8697,4.16268],[117.86966,4.16273],[117.86961,4.16283],[117.8696,4.16286],[117.8696,4.16288],[117.86976,4.16294],[117.86979,4.16295],[117.86979,4.16295],[117.86979,4.16303],[117.86979,4.16324],[117.86978,4.16354],[117.86976,4.16378],[117.86975,4.16383],[117.86975,4.16401],[117.86975,4.1641],[117.86979,4.16454],[117.86977,4.16504],[117.86976,4.16545],[117.86977,4.16584],[117.86977,4.16599],[117.86977,4.16618],[117.86977,4.16646],[117.87005,4.16782],[117.87435,4.16779],[117.87434,4.16662],[117.87383,4.16437],[117.87372,4.16257]]]]},"properties":{"kdprov":"65","kdkab":"04","kdkec":"160","kddesa":"003","kdsls":"0006","idsls":"65041600030006","nmprov":"KALIMANTAN UTARA","nmkab":"NUNUKAN","nmkec":"SEBATIK UTARA","nmdesa":"SEBERANG","nmsls":"RT 006 DUSUN GUNUNG BELAH"}},{"type":"Feature","geometry":{"type":"MultiPolygon","coordinates":[[[[117.87834,4.15],[117.87825,4.15365],[117.87819,4.15775],[117.87811,4.15931],[117.8781,4.15974],[117.87806,4.16025],[117.87793,4.16062],[117.87774,4.16113],[117.87772,4.16119],[117.87601,4.16659],[117.87589,4.16778],[117.87868,4.16775],[117.87914,4.16776],[117.87912,4.16711],[117.87922,4.16635],[117.88206,4.16267],[117.8821,4.16244],[117.88211,4.16219],[117.88227,4.16073],[117.88234,4.15693],[117.88255,4.15519],[117.88252,4.15315],[117.88253,4.15291],[117.88233,4.1529],[117.87834,4.15]]]]},"properties":{"kdprov":"65","kdkab":"04","kdkec":"160","kddesa":"003","kdsls":"0004","idsls":"65041600030004","nmprov":"KALIMANTAN UTARA","nmkab":"NUNUKAN","nmkec":"SEBATIK UTARA","nmdesa":"SEBERANG","nmsls":"RT 004 DUSUN GUNUNG BELAH"}},{"type":"Feature","geometry":{"type":"MultiPolygon","coordinates":[[[[117.88769,4.16786],[117.88764,4.16739],[117.88769,4.16715],[117.88772,4.16699],[117.88778,4.16688],[117.88782,4.16671],[117.8878,4.16644],[117.88779,4.16587],[117.88784,4.16543],[117.88785,4.16513],[117.88787,4.16501],[117.88802,4.1609],[117.88841,4.15814],[117.88876,4.15662],[117.88812,4.15637],[117.88758,4.15572],[117.88741,4.15509],[117.88711,4.15437],[117.88657,4.15355],[117.88579,4.15306],[117.88292,4.15293],[117.88253,4.15291],[117.88252,4.15315],[117.88255,4.15519],[117.88234,4.15693],[117.88227,4.16073],[117.88211,4.16219],[117.8821,4.16244],[117.88206,4.16267],[117.87922,4.16635],[117.87912,4.16711],[117.87914,4.16776],[117.88429,4.16787],[117.88769,4.16786]]]]},"properties":{"kdprov":"65","kdkab":"04","kdkec":"160","kddesa":"003","kdsls":"0003","idsls":"65041600030003","nmprov":"KALIMANTAN UTARA","nmkab":"NUNUKAN","nmkec":"SEBATIK UTARA","nmdesa":"SEBERANG","nmsls":"RT 003 DUSUN LALESALO"}},{"type":"Feature","geometry":{"type":"MultiPolygon","coordinates":[[[[117.89869,4.16024],[117.89879,4.16009],[117.89897,4.15982],[117.89918,4.15941],[117.89948,4.159],[117.89971,4.1586],[117.89986,4.15834],[117.9002,4.15755],[117.90039,4.15708],[117.90046,4.1569],[117.90057,4.15648],[117.90046,4.15645],[117.89985,4.15617],[117.8993,4.15597],[117.89924,4.15606],[117.89907,4.15628],[117.89879,4.15668],[117.89859,4.15701],[117.89832,4.15762],[117.89817,4.15809],[117.89803,4.15837],[117.89789,4.15856],[117.89764,4.15892],[117.89741,4.15916],[117.89714,4.15932],[117.89697,4.15943],[117.89677,4.15965],[117.89654,4.15985],[117.89635,4.1599],[117.89598,4.15997],[117.89595,4.16038],[117.89576,4.16095],[117.89544,4.16166],[117.89542,4.16176],[117.89585,4.16181],[117.89584,4.16195],[117.89579,4.16224],[117.89576,4.16236],[117.89568,4.16263],[117.89562,4.16282],[117.89544,4.16336],[117.89549,4.16345],[117.89557,4.16356],[117.89567,4.16371],[117.89575,4.16387],[117.89578,4.16398],[117.89576,4.16407],[117.89579,4.16408],[117.89608,4.16428],[117.89652,4.16453],[117.89677,4.1647],[117.89679,4.16467],[117.89686,4.16455],[117.89695,4.16443],[117.89705,4.1643],[117.89704,4.16415],[117.89697,4.16401],[117.89758,4.1627],[117.89758,4.16268],[117.89767,4.16254],[117.89785,4.16217],[117.89807,4.16163],[117.89823,4.16128],[117.89838,4.16097],[117.89854,4.16057],[117.89869,4.16024]]]]},"properties":{"kdprov":"65","kdkab":"04","kdkec":"160","kddesa":"002","kdsls":"0010","idsls":"65041600020010","nmprov":"KALIMANTAN UTARA","nmkab":"NUNUKAN","nmkec":"SEBATIK UTARA","nmdesa":"PANCANG","nmsls":"RT 010 DUSUN HB 002"}},{"type":"Feature","geometry":{"type":"MultiPolygon","coordinates":[[[[117.89047,4.16787],[117.89045,4.16771],[117.89042,4.16712],[117.89039,4.1667],[117.89039,4.16654],[117.89073,4.16653],[117.8907,4.16633],[117.8904,4.16633],[117.89041,4.16607],[117.89043,4.16549],[117.89046,4.16513],[117.89064,4.16514],[117.89064,4.16501],[117.89046,4.16501],[117.89046,4.16499],[117.8905,4.16468],[117.89051,4.16435],[117.88942,4.15838],[117.88921,4.15762],[117.88902,4.15734],[117.88881,4.15663],[117.88881,4.15662],[117.88879,4.15662],[117.88878,4.15662],[117.88876,4.15662],[117.88841,4.15814],[117.88802,4.1609],[117.88787,4.16501],[117.88785,4.16513],[117.88784,4.16543],[117.88779,4.16587],[117.8878,4.16644],[117.88782,4.16671],[117.88778,4.16688],[117.88772,4.16699],[117.88769,4.16715],[117.88764,4.16739],[117.88769,4.16786],[117.8882,4.16786],[117.89015,4.16788],[117.89047,4.16787]]]]},"properties":{"kdprov":"65","kdkab":"04","kdkec":"160","kddesa":"003","kdsls":"0002","idsls":"65041600030002","nmprov":"KALIMANTAN UTARA","nmkab":"NUNUKAN","nmkec":"SEBATIK UTARA","nmdesa":"SEBERANG","nmsls":"RT 002 DUSUN LALESALO"}},{"type":"Feature","geometry":{"type":"MultiPolygon","coordinates":[[[[117.89046,4.16501],[117.89064,4.16501],[117.89064,4.16514],[117.89046,4.16513],[117.89043,4.16549],[117.89041,4.16607],[117.8904,4.16633],[117.8907,4.16633],[117.89073,4.16653],[117.89039,4.16654],[117.89039,4.1667],[117.89042,4.16712],[117.89045,4.16771],[117.89047,4.16787],[117.89221,4.16785],[117.89834,4.16788],[117.89807,4.16641],[117.89682,4.1654],[117.89642,4.16525],[117.89677,4.1647],[117.89652,4.16453],[117.89608,4.16428],[117.89579,4.16408],[117.89576,4.16407],[117.8956,4.16403],[117.89516,4.16398],[117.89483,4.164],[117.89453,4.16406],[117.89422,4.16417],[117.89402,4.16425],[117.89382,4.16444],[117.89245,4.16422],[117.8921,4.16392],[117.89188,4.16267],[117.89217,4.15991],[117.89119,4.15686],[117.89115,4.15674],[117.89112,4.15663],[117.89112,4.15662],[117.8889,4.15663],[117.88881,4.15662],[117.88881,4.15663],[117.88902,4.15734],[117.88921,4.15762],[117.88942,4.15838],[117.89051,4.16435],[117.8905,4.16468],[117.89046,4.16499],[117.89046,4.16501]]]]},"properties":{"kdprov":"65","kdkab":"04","kdkec":"160","kddesa":"003","kdsls":"0001","idsls":"65041600030001","nmprov":"KALIMANTAN UTARA","nmkab":"NUNUKAN","nmkec":"SEBATIK UTARA","nmdesa":"SEBERANG","nmsls":"RT 001 DUSUN LALESALO"}},{"type":"Feature","geometry":{"type":"MultiPolygon","coordinates":[[[[117.8939,4.15923],[117.8937,4.15928],[117.89299,4.15911],[117.89266,4.15897],[117.89265,4.15841],[117.89233,4.15805],[117.89201,4.15768],[117.89161,4.15726],[117.89131,4.15696],[117.89119,4.15686],[117.89217,4.15991],[117.89188,4.16267],[117.8921,4.16392],[117.89245,4.16422],[117.89382,4.16444],[117.89402,4.16425],[117.89422,4.16417],[117.89453,4.16406],[117.89483,4.164],[117.89516,4.16398],[117.8956,4.16403],[117.89576,4.16407],[117.89578,4.16398],[117.89575,4.16387],[117.89567,4.16371],[117.89557,4.16356],[117.89549,4.16345],[117.89544,4.16336],[117.89562,4.16282],[117.89568,4.16263],[117.89576,4.16236],[117.89579,4.16224],[117.89584,4.16195],[117.89585,4.16181],[117.89542,4.16176],[117.89544,4.16166],[117.89576,4.16095],[117.89595,4.16038],[117.89598,4.15997],[117.89592,4.15997],[117.89569,4.16],[117.89544,4.16003],[117.89504,4.16003],[117.89496,4.16001],[117.89489,4.15989],[117.89476,4.15971],[117.89461,4.15953],[117.89443,4.15938],[117.89425,4.15932],[117.8939,4.15925],[117.8939,4.15923]]]]},"properties":{"kdprov":"65","kdkab":"04","kdkec":"160","kddesa":"002","kdsls":"0012","idsls":"65041600020012","nmprov":"KALIMANTAN UTARA","nmkab":"NUNUKAN","nmkec":"SEBATIK UTARA","nmdesa":"PANCANG","nmsls":"RT 012 DUSUN HB 002"}},{"type":"Feature","geometry":{"type":"MultiPolygon","coordinates":[[[[117.90356,4.15525],[117.9032,4.15508],[117.90297,4.15495],[117.90275,4.15538],[117.9025,4.15528],[117.9021,4.15606],[117.90193,4.15599],[117.9019,4.15606],[117.90177,4.15602],[117.9013,4.15577],[117.90095,4.15554],[117.90046,4.15645],[117.90057,4.15648],[117.90111,4.15663],[117.90162,4.15677],[117.90211,4.15694],[117.90247,4.15703],[117.90262,4.15708],[117.90269,4.15693],[117.90287,4.15659],[117.90307,4.1562],[117.90315,4.15608],[117.90343,4.15548],[117.90356,4.15525]]]]},"properties":{"kdprov":"65","kdkab":"04","kdkec":"160","kddesa":"002","kdsls":"0008","idsls":"65041600020008","nmprov":"KALIMANTAN UTARA","nmkab":"NUNUKAN","nmkec":"SEBATIK UTARA","nmdesa":"PANCANG","nmsls":"RT 008 DUSUN HB 003"}}]}