{"type":"FeatureCollection","features":[{"type":"Feature","geometry":{"type":"MultiPolygon","coordinates":[[[[114.9689,1.72265],[114.96976,1.72214],[114.97064,1.7173],[114.96496,1.71651],[114.96439,1.71604],[114.9644,1.71595],[114.96442,1.71555],[114.96409,1.71503],[114.96387,1.71522],[114.96372,1.71535],[114.9636,1.71545],[114.9636,1.71546],[114.9636,1.71546],[114.96347,1.71586],[114.96343,1.71598],[114.96342,1.71637],[114.9635,1.71677],[114.96366,1.71719],[114.96388,1.7176],[114.96425,1.71809],[114.9643,1.71834],[114.9643,1.7186],[114.96413,1.71893],[114.96388,1.71926],[114.96303,1.71996],[114.96259,1.72021],[114.96218,1.72053],[114.96202,1.72074],[114.96191,1.72114],[114.96179,1.72167],[114.96178,1.72215],[114.96181,1.72251],[114.96199,1.72268],[114.96239,1.72293],[114.96283,1.72305],[114.96325,1.72286],[114.96429,1.72268],[114.965,1.72269],[114.96546,1.72248],[114.96577,1.72209],[114.9662,1.72177],[114.96657,1.72155],[114.96707,1.7214],[114.96763,1.72145],[114.96803,1.72159],[114.96857,1.72205],[114.9687,1.72242],[114.9689,1.72265]]]]},"properties":{"kdprov":"65","kdkab":"01","kdkec":"020","kddesa":"001","kdsls":"0002","idsls":"65010200010002","nmprov":"KALIMANTAN UTARA","nmkab":"MALINAU","nmkec":"KAYAN SELATAN","nmdesa":"LONG AMPUNG","nmsls":"RT 002"}},{"type":"Feature","geometry":{"type":"MultiPolygon","coordinates":[[[[114.97064,1.7173],[114.96976,1.72214],[114.9689,1.72265],[114.96901,1.72293],[114.96909,1.72438],[114.96892,1.72543],[114.96879,1.72601],[114.96853,1.72655],[114.96829,1.72696],[114.96794,1.72719],[114.96745,1.72735],[114.96698,1.72747],[114.96662,1.72767],[114.96627,1.728],[114.96605,1.72845],[114.96584,1.72971],[114.96619,1.73048],[114.96738,1.73325],[114.96693,1.73572],[114.96425,1.73705],[114.96295,1.73787],[114.9617,1.73948],[114.96164,1.73988],[114.9616,1.74015],[114.96155,1.74046],[114.96147,1.74102],[114.96142,1.7413],[114.96134,1.74186],[114.96117,1.74296],[114.96029,1.74493],[114.95985,1.7473],[114.95986,1.74731],[114.95986,1.74731],[114.95972,1.74808],[114.95963,1.74859],[114.95956,1.74897],[114.95965,1.7496],[114.95973,1.75022],[114.96196,1.7503],[114.96363,1.74491],[114.96367,1.74488],[114.97155,1.74223],[114.98145,1.74451],[114.99196,1.74741],[114.99546,1.74695],[114.99972,1.74878],[115.00902,1.74543],[115.00912,1.74539],[115.01769,1.74375],[115.02394,1.74541],[115.02401,1.74542],[115.03384,1.74726],[115.03719,1.74969],[115.03862,1.7513],[115.04358,1.75685],[115.04785,1.75737],[115.05196,1.75787],[115.05607,1.75837],[115.06323,1.76111],[115.06627,1.76705],[115.06932,1.7733],[115.07191,1.7803],[115.07541,1.78594],[115.07759,1.7935],[115.08151,1.79879],[115.08568,1.80443],[115.08986,1.8094],[115.08988,1.80942],[115.09263,1.81164],[115.09438,1.81305],[115.09443,1.81309],[115.09443,1.81309],[115.09769,1.81547],[115.10179,1.81561],[115.10432,1.82113],[115.10782,1.82174],[115.11059,1.82125],[115.11361,1.82222],[115.1171,1.82403],[115.11988,1.82258],[115.12024,1.81848],[115.12145,1.81474],[115.12985,1.8131],[115.13794,1.8147],[115.14364,1.81739],[115.15037,1.82115],[115.15961,1.82634],[115.16889,1.82628],[115.17184,1.82428],[115.17451,1.82724],[115.17869,1.82771],[115.18345,1.82361],[115.18754,1.82456],[115.18973,1.82257],[115.19163,1.82228],[115.19536,1.81994],[115.19982,1.81981],[115.20458,1.81981],[115.20848,1.81628],[115.21508,1.82049],[115.22028,1.8217],[115.22171,1.8217],[115.22818,1.82304],[115.23161,1.82333],[115.23449,1.82326],[115.23597,1.82323],[115.23745,1.82734],[115.24156,1.8278],[115.24499,1.82917],[115.2475,1.82826],[115.24842,1.82597],[115.25002,1.82495],[115.25207,1.82312],[115.25527,1.82266],[115.25543,1.82248],[115.25744,1.82026],[115.25961,1.81764],[115.26373,1.81449],[115.26374,1.81449],[115.26772,1.81584],[115.26795,1.81592],[115.26872,1.81668],[115.26873,1.81654],[115.26884,1.81404],[115.26903,1.81199],[115.26987,1.81079],[115.27089,1.80933],[115.27184,1.80695],[115.27189,1.80678],[115.27269,1.80386],[115.27212,1.80176],[115.27303,1.7971],[115.27221,1.79606],[115.27098,1.79448],[115.27295,1.79224],[115.27296,1.7922],[115.27279,1.78925],[115.27298,1.78701],[115.27365,1.78487],[115.27608,1.78393],[115.27609,1.78392],[115.27704,1.7817],[115.27704,1.7817],[115.27612,1.77811],[115.27636,1.77592],[115.27762,1.77513],[115.27993,1.77369],[115.28074,1.77102],[115.27993,1.76905],[115.27992,1.76904],[115.2795,1.76712],[115.28001,1.76479],[115.28001,1.76478],[115.27946,1.76228],[115.28174,1.76069],[115.28192,1.75736],[115.28359,1.75546],[115.28385,1.75316],[115.28418,1.75242],[115.28455,1.75162],[115.285,1.75063],[115.285,1.75061],[115.28502,1.75056],[115.28592,1.74604],[115.28502,1.74171],[115.28378,1.74058],[115.28097,1.73804],[115.27802,1.73519],[115.27663,1.732],[115.27377,1.72845],[115.27374,1.7284],[115.27276,1.72712],[115.27232,1.72657],[115.27215,1.7262],[115.27003,1.72329],[115.26727,1.72034],[115.26936,1.71682],[115.27008,1.71539],[115.27217,1.71125],[115.27231,1.70849],[115.27395,1.7048],[115.27397,1.70476],[115.27512,1.70349],[115.27574,1.7013],[115.27593,1.69707],[115.27236,1.69454],[115.26865,1.69469],[115.26484,1.69393],[115.2619,1.6933],[115.26186,1.69329],[115.25908,1.69369],[115.2578,1.69226],[115.25786,1.69024],[115.25656,1.68892],[115.25461,1.68836],[115.25389,1.68646],[115.25323,1.68469],[115.24957,1.68352],[115.24757,1.68251],[115.24616,1.6818],[115.24409,1.67884],[115.24178,1.67893],[115.24043,1.67898],[115.23929,1.67756],[115.23954,1.67675],[115.23995,1.67541],[115.23687,1.67193],[115.23684,1.6719],[115.23462,1.66823],[115.23215,1.66528],[115.23164,1.66298],[115.2311,1.66052],[115.22896,1.66013],[115.22767,1.6599],[115.22444,1.65861],[115.22049,1.65804],[115.21741,1.65501],[115.21728,1.65483],[115.21487,1.65129],[115.21328,1.65079],[115.21211,1.65043],[115.20888,1.64757],[115.20531,1.64543],[115.20155,1.6432],[115.1988,1.64046],[115.19351,1.64034],[115.19103,1.63901],[115.19041,1.63544],[115.19041,1.63363],[115.19051,1.63158],[115.19403,1.62987],[115.19717,1.62973],[115.19936,1.62859],[115.20245,1.62949],[115.20497,1.62897],[115.20838,1.62974],[115.20857,1.62973],[115.21102,1.62911],[115.21197,1.62811],[115.21268,1.62549],[115.21359,1.62397],[115.21525,1.62226],[115.21568,1.6204],[115.21687,1.61812],[115.21754,1.61674],[115.21816,1.6144],[115.21882,1.61279],[115.21982,1.61112],[115.22035,1.60903],[115.22049,1.60631],[115.22196,1.60489],[115.22401,1.60365],[115.22496,1.60098],[115.22657,1.59732],[115.22661,1.59722],[115.22639,1.59389],[115.22663,1.59209],[115.22653,1.5899],[115.22534,1.58761],[115.22368,1.58656],[115.22013,1.58529],[115.21744,1.58276],[115.21559,1.58162],[115.21459,1.581],[115.21316,1.57809],[115.21321,1.576],[115.21178,1.57429],[115.21154,1.57248],[115.21249,1.5701],[115.21183,1.56805],[115.21054,1.56677],[115.21064,1.56491],[115.20902,1.56301],[115.20936,1.56105],[115.20945,1.56053],[115.20902,1.55834],[115.20693,1.55806],[115.20302,1.55811],[115.19922,1.5581],[115.1992,1.55811],[115.19646,1.55906],[115.19508,1.55771],[115.19389,1.55654],[115.1927,1.55558],[115.19117,1.55359],[115.18989,1.55091],[115.18894,1.54892],[115.18765,1.54621],[115.18694,1.5444],[115.18508,1.54202],[115.18498,1.54067],[115.1848,1.53836],[115.18213,1.5365],[115.17894,1.53479],[115.1745,1.53574],[115.17125,1.5337],[115.16851,1.53138],[115.16524,1.52903],[115.16276,1.52746],[115.16214,1.52532],[115.16186,1.52151],[115.16024,1.51965],[115.15753,1.5168],[115.15562,1.51471],[115.15581,1.51237],[115.15529,1.51042],[115.15353,1.50819],[115.15286,1.50543],[115.1521,1.50257],[115.15082,1.50076],[115.14868,1.49967],[115.14792,1.49691],[115.14906,1.49272],[115.14768,1.49134],[115.14763,1.48967],[115.14558,1.48872],[115.14353,1.48926],[115.14192,1.48967],[115.14021,1.48929],[115.13854,1.48982],[115.13783,1.49158],[115.13678,1.49324],[115.13464,1.49391],[115.13397,1.49272],[115.13326,1.49077],[115.13311,1.48815],[115.1314,1.48753],[115.12959,1.48591],[115.12936,1.4843],[115.12764,1.48273],[115.12736,1.48082],[115.1264,1.47892],[115.12469,1.47697],[115.12436,1.47454],[115.12288,1.47183],[115.12093,1.4695],[115.11936,1.47011],[115.11703,1.46992],[115.11698,1.4675],[115.12093,1.46645],[115.12207,1.46455],[115.12103,1.46212],[115.12297,1.45936],[115.12355,1.45598],[115.12236,1.45374],[115.12265,1.45184],[115.11922,1.45127],[115.11831,1.44889],[115.11808,1.44632],[115.11815,1.44262],[115.11636,1.43975],[115.11541,1.43794],[115.11527,1.43604],[115.11503,1.43309],[115.11322,1.43085],[115.1108,1.4286],[115.10908,1.42724],[115.10846,1.42586],[115.10846,1.42286],[115.10827,1.4211],[115.10799,1.41995],[115.10663,1.41758],[115.10547,1.41486],[115.10242,1.41248],[115.10156,1.41067],[115.1008,1.40758],[115.09947,1.40682],[115.09937,1.40554],[115.09814,1.40278],[115.09628,1.40087],[115.09523,1.39849],[115.09357,1.39573],[115.09114,1.39302],[115.08905,1.39059],[115.08743,1.39088],[115.0835,1.39113],[115.08077,1.38983],[115.07716,1.38962],[115.07453,1.38783],[115.07054,1.38774],[115.06968,1.38636],[115.06801,1.3845],[115.06754,1.38284],[115.06639,1.37988],[115.06754,1.37889],[115.06896,1.37674],[115.06763,1.37417],[115.06649,1.37308],[115.06425,1.37051],[115.06292,1.36846],[115.06306,1.3648],[115.06254,1.36175],[115.06235,1.35956],[115.06173,1.35766],[115.05998,1.35556],[115.0588,1.35351],[115.0564,1.35124],[115.05564,1.34976],[115.05511,1.34738],[115.05493,1.34519],[115.05416,1.3421],[115.05217,1.33962],[115.05126,1.33753],[115.05031,1.33358],[115.0495,1.32977],[115.0505,1.32835],[115.05233,1.32708],[115.05531,1.32573],[115.05793,1.32355],[115.05873,1.3213],[115.06049,1.31935],[115.06068,1.31788],[115.06097,1.31535],[115.06016,1.31264],[115.05973,1.31021],[115.05769,1.30841],[115.05597,1.30607],[115.05313,1.30514],[115.05088,1.30484],[115.04946,1.30329],[115.04888,1.30136],[115.04798,1.29989],[115.0455,1.29846],[115.04479,1.29698],[115.04431,1.29499],[115.04536,1.29356],[115.04546,1.29032],[115.04631,1.28828],[115.04641,1.28604],[115.04693,1.28337],[115.04693,1.28176],[115.0472,1.2789],[115.04574,1.27766],[115.04384,1.27638],[115.04189,1.27471],[115.04322,1.27263],[115.04412,1.26981],[115.04489,1.26761],[115.04711,1.26705],[115.04926,1.26715],[115.05264,1.26572],[115.05543,1.2665],[115.0582,1.26818],[115.05992,1.26905],[115.06278,1.26914],[115.06506,1.26891],[115.06682,1.26972],[115.06873,1.26972],[115.07101,1.2661],[115.07149,1.26448],[115.07277,1.26229],[115.07482,1.26086],[115.07739,1.25925],[115.07748,1.25634],[115.07943,1.25468],[115.07977,1.25149],[115.07958,1.24906],[115.0803,1.24737],[115.08097,1.24583],[115.07772,1.24364],[115.07363,1.24249],[115.07149,1.24083],[115.06735,1.23707],[115.06673,1.23312],[115.06487,1.23107],[115.06264,1.22769],[115.06061,1.22327],[115.05816,1.22208],[115.05364,1.2246],[115.05083,1.22451],[115.0475,1.22627],[115.0436,1.2267],[115.03775,1.22674],[115.0308,1.22655],[115.02728,1.22755],[115.02452,1.22712],[115.02242,1.22531],[115.02204,1.2236],[115.02099,1.21991],[115.01581,1.21975],[115.01233,1.21737],[115.01434,1.21283],[115.01476,1.21189],[115.014,1.2078],[115.01295,1.20395],[115.01067,1.20233],[115.00648,1.2019],[115.00329,1.20143],[115.00234,1.19852],[114.99839,1.19629],[114.99744,1.19624],[114.99482,1.19519],[114.99116,1.19467],[114.98935,1.19167],[114.98792,1.18986],[114.98769,1.18965],[114.98623,1.18833],[114.98621,1.18828],[114.98557,1.18883],[114.98557,1.18881],[114.98547,1.1889],[114.98545,1.18892],[114.98514,1.18918],[114.98491,1.18931],[114.98467,1.18944],[114.98359,1.19005],[114.98325,1.19023],[114.98322,1.19023],[114.9826,1.19057],[114.98002,1.19247],[114.97958,1.19279],[114.9773,1.19343],[114.97725,1.19345],[114.97634,1.1937],[114.97432,1.19324],[114.97158,1.19161],[114.96989,1.1906],[114.96434,1.1876],[114.9615,1.18622],[114.95755,1.18431],[114.95044,1.18147],[114.95006,1.18136],[114.94754,1.18066],[114.94528,1.17999],[114.94509,1.17997],[114.94076,1.17861],[114.93588,1.17811],[114.93138,1.17971],[114.92623,1.18397],[114.92189,1.18986],[114.91915,1.19432],[114.91401,1.19883],[114.91258,1.19945],[114.90781,1.20151],[114.90396,1.20386],[114.90149,1.20537],[114.90091,1.2058],[114.89608,1.20936],[114.89067,1.21107],[114.88517,1.21226],[114.88441,1.21203],[114.88043,1.21078],[114.87981,1.2103],[114.87787,1.20879],[114.87638,1.20698],[114.87462,1.20484],[114.87462,1.20484],[114.87034,1.20109],[114.8636,1.19751],[114.86221,1.1961],[114.86066,1.19453],[114.85893,1.19278],[114.85852,1.19236],[114.85731,1.18916],[114.85709,1.18858],[114.85567,1.18346],[114.85359,1.17782],[114.85356,1.17661],[114.85356,1.17633],[114.85353,1.17521],[114.85349,1.17343],[114.85345,1.17157],[114.85203,1.169],[114.85168,1.16838],[114.84841,1.1681],[114.84827,1.16809],[114.84791,1.16825],[114.84764,1.16837],[114.84571,1.16923],[114.83981,1.17245],[114.83527,1.17668],[114.834,1.17786],[114.83377,1.17808],[114.83018,1.18143],[114.83004,1.18156],[114.82892,1.18261],[114.82237,1.1863],[114.82049,1.1872],[114.82027,1.1873],[114.8201,1.18739],[114.81777,1.18847],[114.81752,1.18859],[114.81638,1.18912],[114.8141,1.19046],[114.81316,1.19102],[114.80957,1.19313],[114.80956,1.19314],[114.80952,1.19317],[114.80902,1.19364],[114.80891,1.19373],[114.8089,1.19374],[114.80643,1.19598],[114.80216,1.19968],[114.79676,1.20424],[114.79163,1.2105],[114.78838,1.21357],[114.78651,1.21533],[114.78402,1.21853],[114.78402,1.21854],[114.78402,1.21854],[114.78253,1.22046],[114.7774,1.22786],[114.77157,1.23255],[114.76527,1.23778],[114.76231,1.24068],[114.7582,1.24471],[114.7568,1.24771],[114.75806,1.24994],[114.75808,1.24999],[114.75809,1.25],[114.75846,1.25132],[114.75777,1.25489],[114.7552,1.25632],[114.75037,1.2566],[114.75,1.25681],[114.74834,1.25776],[114.74638,1.25888],[114.73895,1.26195],[114.73813,1.26229],[114.73573,1.26323],[114.73566,1.26326],[114.733,1.26429],[114.72982,1.26413],[114.72731,1.264],[114.72428,1.26612],[114.72424,1.26615],[114.72162,1.26799],[114.71888,1.27109],[114.71885,1.27112],[114.71839,1.27164],[114.7174,1.27276],[114.71686,1.2747],[114.71593,1.27823],[114.7181,1.28312],[114.71823,1.28343],[114.72075,1.29063],[114.7202,1.29588],[114.72229,1.29909],[114.7231,1.30034],[114.72311,1.30034],[114.72418,1.30612],[114.72482,1.30816],[114.7249,1.30838],[114.72558,1.31054],[114.72539,1.31086],[114.72383,1.31343],[114.72248,1.31333],[114.72235,1.31385],[114.72212,1.31474],[114.72188,1.31548],[114.72152,1.31611],[114.72124,1.31653],[114.72099,1.31688],[114.72074,1.31762],[114.72035,1.31812],[114.71997,1.3186],[114.71955,1.31902],[114.71934,1.31952],[114.71904,1.31995],[114.71876,1.32029],[114.71843,1.32078],[114.71793,1.32148],[114.71738,1.32214],[114.7171,1.32267],[114.7168,1.32324],[114.71656,1.32358],[114.71644,1.32379],[114.7164,1.32442],[114.71605,1.3251],[114.71585,1.32555],[114.71531,1.32627],[114.71534,1.32685],[114.7156,1.32787],[114.71545,1.32864],[114.71529,1.32894],[114.7151,1.32916],[114.71437,1.32994],[114.71411,1.3303],[114.71333,1.33028],[114.71292,1.33059],[114.71247,1.33094],[114.71252,1.33178],[114.71261,1.33227],[114.71278,1.33281],[114.71296,1.33337],[114.71295,1.33376],[114.71295,1.33377],[114.71295,1.33396],[114.71273,1.33473],[114.71249,1.33536],[114.71203,1.33555],[114.71131,1.33577],[114.71044,1.33619],[114.70966,1.3364],[114.70772,1.33649],[114.70743,1.33642],[114.7074,1.33641],[114.70664,1.3362],[114.70505,1.33576],[114.70377,1.3357],[114.70297,1.33594],[114.70235,1.33631],[114.70154,1.33793],[114.70096,1.33869],[114.70037,1.33934],[114.7002,1.34014],[114.69932,1.34136],[114.69964,1.34268],[114.70098,1.34374],[114.70121,1.34392],[114.70133,1.34433],[114.70133,1.34433],[114.70201,1.34658],[114.70383,1.34808],[114.70461,1.34906],[114.70484,1.35088],[114.70418,1.35146],[114.70332,1.35174],[114.70185,1.35241],[114.70116,1.35269],[114.70022,1.35278],[114.70005,1.35278],[114.70003,1.35278],[114.69945,1.35281],[114.69866,1.35329],[114.69789,1.3535],[114.6959,1.3543],[114.69536,1.35464],[114.69324,1.35574],[114.69238,1.35642],[114.69207,1.35703],[114.69171,1.35753],[114.69142,1.35793],[114.69113,1.35839],[114.69078,1.3589],[114.69077,1.35891],[114.69011,1.35989],[114.68959,1.35984],[114.6892,1.35957],[114.68846,1.35911],[114.68861,1.3598],[114.68889,1.36043],[114.68895,1.36059],[114.68935,1.3615],[114.68963,1.36217],[114.69137,1.36423],[114.69301,1.36513],[114.6967,1.36537],[114.69938,1.36492],[114.70037,1.36463],[114.7043,1.36294],[114.70603,1.36342],[114.70958,1.36343],[114.71149,1.36285],[114.7147,1.36081],[114.71838,1.36004],[114.72095,1.36094],[114.72543,1.36259],[114.72865,1.36303],[114.73286,1.36382],[114.73806,1.36356],[114.74175,1.36309],[114.74325,1.363],[114.74481,1.3612],[114.74584,1.35891],[114.74685,1.35583],[114.74933,1.3522],[114.75153,1.35007],[114.7539,1.34905],[114.7578,1.34985],[114.76113,1.35021],[114.76516,1.3512],[114.76895,1.35356],[114.77353,1.35458],[114.77601,1.35698],[114.7787,1.35927],[114.78077,1.36002],[114.7864,1.36242],[114.79094,1.36539],[114.7924,1.36691],[114.79492,1.37014],[114.79563,1.37299],[114.79593,1.37669],[114.79587,1.38659],[114.79571,1.39008],[114.79601,1.3919],[114.79715,1.39381],[114.79844,1.39574],[114.80011,1.4006],[114.80195,1.40363],[114.80468,1.40541],[114.80729,1.40762],[114.811,1.41016],[114.81446,1.41297],[114.81514,1.41548],[114.81554,1.41821],[114.81676,1.42076],[114.81751,1.42409],[114.81818,1.42814],[114.81801,1.43271],[114.81765,1.43647],[114.81635,1.43906],[114.81635,1.43906],[114.8154,1.44097],[114.81627,1.44195],[114.81667,1.44241],[114.81691,1.44294],[114.81716,1.44349],[114.81788,1.44507],[114.82227,1.45128],[114.82568,1.45388],[114.82875,1.45388],[114.83187,1.45173],[114.83409,1.45131],[114.83643,1.4529],[114.83956,1.45631],[114.8447,1.45842],[114.84754,1.45828],[114.85204,1.45752],[114.85295,1.45772],[114.85463,1.45864],[114.85609,1.45908],[114.85812,1.45742],[114.86111,1.45731],[114.86344,1.45513],[114.86524,1.45236],[114.86611,1.45128],[114.87291,1.44642],[114.87462,1.44576],[114.87707,1.44531],[114.88071,1.44543],[114.88267,1.44317],[114.88384,1.44081],[114.88605,1.43949],[114.88784,1.43947],[114.89445,1.4338],[114.89767,1.43013],[114.90219,1.42803],[114.90453,1.42419],[114.9068,1.42139],[114.90671,1.41711],[114.90625,1.41588],[114.90774,1.41711],[114.90841,1.4212],[114.90841,1.42421],[114.90977,1.42585],[114.91194,1.42763],[114.91397,1.42845],[114.91533,1.42913],[114.9175,1.4264],[114.91886,1.42955],[114.9194,1.43337],[114.91933,1.4374],[114.91769,1.43986],[114.91715,1.4445],[114.91714,1.44778],[114.91578,1.45393],[114.91686,1.45652],[114.91998,1.46404],[114.92377,1.47169],[114.93476,1.47662],[114.94318,1.47499],[114.94739,1.47199],[114.94739,1.4668],[114.94835,1.45901],[114.95528,1.45424],[114.96057,1.45766],[114.96097,1.46599],[114.96422,1.47132],[114.97278,1.48048],[114.97396,1.4809],[114.97611,1.48006],[114.97855,1.47776],[114.98161,1.47748],[114.98258,1.47517],[114.98307,1.47175],[114.9846,1.47161],[114.98508,1.47532],[114.98438,1.4786],[114.98424,1.4828],[114.98639,1.48581],[114.98785,1.4884],[114.98847,1.49106],[114.98611,1.49336],[114.98312,1.49602],[114.98145,1.49881],[114.98273,1.5013],[114.98634,1.50165],[114.98913,1.49893],[114.99184,1.49795],[114.99295,1.49928],[114.99308,1.5032],[114.99207,1.50722],[114.9911,1.51085],[114.98894,1.51344],[114.98685,1.51498],[114.98435,1.51595],[114.98268,1.51917],[114.9801,1.52511],[114.9769,1.5277],[114.97589,1.53144],[114.98048,1.5285],[114.9909,1.53047],[114.99514,1.53523],[114.99479,1.53908],[114.99235,1.54271],[114.99099,1.54888],[114.99163,1.54878],[114.99311,1.54674],[114.99564,1.54426],[115.00157,1.54078],[115.00342,1.53994],[115.00681,1.53849],[115.01007,1.53551],[115.01202,1.53202],[115.02056,1.52665],[115.02721,1.52425],[115.03191,1.52309],[115.03563,1.52059],[115.03817,1.51455],[115.03853,1.5091],[115.03912,1.50633],[115.0402,1.50386],[115.04295,1.50081],[115.04693,1.4987],[115.05119,1.49864],[115.05401,1.49929],[115.05604,1.49864],[115.05738,1.50066],[115.05893,1.50294],[115.06091,1.5045],[115.06331,1.50635],[115.06401,1.50805],[115.06683,1.51204],[115.06895,1.51303],[115.07205,1.51573],[115.0753,1.51559],[115.07685,1.51318],[115.07685,1.51162],[115.07841,1.51105],[115.07911,1.50992],[115.07813,1.50721],[115.07799,1.50395],[115.0801,1.50636],[115.08123,1.50935],[115.08179,1.51191],[115.08307,1.51006],[115.08349,1.51219],[115.08617,1.51191],[115.08645,1.51575],[115.08856,1.51887],[115.09181,1.52158],[115.09752,1.52805],[115.09775,1.52952],[115.0974,1.53521],[115.09548,1.53975],[115.09344,1.54384],[115.09423,1.54612],[115.09389,1.5493],[115.09456,1.55498],[115.09582,1.55929],[115.09531,1.56209],[115.09499,1.56774],[115.09579,1.57302],[115.09775,1.57628],[115.10015,1.58072],[115.10163,1.58397],[115.10128,1.58568],[115.1001,1.58675],[115.10027,1.58848],[115.10101,1.59036],[115.10305,1.59304],[115.10441,1.59427],[115.1058,1.59578],[115.11019,1.59839],[115.11296,1.6003],[115.11662,1.60361],[115.1201,1.60708],[115.1214,1.61029],[115.12223,1.61169],[115.12218,1.61458],[115.12292,1.61644],[115.12282,1.61844],[115.12236,1.62044],[115.12162,1.62254],[115.12194,1.62542],[115.12314,1.62659],[115.12559,1.62822],[115.128,1.62897],[115.12887,1.62981],[115.13053,1.63763],[115.13007,1.63968],[115.12794,1.64279],[115.12576,1.64722],[115.12451,1.65024],[115.12386,1.6515],[115.12314,1.65296],[115.12175,1.65506],[115.11943,1.65733],[115.11781,1.66129],[115.11369,1.66771],[115.1122,1.67185],[115.11072,1.67506],[115.10859,1.67832],[115.10558,1.6799],[115.10451,1.68046],[115.1041,1.68086],[115.10285,1.68209],[115.10262,1.68232],[115.10039,1.68376],[115.09743,1.68395],[115.09492,1.68335],[115.09358,1.68257],[115.09187,1.68158],[115.09054,1.67961],[115.09012,1.67918],[115.08819,1.67723],[115.08437,1.67529],[115.07975,1.67087],[115.07586,1.66914],[115.06976,1.67104],[115.06619,1.67318],[115.06485,1.67337],[115.06228,1.67269],[115.05734,1.66896],[115.0541,1.66723],[115.05248,1.66747],[115.05174,1.66802],[115.04975,1.66905],[115.04776,1.67132],[115.04609,1.67225],[115.0429,1.67169],[115.04161,1.66904],[115.03967,1.6675],[115.03647,1.66736],[115.03296,1.66866],[115.03027,1.67089],[115.02846,1.67321],[115.02772,1.67377],[115.0238,1.67708],[115.02327,1.67753],[115.02327,1.67753],[115.02046,1.67478],[115.01976,1.67463],[115.01932,1.67469],[115.01887,1.67491],[115.01817,1.67618],[115.01799,1.67651],[115.01696,1.6784],[115.0168,1.67868],[115.01656,1.67913],[115.01628,1.67964],[115.0159,1.68033],[115.01531,1.68039],[115.01219,1.68073],[115.01082,1.68087],[115.0105,1.68139],[115.01028,1.6814],[115.00854,1.68144],[115.00627,1.68217],[115.00581,1.68232],[115.00541,1.6825],[115.00541,1.6825],[115.00331,1.68205],[115.00142,1.68164],[114.99907,1.68312],[114.99899,1.68317],[114.99876,1.68319],[114.99644,1.68341],[114.99629,1.68667],[114.99572,1.68971],[114.99495,1.69057],[114.99416,1.69144],[114.99229,1.69228],[114.9912,1.69252],[114.98959,1.69287],[114.98744,1.69476],[114.98591,1.6942],[114.98317,1.69393],[114.98179,1.6947],[114.9796,1.69689],[114.97845,1.69995],[114.97841,1.70067],[114.97841,1.70074],[114.97834,1.70231],[114.97785,1.70302],[114.97684,1.70448],[114.97569,1.70441],[114.97456,1.70433],[114.97449,1.70442],[114.9737,1.7054],[114.97332,1.70587],[114.97267,1.70575],[114.97316,1.70688],[114.97176,1.71107],[114.97073,1.71681],[114.97064,1.7173]]]]},"properties":{"kdprov":"65","kdkab":"01","kdkec":"020","kddesa":"001","kdsls":"2001","idsls":"65010200012001","nmprov":"KALIMANTAN UTARA","nmkab":"MALINAU","nmkec":"KAYAN SELATAN","nmdesa":"LONG AMPUNG","nmsls":"HUTAN"}},{"type":"Feature","geometry":{"type":"MultiPolygon","coordinates":[[[[114.99876,1.68319],[114.99899,1.68317],[114.99907,1.68312],[114.99878,1.68141],[114.99872,1.68132],[114.99854,1.68066],[114.99843,1.68066],[114.99798,1.68075],[114.99752,1.68093],[114.99781,1.68145],[114.99797,1.68173],[114.99817,1.682],[114.99876,1.68319]]]]},"properties":{"kdprov":"65","kdkab":"01","kdkec":"020","kddesa":"004","kdsls":"0002","idsls":"65010200040002","nmprov":"KALIMANTAN UTARA","nmkab":"MALINAU","nmkec":"KAYAN SELATAN","nmdesa":"LONG URO","nmsls":"RT 02"}},{"type":"Feature","geometry":{"type":"MultiPolygon","coordinates":[[[[114.99876,1.68319],[114.99817,1.682],[114.99797,1.68173],[114.99781,1.68145],[114.99752,1.68093],[114.99704,1.68127],[114.99686,1.68147],[114.99671,1.68183],[114.99657,1.6823],[114.99653,1.68267],[114.99644,1.68317],[114.99644,1.68341],[114.99876,1.68319]]]]},"properties":{"kdprov":"65","kdkab":"01","kdkec":"020","kddesa":"004","kdsls":"0001","idsls":"65010200040001","nmprov":"KALIMANTAN UTARA","nmkab":"MALINAU","nmkec":"KAYAN SELATAN","nmdesa":"LONG URO","nmsls":"RT 01"}},{"type":"Feature","geometry":{"type":"MultiPolygon","coordinates":[[[[115.01696,1.6784],[115.01799,1.67651],[115.01606,1.67526],[115.01588,1.67539],[115.01564,1.67558],[115.01549,1.67582],[115.0155,1.67598],[115.01556,1.67613],[115.01555,1.67631],[115.01552,1.67647],[115.01543,1.67668],[115.01527,1.67693],[115.0158,1.67747],[115.01583,1.67761],[115.01696,1.6784]]]]},"properties":{"kdprov":"65","kdkab":"01","kdkec":"020","kddesa":"003","kdsls":"0003","idsls":"65010200030003","nmprov":"KALIMANTAN UTARA","nmkab":"MALINAU","nmkec":"KAYAN SELATAN","nmdesa":"LIDUNG PAYAU","nmsls":"RT 03"}},{"type":"Feature","geometry":{"type":"MultiPolygon","coordinates":[[[[114.97267,1.70575],[114.97332,1.70587],[114.9737,1.7054],[114.97449,1.70442],[114.97456,1.70433],[114.97569,1.70441],[114.97684,1.70448],[114.97785,1.70302],[114.97834,1.70231],[114.97841,1.70074],[114.97841,1.70067],[114.97845,1.69995],[114.9796,1.69689],[114.97939,1.69459],[114.97758,1.6928],[114.97667,1.69126],[114.97425,1.6892],[114.97305,1.68516],[114.97319,1.68134],[114.97219,1.67764],[114.97062,1.67505],[114.96906,1.67301],[114.96737,1.67032],[114.9671,1.66749],[114.96532,1.6624],[114.96387,1.66027],[114.96169,1.6582],[114.95907,1.65805],[114.95577,1.657],[114.9518,1.65609],[114.94882,1.65456],[114.94852,1.65211],[114.94561,1.64769],[114.94441,1.64696],[114.94235,1.64694],[114.94281,1.64489],[114.94,1.64217],[114.93976,1.64002],[114.93871,1.63824],[114.94045,1.63751],[114.93904,1.63646],[114.93811,1.63504],[114.93675,1.63471],[114.93691,1.63269],[114.93792,1.63006],[114.93623,1.63066],[114.9349,1.62957],[114.935,1.62866],[114.93367,1.62744],[114.93436,1.62606],[114.93344,1.62497],[114.93126,1.62481],[114.92989,1.62432],[114.92849,1.62383],[114.9282,1.62306],[114.92724,1.62221],[114.92764,1.62055],[114.92716,1.6201],[114.92587,1.62006],[114.92573,1.6185],[114.92332,1.61781],[114.92199,1.61765],[114.9205,1.61756],[114.91902,1.61586],[114.91801,1.61643],[114.91664,1.61614],[114.91552,1.61468],[114.91274,1.61638],[114.91147,1.61924],[114.90993,1.62162],[114.90905,1.62357],[114.90743,1.62745],[114.89394,1.63289],[114.88262,1.63611],[114.8782,1.63395],[114.87338,1.63161],[114.85891,1.64889],[114.85416,1.65788],[114.85703,1.66],[114.85703,1.66088],[114.85703,1.66136],[114.85703,1.66166],[114.85703,1.66233],[114.85703,1.66367],[114.85703,1.6638],[114.85731,1.66408],[114.85732,1.66409],[114.85763,1.6644],[114.85917,1.66594],[114.85927,1.66703],[114.85962,1.67081],[114.85932,1.67492],[114.86072,1.67856],[114.86084,1.67888],[114.86268,1.68416],[114.86708,1.68619],[114.86788,1.68939],[114.86861,1.69228],[114.87425,1.69488],[114.87917,1.70009],[114.88033,1.70416],[114.88321,1.70436],[114.88673,1.70462],[114.88947,1.70644],[114.89069,1.70888],[114.89245,1.71382],[114.89739,1.71345],[114.89922,1.71497],[114.90226,1.71421],[114.90409,1.71116],[114.91125,1.71269],[114.91414,1.71147],[114.9178,1.71193],[114.92145,1.71406],[114.92282,1.71695],[114.92406,1.72171],[114.93066,1.72473],[114.93069,1.72472],[114.93759,1.72381],[114.93912,1.7299],[114.94103,1.73221],[114.94108,1.73255],[114.94146,1.73507],[114.94159,1.7359],[114.9416,1.73594],[114.9417,1.73648],[114.94171,1.73654],[114.94178,1.73691],[114.94187,1.73743],[114.94201,1.73821],[114.94203,1.73837],[114.94203,1.73837],[114.94205,1.73844],[114.94205,1.73844],[114.94206,1.73852],[114.94206,1.73852],[114.94207,1.73859],[114.94207,1.73859],[114.94208,1.7386],[114.94209,1.73866],[114.94209,1.73866],[114.94209,1.73866],[114.94209,1.73867],[114.94209,1.73867],[114.94211,1.73867],[114.94211,1.73867],[114.94211,1.73867],[114.94214,1.73885],[114.94243,1.74051],[114.94273,1.74225],[114.94279,1.7426],[114.94543,1.74592],[114.94662,1.74682],[114.94889,1.74855],[114.94892,1.74855],[114.95268,1.74941],[114.95506,1.74995],[114.95555,1.75006],[114.95556,1.75006],[114.95973,1.75022],[114.95965,1.7496],[114.95956,1.74897],[114.95963,1.74859],[114.95972,1.74808],[114.95986,1.74731],[114.95986,1.74731],[114.95985,1.7473],[114.96029,1.74493],[114.96117,1.74296],[114.96134,1.74186],[114.96142,1.7413],[114.96147,1.74102],[114.96155,1.74046],[114.9616,1.74015],[114.96164,1.73988],[114.9617,1.73948],[114.96295,1.73787],[114.96425,1.73705],[114.96693,1.73572],[114.96738,1.73325],[114.96619,1.73048],[114.96584,1.72971],[114.96492,1.72762],[114.96437,1.72702],[114.96397,1.7265],[114.96328,1.72559],[114.96314,1.72548],[114.96204,1.7247],[114.9607,1.72374],[114.96007,1.72296],[114.95977,1.72246],[114.95942,1.72147],[114.95913,1.72033],[114.95904,1.71828],[114.95954,1.71691],[114.96089,1.71539],[114.96161,1.71458],[114.96161,1.71457],[114.96157,1.7144],[114.96137,1.71361],[114.96194,1.71196],[114.96221,1.71184],[114.96257,1.71167],[114.96484,1.71241],[114.96528,1.71255],[114.96676,1.71303],[114.96705,1.71272],[114.96733,1.71227],[114.96764,1.71219],[114.96794,1.71209],[114.96811,1.71173],[114.96818,1.7114],[114.96811,1.71086],[114.96795,1.71006],[114.96781,1.70935],[114.96773,1.70884],[114.96775,1.7084],[114.96815,1.70798],[114.96868,1.70727],[114.96898,1.70691],[114.96917,1.70653],[114.96931,1.70611],[114.96941,1.7057],[114.96938,1.70551],[114.96928,1.7047],[114.96921,1.70339],[114.96912,1.70279],[114.96898,1.70235],[114.96875,1.70168],[114.96875,1.7012],[114.96885,1.70068],[114.96905,1.70031],[114.96928,1.70017],[114.96955,1.70024],[114.97011,1.70068],[114.97071,1.70114],[114.97126,1.7015],[114.97179,1.70185],[114.97234,1.7023],[114.97235,1.705],[114.97267,1.70575]]]]},"properties":{"kdprov":"65","kdkab":"01","kdkec":"020","kddesa":"005","kdsls":"2001","idsls":"65010200052001","nmprov":"KALIMANTAN UTARA","nmkab":"MALINAU","nmkec":"KAYAN SELATAN","nmdesa":"METULANG","nmsls":"HUTAN"}},{"type":"Feature","geometry":{"type":"MultiPolygon","coordinates":[[[[114.99854,1.68066],[114.99872,1.68132],[114.99878,1.68141],[114.99907,1.68312],[115.00142,1.68164],[115.00113,1.68159],[115.00096,1.6815],[115.00068,1.68145],[115.00035,1.68126],[115.00009,1.6812],[114.99985,1.68109],[114.99956,1.68091],[114.99913,1.68071],[114.99877,1.68066],[114.99854,1.68066]]]]},"properties":{"kdprov":"65","kdkab":"01","kdkec":"020","kddesa":"004","kdsls":"0003","idsls":"65010200040003","nmprov":"KALIMANTAN UTARA","nmkab":"MALINAU","nmkec":"KAYAN SELATAN","nmdesa":"LONG URO","nmsls":"RT 03"}},{"type":"Feature","geometry":{"type":"MultiPolygon","coordinates":[[[[115.01696,1.6784],[115.01583,1.67761],[115.0158,1.67747],[115.01527,1.67693],[115.01513,1.67709],[115.01492,1.67727],[115.01459,1.67761],[115.01477,1.67781],[115.01499,1.67801],[115.01516,1.67821],[115.01505,1.67834],[115.01522,1.67839],[115.01556,1.67843],[115.01582,1.67852],[115.01656,1.67913],[115.0168,1.67868],[115.01696,1.6784]]]]},"properties":{"kdprov":"65","kdkab":"01","kdkec":"020","kddesa":"003","kdsls":"0002","idsls":"65010200030002","nmprov":"KALIMANTAN UTARA","nmkab":"MALINAU","nmkec":"KAYAN SELATAN","nmdesa":"LIDUNG PAYAU","nmsls":"RT 02"}},{"type":"Feature","geometry":{"type":"MultiPolygon","coordinates":[[[[115.01527,1.67693],[115.01543,1.67668],[115.01552,1.67647],[115.01555,1.67631],[115.01556,1.67613],[115.0155,1.67598],[115.01549,1.67582],[115.01564,1.67558],[115.01588,1.67539],[115.01606,1.67526],[115.01799,1.67651],[115.01817,1.67618],[115.01887,1.67491],[115.01932,1.67469],[115.01976,1.67463],[115.02046,1.67478],[115.02327,1.67753],[115.02327,1.67753],[115.02424,1.67474],[115.02025,1.67011],[115.0202,1.67005],[115.0199,1.66974],[115.01906,1.66888],[115.01921,1.66802],[115.02037,1.66825],[115.02066,1.66725],[115.02068,1.66603],[115.02014,1.66537],[115.02048,1.66322],[115.0188,1.66336],[115.01897,1.66216],[115.01832,1.66225],[115.01752,1.66124],[115.01687,1.66113],[115.01675,1.65987],[115.01665,1.65919],[115.01731,1.6579],[115.01711,1.65615],[115.01671,1.65451],[115.01942,1.65424],[115.02092,1.6526],[115.01997,1.65083],[115.01684,1.65082],[115.01522,1.65026],[115.01526,1.64753],[115.01464,1.64672],[115.01478,1.64569],[115.01433,1.64395],[115.01246,1.6439],[115.01126,1.64296],[115.00962,1.64381],[115.00788,1.64457],[115.00646,1.64282],[115.00562,1.64179],[115.00575,1.6408],[115.00375,1.64223],[115.00286,1.64205],[115.00259,1.64035],[115.00206,1.63995],[115.00295,1.6391],[115.00308,1.63821],[115.00402,1.6374],[115.00326,1.63624],[115.00273,1.63655],[115.00286,1.63713],[115.00215,1.63704],[115.00073,1.6369],[115.00024,1.63699],[114.99966,1.6374],[114.99939,1.63646],[114.99993,1.63373],[115.00131,1.63337],[115.00127,1.63247],[115.00202,1.63225],[115.00191,1.63008],[115.00294,1.62923],[115.00303,1.62753],[115.00445,1.62856],[115.00525,1.62655],[115.00672,1.62695],[115.00686,1.62507],[115.00855,1.62467],[115.0085,1.62458],[115.00886,1.62252],[115.0102,1.62185],[115.00975,1.62042],[115.0102,1.61912],[115.0122,1.61948],[115.01389,1.61827],[115.01443,1.6168],[115.01416,1.61254],[115.01537,1.6117],[115.01648,1.61044],[115.01728,1.60901],[115.01635,1.60812],[115.0147,1.60919],[115.01439,1.60995],[115.0139,1.60892],[115.0127,1.60874],[115.01341,1.60731],[115.0147,1.60686],[115.01448,1.60623],[115.01288,1.60614],[115.01324,1.60507],[115.01462,1.6048],[115.01444,1.60422],[115.01373,1.60413],[115.01431,1.60292],[115.01342,1.60225],[115.01449,1.60185],[115.01458,1.60077],[115.01591,1.60068],[115.01693,1.59997],[115.0169,1.5999],[115.01689,1.59988],[115.01651,1.59901],[115.0162,1.59865],[115.01487,1.59869],[115.01469,1.59753],[115.01442,1.5969],[115.01389,1.59686],[115.01367,1.59547],[115.01276,1.59434],[115.00844,1.58899],[115.00827,1.58436],[115.01193,1.58078],[115.01419,1.57938],[115.01462,1.57684],[115.01315,1.57308],[115.01515,1.57081],[115.01646,1.56784],[115.01665,1.55702],[115.01326,1.55082],[115.00626,1.54804],[114.99884,1.54761],[114.99163,1.54878],[114.99099,1.54888],[114.99235,1.54271],[114.99479,1.53908],[114.99514,1.53523],[114.9909,1.53047],[114.98048,1.5285],[114.97589,1.53144],[114.9769,1.5277],[114.9801,1.52511],[114.98268,1.51917],[114.98435,1.51595],[114.98685,1.51498],[114.98894,1.51344],[114.9911,1.51085],[114.99207,1.50722],[114.99308,1.5032],[114.99295,1.49928],[114.99184,1.49795],[114.98913,1.49893],[114.98634,1.50165],[114.98273,1.5013],[114.98145,1.49881],[114.98312,1.49602],[114.98611,1.49336],[114.98847,1.49106],[114.98785,1.4884],[114.98639,1.48581],[114.98424,1.4828],[114.98438,1.4786],[114.98508,1.47532],[114.9846,1.47161],[114.98307,1.47175],[114.98258,1.47517],[114.98161,1.47748],[114.97855,1.47776],[114.97611,1.48006],[114.97396,1.4809],[114.97278,1.48048],[114.96422,1.47132],[114.96097,1.46599],[114.96057,1.45766],[114.95528,1.45424],[114.94835,1.45901],[114.94739,1.4668],[114.94739,1.47199],[114.94318,1.47499],[114.93476,1.47662],[114.92377,1.47169],[114.91998,1.46404],[114.91686,1.45652],[114.91578,1.45393],[114.91714,1.44778],[114.91715,1.4445],[114.91769,1.43986],[114.91933,1.4374],[114.9194,1.43337],[114.91886,1.42955],[114.9175,1.4264],[114.91533,1.42913],[114.91397,1.42845],[114.91194,1.42763],[114.90977,1.42585],[114.90841,1.42421],[114.90841,1.4212],[114.90774,1.41711],[114.90625,1.41588],[114.90671,1.41711],[114.9068,1.42139],[114.90453,1.42419],[114.90219,1.42803],[114.89767,1.43013],[114.89445,1.4338],[114.88784,1.43947],[114.88605,1.43949],[114.88384,1.44081],[114.88267,1.44317],[114.88071,1.44543],[114.87707,1.44531],[114.87462,1.44576],[114.87291,1.44642],[114.86611,1.45128],[114.86524,1.45236],[114.86344,1.45513],[114.86111,1.45731],[114.85812,1.45742],[114.85609,1.45908],[114.85463,1.45864],[114.85295,1.45772],[114.85204,1.45752],[114.84754,1.45828],[114.8447,1.45842],[114.83956,1.45631],[114.83643,1.4529],[114.83409,1.45131],[114.83187,1.45173],[114.82875,1.45388],[114.82568,1.45388],[114.82227,1.45128],[114.81788,1.44507],[114.81716,1.44349],[114.81691,1.44294],[114.81667,1.44241],[114.81627,1.44195],[114.8154,1.44097],[114.81635,1.43906],[114.81635,1.43906],[114.81765,1.43647],[114.81801,1.43271],[114.81818,1.42814],[114.81751,1.42409],[114.81676,1.42076],[114.81554,1.41821],[114.81514,1.41548],[114.81446,1.41297],[114.811,1.41016],[114.80729,1.40762],[114.80468,1.40541],[114.80195,1.40363],[114.80011,1.4006],[114.79844,1.39574],[114.79715,1.39381],[114.79601,1.3919],[114.79571,1.39008],[114.79587,1.38659],[114.79593,1.37669],[114.79563,1.37299],[114.79492,1.37014],[114.7924,1.36691],[114.79094,1.36539],[114.7864,1.36242],[114.78077,1.36002],[114.7787,1.35927],[114.77601,1.35698],[114.77353,1.35458],[114.76895,1.35356],[114.76516,1.3512],[114.76113,1.35021],[114.7578,1.34985],[114.7539,1.34905],[114.75153,1.35007],[114.74933,1.3522],[114.74685,1.35583],[114.74584,1.35891],[114.74481,1.3612],[114.74325,1.363],[114.74175,1.36309],[114.73806,1.36356],[114.73286,1.36382],[114.72865,1.36303],[114.72543,1.36259],[114.72095,1.36094],[114.71838,1.36004],[114.7147,1.36081],[114.71149,1.36285],[114.70958,1.36343],[114.70603,1.36342],[114.7043,1.36294],[114.70037,1.36463],[114.69938,1.36492],[114.6967,1.36537],[114.69301,1.36513],[114.69137,1.36423],[114.68963,1.36217],[114.68935,1.3615],[114.68895,1.36059],[114.68889,1.36043],[114.68861,1.3598],[114.68846,1.35911],[114.68797,1.35881],[114.68699,1.35844],[114.68574,1.3577],[114.68451,1.35712],[114.68313,1.35612],[114.6824,1.35489],[114.68238,1.35419],[114.68198,1.35359],[114.68161,1.35363],[114.68134,1.35374],[114.68035,1.35383],[114.67927,1.35338],[114.67833,1.35308],[114.6769,1.35255],[114.67617,1.35234],[114.67566,1.35223],[114.67566,1.35223],[114.67243,1.35284],[114.67035,1.35386],[114.66875,1.35561],[114.66413,1.36212],[114.66324,1.3624],[114.66232,1.36295],[114.66138,1.36396],[114.66007,1.3661],[114.65836,1.36937],[114.65774,1.37068],[114.65602,1.37195],[114.65428,1.37294],[114.6535,1.37386],[114.65339,1.37513],[114.65368,1.37657],[114.65411,1.3779],[114.65424,1.37857],[114.65414,1.37893],[114.65397,1.37937],[114.6537,1.37973],[114.65317,1.38009],[114.65232,1.38041],[114.65174,1.3805],[114.65092,1.38057],[114.64955,1.38022],[114.64887,1.37997],[114.64839,1.37983],[114.64771,1.37979],[114.64699,1.37981],[114.64598,1.3802],[114.64497,1.3806],[114.64393,1.38093],[114.64289,1.3809],[114.64109,1.3805],[114.64037,1.38062],[114.63922,1.38108],[114.63855,1.38179],[114.63809,1.38268],[114.63808,1.38357],[114.63813,1.38498],[114.63844,1.38564],[114.63882,1.38621],[114.64013,1.38761],[114.64124,1.38857],[114.6419,1.38908],[114.64323,1.39063],[114.64435,1.3924],[114.64521,1.39357],[114.64584,1.39425],[114.64619,1.39477],[114.64631,1.39551],[114.64622,1.39615],[114.64592,1.39652],[114.64537,1.39693],[114.64436,1.39734],[114.64367,1.39781],[114.64313,1.39844],[114.64304,1.39882],[114.64309,1.3994],[114.64337,1.40025],[114.64356,1.40101],[114.64394,1.40193],[114.64457,1.4029],[114.64544,1.40407],[114.64579,1.40502],[114.64592,1.40608],[114.64596,1.40679],[114.64596,1.40705],[114.64604,1.40744],[114.64614,1.40809],[114.64641,1.40879],[114.64625,1.40936],[114.64585,1.41006],[114.64533,1.41067],[114.64459,1.41148],[114.64299,1.41177],[114.64146,1.41125],[114.64102,1.4111],[114.6397,1.41054],[114.63833,1.41013],[114.63614,1.4099],[114.63517,1.41004],[114.63494,1.41053],[114.63528,1.41156],[114.63613,1.41373],[114.63742,1.41718],[114.6384,1.41925],[114.63899,1.42151],[114.63814,1.42253],[114.63795,1.42275],[114.63664,1.42426],[114.63592,1.42597],[114.63471,1.42929],[114.63471,1.43139],[114.6338,1.43233],[114.63153,1.43309],[114.62954,1.43349],[114.62777,1.43375],[114.62696,1.43408],[114.62641,1.43431],[114.62491,1.43448],[114.62271,1.43478],[114.6212,1.43533],[114.61989,1.43571],[114.61936,1.43601],[114.61912,1.43716],[114.61886,1.43788],[114.61802,1.43846],[114.61595,1.43914],[114.61401,1.43981],[114.61274,1.44064],[114.61194,1.44144],[114.61153,1.44211],[114.61088,1.44243],[114.60954,1.44255],[114.6079,1.44284],[114.60626,1.44326],[114.60497,1.44371],[114.60401,1.44423],[114.60327,1.44498],[114.60273,1.44573],[114.60248,1.44629],[114.60215,1.44685],[114.60165,1.44729],[114.60112,1.44782],[114.60062,1.44855],[114.60004,1.44967],[114.59973,1.45063],[114.59958,1.45158],[114.59949,1.45237],[114.59963,1.45307],[114.59975,1.45369],[114.59992,1.45418],[114.60015,1.45468],[114.60019,1.45488],[114.60008,1.45519],[114.59972,1.45574],[114.5995,1.45609],[114.59886,1.45666],[114.59816,1.45718],[114.59691,1.45809],[114.59637,1.45853],[114.59585,1.45884],[114.59535,1.45917],[114.59495,1.45949],[114.59495,1.4595],[114.59463,1.45983],[114.59426,1.46034],[114.594,1.46066],[114.59364,1.46099],[114.59236,1.4617],[114.5916,1.46211],[114.59093,1.46254],[114.58972,1.46321],[114.58959,1.46328],[114.58954,1.46429],[114.58966,1.46468],[114.5901,1.46562],[114.59071,1.46639],[114.59075,1.46689],[114.59062,1.46737],[114.5905,1.46829],[114.59057,1.4688],[114.59069,1.46913],[114.59073,1.46947],[114.59092,1.47],[114.59096,1.47036],[114.59098,1.47064],[114.59105,1.47118],[114.59111,1.47162],[114.59119,1.47216],[114.59133,1.47277],[114.59151,1.47351],[114.59173,1.47371],[114.59213,1.47421],[114.5924,1.47467],[114.59268,1.47526],[114.59311,1.47618],[114.59388,1.47661],[114.59411,1.47696],[114.59389,1.47779],[114.59328,1.47869],[114.59362,1.47959],[114.59387,1.48053],[114.5944,1.4816],[114.59458,1.48202],[114.59482,1.48237],[114.59568,1.48231],[114.59633,1.48187],[114.59681,1.48197],[114.59706,1.48203],[114.59734,1.48218],[114.59768,1.48245],[114.59884,1.48256],[114.59963,1.48262],[114.60006,1.4831],[114.60008,1.48379],[114.60002,1.48445],[114.60049,1.48482],[114.60083,1.48523],[114.60128,1.48565],[114.60271,1.486],[114.60379,1.48648],[114.60439,1.48726],[114.60515,1.48743],[114.60566,1.4877],[114.60626,1.48766],[114.60669,1.48826],[114.60725,1.48936],[114.60634,1.48962],[114.60633,1.49019],[114.6063,1.49117],[114.60608,1.49162],[114.60583,1.49235],[114.60579,1.49325],[114.60607,1.49389],[114.60579,1.4949],[114.60588,1.49554],[114.60592,1.4959],[114.60599,1.49639],[114.60651,1.49691],[114.6064,1.49753],[114.60603,1.49793],[114.60526,1.49869],[114.60535,1.49957],[114.60535,1.49977],[114.60563,1.5],[114.60597,1.50027],[114.6066,1.50096],[114.60673,1.50146],[114.60684,1.50194],[114.60752,1.50242],[114.60779,1.50262],[114.60856,1.5034],[114.60906,1.5037],[114.60933,1.50395],[114.60992,1.50465],[114.61047,1.50544],[114.61064,1.50554],[114.61182,1.50623],[114.61233,1.50671],[114.61213,1.50738],[114.61187,1.50809],[114.61187,1.50899],[114.61175,1.50924],[114.61186,1.51045],[114.61268,1.51092],[114.61333,1.51135],[114.61382,1.51225],[114.61421,1.51271],[114.61442,1.51294],[114.61474,1.51333],[114.61546,1.51403],[114.61567,1.51481],[114.61596,1.51552],[114.61568,1.51618],[114.61544,1.51683],[114.61534,1.51774],[114.61432,1.51827],[114.61357,1.5186],[114.61335,1.51943],[114.61289,1.52036],[114.61257,1.52211],[114.61164,1.52204],[114.61057,1.52275],[114.60961,1.52391],[114.60922,1.5245],[114.60856,1.52548],[114.60808,1.52566],[114.60765,1.52552],[114.60638,1.52536],[114.60519,1.52637],[114.60411,1.52714],[114.6037,1.52785],[114.60298,1.52836],[114.60197,1.52875],[114.60223,1.52937],[114.60225,1.5294],[114.60128,1.52983],[114.60035,1.53046],[114.59958,1.5315],[114.59961,1.53261],[114.60014,1.53322],[114.60034,1.53439],[114.60086,1.53545],[114.60173,1.53609],[114.60203,1.53682],[114.60225,1.53803],[114.60294,1.53945],[114.6031,1.54004],[114.60359,1.54134],[114.60402,1.54238],[114.60405,1.54384],[114.60465,1.54518],[114.60483,1.54572],[114.60476,1.54703],[114.60465,1.54799],[114.60499,1.54924],[114.60483,1.54998],[114.60521,1.55133],[114.60586,1.55274],[114.60596,1.5538],[114.60648,1.55483],[114.60815,1.55621],[114.60829,1.55641],[114.60942,1.55692],[114.61035,1.55755],[114.61131,1.55872],[114.6107,1.55997],[114.61062,1.56045],[114.61042,1.56115],[114.61022,1.56207],[114.60928,1.56352],[114.60889,1.56425],[114.60879,1.56471],[114.60865,1.56566],[114.60881,1.5673],[114.60952,1.56799],[114.60987,1.56884],[114.61025,1.57015],[114.60988,1.57103],[114.60977,1.57193],[114.60975,1.57314],[114.60989,1.57379],[114.61003,1.5742],[114.61025,1.57463],[114.61048,1.57522],[114.6114,1.57573],[114.61201,1.57583],[114.61219,1.57593],[114.61251,1.57616],[114.61274,1.57641],[114.61291,1.57657],[114.61332,1.57677],[114.61374,1.57691],[114.61412,1.57691],[114.61455,1.57698],[114.61512,1.57683],[114.61547,1.57699],[114.61563,1.57706],[114.6163,1.57718],[114.61672,1.57687],[114.61692,1.57645],[114.61738,1.57674],[114.61781,1.57709],[114.61847,1.57756],[114.61887,1.57768],[114.61953,1.57796],[114.62016,1.57813],[114.62069,1.57816],[114.62112,1.57806],[114.6215,1.57814],[114.62172,1.57811],[114.62204,1.5781],[114.62233,1.57819],[114.62277,1.57835],[114.62503,1.58077],[114.62558,1.58105],[114.62632,1.58146],[114.62732,1.5817],[114.62762,1.58178],[114.62803,1.58174],[114.62823,1.58212],[114.62861,1.58238],[114.62873,1.58268],[114.62887,1.5828],[114.62967,1.58355],[114.6302,1.58402],[114.63051,1.58419],[114.63092,1.5843],[114.63127,1.5844],[114.63181,1.58444],[114.63267,1.58507],[114.6327,1.58543],[114.63337,1.58586],[114.6338,1.58608],[114.63415,1.58606],[114.63459,1.58639],[114.6351,1.58676],[114.63542,1.58678],[114.63599,1.587],[114.63672,1.58722],[114.63541,1.58785],[114.63555,1.58794],[114.63582,1.58799],[114.63651,1.58815],[114.63722,1.58853],[114.63759,1.58875],[114.63804,1.589],[114.63864,1.5892],[114.6394,1.58956],[114.64005,1.58966],[114.64071,1.58971],[114.64122,1.5893],[114.64209,1.58929],[114.64259,1.58904],[114.64284,1.58894],[114.64355,1.58918],[114.64426,1.58926],[114.64476,1.58943],[114.6452,1.58996],[114.64534,1.59041],[114.64558,1.59055],[114.64632,1.59086],[114.64705,1.59095],[114.64756,1.59091],[114.64819,1.59053],[114.6489,1.59011],[114.64914,1.59003],[114.6494,1.58923],[114.64942,1.5892],[114.64995,1.58825],[114.6508,1.5867],[114.65515,1.58642],[114.6574,1.58529],[114.6602,1.58417],[114.66301,1.58445],[114.66441,1.58304],[114.66329,1.58064],[114.66511,1.57938],[114.6668,1.57783],[114.66736,1.57712],[114.66652,1.57543],[114.66708,1.57373],[114.66667,1.57232],[114.67101,1.57106],[114.67172,1.56993],[114.67312,1.56838],[114.6734,1.56626],[114.67439,1.56358],[114.67397,1.56231],[114.67383,1.55907],[114.67313,1.55808],[114.67383,1.5561],[114.67398,1.55314],[114.67636,1.55258],[114.67693,1.54933],[114.67861,1.5475],[114.67777,1.54383],[114.68283,1.53794],[114.68513,1.53546],[114.68801,1.53425],[114.69036,1.53361],[114.69243,1.53183],[114.69582,1.52813],[114.6989,1.52568],[114.70108,1.52204],[114.70316,1.51834],[114.7062,1.51418],[114.70822,1.51031],[114.71115,1.50812],[114.71256,1.50653],[114.71405,1.50376],[114.71607,1.50208],[114.71969,1.5007],[114.72084,1.49862],[114.7209,1.49689],[114.72159,1.49446],[114.72228,1.49244],[114.72445,1.49047],[114.72571,1.48794],[114.7267,1.4837],[114.72706,1.48036],[114.72805,1.47837],[114.73047,1.47657],[114.73344,1.4754],[114.73658,1.47558],[114.74447,1.47731],[114.75003,1.48047],[114.75246,1.48156],[114.75367,1.48076],[114.75582,1.48076],[114.75806,1.48076],[114.76013,1.48004],[114.76291,1.47941],[114.76363,1.47661],[114.76264,1.47526],[114.76319,1.473],[114.76579,1.46731],[114.7675,1.46596],[114.76947,1.46641],[114.77252,1.46804],[114.7731,1.46992],[114.77301,1.4713],[114.77301,1.47132],[114.77322,1.47617],[114.77278,1.48146],[114.77497,1.48455],[114.77299,1.48676],[114.77299,1.4894],[114.77102,1.48962],[114.76992,1.49182],[114.76729,1.49314],[114.76773,1.49711],[114.77013,1.50086],[114.77122,1.50439],[114.77386,1.50197],[114.77451,1.50396],[114.77868,1.49955],[114.78131,1.50132],[114.78349,1.50529],[114.78305,1.50815],[114.78174,1.5097],[114.78376,1.51651],[114.79403,1.51583],[114.8036,1.52755],[114.81729,1.53687],[114.82311,1.53619],[114.84227,1.5431],[114.85562,1.55207],[114.87307,1.56001],[114.88541,1.54521],[114.90253,1.54591],[114.91724,1.5542],[114.92992,1.54525],[114.93744,1.55698],[114.94071,1.56893],[114.94596,1.58199],[114.94701,1.58746],[114.94718,1.59452],[114.94857,1.60158],[114.9536,1.60749],[114.96593,1.61174],[114.97124,1.61837],[114.96684,1.62622],[114.96764,1.6339],[114.97131,1.63923],[114.97588,1.64917],[114.98916,1.65596],[114.99319,1.66202],[114.99902,1.6613],[114.99776,1.66852],[115.00401,1.66964],[115.00333,1.67144],[115.00398,1.67295],[115.00477,1.67449],[115.00759,1.67488],[115.01032,1.67828],[115.01044,1.67859],[115.01096,1.67885],[115.01136,1.67887],[115.01179,1.6789],[115.01189,1.6789],[115.01195,1.67904],[115.01459,1.67761],[115.01492,1.67727],[115.01513,1.67709],[115.01527,1.67693]]]]},"properties":{"kdprov":"65","kdkab":"01","kdkec":"020","kddesa":"003","kdsls":"2001","idsls":"65010200032001","nmprov":"KALIMANTAN UTARA","nmkab":"MALINAU","nmkec":"KAYAN SELATAN","nmdesa":"LIDUNG PAYAU","nmsls":"HUTAN"}},{"type":"Feature","geometry":{"type":"MultiPolygon","coordinates":[[[[115.0929,1.67842],[115.094,1.67849],[115.09447,1.67845],[115.09485,1.67841],[115.09531,1.67831],[115.09542,1.67831],[115.09551,1.67835],[115.09646,1.67819],[115.09647,1.67781],[115.09606,1.67788],[115.09566,1.67789],[115.09525,1.67777],[115.09485,1.6776],[115.09445,1.67739],[115.09418,1.67718],[115.09382,1.67691],[115.09344,1.67674],[115.0929,1.67832],[115.0929,1.67842]]]]},"properties":{"kdprov":"65","kdkab":"01","kdkec":"020","kddesa":"002","kdsls":"0002","idsls":"65010200020002","nmprov":"KALIMANTAN UTARA","nmkab":"MALINAU","nmkec":"KAYAN SELATAN","nmdesa":"SUNGAI BARANG","nmsls":"RT 002"}},{"type":"Feature","geometry":{"type":"MultiPolygon","coordinates":[[[[115.09646,1.67819],[115.09551,1.67835],[115.09542,1.67831],[115.09531,1.67831],[115.09485,1.67841],[115.09447,1.67845],[115.094,1.67849],[115.0929,1.67842],[115.09297,1.68132],[115.09358,1.68257],[115.09492,1.68335],[115.09556,1.68257],[115.09644,1.68023],[115.09646,1.67819]]]]},"properties":{"kdprov":"65","kdkab":"01","kdkec":"020","kddesa":"002","kdsls":"0001","idsls":"65010200020001","nmprov":"KALIMANTAN UTARA","nmkab":"MALINAU","nmkec":"KAYAN SELATAN","nmdesa":"SUNGAI BARANG","nmsls":"RT 001"}},{"type":"Feature","geometry":{"type":"MultiPolygon","coordinates":[[[[114.99644,1.68341],[114.99644,1.68317],[114.99653,1.68267],[114.99657,1.6823],[114.99671,1.68183],[114.99686,1.68147],[114.99704,1.68127],[114.99752,1.68093],[114.99798,1.68075],[114.99843,1.68066],[114.99854,1.68066],[114.99877,1.68066],[114.99913,1.68071],[114.99956,1.68091],[114.99985,1.68109],[115.00009,1.6812],[115.00035,1.68126],[115.00068,1.68145],[115.00096,1.6815],[115.00113,1.68159],[115.00142,1.68164],[115.00331,1.68205],[115.00541,1.6825],[115.00541,1.6825],[115.00581,1.68232],[115.00627,1.68217],[115.00854,1.68144],[115.01028,1.6814],[115.0105,1.68139],[115.01082,1.68087],[115.01127,1.68015],[115.01162,1.67959],[115.01173,1.6794],[115.01177,1.67935],[115.01177,1.67935],[115.0118,1.6793],[115.01185,1.67922],[115.01195,1.67904],[115.01189,1.6789],[115.01179,1.6789],[115.01136,1.67887],[115.01096,1.67885],[115.01044,1.67859],[115.01032,1.67828],[115.00759,1.67488],[115.00477,1.67449],[115.00398,1.67295],[115.00333,1.67144],[115.00401,1.66964],[114.99776,1.66852],[114.99902,1.6613],[114.99319,1.66202],[114.98916,1.65596],[114.97588,1.64917],[114.97131,1.63923],[114.96764,1.6339],[114.96684,1.62622],[114.97124,1.61837],[114.96593,1.61174],[114.9536,1.60749],[114.94857,1.60158],[114.94718,1.59452],[114.94701,1.58746],[114.94596,1.58199],[114.94071,1.56893],[114.93744,1.55698],[114.92992,1.54525],[114.91724,1.5542],[114.90253,1.54591],[114.88541,1.54521],[114.87307,1.56001],[114.85562,1.55207],[114.84227,1.5431],[114.82311,1.53619],[114.81729,1.53687],[114.8036,1.52755],[114.79403,1.51583],[114.78376,1.51651],[114.78174,1.5097],[114.78305,1.50815],[114.78349,1.50529],[114.78131,1.50132],[114.77868,1.49955],[114.77451,1.50396],[114.77386,1.50197],[114.77122,1.50439],[114.77013,1.50086],[114.76773,1.49711],[114.76729,1.49314],[114.76992,1.49182],[114.77102,1.48962],[114.77299,1.4894],[114.77299,1.48676],[114.77497,1.48455],[114.77278,1.48146],[114.77322,1.47617],[114.77301,1.47132],[114.77301,1.4713],[114.7731,1.46992],[114.77252,1.46804],[114.76947,1.46641],[114.7675,1.46596],[114.76579,1.46731],[114.76319,1.473],[114.76264,1.47526],[114.76363,1.47661],[114.76291,1.47941],[114.76013,1.48004],[114.75806,1.48076],[114.75582,1.48076],[114.75367,1.48076],[114.75246,1.48156],[114.75003,1.48047],[114.74447,1.47731],[114.73658,1.47558],[114.73344,1.4754],[114.73047,1.47657],[114.72805,1.47837],[114.72706,1.48036],[114.7267,1.4837],[114.72571,1.48794],[114.72445,1.49047],[114.72228,1.49244],[114.72159,1.49446],[114.7209,1.49689],[114.72084,1.49862],[114.71969,1.5007],[114.71607,1.50208],[114.71405,1.50376],[114.71256,1.50653],[114.71115,1.50812],[114.70822,1.51031],[114.7062,1.51418],[114.70316,1.51834],[114.70108,1.52204],[114.6989,1.52568],[114.69582,1.52813],[114.69243,1.53183],[114.69036,1.53361],[114.68801,1.53425],[114.68513,1.53546],[114.68283,1.53794],[114.67777,1.54383],[114.67861,1.5475],[114.67693,1.54933],[114.67636,1.55258],[114.67398,1.55314],[114.67383,1.5561],[114.67313,1.55808],[114.67383,1.55907],[114.67397,1.56231],[114.67439,1.56358],[114.6734,1.56626],[114.67312,1.56838],[114.67172,1.56993],[114.67101,1.57106],[114.66667,1.57232],[114.66708,1.57373],[114.66652,1.57543],[114.66736,1.57712],[114.6668,1.57783],[114.66511,1.57938],[114.66329,1.58064],[114.66441,1.58304],[114.66301,1.58445],[114.6602,1.58417],[114.6574,1.58529],[114.65515,1.58642],[114.6508,1.5867],[114.64995,1.58825],[114.64942,1.5892],[114.6494,1.58923],[114.64914,1.59003],[114.64935,1.58996],[114.64959,1.58973],[114.64983,1.58964],[114.65017,1.58955],[114.65049,1.58948],[114.65084,1.58938],[114.65131,1.58934],[114.65168,1.58934],[114.65181,1.58947],[114.65219,1.58997],[114.6524,1.59083],[114.65317,1.59152],[114.65329,1.59263],[114.65297,1.5938],[114.65285,1.59421],[114.65365,1.59483],[114.65414,1.59568],[114.65409,1.59623],[114.65415,1.59724],[114.65431,1.59847],[114.65493,1.59897],[114.65603,1.59956],[114.65662,1.59984],[114.65785,1.60087],[114.65936,1.60098],[114.66117,1.60045],[114.66174,1.60069],[114.66313,1.60117],[114.66422,1.60023],[114.6656,1.60038],[114.66729,1.60087],[114.66819,1.601],[114.66922,1.60144],[114.67002,1.60236],[114.67106,1.60314],[114.67218,1.60414],[114.67253,1.60458],[114.67319,1.60529],[114.674,1.6061],[114.67435,1.60735],[114.67545,1.60744],[114.67617,1.60782],[114.67664,1.60808],[114.67716,1.60836],[114.67804,1.60933],[114.67906,1.60979],[114.68037,1.61017],[114.68085,1.61036],[114.68093,1.61139],[114.68104,1.61235],[114.68104,1.61265],[114.68188,1.6135],[114.68292,1.61379],[114.68355,1.61437],[114.6838,1.61486],[114.68401,1.61572],[114.68462,1.61627],[114.6848,1.6168],[114.68476,1.61715],[114.68464,1.6178],[114.68437,1.61816],[114.68475,1.61829],[114.68525,1.61864],[114.68589,1.61894],[114.68713,1.61955],[114.68795,1.61998],[114.6885,1.62071],[114.68965,1.62041],[114.68986,1.62119],[114.68997,1.62167],[114.68995,1.62239],[114.69007,1.62337],[114.68957,1.6247],[114.68914,1.6254],[114.68917,1.62555],[114.6893,1.62647],[114.68886,1.62775],[114.68986,1.62825],[114.69019,1.6284],[114.69101,1.62972],[114.69125,1.63009],[114.69224,1.63093],[114.6934,1.63182],[114.69348,1.63299],[114.69386,1.63331],[114.69466,1.63359],[114.69513,1.63369],[114.69632,1.63359],[114.69761,1.63449],[114.6981,1.63472],[114.6988,1.63487],[114.70026,1.63492],[114.70141,1.63552],[114.70238,1.63582],[114.70358,1.63637],[114.70409,1.63672],[114.70508,1.63731],[114.7065,1.63726],[114.70756,1.63736],[114.70832,1.6376],[114.709,1.63789],[114.71032,1.63778],[114.7127,1.63593],[114.71584,1.63374],[114.71822,1.63127],[114.72098,1.63032],[114.72241,1.62746],[114.72307,1.62575],[114.72203,1.62403],[114.72345,1.62289],[114.72669,1.62165],[114.72793,1.62061],[114.72802,1.61842],[114.73022,1.61521],[114.73179,1.61448],[114.73432,1.61726],[114.73685,1.61931],[114.74204,1.62196],[114.74927,1.6222],[114.75494,1.62329],[114.7588,1.62642],[114.76158,1.62847],[114.76785,1.63028],[114.7752,1.62763],[114.78244,1.62558],[114.78799,1.62546],[114.79221,1.62884],[114.79812,1.62847],[114.80282,1.62703],[114.80897,1.62295],[114.81546,1.62162],[114.82338,1.62512],[114.82673,1.62558],[114.83145,1.62269],[114.83465,1.62132],[114.8412,1.62512],[114.84485,1.62756],[114.84241,1.63213],[114.84196,1.63533],[114.84287,1.63989],[114.84455,1.64401],[114.84927,1.64781],[114.85089,1.65021],[114.85246,1.65253],[114.85353,1.65741],[114.85416,1.65788],[114.85891,1.64889],[114.87338,1.63161],[114.8782,1.63395],[114.88262,1.63611],[114.89394,1.63289],[114.90743,1.62745],[114.90905,1.62357],[114.90993,1.62162],[114.91147,1.61924],[114.91274,1.61638],[114.91552,1.61468],[114.91664,1.61614],[114.91801,1.61643],[114.91902,1.61586],[114.9205,1.61756],[114.92199,1.61765],[114.92332,1.61781],[114.92573,1.6185],[114.92587,1.62006],[114.92716,1.6201],[114.92764,1.62055],[114.92724,1.62221],[114.9282,1.62306],[114.92849,1.62383],[114.92989,1.62432],[114.93126,1.62481],[114.93344,1.62497],[114.93436,1.62606],[114.93367,1.62744],[114.935,1.62866],[114.9349,1.62957],[114.93623,1.63066],[114.93792,1.63006],[114.93691,1.63269],[114.93675,1.63471],[114.93811,1.63504],[114.93904,1.63646],[114.94045,1.63751],[114.93871,1.63824],[114.93976,1.64002],[114.94,1.64217],[114.94281,1.64489],[114.94235,1.64694],[114.94441,1.64696],[114.94561,1.64769],[114.94852,1.65211],[114.94882,1.65456],[114.9518,1.65609],[114.95577,1.657],[114.95907,1.65805],[114.96169,1.6582],[114.96387,1.66027],[114.96532,1.6624],[114.9671,1.66749],[114.96737,1.67032],[114.96906,1.67301],[114.97062,1.67505],[114.97219,1.67764],[114.97319,1.68134],[114.97305,1.68516],[114.97425,1.6892],[114.97667,1.69126],[114.97758,1.6928],[114.97939,1.69459],[114.9796,1.69689],[114.98179,1.6947],[114.98317,1.69393],[114.98591,1.6942],[114.98744,1.69476],[114.98959,1.69287],[114.9912,1.69252],[114.99229,1.69228],[114.99416,1.69144],[114.99495,1.69057],[114.99572,1.68971],[114.99629,1.68667],[114.99644,1.68341]]]]},"properties":{"kdprov":"65","kdkab":"01","kdkec":"020","kddesa":"004","kdsls":"2001","idsls":"65010200042001","nmprov":"KALIMANTAN UTARA","nmkab":"MALINAU","nmkec":"KAYAN SELATAN","nmdesa":"LONG URO","nmsls":"HUTAN"}},{"type":"Feature","geometry":{"type":"MultiPolygon","coordinates":[[[[114.97267,1.70575],[114.97235,1.705],[114.97234,1.7023],[114.97179,1.70185],[114.97126,1.7015],[114.97071,1.70114],[114.97011,1.70068],[114.96955,1.70024],[114.96928,1.70017],[114.96905,1.70031],[114.96885,1.70068],[114.96875,1.7012],[114.96875,1.70168],[114.96898,1.70235],[114.96912,1.70279],[114.96921,1.70339],[114.96928,1.7047],[114.96938,1.70551],[114.96941,1.7057],[114.96931,1.70611],[114.96917,1.70653],[114.96898,1.70691],[114.96868,1.70727],[114.96815,1.70798],[114.96775,1.7084],[114.96773,1.70884],[114.96781,1.70935],[114.96795,1.71006],[114.96811,1.71086],[114.96818,1.7114],[114.96811,1.71173],[114.96794,1.71209],[114.96764,1.71219],[114.96733,1.71227],[114.96705,1.71272],[114.96676,1.71303],[114.96637,1.71346],[114.96616,1.71384],[114.96563,1.71435],[114.96522,1.71464],[114.96473,1.71472],[114.96459,1.71474],[114.96448,1.71479],[114.9643,1.71488],[114.96428,1.71489],[114.96419,1.71494],[114.96415,1.71498],[114.96409,1.71503],[114.96442,1.71555],[114.9644,1.71595],[114.96439,1.71604],[114.96496,1.71651],[114.97064,1.7173],[114.97073,1.71681],[114.97176,1.71107],[114.97316,1.70688],[114.97267,1.70575]]]]},"properties":{"kdprov":"65","kdkab":"01","kdkec":"020","kddesa":"001","kdsls":"0001","idsls":"65010200010001","nmprov":"KALIMANTAN UTARA","nmkab":"MALINAU","nmkec":"KAYAN SELATAN","nmdesa":"LONG AMPUNG","nmsls":"RT 001"}},{"type":"Feature","geometry":{"type":"MultiPolygon","coordinates":[[[[115.01656,1.67913],[115.01582,1.67852],[115.01556,1.67843],[115.01522,1.67839],[115.01505,1.67834],[115.01516,1.67821],[115.01499,1.67801],[115.01477,1.67781],[115.01459,1.67761],[115.01195,1.67904],[115.01185,1.67922],[115.0118,1.6793],[115.01177,1.67935],[115.01177,1.67935],[115.01173,1.6794],[115.01162,1.67959],[115.01127,1.68015],[115.01082,1.68087],[115.01219,1.68073],[115.01531,1.68039],[115.0159,1.68033],[115.01628,1.67964],[115.01656,1.67913]]]]},"properties":{"kdprov":"65","kdkab":"01","kdkec":"020","kddesa":"003","kdsls":"0001","idsls":"65010200030001","nmprov":"KALIMANTAN UTARA","nmkab":"MALINAU","nmkec":"KAYAN SELATAN","nmdesa":"LIDUNG PAYAU","nmsls":"RT 01"}},{"type":"Feature","geometry":{"type":"MultiPolygon","coordinates":[[[[115.09358,1.68257],[115.09297,1.68132],[115.0929,1.67842],[115.0929,1.67832],[115.09344,1.67674],[115.09382,1.67691],[115.09418,1.67718],[115.09445,1.67739],[115.09485,1.6776],[115.09525,1.67777],[115.09566,1.67789],[115.09606,1.67788],[115.09647,1.67781],[115.09646,1.67819],[115.09644,1.68023],[115.09556,1.68257],[115.09492,1.68335],[115.09743,1.68395],[115.10039,1.68376],[115.10262,1.68232],[115.10285,1.68209],[115.1041,1.68086],[115.10451,1.68046],[115.10558,1.6799],[115.10859,1.67832],[115.11072,1.67506],[115.1122,1.67185],[115.11369,1.66771],[115.11781,1.66129],[115.11943,1.65733],[115.12175,1.65506],[115.12314,1.65296],[115.12386,1.6515],[115.12451,1.65024],[115.12576,1.64722],[115.12794,1.64279],[115.13007,1.63968],[115.13053,1.63763],[115.12887,1.62981],[115.128,1.62897],[115.12559,1.62822],[115.12314,1.62659],[115.12194,1.62542],[115.12162,1.62254],[115.12236,1.62044],[115.12282,1.61844],[115.12292,1.61644],[115.12218,1.61458],[115.12223,1.61169],[115.1214,1.61029],[115.1201,1.60708],[115.11662,1.60361],[115.11296,1.6003],[115.11019,1.59839],[115.1058,1.59578],[115.10441,1.59427],[115.10305,1.59304],[115.10101,1.59036],[115.10027,1.58848],[115.1001,1.58675],[115.10128,1.58568],[115.10163,1.58397],[115.10015,1.58072],[115.09775,1.57628],[115.09579,1.57302],[115.09499,1.56774],[115.09531,1.56209],[115.09582,1.55929],[115.09456,1.55498],[115.09389,1.5493],[115.09423,1.54612],[115.09344,1.54384],[115.09548,1.53975],[115.0974,1.53521],[115.09775,1.52952],[115.09752,1.52805],[115.09181,1.52158],[115.08856,1.51887],[115.08645,1.51575],[115.08617,1.51191],[115.08349,1.51219],[115.08307,1.51006],[115.08179,1.51191],[115.08123,1.50935],[115.0801,1.50636],[115.07799,1.50395],[115.07813,1.50721],[115.07911,1.50992],[115.07841,1.51105],[115.07685,1.51162],[115.07685,1.51318],[115.0753,1.51559],[115.07205,1.51573],[115.06895,1.51303],[115.06683,1.51204],[115.06401,1.50805],[115.06331,1.50635],[115.06091,1.5045],[115.05893,1.50294],[115.05738,1.50066],[115.05604,1.49864],[115.05401,1.49929],[115.05119,1.49864],[115.04693,1.4987],[115.04295,1.50081],[115.0402,1.50386],[115.03912,1.50633],[115.03853,1.5091],[115.03817,1.51455],[115.03563,1.52059],[115.03191,1.52309],[115.02721,1.52425],[115.02056,1.52665],[115.01202,1.53202],[115.01007,1.53551],[115.00681,1.53849],[115.00342,1.53994],[115.00157,1.54078],[114.99564,1.54426],[114.99311,1.54674],[114.99163,1.54878],[114.99884,1.54761],[115.00626,1.54804],[115.01326,1.55082],[115.01665,1.55702],[115.01646,1.56784],[115.01515,1.57081],[115.01315,1.57308],[115.01462,1.57684],[115.01419,1.57938],[115.01193,1.58078],[115.00827,1.58436],[115.00844,1.58899],[115.01276,1.59434],[115.01367,1.59547],[115.01389,1.59686],[115.01442,1.5969],[115.01469,1.59753],[115.01487,1.59869],[115.0162,1.59865],[115.01651,1.59901],[115.01689,1.59988],[115.0169,1.5999],[115.01693,1.59997],[115.01591,1.60068],[115.01458,1.60077],[115.01449,1.60185],[115.01342,1.60225],[115.01431,1.60292],[115.01373,1.60413],[115.01444,1.60422],[115.01462,1.6048],[115.01324,1.60507],[115.01288,1.60614],[115.01448,1.60623],[115.0147,1.60686],[115.01341,1.60731],[115.0127,1.60874],[115.0139,1.60892],[115.01439,1.60995],[115.0147,1.60919],[115.01635,1.60812],[115.01728,1.60901],[115.01648,1.61044],[115.01537,1.6117],[115.01416,1.61254],[115.01443,1.6168],[115.01389,1.61827],[115.0122,1.61948],[115.0102,1.61912],[115.00975,1.62042],[115.0102,1.62185],[115.00886,1.62252],[115.0085,1.62458],[115.00855,1.62467],[115.00686,1.62507],[115.00672,1.62695],[115.00525,1.62655],[115.00445,1.62856],[115.00303,1.62753],[115.00294,1.62923],[115.00191,1.63008],[115.00202,1.63225],[115.00127,1.63247],[115.00131,1.63337],[114.99993,1.63373],[114.99939,1.63646],[114.99966,1.6374],[115.00024,1.63699],[115.00073,1.6369],[115.00215,1.63704],[115.00286,1.63713],[115.00273,1.63655],[115.00326,1.63624],[115.00402,1.6374],[115.00308,1.63821],[115.00295,1.6391],[115.00206,1.63995],[115.00259,1.64035],[115.00286,1.64205],[115.00375,1.64223],[115.00575,1.6408],[115.00562,1.64179],[115.00646,1.64282],[115.00788,1.64457],[115.00962,1.64381],[115.01126,1.64296],[115.01246,1.6439],[115.01433,1.64395],[115.01478,1.64569],[115.01464,1.64672],[115.01526,1.64753],[115.01522,1.65026],[115.01684,1.65082],[115.01997,1.65083],[115.02092,1.6526],[115.01942,1.65424],[115.01671,1.65451],[115.01711,1.65615],[115.01731,1.6579],[115.01665,1.65919],[115.01675,1.65987],[115.01687,1.66113],[115.01752,1.66124],[115.01832,1.66225],[115.01897,1.66216],[115.0188,1.66336],[115.02048,1.66322],[115.02014,1.66537],[115.02068,1.66603],[115.02066,1.66725],[115.02037,1.66825],[115.01921,1.66802],[115.01906,1.66888],[115.0199,1.66974],[115.0202,1.67005],[115.02025,1.67011],[115.02424,1.67474],[115.02327,1.67753],[115.02327,1.67753],[115.02327,1.67753],[115.0238,1.67708],[115.02772,1.67377],[115.02846,1.67321],[115.03027,1.67089],[115.03296,1.66866],[115.03647,1.66736],[115.03967,1.6675],[115.04161,1.66904],[115.0429,1.67169],[115.04609,1.67225],[115.04776,1.67132],[115.04975,1.66905],[115.05174,1.66802],[115.05248,1.66747],[115.0541,1.66723],[115.05734,1.66896],[115.06228,1.67269],[115.06485,1.67337],[115.06619,1.67318],[115.06976,1.67104],[115.07586,1.66914],[115.07975,1.67087],[115.08437,1.67529],[115.08819,1.67723],[115.09012,1.67918],[115.09054,1.67961],[115.09187,1.68158],[115.09358,1.68257]]]]},"properties":{"kdprov":"65","kdkab":"01","kdkec":"020","kddesa":"002","kdsls":"2001","idsls":"65010200022001","nmprov":"KALIMANTAN UTARA","nmkab":"MALINAU","nmkec":"KAYAN SELATAN","nmdesa":"SUNGAI BARANG","nmsls":"HUTAN"}},{"type":"Feature","geometry":{"type":"MultiPolygon","coordinates":[[[[114.96584,1.72971],[114.96605,1.72845],[114.96627,1.728],[114.96662,1.72767],[114.96698,1.72747],[114.96745,1.72735],[114.96794,1.72719],[114.96829,1.72696],[114.96853,1.72655],[114.96879,1.72601],[114.96892,1.72543],[114.96909,1.72438],[114.96901,1.72293],[114.9689,1.72265],[114.9687,1.72242],[114.96857,1.72205],[114.96803,1.72159],[114.96763,1.72145],[114.96707,1.7214],[114.96657,1.72155],[114.9662,1.72177],[114.96577,1.72209],[114.96546,1.72248],[114.965,1.72269],[114.96429,1.72268],[114.96325,1.72286],[114.96283,1.72305],[114.96239,1.72293],[114.96199,1.72268],[114.96181,1.72251],[114.96178,1.72215],[114.96179,1.72167],[114.96191,1.72114],[114.96202,1.72074],[114.96218,1.72053],[114.96259,1.72021],[114.96303,1.71996],[114.96388,1.71926],[114.96413,1.71893],[114.9643,1.7186],[114.9643,1.71834],[114.96425,1.71809],[114.96388,1.7176],[114.96366,1.71719],[114.9635,1.71677],[114.96342,1.71637],[114.96343,1.71598],[114.96347,1.71586],[114.9636,1.71546],[114.9636,1.71546],[114.96328,1.71535],[114.96312,1.71535],[114.96268,1.71511],[114.96228,1.71496],[114.96184,1.71487],[114.96161,1.71458],[114.96089,1.71539],[114.95954,1.71691],[114.95904,1.71828],[114.95913,1.72033],[114.95942,1.72147],[114.95977,1.72246],[114.96007,1.72296],[114.9607,1.72374],[114.96204,1.7247],[114.96314,1.72548],[114.96328,1.72559],[114.96397,1.7265],[114.96437,1.72702],[114.96492,1.72762],[114.96584,1.72971]]]]},"properties":{"kdprov":"65","kdkab":"01","kdkec":"020","kddesa":"001","kdsls":"0003","idsls":"65010200010003","nmprov":"KALIMANTAN UTARA","nmkab":"MALINAU","nmkec":"KAYAN SELATAN","nmdesa":"LONG AMPUNG","nmsls":"RT 003"}},{"type":"Feature","geometry":{"type":"MultiPolygon","coordinates":[[[[114.96409,1.71503],[114.96415,1.71498],[114.96419,1.71494],[114.96428,1.71489],[114.96414,1.71468],[114.96307,1.71401],[114.96301,1.71412],[114.96212,1.7138],[114.96215,1.71363],[114.96213,1.71363],[114.96221,1.71184],[114.96194,1.71196],[114.96137,1.71361],[114.96157,1.7144],[114.96161,1.71457],[114.96161,1.71458],[114.96184,1.71487],[114.96228,1.71496],[114.96268,1.71511],[114.96312,1.71535],[114.96328,1.71535],[114.9636,1.71546],[114.9636,1.71545],[114.96372,1.71535],[114.96387,1.71522],[114.96409,1.71503]]]]},"properties":{"kdprov":"65","kdkab":"01","kdkec":"020","kddesa":"005","kdsls":"0002","idsls":"65010200050002","nmprov":"KALIMANTAN UTARA","nmkab":"MALINAU","nmkec":"KAYAN SELATAN","nmdesa":"METULANG","nmsls":"RT 02"}},{"type":"Feature","geometry":{"type":"MultiPolygon","coordinates":[[[[114.96676,1.71303],[114.96528,1.71255],[114.96484,1.71241],[114.96257,1.71167],[114.96221,1.71184],[114.96213,1.71363],[114.96215,1.71363],[114.96212,1.7138],[114.96301,1.71412],[114.96307,1.71401],[114.96414,1.71468],[114.96428,1.71489],[114.9643,1.71488],[114.96448,1.71479],[114.96459,1.71474],[114.96473,1.71472],[114.96522,1.71464],[114.96563,1.71435],[114.96616,1.71384],[114.96637,1.71346],[114.96676,1.71303]]]]},"properties":{"kdprov":"65","kdkab":"01","kdkec":"020","kddesa":"005","kdsls":"0001","idsls":"65010200050001","nmprov":"KALIMANTAN UTARA","nmkab":"MALINAU","nmkec":"KAYAN SELATAN","nmdesa":"METULANG","nmsls":"RT 01"}}]}