{"type":"FeatureCollection","features":[{"type":"Feature","geometry":{"type":"MultiPolygon","coordinates":[[[[114.94891,1.80134],[114.94867,1.80249],[114.94893,1.80339],[114.94934,1.80482],[114.95131,1.80421],[114.95056,1.80197],[114.95015,1.80106],[114.94891,1.80134]]]]},"properties":{"kdprov":"65","kdkab":"01","kdkec":"030","kddesa":"005","kdsls":"0001","idsls":"65010300050001","nmprov":"KALIMANTAN UTARA","nmkab":"MALINAU","nmkec":"KAYAN HULU","nmdesa":"LONG PAYAU","nmsls":"RT 01"}},{"type":"Feature","geometry":{"type":"MultiPolygon","coordinates":[[[[114.94934,1.80482],[114.94893,1.80339],[114.94867,1.80249],[114.94891,1.80134],[114.94938,1.79902],[114.95107,1.79784],[114.95184,1.79729],[114.95527,1.79489],[114.95938,1.79387],[114.95966,1.79362],[114.96041,1.79295],[114.96124,1.79273],[114.96304,1.79256],[114.96645,1.79198],[114.97021,1.79075],[114.97168,1.78999],[114.97298,1.78893],[114.9742,1.78823],[114.97562,1.78767],[114.97655,1.78698],[114.97738,1.78618],[114.97813,1.78527],[114.97878,1.78407],[114.97921,1.78284],[114.97932,1.78131],[114.97923,1.78019],[114.9788,1.77911],[114.97793,1.77797],[114.9769,1.77684],[114.97619,1.77559],[114.9753,1.77451],[114.97283,1.7727],[114.96961,1.77105],[114.96729,1.76961],[114.96612,1.76909],[114.96463,1.76854],[114.96368,1.76816],[114.96177,1.76765],[114.95924,1.76618],[114.95803,1.76503],[114.95632,1.76361],[114.95528,1.76444],[114.9561,1.76622],[114.95526,1.76839],[114.95516,1.7687],[114.95464,1.77026],[114.95484,1.77353],[114.95446,1.77576],[114.95333,1.77709],[114.9527,1.77807],[114.95179,1.77773],[114.94957,1.77895],[114.94781,1.77901],[114.94637,1.77787],[114.94584,1.7754],[114.94349,1.77496],[114.94246,1.77433],[114.94114,1.77382],[114.93959,1.77303],[114.93918,1.77136],[114.93804,1.77102],[114.93633,1.77138],[114.93526,1.77385],[114.93425,1.77512],[114.93333,1.7753],[114.93191,1.77686],[114.931,1.77606],[114.92949,1.77688],[114.92746,1.77786],[114.92486,1.78017],[114.92389,1.78023],[114.92269,1.77955],[114.9211,1.77904],[114.91956,1.78008],[114.91785,1.78198],[114.91584,1.78079],[114.91333,1.78028],[114.91013,1.7803],[114.9094,1.7818],[114.90951,1.78337],[114.9099,1.78385],[114.91003,1.78415],[114.91003,1.78436],[114.91003,1.78497],[114.90985,1.78544],[114.90941,1.78594],[114.90904,1.78633],[114.90867,1.78659],[114.90831,1.78662],[114.90795,1.78641],[114.9074,1.78628],[114.90706,1.78636],[114.90699,1.78658],[114.90689,1.78703],[114.90665,1.78732],[114.90615,1.78763],[114.90551,1.78789],[114.9051,1.78814],[114.90388,1.7898],[114.90362,1.79023],[114.90326,1.79075],[114.90285,1.7914],[114.90213,1.79314],[114.90191,1.79518],[114.90504,1.7959],[114.90559,1.80119],[114.90491,1.80202],[114.90537,1.80211],[114.90573,1.80232],[114.90616,1.80264],[114.90622,1.80293],[114.90599,1.8034],[114.90557,1.80372],[114.90575,1.8045],[114.90577,1.80577],[114.90516,1.80639],[114.90491,1.80663],[114.90406,1.80664],[114.90303,1.80653],[114.90183,1.80705],[114.90197,1.8076],[114.90213,1.80826],[114.90351,1.80946],[114.90257,1.81176],[114.90137,1.81274],[114.90098,1.81395],[114.90017,1.81367],[114.89938,1.8151],[114.89952,1.81798],[114.8992,1.82091],[114.89825,1.8224],[114.89637,1.82351],[114.89381,1.82398],[114.89188,1.82571],[114.8896,1.82567],[114.88947,1.82394],[114.88962,1.82142],[114.88818,1.82096],[114.88596,1.82195],[114.8853,1.8229],[114.88415,1.82456],[114.88327,1.82581],[114.8827,1.82671],[114.88146,1.82869],[114.88033,1.83031],[114.87822,1.8313],[114.87639,1.83131],[114.87485,1.83029],[114.87376,1.82948],[114.87154,1.82857],[114.8686,1.8279],[114.86654,1.82884],[114.86417,1.83085],[114.86354,1.83109],[114.86234,1.83155],[114.86251,1.83011],[114.86083,1.82708],[114.85968,1.82634],[114.85874,1.82793],[114.85708,1.82922],[114.85677,1.82704],[114.85747,1.82576],[114.85824,1.82456],[114.8576,1.82268],[114.85636,1.81992],[114.85539,1.81934],[114.85537,1.8196],[114.85535,1.82003],[114.85534,1.82019],[114.85507,1.82046],[114.85469,1.82049],[114.85452,1.82075],[114.85397,1.82074],[114.85288,1.82181],[114.85269,1.82281],[114.85214,1.82344],[114.85182,1.82392],[114.8518,1.82425],[114.85083,1.82456],[114.85025,1.8248],[114.84732,1.82483],[114.84715,1.82755],[114.8449,1.8294],[114.84349,1.83076],[114.84093,1.83149],[114.83888,1.83225],[114.83722,1.83169],[114.83615,1.83173],[114.83573,1.83221],[114.83506,1.83331],[114.83622,1.8347],[114.8371,1.83568],[114.83666,1.83598],[114.83458,1.83589],[114.83121,1.83537],[114.82923,1.83572],[114.82799,1.83614],[114.82782,1.83734],[114.82616,1.83763],[114.82489,1.83877],[114.82408,1.83981],[114.82428,1.84131],[114.82305,1.8425],[114.82301,1.84373],[114.82243,1.84393],[114.8218,1.84406],[114.82158,1.84481],[114.82118,1.84487],[114.8212,1.84565],[114.82106,1.84671],[114.8205,1.84795],[114.81884,1.84819],[114.81805,1.84783],[114.81686,1.84789],[114.81566,1.84735],[114.81452,1.84888],[114.81283,1.84915],[114.81069,1.84857],[114.80917,1.84849],[114.80734,1.84779],[114.80589,1.84812],[114.80396,1.84787],[114.80278,1.84721],[114.801,1.84782],[114.79959,1.84744],[114.79888,1.84833],[114.79797,1.84898],[114.79711,1.84933],[114.7969,1.84969],[114.79686,1.84977],[114.79679,1.84988],[114.79673,1.84998],[114.79604,1.84998],[114.79602,1.84998],[114.79593,1.84998],[114.79606,1.85004],[114.79612,1.85007],[114.79616,1.85009],[114.79619,1.85011],[114.79633,1.85018],[114.79637,1.8502],[114.79646,1.85026],[114.79665,1.85037],[114.79675,1.85044],[114.79682,1.85049],[114.79702,1.85061],[114.79705,1.85062],[114.79722,1.85073],[114.79734,1.85081],[114.79744,1.85087],[114.79771,1.851],[114.79799,1.85112],[114.79808,1.85116],[114.79863,1.85141],[114.79875,1.85147],[114.79897,1.85179],[114.79906,1.85183],[114.79919,1.8519],[114.79936,1.85199],[114.79965,1.85213],[114.79977,1.85219],[114.79976,1.85263],[114.79977,1.85282],[114.79977,1.85288],[114.79979,1.85306],[114.7998,1.85327],[114.7998,1.85334],[114.79969,1.85349],[114.7996,1.85361],[114.79952,1.85372],[114.79948,1.85378],[114.7994,1.85388],[114.79945,1.85404],[114.79947,1.85407],[114.79948,1.8541],[114.79958,1.8544],[114.79963,1.85455],[114.7997,1.85476],[114.79973,1.85484],[114.79966,1.85516],[114.79965,1.85524],[114.79959,1.85554],[114.79957,1.85564],[114.79955,1.85565],[114.79936,1.85589],[114.79932,1.85594],[114.79899,1.85634],[114.79902,1.85635],[114.79923,1.85646],[114.79929,1.8565],[114.79928,1.85657],[114.79927,1.85663],[114.79927,1.85666],[114.79923,1.85694],[114.79917,1.85739],[114.79913,1.85767],[114.79895,1.85793],[114.79891,1.85799],[114.79883,1.85811],[114.79869,1.8583],[114.7986,1.85844],[114.7985,1.85857],[114.79841,1.8587],[114.79837,1.85876],[114.79834,1.85893],[114.79831,1.85905],[114.7983,1.8591],[114.79829,1.85915],[114.79825,1.85933],[114.7982,1.85952],[114.79812,1.85988],[114.79809,1.86001],[114.79808,1.86008],[114.79808,1.86014],[114.79809,1.86021],[114.79813,1.86086],[114.79813,1.86088],[114.79814,1.86092],[114.79816,1.86123],[114.79826,1.86131],[114.79845,1.86146],[114.79857,1.86155],[114.79886,1.8618],[114.79896,1.86189],[114.79901,1.86193],[114.79949,1.86234],[114.79956,1.8624],[114.79994,1.86262],[114.79996,1.86262],[114.80051,1.86262],[114.80054,1.86262],[114.80056,1.86262],[114.80077,1.86262],[114.80082,1.86262],[114.80092,1.86278],[114.80093,1.86279],[114.80111,1.8631],[114.8013,1.86341],[114.80151,1.86353],[114.80174,1.86366],[114.80204,1.86384],[114.80226,1.86402],[114.80242,1.86415],[114.80253,1.86416],[114.80273,1.86417],[114.80338,1.86422],[114.80347,1.86423],[114.80353,1.86423],[114.80374,1.86425],[114.80379,1.86434],[114.80389,1.86454],[114.80404,1.86482],[114.80401,1.86501],[114.80396,1.86529],[114.80392,1.86553],[114.80395,1.86573],[114.80398,1.86591],[114.804,1.86601],[114.80401,1.86604],[114.80401,1.86608],[114.80403,1.86618],[114.80408,1.86647],[114.80409,1.86651],[114.8041,1.86654],[114.8041,1.86657],[114.80411,1.86659],[114.80412,1.86711],[114.80412,1.86717],[114.80412,1.86725],[114.80412,1.86735],[114.80412,1.86746],[114.80413,1.86771],[114.80413,1.86772],[114.80423,1.86799],[114.80425,1.86805],[114.80428,1.86812],[114.80429,1.86815],[114.80439,1.86842],[114.80457,1.86891],[114.80461,1.86896],[114.80473,1.86913],[114.80494,1.8694],[114.80509,1.86961],[114.80516,1.86978],[114.80516,1.8698],[114.80536,1.8703],[114.80538,1.87036],[114.80544,1.87051],[114.80549,1.87063],[114.8056,1.87075],[114.80593,1.87106],[114.80622,1.87135],[114.80647,1.87158],[114.80654,1.87165],[114.80661,1.87178],[114.80676,1.87206],[114.8069,1.87232],[114.8071,1.87254],[114.8073,1.87277],[114.8076,1.87312],[114.80796,1.87353],[114.80806,1.87365],[114.80808,1.87367],[114.80839,1.87389],[114.80866,1.8741],[114.80876,1.87418],[114.80885,1.87424],[114.80889,1.87427],[114.80895,1.87429],[114.80927,1.8744],[114.80943,1.87454],[114.80949,1.87459],[114.80954,1.87463],[114.8096,1.87469],[114.80995,1.875],[114.81049,1.87547],[114.81062,1.87549],[114.81067,1.8755],[114.81071,1.87551],[114.81085,1.87554],[114.81109,1.87558],[114.81137,1.87564],[114.81142,1.87565],[114.8116,1.87581],[114.81183,1.87601],[114.81227,1.8764],[114.81229,1.87642],[114.81233,1.87645],[114.81263,1.87689],[114.81283,1.87718],[114.81292,1.87732],[114.81305,1.8775],[114.81313,1.87762],[114.81324,1.87765],[114.81358,1.87776],[114.81422,1.87796],[114.8145,1.87805],[114.81467,1.8781],[114.81534,1.87793],[114.81574,1.87782],[114.81588,1.87779],[114.81594,1.87777],[114.81601,1.87775],[114.81609,1.87784],[114.81623,1.87798],[114.81626,1.878],[114.81639,1.87805],[114.81662,1.87812],[114.81669,1.87814],[114.81677,1.87817],[114.81723,1.87832],[114.81743,1.87838],[114.8175,1.87859],[114.81753,1.87868],[114.81757,1.8788],[114.81767,1.8791],[114.81775,1.87933],[114.81789,1.87943],[114.8182,1.87962],[114.81846,1.87979],[114.81858,1.88],[114.8186,1.88003],[114.8186,1.88005],[114.81865,1.88012],[114.81887,1.8805],[114.81898,1.88089],[114.819,1.88096],[114.81901,1.88105],[114.81903,1.88123],[114.81904,1.88128],[114.8191,1.8817],[114.81911,1.88179],[114.81912,1.88181],[114.81923,1.8821],[114.81926,1.88218],[114.81951,1.88281],[114.81951,1.88282],[114.81953,1.88285],[114.81955,1.88289],[114.8198,1.88332],[114.81981,1.88365],[114.81982,1.88391],[114.81977,1.88416],[114.81974,1.88433],[114.81969,1.8846],[114.81966,1.88478],[114.81965,1.88486],[114.81963,1.88497],[114.81952,1.88508],[114.8194,1.88519],[114.81931,1.88528],[114.81912,1.88546],[114.81897,1.88572],[114.81887,1.88588],[114.81882,1.88597],[114.81871,1.88617],[114.81868,1.88633],[114.81867,1.88643],[114.81868,1.88663],[114.81868,1.88667],[114.81868,1.88668],[114.81869,1.8867],[114.8187,1.88696],[114.8187,1.88702],[114.81867,1.88709],[114.81857,1.88725],[114.81847,1.88744],[114.8184,1.88756],[114.81833,1.88768],[114.81813,1.88803],[114.81789,1.8881],[114.81781,1.88812],[114.81769,1.88816],[114.81725,1.88828],[114.81723,1.88873],[114.81721,1.88895],[114.81721,1.88907],[114.81722,1.88945],[114.81723,1.8898],[114.8175,1.88981],[114.81796,1.88984],[114.81807,1.88985],[114.81823,1.88986],[114.81849,1.88987],[114.81856,1.89005],[114.81862,1.89019],[114.81866,1.89029],[114.81875,1.89049],[114.81876,1.89058],[114.81877,1.89062],[114.81878,1.89065],[114.81879,1.89074],[114.81882,1.89088],[114.81899,1.89128],[114.81899,1.8913],[114.81918,1.89174],[114.8192,1.89179],[114.81932,1.89203],[114.81936,1.89212],[114.8194,1.8922],[114.81946,1.89232],[114.81953,1.89246],[114.81962,1.89265],[114.8198,1.89276],[114.82016,1.89298],[114.82023,1.89302],[114.82037,1.8931],[114.82045,1.89315],[114.82065,1.89309],[114.82077,1.89306],[114.82087,1.89303],[114.82102,1.89298],[114.82115,1.89295],[114.82155,1.89282],[114.82173,1.89277],[114.82185,1.89273],[114.82203,1.89268],[114.82231,1.89259],[114.82245,1.89255],[114.82254,1.89241],[114.8226,1.89231],[114.82273,1.89209],[114.82304,1.89208],[114.82327,1.89207],[114.8233,1.89207],[114.82338,1.89207],[114.82359,1.89206],[114.82424,1.89205],[114.8245,1.89204],[114.8245,1.89207],[114.82454,1.89228],[114.82457,1.89248],[114.82462,1.89277],[114.82463,1.89283],[114.82472,1.89292],[114.82513,1.89332],[114.82514,1.89333],[114.82515,1.89334],[114.82527,1.89345],[114.82542,1.89369],[114.82549,1.89378],[114.82552,1.89379],[114.82558,1.89381],[114.82577,1.89385],[114.8259,1.89388],[114.82612,1.89393],[114.82651,1.89401],[114.82659,1.89389],[114.8267,1.89374],[114.82674,1.89367],[114.82688,1.89372],[114.82706,1.89379],[114.82731,1.8939],[114.82741,1.89394],[114.82747,1.89396],[114.82749,1.89396],[114.82769,1.89402],[114.82782,1.89405],[114.82819,1.89415],[114.82832,1.89418],[114.82869,1.89428],[114.82872,1.89428],[114.82873,1.89429],[114.82882,1.89425],[114.82895,1.89419],[114.82899,1.89418],[114.82938,1.89442],[114.82955,1.89452],[114.82961,1.89456],[114.82972,1.89463],[114.83037,1.89504],[114.83044,1.89508],[114.83073,1.89527],[114.83104,1.89547],[114.83139,1.89562],[114.83144,1.89564],[114.83152,1.89567],[114.83177,1.89578],[114.83197,1.89587],[114.83217,1.89595],[114.83249,1.89609],[114.83278,1.89595],[114.83293,1.89588],[114.83312,1.8958],[114.83329,1.89572],[114.83363,1.89557],[114.83369,1.89554],[114.83373,1.89552],[114.83377,1.89551],[114.83395,1.89542],[114.83409,1.8954],[114.83415,1.89539],[114.83445,1.89535],[114.83489,1.8952],[114.83502,1.89516],[114.83508,1.89514],[114.83515,1.89511],[114.83537,1.89504],[114.83541,1.89503],[114.83542,1.89503],[114.83592,1.89527],[114.83616,1.89539],[114.83618,1.8954],[114.8362,1.89541],[114.83634,1.89548],[114.83642,1.89542],[114.83657,1.89529],[114.83669,1.89519],[114.83687,1.89504],[114.83698,1.89494],[114.83703,1.8949],[114.83727,1.89469],[114.83743,1.89456],[114.83751,1.89449],[114.83756,1.89444],[114.83777,1.89427],[114.83784,1.89421],[114.83801,1.89406],[114.83826,1.89391],[114.83836,1.89386],[114.83847,1.89382],[114.83917,1.89359],[114.83936,1.8935],[114.83975,1.89334],[114.83988,1.89328],[114.83992,1.89326],[114.84024,1.89313],[114.84027,1.89313],[114.84073,1.89316],[114.84131,1.89319],[114.84156,1.89311],[114.8419,1.89301],[114.84201,1.89297],[114.84212,1.89306],[114.84238,1.89326],[114.84246,1.89332],[114.84246,1.89333],[114.84277,1.89333],[114.84306,1.89333],[114.84331,1.89333],[114.84361,1.89333],[114.84368,1.8934],[114.8439,1.8936],[114.84399,1.89368],[114.84402,1.89371],[114.84428,1.89395],[114.84441,1.89403],[114.84479,1.89428],[114.84481,1.8943],[114.84483,1.89432],[114.84485,1.89434],[114.84489,1.89439],[114.84514,1.89467],[114.84515,1.89468],[114.84539,1.89443],[114.84547,1.89434],[114.8455,1.89431],[114.8458,1.894],[114.84589,1.89391],[114.84611,1.8939],[114.84662,1.89387],[114.84707,1.89384],[114.84709,1.89384],[114.84746,1.89424],[114.84748,1.89426],[114.84752,1.89426],[114.84755,1.89426],[114.84799,1.89429],[114.84821,1.8943],[114.84833,1.89433],[114.84838,1.89434],[114.84845,1.89435],[114.84879,1.89442],[114.84884,1.89443],[114.84892,1.89445],[114.8493,1.89454],[114.84962,1.89452],[114.84978,1.89451],[114.85017,1.89449],[114.85019,1.89449],[114.8502,1.89449],[114.85022,1.89449],[114.85024,1.8945],[114.85058,1.8946],[114.85084,1.89468],[114.85092,1.8947],[114.8511,1.89475],[114.85129,1.89481],[114.85141,1.89484],[114.85183,1.89453],[114.85186,1.89451],[114.85188,1.89449],[114.85213,1.89431],[114.8522,1.89425],[114.85256,1.8944],[114.85267,1.89444],[114.85298,1.89457],[114.85299,1.89457],[114.85376,1.89488],[114.85385,1.89491],[114.85396,1.89494],[114.85404,1.89496],[114.85462,1.89512],[114.85464,1.89513],[114.85466,1.89514],[114.85475,1.89516],[114.85533,1.8952],[114.85534,1.8952],[114.85537,1.89521],[114.85551,1.89522],[114.85576,1.89523],[114.85596,1.89525],[114.85604,1.89534],[114.85637,1.89572],[114.85652,1.89589],[114.8568,1.8962],[114.85693,1.89635],[114.85701,1.89645],[114.85711,1.89657],[114.85724,1.89671],[114.85759,1.89711],[114.85761,1.89713],[114.85762,1.89714],[114.85765,1.89717],[114.8577,1.89724],[114.85801,1.89759],[114.85826,1.89787],[114.85843,1.89806],[114.8586,1.89826],[114.85866,1.89833],[114.85873,1.8985],[114.85882,1.89877],[114.85886,1.89889],[114.85925,1.89891],[114.85958,1.89892],[114.85973,1.89892],[114.85987,1.89892],[114.86009,1.89933],[114.86023,1.89959],[114.8603,1.89972],[114.86035,1.8998],[114.8604,1.89992],[114.86046,1.90003],[114.86053,1.90017],[114.86064,1.9004],[114.86065,1.90039],[114.86085,1.90033],[114.86103,1.90028],[114.86123,1.90022],[114.86138,1.90018],[114.86139,1.90017],[114.86151,1.90004],[114.86162,1.89992],[114.86167,1.89986],[114.8618,1.89972],[114.86183,1.89969],[114.86189,1.89962],[114.86209,1.89939],[114.86213,1.89935],[114.86214,1.89934],[114.86215,1.89932],[114.8623,1.89916],[114.86245,1.89929],[114.86257,1.89939],[114.86264,1.89946],[114.86281,1.89961],[114.86296,1.89974],[114.86301,1.8998],[114.86312,1.89989],[114.86329,1.90004],[114.86331,1.90007],[114.86339,1.90014],[114.8635,1.90005],[114.86359,1.89998],[114.86382,1.89979],[114.86397,1.89967],[114.86407,1.89959],[114.8644,1.89976],[114.86452,1.89982],[114.86458,1.89985],[114.86471,1.89992],[114.86485,1.90008],[114.86498,1.90021],[114.86508,1.90032],[114.86509,1.90033],[114.86522,1.90048],[114.86549,1.90078],[114.8655,1.90079],[114.86594,1.90129],[114.86613,1.90135],[114.86626,1.90139],[114.86643,1.90143],[114.86688,1.90156],[114.86733,1.90168],[114.86735,1.90168],[114.86778,1.90182],[114.86789,1.90186],[114.8679,1.90186],[114.86805,1.902],[114.86845,1.90238],[114.86867,1.90258],[114.86871,1.90263],[114.86879,1.9027],[114.86885,1.90276],[114.86893,1.90279],[114.86918,1.90287],[114.86952,1.90299],[114.86949,1.90306],[114.86947,1.9031],[114.86925,1.9036],[114.8692,1.90372],[114.86909,1.90396],[114.86898,1.90422],[114.86895,1.90442],[114.86894,1.9045],[114.86893,1.9046],[114.86892,1.90466],[114.86886,1.90518],[114.86885,1.90541],[114.86883,1.90563],[114.86882,1.90598],[114.86873,1.90624],[114.86867,1.90641],[114.86861,1.90657],[114.86858,1.90668],[114.86858,1.90671],[114.86867,1.9071],[114.86871,1.90728],[114.86874,1.9074],[114.86882,1.90778],[114.86888,1.90803],[114.86889,1.90806],[114.86891,1.90817],[114.86898,1.90845],[114.86913,1.90871],[114.86921,1.90883],[114.86924,1.90888],[114.8695,1.9093],[114.86955,1.90933],[114.86998,1.90956],[114.87017,1.90966],[114.87026,1.90971],[114.87037,1.90979],[114.87078,1.91009],[114.87094,1.91021],[114.87108,1.91031],[114.87152,1.91053],[114.87161,1.91057],[114.87184,1.91054],[114.87225,1.91048],[114.87228,1.91048],[114.87229,1.91047],[114.87245,1.91045],[114.87264,1.91056],[114.87278,1.91064],[114.87281,1.91066],[114.87286,1.91069],[114.87305,1.9108],[114.87341,1.91101],[114.87353,1.91108],[114.87363,1.91114],[114.87368,1.91116],[114.8741,1.91128],[114.87444,1.91146],[114.87446,1.91146],[114.87498,1.91157],[114.87519,1.91162],[114.87532,1.91165],[114.87535,1.91165],[114.87539,1.91167],[114.87568,1.91177],[114.87608,1.91191],[114.87636,1.91201],[114.87638,1.91201],[114.87702,1.91195],[114.87713,1.91194],[114.87727,1.912],[114.8773,1.91202],[114.87743,1.91209],[114.87767,1.91222],[114.87784,1.9123],[114.8779,1.91239],[114.8782,1.9129],[114.87839,1.91295],[114.87863,1.91302],[114.87911,1.91315],[114.87922,1.91318],[114.87929,1.9132],[114.87937,1.91322],[114.8796,1.91327],[114.87979,1.91332],[114.88002,1.91338],[114.88003,1.91338],[114.88009,1.91344],[114.88019,1.91354],[114.8803,1.91366],[114.88035,1.91372],[114.88048,1.91385],[114.88051,1.91388],[114.88082,1.91401],[114.88093,1.91406],[114.88104,1.91411],[114.88142,1.91427],[114.88148,1.91417],[114.88151,1.91413],[114.88155,1.91408],[114.88362,1.91153],[114.88514,1.90966],[114.8854,1.90933],[114.88781,1.90623],[114.88837,1.90551],[114.88838,1.90551],[114.88838,1.9055],[114.88943,1.90514],[114.89001,1.90501],[114.89042,1.90491],[114.89086,1.90481],[114.89205,1.90377],[114.89228,1.90356],[114.8923,1.90355],[114.89258,1.90186],[114.89267,1.90137],[114.89331,1.90096],[114.89375,1.90067],[114.89375,1.90067],[114.89553,1.90156],[114.89642,1.90265],[114.89805,1.90173],[114.90019,1.90082],[114.90281,1.89961],[114.90282,1.89961],[114.90462,1.89943],[114.90497,1.89727],[114.90497,1.89725],[114.90451,1.89456],[114.90427,1.89316],[114.90403,1.89275],[114.9032,1.89134],[114.90231,1.89152],[114.90212,1.89248],[114.90197,1.89326],[114.90124,1.89529],[114.90063,1.89551],[114.89874,1.8962],[114.89766,1.89574],[114.8966,1.8953],[114.8966,1.89528],[114.89594,1.89247],[114.89589,1.89224],[114.89428,1.89008],[114.89374,1.88936],[114.89364,1.88768],[114.89358,1.88667],[114.89366,1.88631],[114.89379,1.88573],[114.89501,1.8804],[114.89507,1.87801],[114.89509,1.87621],[114.8955,1.87237],[114.89565,1.87098],[114.89654,1.86793],[114.89796,1.86602],[114.89861,1.86517],[114.89906,1.86456],[114.89976,1.86363],[114.89993,1.86342],[114.90322,1.85946],[114.90334,1.85931],[114.90689,1.85574],[114.90788,1.85531],[114.90815,1.85519],[114.90974,1.85448],[114.91058,1.85417],[114.91262,1.85341],[114.91428,1.85294],[114.9151,1.8527],[114.91725,1.85431],[114.91909,1.85711],[114.91937,1.85753],[114.9194,1.85758],[114.92116,1.85971],[114.92116,1.85971],[114.92402,1.86079],[114.92698,1.8611],[114.9274,1.86115],[114.92899,1.86077],[114.9304,1.86044],[114.93836,1.85874],[114.93838,1.85873],[114.94255,1.85677],[114.94443,1.85587],[114.94542,1.85464],[114.94589,1.85405],[114.94661,1.85313],[114.94959,1.8498],[114.94961,1.84979],[114.94961,1.84978],[114.95512,1.84693],[114.96082,1.84317],[114.96708,1.84048],[114.9671,1.84047],[114.96968,1.83986],[114.97314,1.83904],[114.97753,1.83915],[114.98077,1.83922],[114.98663,1.84062],[114.99057,1.84166],[114.99304,1.84286],[114.99392,1.84328],[114.99835,1.84434],[114.99999,1.84473],[115.0,1.84473],[115.00465,1.84491],[115.00907,1.8442],[115.00908,1.8442],[115.01,1.8421],[115.01033,1.84134],[115.00963,1.83741],[115.00815,1.83385],[115.0081,1.83371],[115.00796,1.83337],[115.00784,1.83309],[115.0068,1.83132],[115.00572,1.82947],[115.00357,1.82777],[115.00233,1.82679],[115.00183,1.82589],[115.00157,1.82543],[115.00019,1.82301],[115.00032,1.82273],[115.00032,1.82273],[115.00047,1.82239],[115.00047,1.82239],[115.00047,1.82239],[114.99826,1.82229],[114.99683,1.82236],[114.99335,1.8217],[114.99205,1.82139],[114.99046,1.82082],[114.98863,1.82039],[114.98722,1.81982],[114.98632,1.81936],[114.98498,1.81928],[114.98451,1.81879],[114.97181,1.81948],[114.96511,1.82074],[114.96447,1.82111],[114.96092,1.82314],[114.9592,1.82504],[114.95831,1.82492],[114.95552,1.82412],[114.95423,1.8226],[114.95421,1.81893],[114.95556,1.8171],[114.95657,1.81476],[114.95673,1.81295],[114.95682,1.81192],[114.95719,1.8103],[114.95527,1.8092],[114.95263,1.80697],[114.95215,1.80656],[114.94938,1.80496],[114.94934,1.80482]]]]},"properties":{"kdprov":"65","kdkab":"01","kdkec":"030","kddesa":"004","kdsls":"2001","idsls":"65010300042001","nmprov":"KALIMANTAN UTARA","nmkab":"MALINAU","nmkec":"KAYAN HULU","nmdesa":"LONG NAWANG","nmsls":"HUTAN"}},{"type":"Feature","geometry":{"type":"MultiPolygon","coordinates":[[[[114.89845,1.7763],[114.89887,1.77583],[114.89946,1.77527],[114.89864,1.77476],[114.89805,1.77437],[114.89794,1.77583],[114.89796,1.776],[114.89816,1.77596],[114.89835,1.77608],[114.89845,1.7763]]]]},"properties":{"kdprov":"65","kdkab":"01","kdkec":"030","kddesa":"001","kdsls":"0003","idsls":"65010300010003","nmprov":"KALIMANTAN UTARA","nmkab":"MALINAU","nmkec":"KAYAN HULU","nmdesa":"LONG TEMUYAT","nmsls":"RT 03"}},{"type":"Feature","geometry":{"type":"MultiPolygon","coordinates":[[[[114.89914,1.78242],[114.89911,1.78223],[114.89915,1.78192],[114.8994,1.78148],[114.89961,1.78127],[114.89961,1.78127],[114.89932,1.7811],[114.89929,1.78101],[114.89927,1.78094],[114.89923,1.78089],[114.89916,1.78087],[114.89902,1.78084],[114.89894,1.78103],[114.89887,1.78126],[114.89883,1.78146],[114.89881,1.78164],[114.89884,1.78241],[114.89885,1.78246],[114.89914,1.78242]]]]},"properties":{"kdprov":"65","kdkab":"01","kdkec":"030","kddesa":"002","kdsls":"0006","idsls":"65010300020006","nmprov":"KALIMANTAN UTARA","nmkab":"MALINAU","nmkec":"KAYAN HULU","nmdesa":"NAWANG BARU","nmsls":"RT 006"}},{"type":"Feature","geometry":{"type":"MultiPolygon","coordinates":[[[[114.90173,1.78743],[114.90204,1.78765],[114.9024,1.78797],[114.90273,1.78817],[114.90323,1.78838],[114.90351,1.78832],[114.90375,1.78801],[114.90382,1.78755],[114.90379,1.7871],[114.90362,1.7864],[114.90338,1.78593],[114.9032,1.78544],[114.90296,1.78506],[114.90294,1.78464],[114.90322,1.78427],[114.90346,1.78388],[114.90356,1.78346],[114.90356,1.78292],[114.90356,1.7823],[114.90385,1.78157],[114.90421,1.78118],[114.90449,1.78095],[114.90489,1.78092],[114.90541,1.78107],[114.9059,1.78152],[114.90652,1.78202],[114.90714,1.78256],[114.90776,1.78321],[114.90839,1.78375],[114.90897,1.78419],[114.90922,1.7845],[114.90948,1.78472],[114.90971,1.78466],[114.91,1.78438],[114.91003,1.78436],[114.91003,1.78415],[114.9099,1.78385],[114.90951,1.78337],[114.9094,1.7818],[114.91013,1.7803],[114.91333,1.78028],[114.91584,1.78079],[114.91785,1.78198],[114.91956,1.78008],[114.9211,1.77904],[114.92269,1.77955],[114.92389,1.78023],[114.92486,1.78017],[114.92746,1.77786],[114.92949,1.77688],[114.931,1.77606],[114.93191,1.77686],[114.93333,1.7753],[114.93425,1.77512],[114.93526,1.77385],[114.93633,1.77138],[114.93804,1.77102],[114.93918,1.77136],[114.93959,1.77303],[114.94114,1.77382],[114.94246,1.77433],[114.94349,1.77496],[114.94584,1.7754],[114.94637,1.77787],[114.94781,1.77901],[114.94957,1.77895],[114.95179,1.77773],[114.9527,1.77807],[114.95333,1.77709],[114.95446,1.77576],[114.95484,1.77353],[114.95464,1.77026],[114.95516,1.7687],[114.95526,1.76839],[114.9561,1.76622],[114.95528,1.76444],[114.95632,1.76361],[114.95659,1.7634],[114.95751,1.76321],[114.9577,1.76317],[114.95893,1.76287],[114.95894,1.76287],[114.96012,1.76115],[114.96134,1.75793],[114.96104,1.75529],[114.96073,1.7543],[114.95992,1.75172],[114.95985,1.7512],[114.95973,1.75022],[114.95556,1.75006],[114.95555,1.75006],[114.95506,1.74995],[114.95268,1.74941],[114.94892,1.74855],[114.94889,1.74855],[114.94662,1.74682],[114.94543,1.74592],[114.94279,1.7426],[114.94273,1.74225],[114.94243,1.74051],[114.94214,1.73885],[114.94211,1.73867],[114.94211,1.73867],[114.94211,1.73867],[114.94209,1.73867],[114.94209,1.73867],[114.94209,1.73867],[114.941,1.73846],[114.94095,1.73844],[114.94092,1.73842],[114.94031,1.73816],[114.93867,1.73818],[114.93747,1.73809],[114.9369,1.73875],[114.93618,1.73917],[114.93505,1.73857],[114.93418,1.73893],[114.93252,1.73976],[114.93183,1.73985],[114.9312,1.74024],[114.93102,1.7412],[114.93108,1.7424],[114.93108,1.74364],[114.93036,1.74367],[114.92973,1.74382],[114.92896,1.74415],[114.92815,1.74448],[114.92737,1.74511],[114.9265,1.74562],[114.92563,1.74562],[114.92498,1.74553],[114.92444,1.74553],[114.92381,1.74604],[114.92303,1.74664],[114.92307,1.74744],[114.92292,1.7484],[114.9228,1.74927],[114.92215,1.74987],[114.92199,1.75057],[114.9225,1.75105],[114.92292,1.75144],[114.9228,1.75222],[114.92241,1.753],[114.92181,1.75333],[114.92148,1.75333],[114.92154,1.75264],[114.9208,1.75267],[114.92011,1.75309],[114.9197,1.75353],[114.91881,1.75398],[114.91785,1.75464],[114.91719,1.75533],[114.91752,1.75629],[114.91638,1.75641],[114.91494,1.75674],[114.91324,1.75707],[114.91246,1.75761],[114.91118,1.75677],[114.9095,1.7574],[114.90798,1.75743],[114.90594,1.75763],[114.903,1.7556],[114.90036,1.75626],[114.90048,1.75831],[114.90174,1.75825],[114.90266,1.75915],[114.90392,1.76015],[114.90443,1.76159],[114.90398,1.76349],[114.90259,1.76266],[114.90028,1.76359],[114.90013,1.76627],[114.89872,1.76801],[114.89904,1.76955],[114.8996,1.77224],[114.90063,1.77384],[114.90159,1.77534],[114.90126,1.77552],[114.90108,1.77561],[114.90052,1.77624],[114.90007,1.77663],[114.90008,1.77669],[114.90034,1.77798],[114.90037,1.77807],[114.90049,1.77854],[114.90049,1.77854],[114.90096,1.7786],[114.90123,1.77882],[114.90138,1.77929],[114.90153,1.77992],[114.90138,1.78036],[114.901,1.78094],[114.90051,1.78146],[114.90046,1.78366],[114.90046,1.78367],[114.90032,1.78419],[114.90009,1.78438],[114.89957,1.78471],[114.89908,1.78502],[114.89873,1.78502],[114.89792,1.78487],[114.8965,1.78483],[114.89665,1.7846],[114.89707,1.78396],[114.89779,1.78362],[114.8981,1.78308],[114.89807,1.78248],[114.89802,1.7824],[114.89758,1.78172],[114.89737,1.78125],[114.89736,1.78078],[114.8976,1.78022],[114.89846,1.77939],[114.89843,1.77897],[114.89842,1.77872],[114.89842,1.7787],[114.8984,1.77808],[114.89839,1.77794],[114.89838,1.77777],[114.89837,1.77717],[114.89803,1.77718],[114.89766,1.77709],[114.89741,1.77721],[114.89628,1.77776],[114.89354,1.77788],[114.89086,1.77728],[114.88939,1.77812],[114.88923,1.77818],[114.88753,1.77481],[114.88753,1.77478],[114.8875,1.77477],[114.88702,1.77395],[114.88565,1.77158],[114.88392,1.76751],[114.88359,1.76669],[114.88255,1.76402],[114.88168,1.76166],[114.88117,1.76031],[114.87967,1.75945],[114.87858,1.75754],[114.87792,1.75629],[114.87851,1.75409],[114.87661,1.75409],[114.8753,1.75511],[114.87274,1.7546],[114.87311,1.75298],[114.86898,1.75176],[114.8684,1.75301],[114.86723,1.75235],[114.86555,1.75191],[114.86563,1.75014],[114.86745,1.74978],[114.86738,1.74926],[114.86534,1.74889],[114.86585,1.74735],[114.86395,1.74617],[114.86256,1.74698],[114.85891,1.74756],[114.85789,1.7458],[114.8573,1.74803],[114.85723,1.7483],[114.85577,1.74822],[114.85513,1.74649],[114.85512,1.74646],[114.8551,1.74647],[114.85358,1.74712],[114.85234,1.74638],[114.8514,1.74454],[114.84928,1.74476],[114.84891,1.74476],[114.84753,1.74483],[114.8465,1.74564],[114.84555,1.7449],[114.84468,1.74505],[114.84373,1.74652],[114.84278,1.74703],[114.8419,1.74666],[114.84139,1.74666],[114.8403,1.746],[114.84132,1.74431],[114.84015,1.74402],[114.83986,1.74453],[114.83855,1.7449],[114.83796,1.74387],[114.83738,1.74416],[114.83541,1.7435],[114.83406,1.74331],[114.83378,1.74267],[114.83287,1.74239],[114.8326,1.74166],[114.83096,1.74129],[114.83087,1.74018],[114.82968,1.73991],[114.82886,1.74055],[114.82649,1.7399],[114.82649,1.73945],[114.82685,1.73871],[114.82676,1.73834],[114.82503,1.73779],[114.82421,1.73806],[114.82329,1.7377],[114.82247,1.73843],[114.82101,1.73824],[114.82029,1.73873],[114.81964,1.73916],[114.81809,1.73852],[114.81654,1.73962],[114.81453,1.74072],[114.81316,1.74301],[114.81078,1.74402],[114.80887,1.74365],[114.81033,1.74145],[114.80887,1.73988],[114.8075,1.74126],[114.80503,1.7442],[114.80403,1.74383],[114.80476,1.74116],[114.80714,1.7386],[114.80878,1.73676],[114.80796,1.73547],[114.80897,1.73336],[114.80751,1.73281],[114.80733,1.73152],[114.80852,1.73061],[114.80797,1.7296],[114.80642,1.72831],[114.80469,1.72904],[114.80331,1.73079],[114.80195,1.72922],[114.80282,1.72486],[114.80272,1.7236],[114.80268,1.72302],[114.80275,1.72097],[114.80195,1.71979],[114.80137,1.71766],[114.80064,1.71634],[114.80013,1.71376],[114.79787,1.71251],[114.79641,1.71339],[114.79714,1.7153],[114.79626,1.7156],[114.79407,1.71545],[114.79354,1.7157],[114.79224,1.71633],[114.79187,1.71838],[114.79005,1.71816],[114.78881,1.71559],[114.78684,1.71698],[114.78575,1.7125],[114.78363,1.71536],[114.78246,1.71808],[114.77944,1.72257],[114.7786,1.7241],[114.77797,1.72377],[114.77719,1.72449],[114.77683,1.72359],[114.7757,1.72437],[114.77513,1.72286],[114.77534,1.71832],[114.77439,1.71699],[114.77256,1.71798],[114.77334,1.71901],[114.7731,1.71994],[114.77139,1.72211],[114.76862,1.72413],[114.76545,1.72792],[114.7667,1.72985],[114.76512,1.73204],[114.76341,1.73279],[114.76299,1.73325],[114.76332,1.73412],[114.76498,1.73695],[114.76708,1.74216],[114.7676,1.74395],[114.76862,1.74734],[114.76807,1.75063],[114.76866,1.75294],[114.76882,1.7556],[114.76766,1.75749],[114.76924,1.75962],[114.7716,1.76214],[114.77225,1.76531],[114.77454,1.76911],[114.77601,1.7713],[114.77986,1.77402],[114.78194,1.7759],[114.78421,1.77796],[114.78824,1.78054],[114.79124,1.78053],[114.79418,1.78086],[114.79729,1.78153],[114.80174,1.7829],[114.8055,1.78547],[114.80879,1.78812],[114.81107,1.78709],[114.81304,1.78563],[114.81725,1.78827],[114.81952,1.78916],[114.82165,1.78979],[114.82235,1.79207],[114.82609,1.79556],[114.82791,1.796],[114.8298,1.79692],[114.83159,1.79829],[114.83287,1.79823],[114.83525,1.79919],[114.83629,1.80018],[114.83681,1.80068],[114.83687,1.8008],[114.84008,1.8021],[114.84065,1.80204],[114.8411,1.80208],[114.84138,1.80227],[114.84217,1.80406],[114.84257,1.80499],[114.84273,1.80535],[114.84345,1.80699],[114.84306,1.80751],[114.84292,1.80771],[114.84169,1.80939],[114.8406,1.81088],[114.84089,1.81124],[114.84198,1.81259],[114.84306,1.81323],[114.84416,1.8139],[114.84699,1.81504],[114.84961,1.81606],[114.85059,1.81852],[114.85254,1.81926],[114.85494,1.81907],[114.85539,1.81934],[114.85636,1.81992],[114.8576,1.82268],[114.85824,1.82456],[114.85747,1.82576],[114.85677,1.82704],[114.85708,1.82922],[114.85874,1.82793],[114.85968,1.82634],[114.86083,1.82708],[114.86251,1.83011],[114.86234,1.83155],[114.86354,1.83109],[114.86417,1.83085],[114.86654,1.82884],[114.8686,1.8279],[114.87154,1.82857],[114.87376,1.82948],[114.87485,1.83029],[114.87639,1.83131],[114.87822,1.8313],[114.88033,1.83031],[114.88146,1.82869],[114.8827,1.82671],[114.88327,1.82581],[114.88415,1.82456],[114.8853,1.8229],[114.88596,1.82195],[114.88818,1.82096],[114.88962,1.82142],[114.88947,1.82394],[114.8896,1.82567],[114.89188,1.82571],[114.89381,1.82398],[114.89637,1.82351],[114.89825,1.8224],[114.8992,1.82091],[114.89952,1.81798],[114.89938,1.8151],[114.90017,1.81367],[114.90098,1.81395],[114.90137,1.81274],[114.90257,1.81176],[114.90351,1.80946],[114.90213,1.80826],[114.90197,1.8076],[114.90183,1.80705],[114.90303,1.80653],[114.90406,1.80664],[114.90491,1.80663],[114.90516,1.80639],[114.90577,1.80577],[114.90575,1.8045],[114.90557,1.80372],[114.90599,1.8034],[114.90622,1.80293],[114.90616,1.80264],[114.90573,1.80232],[114.90537,1.80211],[114.90491,1.80202],[114.90423,1.80198],[114.90374,1.80189],[114.90327,1.80168],[114.90309,1.80136],[114.90301,1.80101],[114.90291,1.80067],[114.90296,1.80034],[114.90325,1.79989],[114.9036,1.79929],[114.9037,1.7986],[114.90358,1.79817],[114.90318,1.79788],[114.90073,1.79784],[114.89894,1.79779],[114.89579,1.7949],[114.89557,1.79387],[114.89764,1.78911],[114.90003,1.7882],[114.90017,1.7879],[114.90061,1.78731],[114.90099,1.78724],[114.90173,1.78743]]]]},"properties":{"kdprov":"65","kdkab":"01","kdkec":"030","kddesa":"002","kdsls":"2001","idsls":"65010300022001","nmprov":"KALIMANTAN UTARA","nmkab":"MALINAU","nmkec":"KAYAN HULU","nmdesa":"NAWANG BARU","nmsls":"HUTAN"}},{"type":"Feature","geometry":{"type":"MultiPolygon","coordinates":[[[[114.85539,1.81934],[114.85494,1.81907],[114.85254,1.81926],[114.85059,1.81852],[114.84961,1.81606],[114.84699,1.81504],[114.84416,1.8139],[114.84306,1.81323],[114.84198,1.81259],[114.84089,1.81124],[114.8406,1.81088],[114.84169,1.80939],[114.84126,1.80903],[114.84084,1.80863],[114.84063,1.80832],[114.84065,1.80813],[114.84099,1.80779],[114.84155,1.80745],[114.84188,1.8071],[114.84197,1.80682],[114.8413,1.80568],[114.8411,1.80553],[114.84061,1.80526],[114.8405,1.80519],[114.83983,1.80496],[114.83951,1.80462],[114.8395,1.80418],[114.83985,1.80381],[114.84005,1.80364],[114.84028,1.80345],[114.84008,1.8021],[114.83687,1.8008],[114.83681,1.80068],[114.83629,1.80018],[114.83525,1.79919],[114.83287,1.79823],[114.83159,1.79829],[114.8298,1.79692],[114.82791,1.796],[114.82609,1.79556],[114.82235,1.79207],[114.82165,1.78979],[114.81952,1.78916],[114.81725,1.78827],[114.81304,1.78563],[114.81107,1.78709],[114.80879,1.78812],[114.8055,1.78547],[114.80174,1.7829],[114.79729,1.78153],[114.79418,1.78086],[114.79124,1.78053],[114.78824,1.78054],[114.78421,1.77796],[114.78194,1.7759],[114.78022,1.77771],[114.77812,1.7778],[114.77628,1.77905],[114.77457,1.77849],[114.77432,1.78023],[114.77305,1.7808],[114.77235,1.7801],[114.77065,1.7804],[114.76993,1.78165],[114.76943,1.78143],[114.76935,1.77967],[114.76838,1.77944],[114.76783,1.78092],[114.76701,1.78105],[114.76683,1.78175],[114.76546,1.78235],[114.76258,1.78139],[114.76167,1.78195],[114.76198,1.78333],[114.76039,1.78409],[114.75893,1.78233],[114.75832,1.78156],[114.75965,1.77964],[114.75844,1.77925],[114.75505,1.77952],[114.7533,1.77944],[114.75263,1.7781],[114.74878,1.77774],[114.74819,1.77637],[114.74631,1.77655],[114.74631,1.77483],[114.74351,1.77569],[114.74382,1.77299],[114.74125,1.77538],[114.74064,1.77673],[114.73979,1.77673],[114.73851,1.77525],[114.73736,1.77605],[114.73407,1.7758],[114.73194,1.77512],[114.73041,1.77555],[114.72871,1.77555],[114.7281,1.77641],[114.72737,1.7764],[114.72615,1.77745],[114.72627,1.77622],[114.727,1.77481],[114.72603,1.77456],[114.72481,1.77573],[114.72414,1.77769],[114.7245,1.7802],[114.72249,1.78136],[114.72121,1.78259],[114.71962,1.78363],[114.71639,1.78375],[114.71514,1.78412],[114.71511,1.78413],[114.71467,1.78421],[114.7149,1.78452],[114.715,1.78528],[114.71438,1.78563],[114.71392,1.7863],[114.71361,1.78652],[114.71303,1.78659],[114.7129,1.78733],[114.71239,1.78807],[114.71274,1.78881],[114.71192,1.78902],[114.71134,1.78955],[114.71124,1.78964],[114.71076,1.79062],[114.71018,1.79101],[114.70961,1.79089],[114.70898,1.79116],[114.70842,1.79181],[114.70856,1.79226],[114.70877,1.79294],[114.70882,1.79372],[114.70916,1.79404],[114.70937,1.79425],[114.70941,1.79447],[114.70947,1.79495],[114.70948,1.79591],[114.7094,1.79632],[114.70896,1.79696],[114.7088,1.79751],[114.70809,1.79769],[114.70725,1.7981],[114.7067,1.79888],[114.70565,1.79904],[114.70477,1.79922],[114.70435,1.79963],[114.70336,1.79985],[114.70268,1.79995],[114.70235,1.80044],[114.70203,1.80095],[114.70183,1.80157],[114.70157,1.80242],[114.70068,1.80289],[114.69918,1.80284],[114.69768,1.8033],[114.69725,1.80432],[114.69727,1.8052],[114.6972,1.80572],[114.69696,1.80613],[114.69638,1.8067],[114.69549,1.80757],[114.69505,1.80782],[114.694,1.80833],[114.69412,1.80858],[114.69443,1.80954],[114.69509,1.80974],[114.69594,1.80988],[114.69657,1.80959],[114.69713,1.80981],[114.69763,1.8096],[114.69867,1.80998],[114.69958,1.80963],[114.70017,1.8094],[114.70082,1.81007],[114.70168,1.81094],[114.70262,1.81148],[114.70269,1.8121],[114.70263,1.81304],[114.70269,1.81391],[114.70322,1.81491],[114.7032,1.81616],[114.70336,1.8167],[114.70384,1.81709],[114.70463,1.81753],[114.70437,1.81852],[114.70446,1.81935],[114.70504,1.82058],[114.70619,1.82068],[114.70707,1.82028],[114.70804,1.81992],[114.70878,1.81922],[114.70966,1.81901],[114.71017,1.81872],[114.71098,1.81892],[114.71175,1.81915],[114.71213,1.81921],[114.71236,1.82017],[114.71262,1.82077],[114.71283,1.82108],[114.71346,1.82177],[114.71383,1.82224],[114.71405,1.82267],[114.71436,1.82338],[114.71489,1.82404],[114.71525,1.82465],[114.71541,1.82492],[114.71569,1.8254],[114.71654,1.82596],[114.71711,1.82551],[114.71739,1.82542],[114.71763,1.82534],[114.71843,1.8249],[114.7185,1.82474],[114.71913,1.82572],[114.71956,1.82638],[114.71932,1.82777],[114.72046,1.82856],[114.72066,1.82899],[114.72105,1.82937],[114.72138,1.82948],[114.72252,1.82949],[114.72302,1.8294],[114.72399,1.8297],[114.72461,1.83039],[114.72455,1.83146],[114.72489,1.83173],[114.72604,1.83171],[114.72642,1.83138],[114.72747,1.8313],[114.72757,1.83261],[114.72793,1.83364],[114.72761,1.8351],[114.72726,1.83536],[114.72745,1.83615],[114.72806,1.83705],[114.72736,1.83789],[114.72697,1.83905],[114.72715,1.83954],[114.7266,1.84101],[114.72653,1.84153],[114.72619,1.84247],[114.72639,1.84288],[114.72711,1.84403],[114.72691,1.84521],[114.72681,1.84576],[114.72582,1.84624],[114.72474,1.84702],[114.7242,1.84765],[114.7237,1.84865],[114.7221,1.84925],[114.72147,1.8492],[114.72105,1.84989],[114.72038,1.85079],[114.72049,1.85116],[114.72017,1.85197],[114.71932,1.85225],[114.71926,1.85307],[114.71838,1.85354],[114.71815,1.85477],[114.71768,1.8554],[114.71752,1.85591],[114.71781,1.85646],[114.71924,1.85681],[114.72023,1.85676],[114.72098,1.85671],[114.72174,1.85685],[114.7225,1.85687],[114.72316,1.85763],[114.72394,1.85737],[114.72481,1.85799],[114.72525,1.85828],[114.72575,1.85815],[114.72628,1.85763],[114.72672,1.85711],[114.72752,1.85766],[114.72867,1.8579],[114.72987,1.85755],[114.73071,1.85837],[114.73185,1.85827],[114.73258,1.85899],[114.73334,1.85935],[114.73424,1.86001],[114.73479,1.8609],[114.73471,1.86162],[114.73473,1.86215],[114.73488,1.86287],[114.73491,1.86352],[114.73525,1.86444],[114.73539,1.86498],[114.73647,1.86525],[114.73719,1.86563],[114.73813,1.86613],[114.73918,1.86627],[114.73997,1.86644],[114.74066,1.86629],[114.74172,1.86684],[114.74283,1.86705],[114.74393,1.86742],[114.74408,1.86775],[114.74436,1.86809],[114.74512,1.86849],[114.74558,1.86901],[114.74669,1.86931],[114.74733,1.86936],[114.74751,1.86877],[114.74839,1.86756],[114.74875,1.86674],[114.74922,1.86697],[114.74961,1.86736],[114.75,1.86738],[114.75008,1.86739],[114.75013,1.86739],[114.7503,1.8674],[114.75041,1.86741],[114.75053,1.86741],[114.75078,1.86743],[114.75083,1.86743],[114.75086,1.86744],[114.75089,1.86744],[114.75095,1.86735],[114.75103,1.86722],[114.75108,1.86716],[114.75111,1.86711],[114.75119,1.867],[114.75123,1.86694],[114.75135,1.86675],[114.7516,1.86678],[114.75199,1.86684],[114.75204,1.86685],[114.75211,1.86686],[114.75219,1.86687],[114.75225,1.86688],[114.75231,1.86683],[114.75246,1.86669],[114.75253,1.86662],[114.75266,1.86649],[114.75277,1.86639],[114.75289,1.86628],[114.75295,1.86622],[114.75306,1.86612],[114.75311,1.86607],[114.75323,1.86595],[114.75326,1.86592],[114.75327,1.86589],[114.75334,1.86578],[114.75337,1.86574],[114.75347,1.86558],[114.75366,1.8653],[114.75371,1.86522],[114.75386,1.86516],[114.75409,1.86507],[114.75439,1.86525],[114.75456,1.86535],[114.75462,1.86531],[114.75489,1.86514],[114.75493,1.86511],[114.75499,1.86508],[114.75509,1.86501],[114.75524,1.86491],[114.75526,1.8649],[114.75528,1.86489],[114.7554,1.86481],[114.75542,1.86475],[114.75546,1.86462],[114.75552,1.8644],[114.75559,1.86435],[114.75568,1.86427],[114.75571,1.86425],[114.75576,1.8642],[114.75583,1.86415],[114.75598,1.86402],[114.75612,1.86391],[114.7564,1.86383],[114.75641,1.86382],[114.75681,1.86371],[114.75687,1.86369],[114.75693,1.86367],[114.757,1.86365],[114.75719,1.8636],[114.7572,1.86359],[114.75722,1.86359],[114.75747,1.86352],[114.75755,1.86349],[114.75755,1.86345],[114.75755,1.86337],[114.75756,1.86321],[114.75756,1.86285],[114.75757,1.86284],[114.75762,1.8628],[114.75767,1.86276],[114.75772,1.86272],[114.75778,1.86268],[114.75807,1.86245],[114.75819,1.86236],[114.75829,1.86228],[114.75838,1.86221],[114.75845,1.86214],[114.75871,1.86187],[114.75879,1.86179],[114.75884,1.86174],[114.7589,1.86167],[114.75897,1.8616],[114.75906,1.86151],[114.75922,1.86135],[114.75931,1.86125],[114.75933,1.86121],[114.75938,1.86111],[114.75941,1.86105],[114.75943,1.86101],[114.75946,1.86094],[114.75953,1.8608],[114.75957,1.86073],[114.75964,1.86059],[114.75967,1.86052],[114.75969,1.86049],[114.75971,1.86043],[114.75988,1.86045],[114.76007,1.86047],[114.76017,1.86049],[114.76032,1.8605],[114.76051,1.86053],[114.76062,1.86055],[114.76073,1.86057],[114.76085,1.86059],[114.76094,1.86061],[114.761,1.86062],[114.76123,1.86066],[114.76138,1.86069],[114.76151,1.86072],[114.76169,1.86075],[114.76171,1.86076],[114.76181,1.86079],[114.76206,1.86088],[114.76212,1.8609],[114.76217,1.86082],[114.76223,1.86071],[114.76227,1.86064],[114.76235,1.8605],[114.76245,1.86034],[114.76247,1.86029],[114.76249,1.86026],[114.76262,1.86004],[114.7627,1.85989],[114.76275,1.85982],[114.76278,1.85976],[114.76285,1.85964],[114.76285,1.85946],[114.76285,1.85942],[114.76285,1.85933],[114.76285,1.85926],[114.76285,1.85907],[114.76285,1.85906],[114.76285,1.85893],[114.76285,1.85847],[114.76285,1.85839],[114.76285,1.85831],[114.76285,1.85829],[114.76289,1.85828],[114.76308,1.85823],[114.76333,1.85816],[114.76372,1.85806],[114.76376,1.85805],[114.76379,1.85804],[114.76398,1.85799],[114.76426,1.85791],[114.76446,1.85786],[114.76484,1.8579],[114.76511,1.85793],[114.76538,1.85796],[114.76558,1.85798],[114.76562,1.85799],[114.76565,1.85791],[114.76566,1.85789],[114.76573,1.85769],[114.76579,1.85751],[114.76583,1.8575],[114.76585,1.8575],[114.76592,1.85749],[114.7663,1.85745],[114.76641,1.85736],[114.76655,1.85723],[114.76695,1.85689],[114.76697,1.85691],[114.76716,1.85711],[114.76721,1.85716],[114.76739,1.85737],[114.76742,1.85739],[114.76744,1.85742],[114.76786,1.85741],[114.76791,1.85741],[114.76809,1.85741],[114.76817,1.85741],[114.76819,1.85741],[114.76822,1.85731],[114.76828,1.85712],[114.76837,1.8568],[114.7684,1.85668],[114.76842,1.85662],[114.76842,1.85659],[114.76847,1.85632],[114.76848,1.85628],[114.76848,1.85623],[114.76855,1.85584],[114.76857,1.85568],[114.76858,1.85563],[114.76859,1.85561],[114.76859,1.85556],[114.76884,1.85506],[114.76888,1.85498],[114.76892,1.8549],[114.76902,1.8547],[114.76918,1.85437],[114.76917,1.85431],[114.76917,1.85424],[114.76916,1.85421],[114.76915,1.85414],[114.76909,1.85372],[114.76907,1.85354],[114.76906,1.85344],[114.76906,1.85342],[114.76912,1.85308],[114.76914,1.853],[114.76915,1.85291],[114.76918,1.85279],[114.7692,1.85265],[114.76923,1.85248],[114.76924,1.85244],[114.76926,1.85234],[114.76929,1.85218],[114.7693,1.8521],[114.76941,1.85199],[114.76948,1.85191],[114.76961,1.85178],[114.76971,1.85167],[114.76977,1.85161],[114.76979,1.85159],[114.76995,1.85142],[114.76999,1.85138],[114.77004,1.85118],[114.77008,1.85105],[114.77012,1.85089],[114.77014,1.85083],[114.77014,1.85079],[114.77018,1.85064],[114.77022,1.85062],[114.7704,1.85052],[114.77068,1.85036],[114.77069,1.85035],[114.77071,1.85034],[114.77094,1.8502],[114.7711,1.85011],[114.77116,1.85009],[114.77118,1.85008],[114.77123,1.85006],[114.77141,1.84998],[114.77161,1.8499],[114.77167,1.84988],[114.77179,1.84983],[114.77197,1.84994],[114.77219,1.85007],[114.77236,1.85017],[114.77252,1.85027],[114.77263,1.85033],[114.77277,1.85042],[114.77284,1.85049],[114.77289,1.85055],[114.77297,1.85063],[114.77305,1.85071],[114.77315,1.85081],[114.77329,1.85073],[114.77339,1.85066],[114.77351,1.85058],[114.77359,1.85053],[114.77369,1.85047],[114.77373,1.85044],[114.77383,1.85038],[114.77392,1.85032],[114.77402,1.85026],[114.77409,1.85021],[114.7742,1.85024],[114.7744,1.85029],[114.77453,1.85032],[114.77461,1.85034],[114.77479,1.85039],[114.77493,1.85042],[114.77502,1.85045],[114.77515,1.85048],[114.77516,1.85048],[114.77527,1.85045],[114.7754,1.8504],[114.77551,1.85036],[114.77568,1.85031],[114.77583,1.85025],[114.77598,1.8502],[114.77605,1.85018],[114.77609,1.85011],[114.77619,1.84994],[114.77641,1.84957],[114.7765,1.84943],[114.77653,1.84936],[114.77661,1.84923],[114.77665,1.84917],[114.77666,1.84916],[114.77669,1.8491],[114.77671,1.84906],[114.77684,1.84885],[114.77699,1.849],[114.77716,1.84917],[114.77726,1.84928],[114.77728,1.84931],[114.7773,1.84934],[114.77736,1.84944],[114.77745,1.84958],[114.77752,1.84968],[114.77758,1.84977],[114.77782,1.85007],[114.77789,1.85015],[114.77802,1.85032],[114.77815,1.85048],[114.77827,1.85045],[114.77834,1.85044],[114.77904,1.85028],[114.77905,1.85028],[114.77908,1.85027],[114.77911,1.85026],[114.77912,1.85025],[114.77925,1.85001],[114.77932,1.84988],[114.77934,1.84985],[114.77945,1.84965],[114.7795,1.84955],[114.77973,1.84914],[114.77974,1.84912],[114.77977,1.84913],[114.77986,1.84917],[114.77987,1.84917],[114.78003,1.84924],[114.78022,1.84932],[114.78039,1.84939],[114.78058,1.84948],[114.78064,1.84942],[114.78066,1.8494],[114.78078,1.84928],[114.78087,1.84918],[114.78093,1.84912],[114.78107,1.84897],[114.78109,1.84896],[114.78113,1.84893],[114.78114,1.84892],[114.78116,1.84891],[114.78144,1.8487],[114.78153,1.84859],[114.78161,1.84848],[114.78162,1.84851],[114.78181,1.84877],[114.78192,1.84894],[114.78198,1.84902],[114.78212,1.84923],[114.78215,1.84927],[114.78222,1.84936],[114.78237,1.84959],[114.78239,1.84961],[114.78252,1.84978],[114.78269,1.85001],[114.78278,1.85012],[114.78285,1.85022],[114.78298,1.85018],[114.78305,1.85016],[114.7832,1.85011],[114.78353,1.85001],[114.78357,1.85],[114.78368,1.84997],[114.78372,1.84985],[114.78375,1.84977],[114.78381,1.84963],[114.78385,1.84953],[114.78388,1.84946],[114.7839,1.84942],[114.78397,1.8493],[114.78402,1.84921],[114.78409,1.8491],[114.78411,1.84907],[114.7843,1.84893],[114.78433,1.84891],[114.78436,1.84888],[114.7847,1.84862],[114.78471,1.84862],[114.78481,1.84855],[114.78537,1.84819],[114.78539,1.84818],[114.7854,1.84817],[114.78542,1.84816],[114.78545,1.84814],[114.78568,1.84799],[114.78602,1.84789],[114.78626,1.84781],[114.78631,1.8478],[114.78672,1.8476],[114.78693,1.84749],[114.78703,1.84744],[114.78706,1.84743],[114.7871,1.84748],[114.78726,1.84765],[114.78744,1.84784],[114.78764,1.84806],[114.78779,1.84823],[114.78788,1.84832],[114.78796,1.8483],[114.78805,1.84827],[114.7883,1.84819],[114.78842,1.84815],[114.7886,1.84804],[114.78885,1.84787],[114.7889,1.84784],[114.78896,1.8478],[114.78905,1.84774],[114.78941,1.84752],[114.78946,1.84749],[114.78978,1.84749],[114.78984,1.84749],[114.79011,1.84749],[114.79015,1.84749],[114.79039,1.84749],[114.79059,1.84749],[114.7907,1.84754],[114.79095,1.84767],[114.79095,1.84769],[114.7908,1.84813],[114.79089,1.84823],[114.79091,1.84826],[114.79093,1.84829],[114.79094,1.8483],[114.79096,1.84833],[114.79129,1.84872],[114.79131,1.84873],[114.79183,1.84908],[114.79204,1.84922],[114.79209,1.84925],[114.79215,1.84929],[114.79229,1.84939],[114.79245,1.84949],[114.79261,1.84939],[114.79264,1.84938],[114.79267,1.84936],[114.79269,1.84935],[114.79312,1.84909],[114.79314,1.84908],[114.79317,1.84906],[114.79339,1.84893],[114.79357,1.84889],[114.79382,1.84882],[114.79388,1.84881],[114.79399,1.84878],[114.7942,1.84873],[114.79442,1.84867],[114.79455,1.84903],[114.79462,1.84922],[114.79471,1.84948],[114.79497,1.84952],[114.79526,1.84956],[114.79544,1.84968],[114.79552,1.84973],[114.79583,1.84992],[114.79586,1.84994],[114.79593,1.84998],[114.79602,1.84998],[114.79604,1.84998],[114.79673,1.84998],[114.79679,1.84988],[114.79686,1.84977],[114.7969,1.84969],[114.79711,1.84933],[114.79797,1.84898],[114.79888,1.84833],[114.79959,1.84744],[114.801,1.84782],[114.80278,1.84721],[114.80396,1.84787],[114.80589,1.84812],[114.80734,1.84779],[114.80917,1.84849],[114.81069,1.84857],[114.81283,1.84915],[114.81452,1.84888],[114.81566,1.84735],[114.81686,1.84789],[114.81805,1.84783],[114.81884,1.84819],[114.8205,1.84795],[114.82106,1.84671],[114.8212,1.84565],[114.82118,1.84487],[114.82158,1.84481],[114.8218,1.84406],[114.82243,1.84393],[114.82301,1.84373],[114.82305,1.8425],[114.82428,1.84131],[114.82408,1.83981],[114.82489,1.83877],[114.82616,1.83763],[114.82782,1.83734],[114.82799,1.83614],[114.82923,1.83572],[114.83121,1.83537],[114.83458,1.83589],[114.83666,1.83598],[114.8371,1.83568],[114.83622,1.8347],[114.83506,1.83331],[114.83573,1.83221],[114.83615,1.83173],[114.83722,1.83169],[114.83888,1.83225],[114.84093,1.83149],[114.84349,1.83076],[114.8449,1.8294],[114.84715,1.82755],[114.84732,1.82483],[114.85025,1.8248],[114.85083,1.82456],[114.8518,1.82425],[114.85182,1.82392],[114.85214,1.82344],[114.85269,1.82281],[114.85288,1.82181],[114.85397,1.82074],[114.85452,1.82075],[114.85469,1.82049],[114.85507,1.82046],[114.85534,1.82019],[114.85535,1.82003],[114.85537,1.8196],[114.85539,1.81934]]]]},"properties":{"kdprov":"65","kdkab":"01","kdkec":"030","kddesa":"003","kdsls":"2001","idsls":"65010300032001","nmprov":"KALIMANTAN UTARA","nmkab":"MALINAU","nmkec":"KAYAN HULU","nmdesa":"LONG BETAOH","nmsls":"HUTAN"}},{"type":"Feature","geometry":{"type":"MultiPolygon","coordinates":[[[[114.90023,1.77861],[114.90002,1.77855],[114.89995,1.77844],[114.89986,1.77826],[114.89978,1.77806],[114.89976,1.77785],[114.89965,1.77773],[114.89934,1.77775],[114.89912,1.77791],[114.89896,1.77795],[114.89839,1.77794],[114.8984,1.77808],[114.89842,1.7787],[114.89842,1.77872],[114.89843,1.77897],[114.89846,1.77939],[114.89864,1.77974],[114.89879,1.77988],[114.89909,1.77962],[114.8992,1.77947],[114.89927,1.77933],[114.89944,1.77912],[114.89983,1.77888],[114.90023,1.77861]]]]},"properties":{"kdprov":"65","kdkab":"01","kdkec":"030","kddesa":"002","kdsls":"0004","idsls":"65010300020004","nmprov":"KALIMANTAN UTARA","nmkab":"MALINAU","nmkec":"KAYAN HULU","nmdesa":"NAWANG BARU","nmsls":"RT 004"}},{"type":"Feature","geometry":{"type":"MultiPolygon","coordinates":[[[[114.89839,1.77794],[114.89896,1.77795],[114.89912,1.77791],[114.89934,1.77775],[114.89965,1.77773],[114.89976,1.77785],[114.89978,1.77806],[114.89986,1.77826],[114.89995,1.77844],[114.90002,1.77855],[114.90023,1.77861],[114.90049,1.77854],[114.90037,1.77807],[114.90034,1.77798],[114.90008,1.77669],[114.89994,1.77674],[114.89967,1.7768],[114.89927,1.77692],[114.89895,1.7769],[114.89878,1.77705],[114.89838,1.77711],[114.89837,1.77717],[114.89838,1.77777],[114.89839,1.77794]]]]},"properties":{"kdprov":"65","kdkab":"01","kdkec":"030","kddesa":"002","kdsls":"0005","idsls":"65010300020005","nmprov":"KALIMANTAN UTARA","nmkab":"MALINAU","nmkec":"KAYAN HULU","nmdesa":"NAWANG BARU","nmsls":"RT 005"}},{"type":"Feature","geometry":{"type":"MultiPolygon","coordinates":[[[[114.89961,1.78127],[114.89961,1.78127],[114.8994,1.78148],[114.89915,1.78192],[114.89911,1.78223],[114.89914,1.78242],[114.89916,1.78254],[114.89932,1.78288],[114.8994,1.78317],[114.89941,1.78349],[114.89925,1.78365],[114.89893,1.78375],[114.89855,1.7841],[114.89838,1.78436],[114.89804,1.78479],[114.89792,1.78487],[114.89873,1.78502],[114.89908,1.78502],[114.89957,1.78471],[114.90009,1.78438],[114.90032,1.78419],[114.90046,1.78367],[114.90046,1.78366],[114.90051,1.78146],[114.90053,1.78072],[114.90008,1.78091],[114.89961,1.78127]]]]},"properties":{"kdprov":"65","kdkab":"01","kdkec":"030","kddesa":"002","kdsls":"0008","idsls":"65010300020008","nmprov":"KALIMANTAN UTARA","nmkab":"MALINAU","nmkec":"KAYAN HULU","nmdesa":"NAWANG BARU","nmsls":"RT 008"}},{"type":"Feature","geometry":{"type":"MultiPolygon","coordinates":[[[[114.89885,1.78246],[114.89884,1.78241],[114.89881,1.78164],[114.89883,1.78146],[114.89887,1.78126],[114.89894,1.78103],[114.89902,1.78084],[114.89916,1.78087],[114.89943,1.7799],[114.89916,1.77997],[114.8989,1.77994],[114.89879,1.77988],[114.89864,1.77974],[114.89846,1.77939],[114.8976,1.78022],[114.89736,1.78078],[114.89737,1.78125],[114.89758,1.78172],[114.89802,1.7824],[114.89857,1.78246],[114.89885,1.78246]]]]},"properties":{"kdprov":"65","kdkab":"01","kdkec":"030","kddesa":"002","kdsls":"0002","idsls":"65010300020002","nmprov":"KALIMANTAN UTARA","nmkab":"MALINAU","nmkec":"KAYAN HULU","nmdesa":"NAWANG BARU","nmsls":"RT 002"}},{"type":"Feature","geometry":{"type":"MultiPolygon","coordinates":[[[[114.89943,1.7799],[114.89916,1.78087],[114.89923,1.78089],[114.89927,1.78094],[114.89929,1.78101],[114.89932,1.7811],[114.89961,1.78127],[114.90008,1.78091],[114.90053,1.78072],[114.90064,1.78058],[114.90079,1.78024],[114.9009,1.77991],[114.90085,1.77956],[114.90076,1.77928],[114.90059,1.77916],[114.9004,1.77927],[114.9002,1.7795],[114.89994,1.77969],[114.89959,1.77986],[114.89943,1.7799]]]]},"properties":{"kdprov":"65","kdkab":"01","kdkec":"030","kddesa":"002","kdsls":"0007","idsls":"65010300020007","nmprov":"KALIMANTAN UTARA","nmkab":"MALINAU","nmkec":"KAYAN HULU","nmdesa":"NAWANG BARU","nmsls":"RT 007"}},{"type":"Feature","geometry":{"type":"MultiPolygon","coordinates":[[[[114.90388,1.7898],[114.9051,1.78814],[114.90551,1.78789],[114.90615,1.78763],[114.90665,1.78732],[114.90689,1.78703],[114.90699,1.78658],[114.90706,1.78636],[114.9074,1.78628],[114.90795,1.78641],[114.90831,1.78662],[114.90867,1.78659],[114.90904,1.78633],[114.90941,1.78594],[114.90985,1.78544],[114.91003,1.78497],[114.91003,1.78436],[114.91,1.78438],[114.90971,1.78466],[114.90948,1.78472],[114.90922,1.7845],[114.90897,1.78419],[114.90839,1.78375],[114.90776,1.78321],[114.90714,1.78256],[114.90652,1.78202],[114.9059,1.78152],[114.90541,1.78107],[114.90489,1.78092],[114.90449,1.78095],[114.90421,1.78118],[114.90385,1.78157],[114.90356,1.7823],[114.90356,1.78292],[114.90356,1.78346],[114.90346,1.78388],[114.90322,1.78427],[114.90294,1.78464],[114.90296,1.78506],[114.9032,1.78544],[114.90338,1.78593],[114.90362,1.7864],[114.90379,1.7871],[114.90382,1.78755],[114.90375,1.78801],[114.90351,1.78832],[114.90323,1.78838],[114.90273,1.78817],[114.9024,1.78797],[114.90204,1.78765],[114.90173,1.78743],[114.9016,1.78826],[114.90191,1.78845],[114.90193,1.78863],[114.90192,1.78862],[114.90179,1.78902],[114.90192,1.78916],[114.90202,1.78925],[114.90212,1.78936],[114.90221,1.78951],[114.90238,1.7897],[114.90252,1.78979],[114.90271,1.78992],[114.90287,1.79003],[114.90311,1.78982],[114.90335,1.78945],[114.90388,1.7898]]]]},"properties":{"kdprov":"65","kdkab":"01","kdkec":"030","kddesa":"004","kdsls":"0005","idsls":"65010300040005","nmprov":"KALIMANTAN UTARA","nmkab":"MALINAU","nmkec":"KAYAN HULU","nmdesa":"LONG NAWANG","nmsls":"RT 05"}},{"type":"Feature","geometry":{"type":"MultiPolygon","coordinates":[[[[114.90049,1.77854],[114.90023,1.77861],[114.89983,1.77888],[114.89944,1.77912],[114.89927,1.77933],[114.8992,1.77947],[114.89909,1.77962],[114.89879,1.77988],[114.8989,1.77994],[114.89916,1.77997],[114.89943,1.7799],[114.89959,1.77986],[114.89994,1.77969],[114.9002,1.7795],[114.9004,1.77927],[114.90059,1.77916],[114.90076,1.77928],[114.90085,1.77956],[114.9009,1.77991],[114.90079,1.78024],[114.90064,1.78058],[114.90053,1.78072],[114.90051,1.78146],[114.901,1.78094],[114.90138,1.78036],[114.90153,1.77992],[114.90138,1.77929],[114.90123,1.77882],[114.90096,1.7786],[114.90049,1.77854],[114.90049,1.77854]]]]},"properties":{"kdprov":"65","kdkab":"01","kdkec":"030","kddesa":"002","kdsls":"0003","idsls":"65010300020003","nmprov":"KALIMANTAN UTARA","nmkab":"MALINAU","nmkec":"KAYAN HULU","nmdesa":"NAWANG BARU","nmsls":"RT 003"}},{"type":"Feature","geometry":{"type":"MultiPolygon","coordinates":[[[[114.89975,1.79025],[114.89975,1.79025],[114.89987,1.79096],[114.89999,1.79129],[114.90017,1.7915],[114.90028,1.79162],[114.90035,1.79176],[114.90067,1.79171],[114.90087,1.79164],[114.90111,1.79148],[114.90122,1.79131],[114.90129,1.79113],[114.90138,1.79105],[114.90154,1.79107],[114.90168,1.79116],[114.90171,1.79107],[114.90177,1.79085],[114.90177,1.79068],[114.90172,1.79045],[114.90167,1.79031],[114.90156,1.79031],[114.90158,1.79014],[114.90132,1.79011],[114.90126,1.7901],[114.90126,1.79001],[114.90112,1.79001],[114.9011,1.79007],[114.90109,1.79012],[114.90093,1.79013],[114.90093,1.79018],[114.90078,1.79019],[114.90066,1.79018],[114.89975,1.79025]]]]},"properties":{"kdprov":"65","kdkab":"01","kdkec":"030","kddesa":"004","kdsls":"0002","idsls":"65010300040002","nmprov":"KALIMANTAN UTARA","nmkab":"MALINAU","nmkec":"KAYAN HULU","nmdesa":"LONG NAWANG","nmsls":"RT 02"}},{"type":"Feature","geometry":{"type":"MultiPolygon","coordinates":[[[[114.89792,1.78487],[114.89804,1.78479],[114.89838,1.78436],[114.89855,1.7841],[114.89893,1.78375],[114.89925,1.78365],[114.89941,1.78349],[114.8994,1.78317],[114.89932,1.78288],[114.89916,1.78254],[114.89914,1.78242],[114.89885,1.78246],[114.89857,1.78246],[114.89802,1.7824],[114.89807,1.78248],[114.8981,1.78308],[114.89779,1.78362],[114.89707,1.78396],[114.89665,1.7846],[114.8965,1.78483],[114.89792,1.78487]]]]},"properties":{"kdprov":"65","kdkab":"01","kdkec":"030","kddesa":"002","kdsls":"0001","idsls":"65010300020001","nmprov":"KALIMANTAN UTARA","nmkab":"MALINAU","nmkec":"KAYAN HULU","nmdesa":"NAWANG BARU","nmsls":"RT 001"}},{"type":"Feature","geometry":{"type":"MultiPolygon","coordinates":[[[[114.90008,1.77669],[114.90007,1.77663],[114.89995,1.77623],[114.89989,1.77613],[114.89979,1.77593],[114.89946,1.77527],[114.89887,1.77583],[114.89845,1.7763],[114.89845,1.77639],[114.89844,1.77671],[114.89838,1.77711],[114.89878,1.77705],[114.89895,1.7769],[114.89927,1.77692],[114.89967,1.7768],[114.89994,1.77674],[114.90008,1.77669]]]]},"properties":{"kdprov":"65","kdkab":"01","kdkec":"030","kddesa":"001","kdsls":"0004","idsls":"65010300010004","nmprov":"KALIMANTAN UTARA","nmkab":"MALINAU","nmkec":"KAYAN HULU","nmdesa":"LONG TEMUYAT","nmsls":"RT 04"}},{"type":"Feature","geometry":{"type":"MultiPolygon","coordinates":[[[[114.84217,1.80406],[114.84138,1.80227],[114.8411,1.80208],[114.84065,1.80204],[114.84008,1.8021],[114.84028,1.80345],[114.84005,1.80364],[114.83985,1.80381],[114.8395,1.80418],[114.83951,1.80462],[114.83983,1.80496],[114.8405,1.80519],[114.84061,1.80526],[114.84078,1.80487],[114.84091,1.80475],[114.84217,1.80406]]]]},"properties":{"kdprov":"65","kdkab":"01","kdkec":"030","kddesa":"003","kdsls":"0002","idsls":"65010300030002","nmprov":"KALIMANTAN UTARA","nmkab":"MALINAU","nmkec":"KAYAN HULU","nmdesa":"LONG BETAOH","nmsls":"RT 02"}},{"type":"Feature","geometry":{"type":"MultiPolygon","coordinates":[[[[115.08429,1.81964],[115.086,1.8187],[115.09111,1.81587],[115.09237,1.81478],[115.09438,1.81305],[115.09263,1.81164],[115.08988,1.80942],[115.08986,1.8094],[115.08568,1.80443],[115.08151,1.79879],[115.07759,1.7935],[115.07541,1.78594],[115.07191,1.7803],[115.06932,1.7733],[115.06627,1.76705],[115.06323,1.76111],[115.05607,1.75837],[115.05196,1.75787],[115.04785,1.75737],[115.04358,1.75685],[115.03862,1.7513],[115.03719,1.74969],[115.03384,1.74726],[115.02401,1.74542],[115.02394,1.74541],[115.01769,1.74375],[115.00912,1.74539],[115.00902,1.74543],[114.99972,1.74878],[114.99546,1.74695],[114.99196,1.74741],[114.98145,1.74451],[114.97155,1.74223],[114.96367,1.74488],[114.96363,1.74491],[114.96196,1.7503],[114.95973,1.75022],[114.95985,1.7512],[114.95992,1.75172],[114.96073,1.7543],[114.96104,1.75529],[114.96134,1.75793],[114.96012,1.76115],[114.95894,1.76287],[114.95893,1.76287],[114.9577,1.76317],[114.95751,1.76321],[114.95659,1.7634],[114.95632,1.76361],[114.95803,1.76503],[114.95924,1.76618],[114.96177,1.76765],[114.96368,1.76816],[114.96463,1.76854],[114.96612,1.76909],[114.96729,1.76961],[114.96961,1.77105],[114.97283,1.7727],[114.9753,1.77451],[114.97619,1.77559],[114.9769,1.77684],[114.97793,1.77797],[114.9788,1.77911],[114.97923,1.78019],[114.97932,1.78131],[114.97921,1.78284],[114.97878,1.78407],[114.97813,1.78527],[114.97738,1.78618],[114.97655,1.78698],[114.97562,1.78767],[114.9742,1.78823],[114.97298,1.78893],[114.97168,1.78999],[114.97021,1.79075],[114.96645,1.79198],[114.96304,1.79256],[114.96124,1.79273],[114.96041,1.79295],[114.95966,1.79362],[114.95938,1.79387],[114.95527,1.79489],[114.95184,1.79729],[114.95107,1.79784],[114.94938,1.79902],[114.94891,1.80134],[114.95015,1.80106],[114.95056,1.80197],[114.95131,1.80421],[114.94934,1.80482],[114.94938,1.80496],[114.95215,1.80656],[114.95263,1.80697],[114.95527,1.8092],[114.95719,1.8103],[114.95682,1.81192],[114.95673,1.81295],[114.95657,1.81476],[114.95556,1.8171],[114.95421,1.81893],[114.95423,1.8226],[114.95552,1.82412],[114.95831,1.82492],[114.9592,1.82504],[114.96092,1.82314],[114.96447,1.82111],[114.96511,1.82074],[114.97181,1.81948],[114.98451,1.81879],[114.98498,1.81928],[114.98632,1.81936],[114.98722,1.81982],[114.98863,1.82039],[114.99046,1.82082],[114.99205,1.82139],[114.99335,1.8217],[114.99683,1.82236],[114.99826,1.82229],[115.00047,1.82239],[115.00047,1.82239],[115.00047,1.82239],[115.00047,1.82239],[115.0011,1.82095],[115.00139,1.82031],[115.00217,1.81853],[115.00645,1.81513],[115.00784,1.81466],[115.00999,1.81395],[115.01404,1.81408],[115.01899,1.812],[115.0191,1.81196],[115.0191,1.81196],[115.02428,1.81018],[115.03311,1.80689],[115.03899,1.81064],[115.04028,1.81083],[115.0442,1.81139],[115.0499,1.81167],[115.05734,1.80965],[115.05735,1.80965],[115.05847,1.81065],[115.05968,1.81173],[115.06265,1.81515],[115.06536,1.81716],[115.06536,1.81716],[115.06536,1.81716],[115.0698,1.81875],[115.07652,1.8182],[115.08429,1.81964]]]]},"properties":{"kdprov":"65","kdkab":"01","kdkec":"030","kddesa":"005","kdsls":"2001","idsls":"65010300052001","nmprov":"KALIMANTAN UTARA","nmkab":"MALINAU","nmkec":"KAYAN HULU","nmdesa":"LONG PAYAU","nmsls":"HUTAN"}},{"type":"Feature","geometry":{"type":"MultiPolygon","coordinates":[[[[114.89796,1.776],[114.89794,1.77583],[114.89805,1.77437],[114.89735,1.77391],[114.89637,1.77415],[114.89629,1.77417],[114.89649,1.77499],[114.89663,1.7756],[114.89668,1.77613],[114.89656,1.77623],[114.89655,1.7763],[114.89663,1.77645],[114.8967,1.77647],[114.89693,1.7766],[114.89698,1.77657],[114.89729,1.7764],[114.89758,1.77619],[114.89792,1.77601],[114.89796,1.776]]]]},"properties":{"kdprov":"65","kdkab":"01","kdkec":"030","kddesa":"001","kdsls":"0002","idsls":"65010300010002","nmprov":"KALIMANTAN UTARA","nmkab":"MALINAU","nmkec":"KAYAN HULU","nmdesa":"LONG TEMUYAT","nmsls":"RT 02"}},{"type":"Feature","geometry":{"type":"MultiPolygon","coordinates":[[[[114.84217,1.80406],[114.84091,1.80475],[114.84078,1.80487],[114.84061,1.80526],[114.8411,1.80553],[114.8413,1.80568],[114.84197,1.80682],[114.84188,1.8071],[114.84155,1.80745],[114.84099,1.80779],[114.84065,1.80813],[114.84063,1.80832],[114.84084,1.80863],[114.84126,1.80903],[114.84169,1.80939],[114.84292,1.80771],[114.84306,1.80751],[114.84345,1.80699],[114.84273,1.80535],[114.84257,1.80499],[114.84217,1.80406]]]]},"properties":{"kdprov":"65","kdkab":"01","kdkec":"030","kddesa":"003","kdsls":"0001","idsls":"65010300030001","nmprov":"KALIMANTAN UTARA","nmkab":"MALINAU","nmkec":"KAYAN HULU","nmdesa":"LONG BETAOH","nmsls":"RT 01"}},{"type":"Feature","geometry":{"type":"MultiPolygon","coordinates":[[[[114.89837,1.77717],[114.89838,1.77711],[114.89844,1.77671],[114.89845,1.77639],[114.89845,1.7763],[114.89835,1.77608],[114.89816,1.77596],[114.89796,1.776],[114.89792,1.77601],[114.89758,1.77619],[114.89729,1.7764],[114.89698,1.77657],[114.89693,1.7766],[114.89668,1.77674],[114.89644,1.77685],[114.89621,1.7768],[114.896,1.77662],[114.89558,1.77617],[114.89517,1.77554],[114.89472,1.77454],[114.8959,1.77426],[114.89629,1.77417],[114.89637,1.77415],[114.89735,1.77391],[114.89805,1.77437],[114.89864,1.77476],[114.89946,1.77527],[114.89979,1.77593],[114.89989,1.77613],[114.89995,1.77623],[114.90007,1.77663],[114.90052,1.77624],[114.90108,1.77561],[114.90126,1.77552],[114.90159,1.77534],[114.90063,1.77384],[114.8996,1.77224],[114.89904,1.76955],[114.89872,1.76801],[114.90013,1.76627],[114.90028,1.76359],[114.90259,1.76266],[114.90398,1.76349],[114.90443,1.76159],[114.90392,1.76015],[114.90266,1.75915],[114.90174,1.75825],[114.90048,1.75831],[114.90036,1.75626],[114.903,1.7556],[114.90594,1.75763],[114.90798,1.75743],[114.9095,1.7574],[114.91118,1.75677],[114.91246,1.75761],[114.91324,1.75707],[114.91494,1.75674],[114.91638,1.75641],[114.91752,1.75629],[114.91719,1.75533],[114.91785,1.75464],[114.91881,1.75398],[114.9197,1.75353],[114.92011,1.75309],[114.9208,1.75267],[114.92154,1.75264],[114.92148,1.75333],[114.92181,1.75333],[114.92241,1.753],[114.9228,1.75222],[114.92292,1.75144],[114.9225,1.75105],[114.92199,1.75057],[114.92215,1.74987],[114.9228,1.74927],[114.92292,1.7484],[114.92307,1.74744],[114.92303,1.74664],[114.92381,1.74604],[114.92444,1.74553],[114.92498,1.74553],[114.92563,1.74562],[114.9265,1.74562],[114.92737,1.74511],[114.92815,1.74448],[114.92896,1.74415],[114.92973,1.74382],[114.93036,1.74367],[114.93108,1.74364],[114.93108,1.7424],[114.93102,1.7412],[114.9312,1.74024],[114.93183,1.73985],[114.93252,1.73976],[114.93418,1.73893],[114.93505,1.73857],[114.93618,1.73917],[114.9369,1.73875],[114.93747,1.73809],[114.93867,1.73818],[114.94031,1.73816],[114.94092,1.73842],[114.94095,1.73844],[114.941,1.73846],[114.94209,1.73867],[114.94209,1.73867],[114.94209,1.73866],[114.94209,1.73866],[114.94209,1.73866],[114.94208,1.7386],[114.94207,1.73859],[114.94207,1.73859],[114.94206,1.73852],[114.94206,1.73852],[114.94205,1.73844],[114.94205,1.73844],[114.94203,1.73837],[114.94203,1.73837],[114.94201,1.73821],[114.94187,1.73743],[114.94178,1.73691],[114.94171,1.73654],[114.9417,1.73648],[114.9416,1.73594],[114.94159,1.7359],[114.94146,1.73507],[114.94108,1.73255],[114.94103,1.73221],[114.93912,1.7299],[114.93759,1.72381],[114.93069,1.72472],[114.93066,1.72473],[114.92406,1.72171],[114.92282,1.71695],[114.92145,1.71406],[114.9178,1.71193],[114.91414,1.71147],[114.91125,1.71269],[114.90409,1.71116],[114.90226,1.71421],[114.89922,1.71497],[114.89739,1.71345],[114.89245,1.71382],[114.89069,1.70888],[114.88947,1.70644],[114.88673,1.70462],[114.88321,1.70436],[114.88033,1.70416],[114.87917,1.70009],[114.87425,1.69488],[114.86861,1.69228],[114.86788,1.68939],[114.86708,1.68619],[114.86268,1.68416],[114.86084,1.67888],[114.86072,1.67856],[114.85932,1.67492],[114.85962,1.67081],[114.85927,1.66703],[114.85917,1.66594],[114.85763,1.6644],[114.85732,1.66409],[114.85731,1.66408],[114.85703,1.6638],[114.85703,1.66367],[114.85703,1.66233],[114.85703,1.66166],[114.85703,1.66136],[114.85703,1.66088],[114.85703,1.66],[114.85416,1.65788],[114.85353,1.65741],[114.85246,1.65253],[114.85089,1.65021],[114.84927,1.64781],[114.84455,1.64401],[114.84287,1.63989],[114.84196,1.63533],[114.84241,1.63213],[114.84485,1.62756],[114.8412,1.62512],[114.83465,1.62132],[114.83145,1.62269],[114.82673,1.62558],[114.82338,1.62512],[114.81546,1.62162],[114.80897,1.62295],[114.80282,1.62703],[114.79812,1.62847],[114.79221,1.62884],[114.78799,1.62546],[114.78244,1.62558],[114.7752,1.62763],[114.76785,1.63028],[114.76158,1.62847],[114.7588,1.62642],[114.75494,1.62329],[114.74927,1.6222],[114.74204,1.62196],[114.73685,1.61931],[114.73432,1.61726],[114.73179,1.61448],[114.73022,1.61521],[114.72802,1.61842],[114.72793,1.62061],[114.72669,1.62165],[114.72345,1.62289],[114.72203,1.62403],[114.72307,1.62575],[114.72241,1.62746],[114.72098,1.63032],[114.71822,1.63127],[114.71584,1.63374],[114.7127,1.63593],[114.71032,1.63778],[114.709,1.63789],[114.70887,1.63837],[114.70799,1.63948],[114.70739,1.64083],[114.70805,1.64213],[114.70869,1.64275],[114.70796,1.64399],[114.70843,1.64568],[114.70898,1.64678],[114.70919,1.64813],[114.70921,1.64833],[114.70926,1.649],[114.70934,1.65021],[114.70972,1.651],[114.71012,1.65203],[114.71022,1.65301],[114.71036,1.65359],[114.71057,1.65443],[114.71069,1.65499],[114.71053,1.65584],[114.71042,1.65752],[114.71124,1.65854],[114.71137,1.65939],[114.71104,1.66031],[114.71092,1.66097],[114.71087,1.66203],[114.71071,1.66256],[114.71074,1.66322],[114.71118,1.66386],[114.71138,1.66434],[114.71127,1.66504],[114.71106,1.666],[114.71185,1.66698],[114.71263,1.66822],[114.71268,1.66944],[114.71239,1.67056],[114.71184,1.67122],[114.71206,1.67184],[114.71233,1.67285],[114.71194,1.67396],[114.7119,1.67506],[114.71262,1.676],[114.71289,1.67688],[114.71334,1.67757],[114.71345,1.67862],[114.71313,1.6799],[114.71335,1.68086],[114.71342,1.68149],[114.71331,1.68285],[114.71364,1.68422],[114.71365,1.6854],[114.71333,1.68709],[114.7133,1.68802],[114.71327,1.68817],[114.71317,1.6887],[114.71308,1.68922],[114.71306,1.68933],[114.71295,1.69009],[114.71263,1.69144],[114.71276,1.69171],[114.71289,1.69198],[114.71301,1.69224],[114.71288,1.69377],[114.71288,1.69385],[114.71286,1.69402],[114.71251,1.69511],[114.71245,1.69676],[114.71185,1.69795],[114.71175,1.69815],[114.71151,1.69899],[114.71126,1.69947],[114.71113,1.70095],[114.71112,1.70196],[114.71111,1.70281],[114.71117,1.70346],[114.71081,1.70406],[114.71119,1.70561],[114.71051,1.70649],[114.71115,1.70795],[114.71267,1.70843],[114.71278,1.70846],[114.71298,1.7092],[114.71309,1.70958],[114.71369,1.71033],[114.71404,1.71043],[114.71493,1.71069],[114.71604,1.71083],[114.71709,1.71139],[114.71797,1.71288],[114.71869,1.71383],[114.71846,1.71509],[114.71922,1.71585],[114.71873,1.71684],[114.71904,1.71819],[114.71927,1.71884],[114.71841,1.71872],[114.71757,1.71997],[114.71675,1.72088],[114.71707,1.72237],[114.71721,1.72296],[114.71748,1.72353],[114.71794,1.72405],[114.71808,1.72529],[114.71813,1.72596],[114.71819,1.72639],[114.71825,1.72681],[114.7183,1.72715],[114.7182,1.72803],[114.71745,1.72963],[114.7167,1.73034],[114.71608,1.73072],[114.7154,1.7318],[114.71425,1.73151],[114.71362,1.73147],[114.71322,1.73217],[114.71309,1.73291],[114.71269,1.7343],[114.71258,1.73568],[114.71233,1.73673],[114.71212,1.73754],[114.71194,1.73873],[114.71028,1.7387],[114.71036,1.73941],[114.71019,1.7399],[114.71004,1.741],[114.70991,1.74152],[114.7098,1.74276],[114.71029,1.74406],[114.70991,1.7444],[114.70947,1.74474],[114.7094,1.74638],[114.70944,1.74776],[114.71079,1.74895],[114.71086,1.74959],[114.71095,1.75],[114.71109,1.75066],[114.71129,1.75165],[114.71136,1.75234],[114.71023,1.75304],[114.70996,1.75436],[114.70909,1.75499],[114.70931,1.75602],[114.70887,1.75628],[114.70752,1.75719],[114.70752,1.75772],[114.70655,1.75891],[114.70597,1.7597],[114.70527,1.7605],[114.70533,1.76116],[114.70616,1.76196],[114.70736,1.7632],[114.70783,1.76335],[114.70854,1.76357],[114.70895,1.76401],[114.70952,1.76463],[114.70985,1.76521],[114.71015,1.76617],[114.71042,1.76722],[114.71076,1.76777],[114.71098,1.76824],[114.712,1.7685],[114.71279,1.76928],[114.71361,1.77017],[114.71436,1.77131],[114.71433,1.77177],[114.71467,1.77308],[114.71404,1.77427],[114.71413,1.77546],[114.71415,1.77581],[114.71402,1.7761],[114.71384,1.77653],[114.71399,1.77746],[114.71427,1.77806],[114.71423,1.77901],[114.71374,1.78008],[114.7143,1.78076],[114.7143,1.7818],[114.71429,1.7829],[114.71428,1.78326],[114.71426,1.78368],[114.71466,1.78421],[114.71511,1.78413],[114.71514,1.78412],[114.71639,1.78375],[114.71962,1.78363],[114.72121,1.78259],[114.72249,1.78136],[114.7245,1.7802],[114.72414,1.77769],[114.72481,1.77573],[114.72603,1.77456],[114.727,1.77481],[114.72627,1.77622],[114.72615,1.77745],[114.72737,1.7764],[114.7281,1.77641],[114.72871,1.77555],[114.73041,1.77555],[114.73194,1.77512],[114.73407,1.7758],[114.73736,1.77605],[114.73851,1.77525],[114.73979,1.77673],[114.74064,1.77673],[114.74125,1.77538],[114.74382,1.77299],[114.74351,1.77569],[114.74631,1.77483],[114.74631,1.77655],[114.74819,1.77637],[114.74878,1.77774],[114.75263,1.7781],[114.7533,1.77944],[114.75505,1.77952],[114.75844,1.77925],[114.75965,1.77964],[114.75832,1.78156],[114.75893,1.78233],[114.76039,1.78409],[114.76198,1.78333],[114.76167,1.78195],[114.76258,1.78139],[114.76546,1.78235],[114.76683,1.78175],[114.76701,1.78105],[114.76783,1.78092],[114.76838,1.77944],[114.76935,1.77967],[114.76943,1.78143],[114.76993,1.78165],[114.77065,1.7804],[114.77235,1.7801],[114.77305,1.7808],[114.77432,1.78023],[114.77457,1.77849],[114.77628,1.77905],[114.77812,1.7778],[114.78022,1.77771],[114.78194,1.7759],[114.77986,1.77402],[114.77601,1.7713],[114.77454,1.76911],[114.77225,1.76531],[114.7716,1.76214],[114.76924,1.75962],[114.76766,1.75749],[114.76882,1.7556],[114.76866,1.75294],[114.76807,1.75063],[114.76862,1.74734],[114.7676,1.74395],[114.76708,1.74216],[114.76498,1.73695],[114.76332,1.73412],[114.76299,1.73325],[114.76341,1.73279],[114.76512,1.73204],[114.7667,1.72985],[114.76545,1.72792],[114.76862,1.72413],[114.77139,1.72211],[114.7731,1.71994],[114.77334,1.71901],[114.77256,1.71798],[114.77439,1.71699],[114.77534,1.71832],[114.77513,1.72286],[114.7757,1.72437],[114.77683,1.72359],[114.77719,1.72449],[114.77797,1.72377],[114.7786,1.7241],[114.77944,1.72257],[114.78246,1.71808],[114.78363,1.71536],[114.78575,1.7125],[114.78684,1.71698],[114.78881,1.71559],[114.79005,1.71816],[114.79187,1.71838],[114.79224,1.71633],[114.79354,1.7157],[114.79407,1.71545],[114.79626,1.7156],[114.79714,1.7153],[114.79641,1.71339],[114.79787,1.71251],[114.80013,1.71376],[114.80064,1.71634],[114.80137,1.71766],[114.80195,1.71979],[114.80275,1.72097],[114.80268,1.72302],[114.80272,1.7236],[114.80282,1.72486],[114.80195,1.72922],[114.80331,1.73079],[114.80469,1.72904],[114.80642,1.72831],[114.80797,1.7296],[114.80852,1.73061],[114.80733,1.73152],[114.80751,1.73281],[114.80897,1.73336],[114.80796,1.73547],[114.80878,1.73676],[114.80714,1.7386],[114.80476,1.74116],[114.80403,1.74383],[114.80503,1.7442],[114.8075,1.74126],[114.80887,1.73988],[114.81033,1.74145],[114.80887,1.74365],[114.81078,1.74402],[114.81316,1.74301],[114.81453,1.74072],[114.81654,1.73962],[114.81809,1.73852],[114.81964,1.73916],[114.82029,1.73873],[114.82101,1.73824],[114.82247,1.73843],[114.82329,1.7377],[114.82421,1.73806],[114.82503,1.73779],[114.82676,1.73834],[114.82685,1.73871],[114.82649,1.73945],[114.82649,1.7399],[114.82886,1.74055],[114.82968,1.73991],[114.83087,1.74018],[114.83096,1.74129],[114.8326,1.74166],[114.83287,1.74239],[114.83378,1.74267],[114.83406,1.74331],[114.83541,1.7435],[114.83738,1.74416],[114.83796,1.74387],[114.83855,1.7449],[114.83986,1.74453],[114.84015,1.74402],[114.84132,1.74431],[114.8403,1.746],[114.84139,1.74666],[114.8419,1.74666],[114.84278,1.74703],[114.84373,1.74652],[114.84468,1.74505],[114.84555,1.7449],[114.8465,1.74564],[114.84753,1.74483],[114.84891,1.74476],[114.84928,1.74476],[114.8514,1.74454],[114.85234,1.74638],[114.85358,1.74712],[114.8551,1.74647],[114.85512,1.74646],[114.85513,1.74649],[114.85577,1.74822],[114.85723,1.7483],[114.8573,1.74803],[114.85789,1.7458],[114.85891,1.74756],[114.86256,1.74698],[114.86395,1.74617],[114.86585,1.74735],[114.86534,1.74889],[114.86738,1.74926],[114.86745,1.74978],[114.86563,1.75014],[114.86555,1.75191],[114.86723,1.75235],[114.8684,1.75301],[114.86898,1.75176],[114.87311,1.75298],[114.87274,1.7546],[114.8753,1.75511],[114.87661,1.75409],[114.87851,1.75409],[114.87792,1.75629],[114.87858,1.75754],[114.87967,1.75945],[114.88117,1.76031],[114.88168,1.76166],[114.88255,1.76402],[114.88359,1.76669],[114.88392,1.76751],[114.88565,1.77158],[114.88702,1.77395],[114.8875,1.77477],[114.88753,1.77478],[114.88753,1.77481],[114.88923,1.77818],[114.88939,1.77812],[114.89086,1.77728],[114.89354,1.77788],[114.89628,1.77776],[114.89741,1.77721],[114.89766,1.77709],[114.89803,1.77718],[114.89837,1.77717]]]]},"properties":{"kdprov":"65","kdkab":"01","kdkec":"030","kddesa":"001","kdsls":"2001","idsls":"65010300012001","nmprov":"KALIMANTAN UTARA","nmkab":"MALINAU","nmkec":"KAYAN HULU","nmdesa":"LONG TEMUYAT","nmsls":"HUTAN"}},{"type":"Feature","geometry":{"type":"MultiPolygon","coordinates":[[[[114.90168,1.79116],[114.90154,1.79107],[114.90138,1.79105],[114.90129,1.79113],[114.90122,1.79131],[114.90111,1.79148],[114.90087,1.79164],[114.90067,1.79171],[114.90035,1.79176],[114.90028,1.79162],[114.90017,1.7915],[114.89999,1.79129],[114.89987,1.79096],[114.89975,1.79025],[114.89975,1.79025],[114.89965,1.78964],[114.89967,1.78949],[114.89968,1.78936],[114.89974,1.78889],[114.90003,1.7882],[114.89764,1.78911],[114.89557,1.79387],[114.89579,1.7949],[114.89894,1.79779],[114.90073,1.79784],[114.90318,1.79788],[114.90358,1.79817],[114.9037,1.7986],[114.9036,1.79929],[114.90325,1.79989],[114.90296,1.80034],[114.90291,1.80067],[114.90301,1.80101],[114.90309,1.80136],[114.90327,1.80168],[114.90374,1.80189],[114.90423,1.80198],[114.90491,1.80202],[114.90559,1.80119],[114.90504,1.7959],[114.90191,1.79518],[114.90213,1.79314],[114.90285,1.7914],[114.90232,1.7914],[114.90179,1.79135],[114.90168,1.79116]]]]},"properties":{"kdprov":"65","kdkab":"01","kdkec":"030","kddesa":"004","kdsls":"0001","idsls":"65010300040001","nmprov":"KALIMANTAN UTARA","nmkab":"MALINAU","nmkec":"KAYAN HULU","nmdesa":"LONG NAWANG","nmsls":"RT 01"}},{"type":"Feature","geometry":{"type":"MultiPolygon","coordinates":[[[[114.90168,1.79116],[114.90179,1.79135],[114.90232,1.7914],[114.90285,1.7914],[114.90326,1.79075],[114.90362,1.79023],[114.90388,1.7898],[114.90335,1.78945],[114.90311,1.78982],[114.90287,1.79003],[114.90271,1.78992],[114.90252,1.78979],[114.90238,1.7897],[114.90221,1.78951],[114.90212,1.78936],[114.90202,1.78925],[114.90192,1.78916],[114.90179,1.78902],[114.90166,1.78903],[114.90153,1.78901],[114.90138,1.78898],[114.90134,1.78916],[114.90142,1.78919],[114.90132,1.79011],[114.90158,1.79014],[114.90156,1.79031],[114.90167,1.79031],[114.90172,1.79045],[114.90177,1.79068],[114.90177,1.79085],[114.90171,1.79107],[114.90168,1.79116]]]]},"properties":{"kdprov":"65","kdkab":"01","kdkec":"030","kddesa":"004","kdsls":"0004","idsls":"65010300040004","nmprov":"KALIMANTAN UTARA","nmkab":"MALINAU","nmkec":"KAYAN HULU","nmdesa":"LONG NAWANG","nmsls":"RT 04"}},{"type":"Feature","geometry":{"type":"MultiPolygon","coordinates":[[[[114.90173,1.78743],[114.90099,1.78724],[114.90061,1.78731],[114.90017,1.7879],[114.90003,1.7882],[114.89974,1.78889],[114.89968,1.78936],[114.89967,1.78949],[114.89965,1.78964],[114.89975,1.79025],[114.90066,1.79018],[114.90078,1.79019],[114.90093,1.79018],[114.90093,1.79013],[114.90109,1.79012],[114.9011,1.79007],[114.90112,1.79001],[114.90126,1.79001],[114.90126,1.7901],[114.90132,1.79011],[114.90142,1.78919],[114.90134,1.78916],[114.90138,1.78898],[114.90153,1.78901],[114.90166,1.78903],[114.90179,1.78902],[114.90192,1.78862],[114.90193,1.78863],[114.90191,1.78845],[114.9016,1.78826],[114.90173,1.78743]]]]},"properties":{"kdprov":"65","kdkab":"01","kdkec":"030","kddesa":"004","kdsls":"0003","idsls":"65010300040003","nmprov":"KALIMANTAN UTARA","nmkab":"MALINAU","nmkec":"KAYAN HULU","nmdesa":"LONG NAWANG","nmsls":"RT 03"}},{"type":"Feature","geometry":{"type":"MultiPolygon","coordinates":[[[[114.89693,1.7766],[114.8967,1.77647],[114.89663,1.77645],[114.89655,1.7763],[114.89656,1.77623],[114.89668,1.77613],[114.89663,1.7756],[114.89649,1.77499],[114.89629,1.77417],[114.8959,1.77426],[114.89472,1.77454],[114.89517,1.77554],[114.89558,1.77617],[114.896,1.77662],[114.89621,1.7768],[114.89644,1.77685],[114.89668,1.77674],[114.89693,1.7766]]]]},"properties":{"kdprov":"65","kdkab":"01","kdkec":"030","kddesa":"001","kdsls":"0001","idsls":"65010300010001","nmprov":"KALIMANTAN UTARA","nmkab":"MALINAU","nmkec":"KAYAN HULU","nmdesa":"LONG TEMUYAT","nmsls":"RT 01"}}]}