{"type":"FeatureCollection","features":[{"type":"Feature","geometry":{"type":"MultiPolygon","coordinates":[[[[115.85941,2.95512],[115.85955,2.9542],[115.85907,2.95415],[115.85884,2.95514],[115.85801,2.95531],[115.8576,2.95513],[115.85745,2.95502],[115.85744,2.95498],[115.85739,2.95487],[115.85728,2.95476],[115.85685,2.95446],[115.85634,2.95497],[115.8559,2.95639],[115.85826,2.95729],[115.8584,2.95699],[115.85981,2.95515],[115.85941,2.95512]]]]},"properties":{"kdprov":"65","kdkab":"01","kdkec":"060","kddesa":"004","kdsls":"0002","idsls":"65010600040002","nmprov":"KALIMANTAN UTARA","nmkab":"MALINAU","nmkec":"BAHAU HULU","nmdesa":"LONG KEMUAT","nmsls":"RT 002"}},{"type":"Feature","geometry":{"type":"MultiPolygon","coordinates":[[[[115.96855,2.94685],[115.96724,2.94567],[115.96519,2.94533],[115.96381,2.94464],[115.96316,2.94356],[115.96256,2.94258],[115.96256,2.94258],[115.96256,2.94007],[115.96256,2.94007],[115.96179,2.93832],[115.96169,2.93838],[115.96082,2.93872],[115.95977,2.93879],[115.95872,2.93869],[115.9577,2.93824],[115.95682,2.93804],[115.95614,2.93764],[115.95488,2.93717],[115.95313,2.93625],[115.9521,2.93587],[115.95141,2.93542],[115.95033,2.93502],[115.94967,2.93454],[115.94929,2.93383],[115.94923,2.9335],[115.9486,2.93386],[115.9472,2.9342],[115.94553,2.9338],[115.94376,2.93411],[115.94326,2.93391],[115.9425,2.93391],[115.94184,2.93349],[115.94077,2.93327],[115.93982,2.93299],[115.93889,2.93298],[115.93812,2.93281],[115.93697,2.93321],[115.93595,2.93332],[115.9353,2.93375],[115.93426,2.93479],[115.93381,2.93606],[115.93373,2.93698],[115.93369,2.93722],[115.93343,2.93873],[115.93278,2.94044],[115.9325,2.94117],[115.93205,2.94242],[115.93137,2.94369],[115.9307,2.94467],[115.92488,2.94493],[115.92131,2.94404],[115.91864,2.94226],[115.9124,2.94197],[115.91032,2.94256],[115.90765,2.94582],[115.90349,2.94731],[115.89992,2.94671],[115.89636,2.94464],[115.88863,2.94345],[115.88388,2.94404],[115.87966,2.94334],[115.86817,2.94411],[115.86047,2.94555],[115.85621,2.94704],[115.84734,2.9492],[115.84258,2.94998],[115.83753,2.94998],[115.83397,2.94968],[115.82684,2.9479],[115.82416,2.94849],[115.81911,2.95205],[115.81703,2.95443],[115.81406,2.96184],[115.80871,2.96719],[115.80307,2.96867],[115.79832,2.96778],[115.79326,2.96303],[115.78762,2.95561],[115.78584,2.95235],[115.78049,2.9476],[115.77841,2.94553],[115.76818,2.94522],[115.76678,2.94504],[115.76627,2.94515],[115.76616,2.94518],[115.76611,2.94519],[115.76587,2.94525],[115.76557,2.94532],[115.7644,2.94516],[115.76394,2.94509],[115.76418,2.94698],[115.76418,2.94698],[115.76418,2.94703],[115.76419,2.94712],[115.76512,2.95461],[115.76619,2.96721],[115.77436,2.97379],[115.77652,2.98858],[115.77704,3.00556],[115.78139,3.01378],[115.7852,3.02145],[115.78409,3.02589],[115.78163,3.02497],[115.78034,3.0258],[115.77879,3.02332],[115.7766,3.02478],[115.77596,3.02405],[115.77404,3.02506],[115.77303,3.02404],[115.77166,3.02404],[115.76983,3.02487],[115.76956,3.02781],[115.77056,3.0302],[115.77266,3.03094],[115.77504,3.03213],[115.77768,3.03581],[115.77768,3.03838],[115.77631,3.04004],[115.77612,3.04178],[115.77575,3.04362],[115.7758,3.04391],[115.77603,3.04537],[115.77668,3.04681],[115.77689,3.04689],[115.7774,3.04748],[115.7777,3.04823],[115.77797,3.04836],[115.77843,3.04847],[115.77893,3.04834],[115.78305,3.04946],[115.78828,3.05207],[115.79232,3.05136],[115.79541,3.04946],[115.79612,3.0459],[115.79802,3.04068],[115.8023,3.03712],[115.80539,3.03594],[115.81062,3.03451],[115.81941,3.03309],[115.82536,3.03309],[115.82749,3.03427],[115.82821,3.03641],[115.82797,3.03973],[115.82892,3.04306],[115.83177,3.04377],[115.837,3.04092],[115.84223,3.0357],[115.84889,3.03356],[115.85501,3.03356],[115.86053,3.03356],[115.86742,3.03641],[115.87099,3.03736],[115.87598,3.03926],[115.88169,3.03926],[115.89143,3.03902],[115.89856,3.04116],[115.9026,3.04709],[115.90854,3.05753],[115.91068,3.06418],[115.91482,3.09863],[115.91505,3.09954],[115.91509,3.10059],[115.91558,3.10196],[115.91568,3.103],[115.91583,3.1039],[115.91628,3.10523],[115.91628,3.10617],[115.91694,3.10793],[115.9178,3.10983],[115.91803,3.11017],[115.91879,3.11237],[115.91975,3.114],[115.91993,3.11443],[115.92006,3.1148],[115.92055,3.1158],[115.92129,3.11782],[115.92155,3.11814],[115.92231,3.11987],[115.92241,3.12066],[115.92269,3.12145],[115.92267,3.12207],[115.92271,3.12437],[115.92217,3.1294],[115.92174,3.12948],[115.92177,3.1303],[115.92206,3.13181],[115.92253,3.13341],[115.923,3.13487],[115.92332,3.136],[115.9234,3.13706],[115.92385,3.13886],[115.92416,3.13886],[115.92454,3.13915],[115.92491,3.14085],[115.9255,3.14269],[115.92632,3.14621],[115.92717,3.14907],[115.92758,3.15076],[115.928,3.15288],[115.92844,3.15443],[115.92889,3.15574],[115.92945,3.15726],[115.92981,3.15813],[115.93021,3.16003],[115.93056,3.16175],[115.93016,3.1628],[115.92944,3.16653],[115.93015,3.17055],[115.93081,3.17191],[115.93272,3.17587],[115.93385,3.18018],[115.93456,3.18607],[115.93427,3.19123],[115.93398,3.19597],[115.93391,3.19788],[115.93384,3.19971],[115.94082,3.20608],[115.94127,3.20518],[115.94314,3.20509],[115.94361,3.20422],[115.94436,3.20299],[115.94664,3.20134],[115.948,3.20118],[115.94958,3.20091],[115.95087,3.20051],[115.95221,3.19994],[115.95369,3.19882],[115.95484,3.19882],[115.95612,3.19914],[115.95681,3.19857],[115.95749,3.19748],[115.95775,3.1962],[115.95786,3.19491],[115.95849,3.19334],[115.96015,3.1924],[115.96232,3.19266],[115.96383,3.19194],[115.96575,3.19019],[115.96641,3.18801],[115.96684,3.1866],[115.9673,3.18508],[115.96643,3.18238],[115.96483,3.18052],[115.96369,3.17938],[115.96235,3.17838],[115.95981,3.17814],[115.95858,3.17852],[115.95683,3.17855],[115.95636,3.17794],[115.95642,3.1768],[115.95647,3.17589],[115.95651,3.17504],[115.95657,3.17401],[115.95655,3.1732],[115.95655,3.17319],[115.95636,3.17222],[115.95618,3.17135],[115.95601,3.17049],[115.95548,3.16784],[115.95541,3.16704],[115.95541,3.16496],[115.95556,3.16342],[115.95603,3.1619],[115.9566,3.16008],[115.95658,3.15919],[115.95715,3.15819],[115.95829,3.15797],[115.96012,3.15799],[115.96158,3.15705],[115.96223,3.15578],[115.96278,3.15413],[115.96389,3.15237],[115.96492,3.15111],[115.9656,3.14982],[115.96606,3.14845],[115.96669,3.14737],[115.96754,3.14568],[115.96754,3.14414],[115.96783,3.14366],[115.96851,3.14252],[115.96864,3.1408],[115.9682,3.13956],[115.96773,3.1382],[115.96707,3.13629],[115.96695,3.13549],[115.96667,3.1335],[115.96638,3.13148],[115.96606,3.12944],[115.96509,3.12847],[115.96539,3.12725],[115.96525,3.12676],[115.96496,3.12583],[115.96374,3.12384],[115.96329,3.12284],[115.96314,3.12044],[115.96372,3.11901],[115.96358,3.11881],[115.96292,3.11787],[115.96274,3.11659],[115.96186,3.11545],[115.96226,3.11345],[115.96282,3.11325],[115.96362,3.11261],[115.96426,3.11168],[115.96421,3.11148],[115.96406,3.11082],[115.96392,3.10931],[115.96402,3.10794],[115.96447,3.10689],[115.96492,3.10583],[115.96513,3.10505],[115.96524,3.10462],[115.96517,3.10354],[115.96491,3.10315],[115.96472,3.10285],[115.96432,3.10211],[115.96466,3.1012],[115.96481,3.10068],[115.96497,3.10016],[115.96479,3.09991],[115.96414,3.09906],[115.96354,3.09794],[115.96369,3.09683],[115.96421,3.09589],[115.96409,3.09532],[115.96391,3.09445],[115.96391,3.09445],[115.96389,3.09436],[115.96392,3.09283],[115.96389,3.0926],[115.96366,3.09066],[115.9639,3.08946],[115.96361,3.08905],[115.96306,3.08826],[115.96232,3.08735],[115.96277,3.08652],[115.96293,3.0851],[115.96217,3.08427],[115.96247,3.08303],[115.9628,3.08228],[115.96326,3.08124],[115.96342,3.08018],[115.96342,3.07878],[115.96378,3.07738],[115.96417,3.07614],[115.9654,3.07527],[115.96606,3.0741],[115.9653,3.07257],[115.9648,3.07178],[115.96403,3.07056],[115.96326,3.07039],[115.96252,3.06956],[115.96175,3.06836],[115.96123,3.06733],[115.96104,3.0659],[115.95986,3.06525],[115.95979,3.06353],[115.95979,3.06191],[115.96097,3.0603],[115.96115,3.05928],[115.96137,3.05801],[115.96199,3.05567],[115.96046,3.05363],[115.95783,3.04976],[115.9562,3.04664],[115.95617,3.04656],[115.95532,3.04496],[115.95391,3.04328],[115.95312,3.04235],[115.95181,3.04079],[115.9493,3.03781],[115.95041,3.03622],[115.95097,3.03455],[115.95097,3.03234],[115.95097,3.03091],[115.95273,3.02887],[115.95406,3.02734],[115.95573,3.02591],[115.95748,3.02486],[115.95881,3.02481],[115.96017,3.02543],[115.96186,3.02436],[115.96278,3.02331],[115.96382,3.02211],[115.96527,3.02277],[115.96643,3.0233],[115.9683,3.02236],[115.97033,3.02169],[115.97191,3.02187],[115.97356,3.0209],[115.97595,3.01949],[115.97535,3.01803],[115.9748,3.0167],[115.97429,3.01544],[115.97462,3.01276],[115.97458,3.01079],[115.9742,3.009],[115.97324,3.00739],[115.97205,3.00602],[115.97072,3.0045],[115.97029,3.00256],[115.96977,3.00022],[115.96946,2.99794],[115.9688,2.99611],[115.96811,2.99536],[115.96667,2.99379],[115.96632,2.99135],[115.96608,2.98966],[115.96603,2.98778],[115.9662,2.98523],[115.96685,2.9834],[115.96758,2.9811],[115.96816,2.97848],[115.96792,2.97736],[115.96768,2.97619],[115.96854,2.97478],[115.96876,2.97268],[115.9681,2.97071],[115.96786,2.96714],[115.96733,2.96563],[115.96656,2.96243],[115.96691,2.96063],[115.96766,2.95958],[115.96837,2.95858],[115.96837,2.95654],[115.96722,2.95357],[115.96814,2.95094],[115.96922,2.94876],[115.96956,2.94807],[115.96945,2.94794],[115.96855,2.94685]],[[115.85736,2.95394],[115.85864,2.95322],[115.85928,2.95248],[115.86027,2.95296],[115.86007,2.95334],[115.85981,2.95515],[115.8584,2.95699],[115.85826,2.95729],[115.8559,2.95639],[115.85634,2.95497],[115.85685,2.95446],[115.85736,2.95394]]]]},"properties":{"kdprov":"65","kdkab":"01","kdkec":"060","kddesa":"004","kdsls":"2001","idsls":"65010600042001","nmprov":"KALIMANTAN UTARA","nmkab":"MALINAU","nmkec":"BAHAU HULU","nmdesa":"LONG KEMUAT","nmsls":"HUTAN"}},{"type":"Feature","geometry":{"type":"MultiPolygon","coordinates":[[[[115.85728,2.95476],[115.85739,2.95487],[115.85744,2.95498],[115.85745,2.95502],[115.8576,2.95513],[115.85801,2.95531],[115.85884,2.95514],[115.85907,2.95415],[115.85955,2.9542],[115.85941,2.95512],[115.85981,2.95515],[115.86007,2.95334],[115.86027,2.95296],[115.85928,2.95248],[115.85864,2.95322],[115.85736,2.95394],[115.85685,2.95446],[115.85728,2.95476]]]]},"properties":{"kdprov":"65","kdkab":"01","kdkec":"060","kddesa":"004","kdsls":"0001","idsls":"65010600040001","nmprov":"KALIMANTAN UTARA","nmkab":"MALINAU","nmkec":"BAHAU HULU","nmdesa":"LONG KEMUAT","nmsls":"RT 001"}},{"type":"Feature","geometry":{"type":"MultiPolygon","coordinates":[[[[115.80198,2.7719],[115.80268,2.77185],[115.80351,2.77078],[115.80379,2.76999],[115.80242,2.76991],[115.80226,2.77091],[115.80198,2.7719]]]]},"properties":{"kdprov":"65","kdkab":"01","kdkec":"060","kddesa":"001","kdsls":"0002","idsls":"65010600010002","nmprov":"KALIMANTAN UTARA","nmkab":"MALINAU","nmkec":"BAHAU HULU","nmdesa":"LONG ULI","nmsls":"RT 002"}},{"type":"Feature","geometry":{"type":"MultiPolygon","coordinates":[[[[115.81672,3.1029],[115.81741,3.1057],[115.81954,3.10521],[115.81932,3.1024],[115.81926,3.10206],[115.8186,3.10219],[115.81672,3.1029]]]]},"properties":{"kdprov":"65","kdkab":"01","kdkec":"060","kddesa":"006","kdsls":"0001","idsls":"65010600060001","nmprov":"KALIMANTAN UTARA","nmkab":"MALINAU","nmkec":"BAHAU HULU","nmdesa":"APAU PING","nmsls":"RT 001"}},{"type":"Feature","geometry":{"type":"MultiPolygon","coordinates":[[[[115.84182,2.84139],[115.84187,2.8412],[115.84179,2.84104],[115.84108,2.83975],[115.8406,2.83995],[115.83935,2.84041],[115.83898,2.8406],[115.83875,2.84072],[115.83866,2.84085],[115.83843,2.84122],[115.83846,2.84162],[115.83851,2.84197],[115.83871,2.84236],[115.83886,2.8426],[115.83903,2.84277],[115.84009,2.84204],[115.84017,2.84194],[115.84028,2.84191],[115.84043,2.84186],[115.84059,2.8419],[115.84085,2.84191],[115.84102,2.84187],[115.84117,2.8418],[115.84135,2.84168],[115.84158,2.84147],[115.84169,2.84138],[115.84182,2.84139]]]]},"properties":{"kdprov":"65","kdkab":"01","kdkec":"060","kddesa":"002","kdsls":"0001","idsls":"65010600020001","nmprov":"KALIMANTAN UTARA","nmkab":"MALINAU","nmkec":"BAHAU HULU","nmdesa":"LONG TEBULO","nmsls":"RT 001"}},{"type":"Feature","geometry":{"type":"MultiPolygon","coordinates":[[[[115.80379,2.76999],[115.80351,2.77078],[115.80268,2.77185],[115.80198,2.7719],[115.80177,2.77266],[115.80216,2.77417],[115.803,2.77497],[115.80384,2.77527],[115.80515,2.77408],[115.80413,2.77001],[115.80379,2.76999]]]]},"properties":{"kdprov":"65","kdkab":"01","kdkec":"060","kddesa":"001","kdsls":"0001","idsls":"65010600010001","nmprov":"KALIMANTAN UTARA","nmkab":"MALINAU","nmkec":"BAHAU HULU","nmdesa":"LONG ULI","nmsls":"RT 001"}},{"type":"Feature","geometry":{"type":"MultiPolygon","coordinates":[[[[115.8965,3.33609],[115.89055,3.32847],[115.88841,3.32473],[115.88399,3.31769],[115.87942,3.3118],[115.87814,3.31093],[115.87643,3.30906],[115.87543,3.30677],[115.87458,3.30346],[115.87463,3.30305],[115.87464,3.30296],[115.87475,3.30222],[115.87487,3.3013],[115.87508,3.2998],[115.87651,3.29794],[115.8781,3.2955],[115.8781,3.2955],[115.87263,3.28217],[115.87156,3.27363],[115.87156,3.26615],[115.86585,3.24337],[115.85979,3.23092],[115.85302,3.22344],[115.84696,3.21525],[115.84553,3.19745],[115.85337,3.17681],[115.85266,3.15901],[115.8491,3.12555],[115.83863,3.11011],[115.83876,3.10926],[115.83862,3.10638],[115.83839,3.1039],[115.83769,3.1024],[115.83652,3.10083],[115.83561,3.09959],[115.83407,3.09859],[115.83283,3.09772],[115.83111,3.09583],[115.83057,3.09578],[115.83007,3.09591],[115.82957,3.09631],[115.82903,3.09663],[115.82861,3.0967],[115.82826,3.09651],[115.82818,3.0962],[115.82819,3.09578],[115.82804,3.09556],[115.82772,3.09549],[115.82722,3.09566],[115.82674,3.09608],[115.82607,3.09695],[115.82543,3.0978],[115.82516,3.09846],[115.82492,3.0988],[115.82418,3.09921],[115.82333,3.09962],[115.82263,3.09979],[115.82181,3.09972],[115.82137,3.0997],[115.82088,3.09959],[115.82061,3.09956],[115.82027,3.09971],[115.82013,3.09983],[115.8197,3.10018],[115.81942,3.10022],[115.8192,3.10005],[115.81908,3.09978],[115.81907,3.0995],[115.81912,3.09896],[115.81905,3.09846],[115.81872,3.09799],[115.81788,3.09779],[115.81718,3.0984],[115.81736,3.09919],[115.81818,3.10027],[115.81902,3.10139],[115.81923,3.10195],[115.81926,3.10206],[115.81932,3.1024],[115.81954,3.10521],[115.81741,3.1057],[115.81672,3.1029],[115.81588,3.09947],[115.77351,3.11024],[115.76638,3.11736],[115.75319,3.13943],[115.7425,3.16542],[115.73786,3.18211],[115.7366,3.18371],[115.73591,3.18693],[115.73448,3.18842],[115.73089,3.18658],[115.72895,3.18795],[115.72563,3.19254],[115.71941,3.19396],[115.71724,3.19499],[115.71658,3.19732],[115.71623,3.1991],[115.71568,3.19976],[115.71486,3.20076],[115.70898,3.20058],[115.70624,3.20293],[115.70378,3.20597],[115.70046,3.20872],[115.69635,3.21106],[115.69181,3.21332],[115.68859,3.21472],[115.68496,3.2163],[115.68233,3.2171],[115.67856,3.21899],[115.67268,3.22099],[115.66982,3.22127],[115.66748,3.22087],[115.66634,3.22127],[115.66309,3.21931],[115.6597,3.21245],[115.65776,3.21124],[115.65028,3.21095],[115.64823,3.20991],[115.64555,3.20578],[115.64262,3.20001],[115.642,3.19731],[115.64074,3.19335],[115.6367,3.1868],[115.63411,3.18453],[115.63182,3.18367],[115.62994,3.1824],[115.62743,3.17953],[115.62675,3.177],[115.62482,3.17402],[115.62328,3.16897],[115.62354,3.16613],[115.62526,3.16303],[115.6268,3.16102],[115.62818,3.15793],[115.62675,3.15391],[115.62707,3.15055],[115.62548,3.14946],[115.62217,3.14802],[115.61863,3.14469],[115.61556,3.13487],[115.61268,3.13266],[115.61143,3.1283],[115.61286,3.1256],[115.61247,3.12342],[115.60864,3.12336],[115.60648,3.12089],[115.6042,3.11658],[115.6038,3.1163],[115.60297,3.11449],[115.60201,3.11087],[115.60099,3.10835],[115.59802,3.10702],[115.59705,3.10536],[115.59671,3.10151],[115.59606,3.09701],[115.59442,3.09029],[115.59276,3.08765],[115.59031,3.08587],[115.58838,3.0834],[115.58681,3.07952],[115.58522,3.07568],[115.58294,3.06902],[115.58215,3.06552],[115.58207,3.06279],[115.5815,3.06095],[115.58025,3.05895],[115.57625,3.05676],[115.57369,3.05567],[115.57032,3.05394],[115.5685,3.05359],[115.56582,3.05181],[115.5649,3.05043],[115.56399,3.05003],[115.56285,3.0471],[115.56211,3.04481],[115.56109,3.04153],[115.56007,3.03872],[115.55739,3.03499],[115.5531,3.03229],[115.54436,3.02796],[115.53957,3.02638],[115.52832,3.02054],[115.52487,3.01583],[115.51873,3.00906],[115.51806,3.00831],[115.51786,3.00809],[115.51618,3.00686],[115.51557,3.00641],[115.51525,3.00704],[115.51344,3.00727],[115.51343,3.00727],[115.51206,3.00776],[115.51247,3.00924],[115.51247,3.00932],[115.51254,3.01066],[115.51154,3.01228],[115.51031,3.01401],[115.51026,3.01407],[115.5093,3.0168],[115.50935,3.0172],[115.50952,3.01845],[115.50973,3.02004],[115.50748,3.02093],[115.50658,3.02264],[115.50639,3.02299],[115.50547,3.02464],[115.50502,3.02546],[115.50492,3.02703],[115.50468,3.02836],[115.5044,3.02989],[115.50249,3.03127],[115.50153,3.0314],[115.50114,3.03146],[115.50083,3.0315],[115.50043,3.03168],[115.50001,3.03186],[115.49996,3.03188],[115.5,3.03194],[115.50053,3.03288],[115.50052,3.03289],[115.50047,3.03339],[115.50042,3.03345],[115.5004,3.03348],[115.5,3.034],[115.5,3.03424],[115.5,3.03453],[115.5,3.03484],[115.50015,3.03563],[115.50043,3.03562],[115.50126,3.0356],[115.50133,3.03571],[115.5018,3.03647],[115.5021,3.03708],[115.5023,3.03748],[115.50234,3.0384],[115.50258,3.03858],[115.50282,3.03876],[115.5034,3.03895],[115.50366,3.03904],[115.50394,3.03906],[115.50407,3.03907],[115.50434,3.03908],[115.50594,3.03987],[115.5064,3.03947],[115.50722,3.03981],[115.50687,3.0404],[115.50694,3.04085],[115.50738,3.04169],[115.50799,3.04259],[115.50829,3.04335],[115.50857,3.04383],[115.5087,3.0454],[115.50888,3.04588],[115.50955,3.04617],[115.50959,3.04694],[115.50971,3.04773],[115.51024,3.04917],[115.51122,3.05004],[115.5115,3.05062],[115.51203,3.05138],[115.51278,3.05156],[115.51389,3.05271],[115.51433,3.05303],[115.51478,3.05375],[115.51599,3.055],[115.51673,3.05578],[115.5172,3.05678],[115.51717,3.05746],[115.51698,3.05786],[115.5172,3.05852],[115.51732,3.05925],[115.51733,3.05991],[115.51753,3.06057],[115.51774,3.06181],[115.51738,3.06317],[115.51739,3.06409],[115.51735,3.06479],[115.5176,3.06528],[115.51779,3.06644],[115.51776,3.06753],[115.51776,3.06827],[115.51799,3.06894],[115.5168,3.06931],[115.51709,3.0701],[115.51707,3.07091],[115.51674,3.0715],[115.51606,3.07247],[115.51541,3.07265],[115.51474,3.07307],[115.51424,3.07358],[115.51394,3.0745],[115.51403,3.07502],[115.51419,3.07572],[115.51435,3.07632],[115.51445,3.07686],[115.51436,3.07735],[115.51454,3.07784],[115.51452,3.07832],[115.51443,3.07922],[115.51463,3.07996],[115.5145,3.08067],[115.51416,3.08136],[115.5136,3.08191],[115.51287,3.08259],[115.51234,3.08314],[115.51216,3.08371],[115.51257,3.08411],[115.51285,3.08489],[115.51285,3.08558],[115.5133,3.08663],[115.51383,3.08678],[115.51418,3.08792],[115.51426,3.08853],[115.51373,3.08841],[115.51301,3.08866],[115.51227,3.08924],[115.51217,3.09014],[115.51194,3.0911],[115.51196,3.09215],[115.5118,3.0933],[115.51263,3.09394],[115.51304,3.09508],[115.51419,3.09581],[115.51452,3.09628],[115.51478,3.09739],[115.51554,3.09839],[115.51573,3.09907],[115.51597,3.10021],[115.51614,3.10071],[115.51673,3.10141],[115.51631,3.10207],[115.51643,3.10286],[115.51638,3.1037],[115.51617,3.10461],[115.51552,3.10556],[115.51529,3.1061],[115.51503,3.1071],[115.51491,3.10781],[115.51516,3.10867],[115.5156,3.10872],[115.51641,3.10916],[115.51708,3.10987],[115.5171,3.11084],[115.51696,3.11186],[115.51737,3.11261],[115.51796,3.11316],[115.51895,3.11344],[115.51958,3.11389],[115.52023,3.11461],[115.52125,3.11429],[115.52223,3.11432],[115.52277,3.1145],[115.52356,3.1149],[115.5242,3.11519],[115.52461,3.11569],[115.52531,3.11595],[115.52622,3.11586],[115.5264,3.11625],[115.52698,3.11657],[115.5279,3.11692],[115.52811,3.11764],[115.52845,3.11813],[115.52878,3.11949],[115.52911,3.1202],[115.52943,3.12113],[115.52979,3.12174],[115.53005,3.12276],[115.53054,3.12287],[115.53053,3.1233],[115.53026,3.12401],[115.53019,3.1247],[115.53031,3.12563],[115.53049,3.1262],[115.53095,3.12662],[115.53106,3.12727],[115.53073,3.12819],[115.53115,3.12903],[115.53126,3.12957],[115.53152,3.13027],[115.53146,3.13114],[115.5308,3.13177],[115.53052,3.13237],[115.53111,3.13308],[115.53122,3.13378],[115.53214,3.13448],[115.53275,3.13495],[115.53293,3.13514],[115.5331,3.13578],[115.53349,3.13681],[115.53448,3.13717],[115.53458,3.13757],[115.53505,3.13967],[115.53523,3.14017],[115.53568,3.14101],[115.53582,3.14157],[115.53627,3.14217],[115.53672,3.14214],[115.53721,3.14273],[115.53791,3.14318],[115.53853,3.14343],[115.53915,3.1436],[115.54025,3.14357],[115.54062,3.1439],[115.54158,3.1432],[115.54222,3.14252],[115.54278,3.14221],[115.54331,3.14167],[115.54395,3.14104],[115.54471,3.14094],[115.54544,3.14107],[115.54727,3.14123],[115.548,3.14131],[115.54885,3.14136],[115.54991,3.14073],[115.55024,3.14094],[115.55063,3.14127],[115.5511,3.14166],[115.55193,3.14154],[115.55237,3.14161],[115.55298,3.14187],[115.55357,3.14224],[115.55405,3.14311],[115.55418,3.14386],[115.55423,3.14474],[115.55475,3.14476],[115.55493,3.14536],[115.55487,3.14607],[115.55521,3.14673],[115.5559,3.14754],[115.55649,3.14849],[115.55679,3.14865],[115.55812,3.14865],[115.55918,3.14931],[115.56085,3.14989],[115.56172,3.14989],[115.56322,3.14978],[115.5642,3.15],[115.56379,3.15114],[115.56303,3.1517],[115.56264,3.15318],[115.56188,3.1543],[115.56224,3.15472],[115.56183,3.15603],[115.56188,3.15714],[115.56282,3.15745],[115.56301,3.158],[115.5634,3.15823],[115.56334,3.15992],[115.56465,3.16091],[115.56561,3.16144],[115.56548,3.16164],[115.56459,3.16296],[115.5644,3.16338],[115.56402,3.16477],[115.56363,3.16547],[115.56369,3.1672],[115.56343,3.16795],[115.56331,3.16863],[115.56292,3.17012],[115.56239,3.17023],[115.56138,3.17097],[115.56051,3.17167],[115.55906,3.1722],[115.55857,3.17223],[115.55735,3.17157],[115.55659,3.1714],[115.55549,3.17133],[115.55502,3.1716],[115.55397,3.17276],[115.55325,3.1735],[115.55284,3.17358],[115.55251,3.17433],[115.55213,3.17492],[115.55093,3.17604],[115.55008,3.1773],[115.54945,3.17771],[115.5489,3.17832],[115.54813,3.17884],[115.54736,3.17933],[115.5469,3.17944],[115.54631,3.17941],[115.54557,3.17995],[115.54552,3.18082],[115.54439,3.18111],[115.5442,3.18137],[115.54377,3.18172],[115.54252,3.18168],[115.54162,3.1815],[115.54027,3.18078],[115.53922,3.18128],[115.53873,3.18205],[115.53831,3.18211],[115.53749,3.18265],[115.53646,3.18294],[115.53533,3.18367],[115.53385,3.18361],[115.5334,3.18314],[115.53262,3.18248],[115.53195,3.18209],[115.53074,3.18277],[115.52906,3.18324],[115.52874,3.1843],[115.52868,3.18504],[115.5276,3.18617],[115.52723,3.18641],[115.52579,3.18711],[115.52444,3.18766],[115.52355,3.18771],[115.52334,3.18841],[115.52255,3.18955],[115.52192,3.19048],[115.52123,3.19121],[115.52141,3.19177],[115.52136,3.19248],[115.5215,3.19305],[115.52109,3.19394],[115.52035,3.19503],[115.52008,3.19616],[115.51931,3.1969],[115.51999,3.19823],[115.52039,3.19931],[115.51985,3.2007],[115.51906,3.20161],[115.51885,3.2019],[115.5186,3.20291],[115.51914,3.20425],[115.51926,3.20533],[115.51896,3.20627],[115.51879,3.20695],[115.51901,3.20773],[115.51899,3.20858],[115.51928,3.20945],[115.5198,3.21024],[115.52052,3.21073],[115.52091,3.21157],[115.52061,3.21281],[115.52012,3.21321],[115.5193,3.21361],[115.5192,3.21442],[115.51831,3.21552],[115.51825,3.21733],[115.51829,3.21844],[115.51807,3.21991],[115.5173,3.22122],[115.51681,3.22172],[115.51699,3.22255],[115.51712,3.22324],[115.51694,3.22367],[115.51751,3.22465],[115.51786,3.22489],[115.51866,3.22548],[115.51927,3.22603],[115.51979,3.22591],[115.521,3.22571],[115.52132,3.22545],[115.52202,3.22541],[115.52305,3.22528],[115.52356,3.22475],[115.52466,3.22474],[115.52551,3.225],[115.5263,3.22514],[115.52733,3.22481],[115.5282,3.22498],[115.52866,3.22497],[115.52968,3.22505],[115.53088,3.22553],[115.53212,3.22632],[115.53277,3.22648],[115.53319,3.22653],[115.53486,3.22618],[115.53497,3.22717],[115.53514,3.22759],[115.53554,3.22918],[115.53511,3.22969],[115.53442,3.23013],[115.53402,3.22998],[115.53339,3.23067],[115.53271,3.23085],[115.5324,3.23095],[115.53218,3.23125],[115.53276,3.23248],[115.53346,3.23456],[115.53303,3.23482],[115.53322,3.2357],[115.53264,3.23711],[115.53173,3.23703],[115.53118,3.23712],[115.53132,3.23813],[115.5313,3.23842],[115.5316,3.23871],[115.53192,3.23941],[115.53202,3.2397],[115.53207,3.23998],[115.53209,3.24073],[115.53069,3.24056],[115.52958,3.24094],[115.52897,3.24073],[115.52796,3.24115],[115.52753,3.24126],[115.52679,3.24092],[115.52642,3.24108],[115.52535,3.24135],[115.52512,3.24254],[115.52506,3.24284],[115.52551,3.24286],[115.52573,3.24357],[115.52551,3.24422],[115.52559,3.24494],[115.5253,3.24578],[115.52498,3.24604],[115.52517,3.24723],[115.52513,3.24792],[115.52461,3.24931],[115.52433,3.24983],[115.52444,3.25],[115.52477,3.2505],[115.52481,3.25129],[115.52497,3.252],[115.52538,3.25274],[115.52565,3.25318],[115.52597,3.25442],[115.52597,3.25464],[115.52552,3.25521],[115.52532,3.25587],[115.52553,3.25645],[115.52564,3.25722],[115.5258,3.25785],[115.52572,3.25859],[115.52581,3.2591],[115.52577,3.2598],[115.5259,3.26005],[115.52624,3.26034],[115.52633,3.26085],[115.52623,3.2611],[115.52681,3.26148],[115.52671,3.26217],[115.52682,3.26242],[115.52713,3.26258],[115.52718,3.26274],[115.52691,3.26358],[115.52719,3.26402],[115.5274,3.26487],[115.52744,3.26545],[115.52778,3.26562],[115.52787,3.26608],[115.52799,3.26645],[115.52808,3.26672],[115.52784,3.26697],[115.52772,3.26733],[115.52824,3.26784],[115.52847,3.26831],[115.5288,3.26844],[115.52866,3.26901],[115.52833,3.26912],[115.52832,3.26931],[115.52831,3.26967],[115.52813,3.26983],[115.52814,3.27056],[115.52822,3.27151],[115.52834,3.27213],[115.52865,3.27265],[115.52964,3.27276],[115.52973,3.27331],[115.52948,3.27372],[115.52895,3.27399],[115.52885,3.27445],[115.5291,3.27509],[115.5297,3.2759],[115.52977,3.27622],[115.53002,3.27645],[115.52983,3.2771],[115.53045,3.27727],[115.53056,3.2774],[115.53066,3.27767],[115.53093,3.27876],[115.53074,3.27911],[115.53086,3.2796],[115.53076,3.27992],[115.53107,3.28012],[115.53174,3.28101],[115.53215,3.28122],[115.53267,3.28103],[115.5337,3.28109],[115.53414,3.28106],[115.53446,3.2811],[115.53479,3.28097],[115.53513,3.28149],[115.53609,3.28169],[115.53637,3.2821],[115.53731,3.28286],[115.538,3.28292],[115.53816,3.28327],[115.53826,3.28423],[115.53865,3.28499],[115.53856,3.28529],[115.53837,3.28647],[115.53807,3.28744],[115.53787,3.28793],[115.53705,3.28852],[115.53704,3.28902],[115.53692,3.28986],[115.53656,3.29109],[115.53638,3.29146],[115.53583,3.29196],[115.53536,3.29201],[115.53516,3.29244],[115.53501,3.29332],[115.53453,3.29459],[115.53433,3.29511],[115.53404,3.29564],[115.53372,3.29607],[115.53345,3.29643],[115.53252,3.29737],[115.53208,3.29684],[115.53172,3.2969],[115.5317,3.2973],[115.53184,3.2979],[115.53195,3.29966],[115.53259,3.30014],[115.53279,3.30079],[115.53297,3.30135],[115.53303,3.3027],[115.53274,3.30363],[115.5328,3.30403],[115.53398,3.30489],[115.53412,3.30588],[115.5327,3.30662],[115.53242,3.30726],[115.5319,3.30788],[115.53187,3.30861],[115.53256,3.30915],[115.53225,3.31003],[115.53283,3.3108],[115.53285,3.31195],[115.53303,3.31305],[115.53329,3.31397],[115.53285,3.3145],[115.53319,3.31508],[115.53376,3.31577],[115.5339,3.31725],[115.53355,3.31802],[115.53395,3.31857],[115.53394,3.31902],[115.53526,3.32005],[115.5363,3.32015],[115.53699,3.31986],[115.53747,3.31973],[115.53824,3.32006],[115.53886,3.32002],[115.54012,3.31951],[115.54037,3.31931],[115.54127,3.3194],[115.54129,3.3196],[115.54127,3.32048],[115.54163,3.32124],[115.54226,3.32153],[115.54278,3.32216],[115.54311,3.32284],[115.54317,3.32298],[115.54365,3.32382],[115.54391,3.3244],[115.54403,3.32511],[115.544,3.32612],[115.54447,3.3268],[115.54472,3.32742],[115.5447,3.32794],[115.54489,3.32825],[115.54529,3.32816],[115.54563,3.32752],[115.54618,3.32753],[115.54683,3.32759],[115.54741,3.32747],[115.54779,3.32756],[115.54793,3.32724],[115.54839,3.32749],[115.5489,3.32769],[115.54934,3.32767],[115.5493,3.32822],[115.54961,3.32877],[115.54965,3.32912],[115.54948,3.32973],[115.54962,3.3306],[115.54963,3.3313],[115.54966,3.33249],[115.5496,3.33269],[115.54958,3.33275],[115.54971,3.33373],[115.54942,3.33446],[115.5495,3.33484],[115.54916,3.33511],[115.54877,3.33504],[115.54851,3.33514],[115.54843,3.33539],[115.54808,3.33565],[115.54829,3.33616],[115.54811,3.33641],[115.54826,3.33679],[115.5485,3.33701],[115.54862,3.33728],[115.54861,3.33803],[115.54828,3.3387],[115.54764,3.33927],[115.54727,3.33937],[115.54668,3.33952],[115.54654,3.33922],[115.54603,3.33933],[115.54641,3.34015],[115.54602,3.34083],[115.54591,3.34152],[115.54591,3.34191],[115.54555,3.34223],[115.54545,3.3426],[115.54559,3.34316],[115.54595,3.344],[115.54631,3.34464],[115.54653,3.34546],[115.5467,3.34623],[115.54669,3.34704],[115.54624,3.34807],[115.54616,3.34869],[115.54606,3.34905],[115.54596,3.34939],[115.54634,3.34999],[115.54597,3.35078],[115.54626,3.35218],[115.54601,3.35275],[115.54598,3.35354],[115.54618,3.35414],[115.54582,3.35503],[115.54549,3.35584],[115.5455,3.35621],[115.54549,3.35675],[115.54534,3.35702],[115.54437,3.3577],[115.54491,3.35842],[115.54482,3.35892],[115.54503,3.35973],[115.54529,3.36066],[115.54547,3.361],[115.54546,3.36162],[115.54557,3.36211],[115.5454,3.36259],[115.54531,3.3633],[115.54571,3.36374],[115.54627,3.36372],[115.54638,3.36409],[115.54677,3.36467],[115.54685,3.36507],[115.54701,3.3653],[115.54715,3.36577],[115.54742,3.36651],[115.54726,3.36719],[115.54735,3.36752],[115.54729,3.36794],[115.54758,3.36857],[115.54785,3.36908],[115.54835,3.36995],[115.54875,3.37065],[115.5491,3.37153],[115.54913,3.372],[115.54976,3.37325],[115.54982,3.37376],[115.54984,3.37416],[115.55011,3.37463],[115.55052,3.37471],[115.55072,3.37505],[115.5509,3.37546],[115.55103,3.37581],[115.55162,3.37579],[115.5519,3.37635],[115.55269,3.37663],[115.5529,3.37712],[115.55339,3.37739],[115.55417,3.37786],[115.55429,3.37891],[115.55482,3.37967],[115.55506,3.37991],[115.55566,3.37971],[115.55614,3.38008],[115.55639,3.37995],[115.55722,3.38048],[115.55731,3.3812],[115.55773,3.38176],[115.55805,3.38247],[115.55832,3.38304],[115.55868,3.38378],[115.55875,3.38461],[115.55902,3.38495],[115.5597,3.38556],[115.55991,3.38638],[115.55993,3.3867],[115.56016,3.38716],[115.56015,3.38786],[115.55996,3.38839],[115.55967,3.38858],[115.55981,3.38887],[115.55965,3.38948],[115.55918,3.38992],[115.55851,3.39054],[115.55834,3.39114],[115.55821,3.39176],[115.55779,3.392],[115.55734,3.39248],[115.55736,3.3929],[115.55843,3.39285],[115.55886,3.39297],[115.55929,3.39358],[115.56064,3.39386],[115.56141,3.394],[115.56189,3.39458],[115.56231,3.39466],[115.56268,3.39605],[115.56306,3.39652],[115.56333,3.39687],[115.56442,3.39678],[115.56479,3.39652],[115.56507,3.39677],[115.56503,3.39707],[115.56466,3.39737],[115.56439,3.3979],[115.56395,3.39819],[115.56382,3.39855],[115.56401,3.39903],[115.56404,3.39963],[115.5636,3.39976],[115.56354,3.4003],[115.56341,3.40068],[115.56382,3.40138],[115.56381,3.40194],[115.56411,3.40264],[115.56417,3.40369],[115.5647,3.40438],[115.56488,3.4048],[115.56549,3.40518],[115.56618,3.40575],[115.56675,3.40651],[115.5673,3.40664],[115.57368,3.39691],[115.57546,3.39048],[115.57867,3.38263],[115.58831,3.36764],[115.60223,3.35015],[115.60901,3.33909],[115.61865,3.33231],[115.63364,3.32231],[115.64649,3.31446],[115.65684,3.30982],[115.66398,3.30661],[115.66933,3.30268],[115.67754,3.30125],[115.68789,3.30232],[115.69539,3.30482],[115.70003,3.30875],[115.70502,3.31196],[115.70681,3.31696],[115.70788,3.32267],[115.70812,3.34004],[115.70907,3.34932],[115.71169,3.35384],[115.71502,3.35836],[115.72001,3.36003],[115.7281,3.3605],[115.73382,3.36169],[115.74524,3.3636],[115.75285,3.36479],[115.75809,3.36598],[115.7638,3.37073],[115.76832,3.37454],[115.77308,3.38192],[115.77617,3.38454],[115.7814,3.38644],[115.78902,3.3881],[115.79901,3.38787],[115.80686,3.38882],[115.81115,3.39096],[115.81614,3.39429],[115.81805,3.39738],[115.81948,3.40214],[115.81995,3.40524],[115.82033,3.40576],[115.82352,3.41023],[115.82876,3.41404],[115.83661,3.41594],[115.83886,3.41594],[115.84208,3.41594],[115.85112,3.4138],[115.85969,3.41166],[115.86683,3.41071],[115.87849,3.41832],[115.88087,3.42332],[115.88444,3.42975],[115.88634,3.43355],[115.89015,3.43855],[115.89514,3.44474],[115.89966,3.45283],[115.90252,3.45711],[115.90561,3.45973],[115.90966,3.46211],[115.91251,3.46282],[115.91418,3.46496],[115.91656,3.46782],[115.91941,3.46996],[115.92322,3.47162],[115.9275,3.47115],[115.93155,3.47091],[115.93512,3.47162],[115.93575,3.47194],[115.93584,3.47187],[115.9371,3.47147],[115.9382,3.47118],[115.93935,3.4707],[115.93976,3.46982],[115.94062,3.46863],[115.94131,3.46761],[115.94186,3.46668],[115.94236,3.46537],[115.94243,3.46459],[115.94312,3.46402],[115.94453,3.46378],[115.94626,3.46364],[115.94712,3.46301],[115.94754,3.46204],[115.94823,3.46102],[115.94914,3.46012],[115.94983,3.45917],[115.94945,3.45546],[115.94793,3.45292],[115.94785,3.4529],[115.9451,3.45244],[115.94404,3.45289],[115.94242,3.45349],[115.94022,3.45338],[115.93898,3.45127],[115.93801,3.44886],[115.93789,3.44724],[115.93754,3.44524],[115.93672,3.44344],[115.93542,3.44336],[115.93425,3.44393],[115.93276,3.44507],[115.93205,3.44387],[115.93149,3.44258],[115.93175,3.44085],[115.93176,3.43804],[115.93097,3.43665],[115.93136,3.43516],[115.93148,3.43382],[115.93136,3.43219],[115.93185,3.43071],[115.93199,3.42902],[115.93154,3.42691],[115.93131,3.4252],[115.93263,3.4225],[115.93139,3.42051],[115.93125,3.41829],[115.93239,3.41586],[115.93068,3.41386],[115.92861,3.41256],[115.92768,3.41315],[115.92637,3.41332],[115.92494,3.41352],[115.92388,3.41477],[115.92248,3.41386],[115.92031,3.41375],[115.919,3.41449],[115.918,3.41509],[115.91593,3.41554],[115.91437,3.41515],[115.91478,3.41432],[115.91609,3.41223],[115.9143,3.40972],[115.91402,3.40796],[115.91318,3.40592],[115.90905,3.40568],[115.90661,3.40229],[115.9053,3.40112],[115.90415,3.39924],[115.9039,3.39747],[115.90378,3.39474],[115.90233,3.39207],[115.90098,3.39036],[115.8985,3.38893],[115.89646,3.3875],[115.8941,3.38668],[115.89262,3.3869],[115.88959,3.38616],[115.88734,3.38608],[115.88551,3.38542],[115.88368,3.38448],[115.88185,3.38459],[115.87983,3.38496],[115.8786,3.38334],[115.87874,3.38182],[115.87965,3.38068],[115.88066,3.37927],[115.88125,3.37808],[115.88184,3.37631],[115.88211,3.37473],[115.88076,3.37307],[115.87951,3.37246],[115.87811,3.37097],[115.8789,3.36949],[115.87807,3.36814],[115.87657,3.3674],[115.87531,3.36632],[115.87623,3.36412],[115.87662,3.36267],[115.87668,3.36125],[115.87634,3.35965],[115.87668,3.3576],[115.87768,3.35612],[115.87943,3.35497],[115.88125,3.35486],[115.88297,3.35406],[115.88377,3.35349],[115.88499,3.35204],[115.88719,3.35133],[115.88686,3.34951],[115.88626,3.34823],[115.88571,3.34682],[115.88619,3.34628],[115.88756,3.34573],[115.88925,3.34504],[115.89027,3.34457],[115.89145,3.34325],[115.89245,3.34185],[115.89213,3.34022],[115.89303,3.33891],[115.89413,3.33805],[115.89507,3.33658],[115.8965,3.33609]]]]},"properties":{"kdprov":"65","kdkab":"01","kdkec":"060","kddesa":"006","kdsls":"2001","idsls":"65010600062001","nmprov":"KALIMANTAN UTARA","nmkab":"MALINAU","nmkec":"BAHAU HULU","nmdesa":"APAU PING","nmsls":"HUTAN"}},{"type":"Feature","geometry":{"type":"MultiPolygon","coordinates":[[[[115.81672,3.1029],[115.8186,3.10219],[115.81926,3.10206],[115.81923,3.10195],[115.81902,3.10139],[115.81818,3.10027],[115.81736,3.09919],[115.81588,3.09947],[115.81672,3.1029]]]]},"properties":{"kdprov":"65","kdkab":"01","kdkec":"060","kddesa":"006","kdsls":"0002","idsls":"65010600060002","nmprov":"KALIMANTAN UTARA","nmkab":"MALINAU","nmkec":"BAHAU HULU","nmdesa":"APAU PING","nmsls":"RT 002"}},{"type":"Feature","geometry":{"type":"MultiPolygon","coordinates":[[[[115.81588,3.09947],[115.81736,3.09919],[115.81718,3.0984],[115.81788,3.09779],[115.81872,3.09799],[115.81905,3.09846],[115.81912,3.09896],[115.81907,3.0995],[115.81908,3.09978],[115.8192,3.10005],[115.81942,3.10022],[115.8197,3.10018],[115.82013,3.09983],[115.82027,3.09971],[115.82061,3.09956],[115.82088,3.09959],[115.82137,3.0997],[115.82181,3.09972],[115.82263,3.09979],[115.82333,3.09962],[115.82418,3.09921],[115.82492,3.0988],[115.82516,3.09846],[115.82543,3.0978],[115.82607,3.09695],[115.82674,3.09608],[115.82722,3.09566],[115.82772,3.09549],[115.82804,3.09556],[115.82819,3.09578],[115.82818,3.0962],[115.82826,3.09651],[115.82861,3.0967],[115.82903,3.09663],[115.82957,3.09631],[115.83007,3.09591],[115.83057,3.09578],[115.83111,3.09583],[115.83283,3.09772],[115.83407,3.09859],[115.83561,3.09959],[115.83652,3.10083],[115.83769,3.1024],[115.83839,3.1039],[115.83862,3.10638],[115.83876,3.10926],[115.83863,3.11011],[115.8491,3.12555],[115.85266,3.15901],[115.85337,3.17681],[115.84553,3.19745],[115.84696,3.21525],[115.85302,3.22344],[115.85979,3.23092],[115.86585,3.24337],[115.87156,3.26615],[115.87156,3.27363],[115.87263,3.28217],[115.8781,3.2955],[115.8781,3.2955],[115.87651,3.29794],[115.87508,3.2998],[115.87487,3.3013],[115.87475,3.30222],[115.87464,3.30296],[115.87463,3.30305],[115.87458,3.30346],[115.87543,3.30677],[115.87643,3.30906],[115.87814,3.31093],[115.87942,3.3118],[115.88399,3.31769],[115.88841,3.32473],[115.89055,3.32847],[115.8965,3.33609],[115.89661,3.33605],[115.8977,3.33631],[115.89887,3.33694],[115.90041,3.33687],[115.90128,3.33697],[115.90301,3.33702],[115.90513,3.33702],[115.90649,3.33685],[115.90835,3.33662],[115.90925,3.3361],[115.91007,3.33491],[115.91076,3.33352],[115.91164,3.33303],[115.91283,3.33237],[115.91281,3.32977],[115.91189,3.32851],[115.91112,3.3268],[115.91198,3.32534],[115.91378,3.32402],[115.91355,3.32203],[115.91329,3.31995],[115.91394,3.31874],[115.91487,3.31768],[115.91609,3.31586],[115.9162,3.31409],[115.91594,3.3119],[115.91669,3.31061],[115.91524,3.30793],[115.91526,3.30664],[115.91526,3.30504],[115.91677,3.30581],[115.91914,3.30657],[115.92188,3.30711],[115.92303,3.3061],[115.92383,3.30473],[115.92523,3.30383],[115.92638,3.30406],[115.92777,3.30419],[115.92837,3.3027],[115.92845,3.30073],[115.92897,3.29953],[115.92997,3.29785],[115.93132,3.29686],[115.93239,3.29819],[115.93332,3.29886],[115.93542,3.29967],[115.93551,3.30098],[115.93616,3.30413],[115.93816,3.30728],[115.93939,3.30961],[115.94123,3.3102],[115.94294,3.31125],[115.94533,3.31098],[115.946,3.31031],[115.94715,3.30875],[115.94915,3.3065],[115.95081,3.30642],[115.95279,3.30581],[115.95329,3.30638],[115.95523,3.30657],[115.95658,3.30498],[115.95709,3.30325],[115.95797,3.30139],[115.95675,3.29987],[115.95539,3.29697],[115.95509,3.29448],[115.95666,3.29114],[115.95809,3.28762],[115.95892,3.28501],[115.9582,3.28246],[115.95821,3.28063],[115.95978,3.27897],[115.96083,3.27806],[115.96038,3.27572],[115.96001,3.27463],[115.95899,3.27209],[115.95676,3.26947],[115.95533,3.26888],[115.95287,3.26777],[115.9522,3.26664],[115.95149,3.26506],[115.95081,3.26407],[115.95038,3.26264],[115.95096,3.26149],[115.95108,3.2597],[115.95117,3.25847],[115.95127,3.25692],[115.95127,3.25567],[115.95127,3.25402],[115.95153,3.25245],[115.95203,3.25083],[115.95218,3.24925],[115.95198,3.24765],[115.95153,3.24635],[115.95142,3.24535],[115.95142,3.24246],[115.95167,3.2408],[115.95061,3.23925],[115.94914,3.23758],[115.94834,3.23644],[115.94647,3.23431],[115.94647,3.2322],[115.94621,3.23066],[115.94552,3.22929],[115.94458,3.22798],[115.9437,3.22689],[115.94274,3.22493],[115.94213,3.22342],[115.94219,3.2218],[115.94225,3.22032],[115.94196,3.21875],[115.94228,3.21704],[115.94268,3.21551],[115.94323,3.21403],[115.94378,3.2122],[115.94408,3.21049],[115.94322,3.20916],[115.94222,3.20847],[115.94156,3.20742],[115.94082,3.20608],[115.93384,3.19971],[115.93391,3.19788],[115.93398,3.19597],[115.93427,3.19123],[115.93456,3.18607],[115.93385,3.18018],[115.93272,3.17587],[115.93081,3.17191],[115.93015,3.17055],[115.92944,3.16653],[115.93016,3.1628],[115.93056,3.16175],[115.93021,3.16003],[115.92981,3.15813],[115.92945,3.15726],[115.92889,3.15574],[115.92844,3.15443],[115.928,3.15288],[115.92758,3.15076],[115.92717,3.14907],[115.92632,3.14621],[115.9255,3.14269],[115.92491,3.14085],[115.92454,3.13915],[115.92416,3.13886],[115.92385,3.13886],[115.9234,3.13706],[115.92332,3.136],[115.923,3.13487],[115.92253,3.13341],[115.92206,3.13181],[115.92177,3.1303],[115.92174,3.12948],[115.92217,3.1294],[115.92271,3.12437],[115.92267,3.12207],[115.92269,3.12145],[115.92241,3.12066],[115.92231,3.11987],[115.92155,3.11814],[115.92129,3.11782],[115.92055,3.1158],[115.92006,3.1148],[115.91993,3.11443],[115.91975,3.114],[115.91879,3.11237],[115.91803,3.11017],[115.9178,3.10983],[115.91694,3.10793],[115.91628,3.10617],[115.91628,3.10523],[115.91583,3.1039],[115.91568,3.103],[115.91558,3.10196],[115.91509,3.10059],[115.91505,3.09954],[115.91482,3.09863],[115.91068,3.06418],[115.90854,3.05753],[115.9026,3.04709],[115.89856,3.04116],[115.89143,3.03902],[115.88169,3.03926],[115.87598,3.03926],[115.87099,3.03736],[115.86742,3.03641],[115.86053,3.03356],[115.85501,3.03356],[115.84889,3.03356],[115.84223,3.0357],[115.837,3.04092],[115.83177,3.04377],[115.82892,3.04306],[115.82797,3.03973],[115.82821,3.03641],[115.82749,3.03427],[115.82536,3.03309],[115.81941,3.03309],[115.81062,3.03451],[115.80539,3.03594],[115.8023,3.03712],[115.79802,3.04068],[115.79612,3.0459],[115.79541,3.04946],[115.79232,3.05136],[115.78828,3.05207],[115.78305,3.04946],[115.77893,3.04834],[115.77843,3.04847],[115.77797,3.04836],[115.7777,3.04823],[115.7774,3.04748],[115.77689,3.04689],[115.77668,3.04681],[115.77603,3.04537],[115.7758,3.04391],[115.77575,3.04362],[115.77612,3.04178],[115.77631,3.04004],[115.77768,3.03838],[115.77768,3.03581],[115.77504,3.03213],[115.77266,3.03094],[115.77056,3.0302],[115.76956,3.02781],[115.76983,3.02487],[115.77166,3.02404],[115.77303,3.02404],[115.77404,3.02506],[115.77596,3.02405],[115.7766,3.02478],[115.77879,3.02332],[115.78034,3.0258],[115.78163,3.02497],[115.78409,3.02589],[115.7852,3.02145],[115.78139,3.01378],[115.77704,3.00556],[115.77652,2.98858],[115.77436,2.97379],[115.76619,2.96721],[115.76512,2.95461],[115.76419,2.94712],[115.76418,2.94703],[115.76418,2.94698],[115.76418,2.94698],[115.76394,2.94509],[115.76385,2.94508],[115.76332,2.94523],[115.76252,2.94546],[115.76241,2.94546],[115.76235,2.94546],[115.76221,2.94546],[115.75971,2.94545],[115.75852,2.94538],[115.75606,2.94537],[115.75549,2.94517],[115.75437,2.94528],[115.75323,2.94484],[115.75203,2.94463],[115.75029,2.94464],[115.74905,2.9441],[115.74714,2.94429],[115.74626,2.94394],[115.74476,2.94347],[115.74296,2.9427],[115.74196,2.94262],[115.74096,2.94246],[115.73965,2.94166],[115.73852,2.94121],[115.73643,2.9407],[115.73315,2.93838],[115.73213,2.9373],[115.73096,2.93578],[115.72976,2.9348],[115.72881,2.93365],[115.72793,2.93294],[115.72631,2.93118],[115.72552,2.92972],[115.72477,2.92862],[115.72368,2.92754],[115.72285,2.92621],[115.72201,2.92523],[115.72149,2.92462],[115.72106,2.9241],[115.72018,2.9227],[115.71996,2.92224],[115.71996,2.92224],[115.71923,2.92069],[115.71895,2.92078],[115.71812,2.92063],[115.71783,2.92057],[115.71777,2.92056],[115.7177,2.92055],[115.7176,2.92053],[115.71605,2.92025],[115.71454,2.91953],[115.71319,2.91835],[115.71236,2.91789],[115.71097,2.91744],[115.70942,2.91687],[115.7072,2.9155],[115.70506,2.91471],[115.70385,2.91395],[115.70321,2.91326],[115.70246,2.91213],[115.70133,2.9108],[115.69994,2.9102],[115.69794,2.90937],[115.6967,2.90943],[115.69317,2.90865],[115.69193,2.90777],[115.68858,2.9067],[115.68737,2.90612],[115.68627,2.9056],[115.68591,2.90542],[115.68532,2.90526],[115.68504,2.90518],[115.68326,2.90468],[115.68149,2.90424],[115.68133,2.9042],[115.68054,2.90401],[115.67848,2.9038],[115.67847,2.9038],[115.67847,2.9038],[115.6783,2.90419],[115.67925,2.90567],[115.67819,2.90834],[115.67423,2.90811],[115.6704,2.90745],[115.66898,2.90933],[115.66623,2.90993],[115.66271,2.90932],[115.65687,2.9091],[115.65396,2.90901],[115.65334,2.91143],[115.65291,2.91313],[115.65382,2.91732],[115.65428,2.91915],[115.65512,2.92417],[115.65573,2.92768],[115.65398,2.93179],[115.6542,2.93506],[115.65116,2.93872],[115.64842,2.94138],[115.64814,2.94162],[115.64769,2.94184],[115.64613,2.94316],[115.64549,2.94381],[115.64545,2.94385],[115.64495,2.94435],[115.64471,2.94446],[115.64111,2.9474],[115.63928,2.94945],[115.63837,2.95174],[115.63616,2.95334],[115.63288,2.95425],[115.63212,2.95646],[115.62953,2.95684],[115.62664,2.95897],[115.62393,2.9585],[115.62226,2.9585],[115.62224,2.95847],[115.62093,2.95844],[115.6191,2.95631],[115.6156,2.95471],[115.61332,2.95395],[115.61004,2.95395],[115.60827,2.95571],[115.60823,2.95583],[115.60822,2.95584],[115.60822,2.95898],[115.60822,2.96075],[115.60821,2.96375],[115.60821,2.96581],[115.6076,2.96811],[115.60875,2.97039],[115.61045,2.97367],[115.61046,2.97374],[115.60966,2.9761],[115.61081,2.97882],[115.61081,2.97883],[115.6089,2.98356],[115.60783,2.98585],[115.60768,2.98813],[115.60692,2.99087],[115.60585,2.99278],[115.60652,2.99596],[115.60652,2.99599],[115.60494,2.99895],[115.60141,2.99888],[115.59939,2.99817],[115.59772,2.99674],[115.59618,2.9959],[115.5932,2.99543],[115.59178,2.99638],[115.59071,2.99876],[115.58916,3.00019],[115.58627,3.00095],[115.58599,3.00063],[115.5859,3.00049],[115.58508,2.99925],[115.58416,2.99842],[115.58388,2.99816],[115.58308,2.99725],[115.58211,2.99614],[115.58033,2.99422],[115.57803,2.99282],[115.57773,2.99257],[115.57707,2.99223],[115.57605,2.99161],[115.57248,2.98837],[115.57107,2.98603],[115.56967,2.98534],[115.56881,2.98492],[115.56628,2.98368],[115.5638,2.98082],[115.55965,2.98234],[115.55716,2.98317],[115.55291,2.98491],[115.55369,2.98861],[115.55409,2.99054],[115.5543,2.99519],[115.55116,2.99679],[115.54737,2.99908],[115.5461,2.99962],[115.54194,2.99949],[115.5398,2.99949],[115.53589,2.99892],[115.5323,2.99829],[115.52943,2.99919],[115.5281,2.99986],[115.52605,3.0009],[115.52394,3.00113],[115.52286,3.00246],[115.52153,3.00398],[115.52015,3.00497],[115.51887,3.00497],[115.51768,3.00571],[115.51595,3.00567],[115.51581,3.00595],[115.51557,3.00641],[115.51618,3.00686],[115.51786,3.00809],[115.51806,3.00831],[115.51873,3.00906],[115.52487,3.01583],[115.52832,3.02054],[115.53957,3.02638],[115.54436,3.02796],[115.5531,3.03229],[115.55739,3.03499],[115.56007,3.03872],[115.56109,3.04153],[115.56211,3.04481],[115.56285,3.0471],[115.56399,3.05003],[115.5649,3.05043],[115.56582,3.05181],[115.5685,3.05359],[115.57032,3.05394],[115.57369,3.05567],[115.57625,3.05676],[115.58025,3.05895],[115.5815,3.06095],[115.58207,3.06279],[115.58215,3.06552],[115.58294,3.06902],[115.58522,3.07568],[115.58681,3.07952],[115.58838,3.0834],[115.59031,3.08587],[115.59276,3.08765],[115.59442,3.09029],[115.59606,3.09701],[115.59671,3.10151],[115.59705,3.10536],[115.59802,3.10702],[115.60099,3.10835],[115.60201,3.11087],[115.60297,3.11449],[115.6038,3.1163],[115.6042,3.11658],[115.60648,3.12089],[115.60864,3.12336],[115.61247,3.12342],[115.61286,3.1256],[115.61143,3.1283],[115.61268,3.13266],[115.61556,3.13487],[115.61863,3.14469],[115.62217,3.14802],[115.62548,3.14946],[115.62707,3.15055],[115.62675,3.15391],[115.62818,3.15793],[115.6268,3.16102],[115.62526,3.16303],[115.62354,3.16613],[115.62328,3.16897],[115.62482,3.17402],[115.62675,3.177],[115.62743,3.17953],[115.62994,3.1824],[115.63182,3.18367],[115.63411,3.18453],[115.6367,3.1868],[115.64074,3.19335],[115.642,3.19731],[115.64262,3.20001],[115.64555,3.20578],[115.64823,3.20991],[115.65028,3.21095],[115.65776,3.21124],[115.6597,3.21245],[115.66309,3.21931],[115.66634,3.22127],[115.66748,3.22087],[115.66982,3.22127],[115.67268,3.22099],[115.67856,3.21899],[115.68233,3.2171],[115.68496,3.2163],[115.68859,3.21472],[115.69181,3.21332],[115.69635,3.21106],[115.70046,3.20872],[115.70378,3.20597],[115.70624,3.20293],[115.70898,3.20058],[115.71486,3.20076],[115.71568,3.19976],[115.71623,3.1991],[115.71658,3.19732],[115.71724,3.19499],[115.71941,3.19396],[115.72563,3.19254],[115.72895,3.18795],[115.73089,3.18658],[115.73448,3.18842],[115.73591,3.18693],[115.7366,3.18371],[115.73786,3.18211],[115.7425,3.16542],[115.75319,3.13943],[115.76638,3.11736],[115.77351,3.11024],[115.81588,3.09947]],[[115.85712,3.04659],[115.85727,3.04644],[115.86043,3.04572],[115.86061,3.04583],[115.8607,3.04597],[115.86102,3.04635],[115.86106,3.0465],[115.86108,3.0466],[115.85886,3.04797],[115.85851,3.04812],[115.85763,3.04851],[115.85784,3.05082],[115.85674,3.0509],[115.85666,3.04988],[115.85622,3.04754],[115.85618,3.04748],[115.85712,3.04659]]]]},"properties":{"kdprov":"65","kdkab":"01","kdkec":"060","kddesa":"005","kdsls":"2001","idsls":"65010600052001","nmprov":"KALIMANTAN UTARA","nmkab":"MALINAU","nmkec":"BAHAU HULU","nmdesa":"LONG BERINI","nmsls":"HUTAN"}},{"type":"Feature","geometry":{"type":"MultiPolygon","coordinates":[[[[115.85886,3.04797],[115.85869,3.04771],[115.8585,3.04758],[115.85712,3.04659],[115.85618,3.04748],[115.85622,3.04754],[115.85666,3.04988],[115.85674,3.0509],[115.85784,3.05082],[115.85763,3.04851],[115.85851,3.04812],[115.85886,3.04797]]]]},"properties":{"kdprov":"65","kdkab":"01","kdkec":"060","kddesa":"005","kdsls":"0001","idsls":"65010600050001","nmprov":"KALIMANTAN UTARA","nmkab":"MALINAU","nmkec":"BAHAU HULU","nmdesa":"LONG BERINI","nmsls":"RT 001"}},{"type":"Feature","geometry":{"type":"MultiPolygon","coordinates":[[[[115.85025,2.91425],[115.85034,2.91339],[115.85164,2.90727],[115.85178,2.90677],[115.8512,2.90647],[115.84648,2.90831],[115.84584,2.90853],[115.84607,2.91116],[115.84608,2.91141],[115.84607,2.91269],[115.8462,2.91359],[115.84627,2.91416],[115.847,2.91413],[115.84699,2.91408],[115.84706,2.91407],[115.84709,2.91405],[115.84719,2.91403],[115.84719,2.91396],[115.84719,2.91394],[115.84736,2.91392],[115.84741,2.9139],[115.84748,2.91384],[115.84754,2.91375],[115.84757,2.91363],[115.84779,2.91365],[115.84811,2.91371],[115.84835,2.91377],[115.8487,2.91387],[115.84962,2.91408],[115.85025,2.91425]]]]},"properties":{"kdprov":"65","kdkab":"01","kdkec":"060","kddesa":"003","kdsls":"0003","idsls":"65010600030003","nmprov":"KALIMANTAN UTARA","nmkab":"MALINAU","nmkec":"BAHAU HULU","nmdesa":"LONG ALANGO","nmsls":"RT 003"}},{"type":"Feature","geometry":{"type":"MultiPolygon","coordinates":[[[[115.85886,3.04797],[115.86108,3.0466],[115.86106,3.0465],[115.86102,3.04635],[115.8607,3.04597],[115.86061,3.04583],[115.86043,3.04572],[115.85727,3.04644],[115.85712,3.04659],[115.8585,3.04758],[115.85869,3.04771],[115.85886,3.04797]]]]},"properties":{"kdprov":"65","kdkab":"01","kdkec":"060","kddesa":"005","kdsls":"0002","idsls":"65010600050002","nmprov":"KALIMANTAN UTARA","nmkab":"MALINAU","nmkec":"BAHAU HULU","nmdesa":"LONG BERINI","nmsls":"RT 002"}},{"type":"Feature","geometry":{"type":"MultiPolygon","coordinates":[[[[115.84182,2.84139],[115.84169,2.84138],[115.84158,2.84147],[115.84135,2.84168],[115.84117,2.8418],[115.84102,2.84187],[115.84085,2.84191],[115.84059,2.8419],[115.84043,2.84186],[115.84028,2.84191],[115.84017,2.84194],[115.84009,2.84204],[115.83903,2.84277],[115.8391,2.84284],[115.83934,2.84318],[115.83942,2.84357],[115.83938,2.8439],[115.83927,2.84412],[115.83896,2.84437],[115.83999,2.84486],[115.84106,2.84291],[115.84124,2.84258],[115.84152,2.84207],[115.84182,2.84139]]]]},"properties":{"kdprov":"65","kdkab":"01","kdkec":"060","kddesa":"002","kdsls":"0002","idsls":"65010600020002","nmprov":"KALIMANTAN UTARA","nmkab":"MALINAU","nmkec":"BAHAU HULU","nmdesa":"LONG TEBULO","nmsls":"RT 002"}},{"type":"Feature","geometry":{"type":"MultiPolygon","coordinates":[[[[115.84973,2.91557],[115.85025,2.91425],[115.84962,2.91408],[115.8487,2.91387],[115.84835,2.91377],[115.84811,2.91371],[115.84779,2.91365],[115.84757,2.91363],[115.84754,2.91375],[115.84748,2.91384],[115.84741,2.9139],[115.84736,2.91392],[115.84719,2.91394],[115.84719,2.91396],[115.84719,2.91403],[115.84709,2.91405],[115.84706,2.91407],[115.84699,2.91408],[115.847,2.91413],[115.84627,2.91416],[115.84632,2.91456],[115.8463,2.91503],[115.84626,2.91543],[115.84709,2.91543],[115.84709,2.91549],[115.84843,2.9155],[115.84873,2.91552],[115.84973,2.91557]]]]},"properties":{"kdprov":"65","kdkab":"01","kdkec":"060","kddesa":"003","kdsls":"0002","idsls":"65010600030002","nmprov":"KALIMANTAN UTARA","nmkab":"MALINAU","nmkec":"BAHAU HULU","nmdesa":"LONG ALANGO","nmsls":"RT 002"}},{"type":"Feature","geometry":{"type":"MultiPolygon","coordinates":[[[[115.84973,2.91557],[115.84873,2.91552],[115.84843,2.9155],[115.84709,2.91549],[115.84709,2.91543],[115.84626,2.91543],[115.84614,2.91594],[115.84586,2.9174],[115.84583,2.91829],[115.84606,2.91957],[115.84629,2.92071],[115.84656,2.92153],[115.84697,2.92202],[115.84742,2.92217],[115.84794,2.92223],[115.84873,2.92216],[115.85042,2.92138],[115.85027,2.91997],[115.84962,2.91889],[115.84921,2.91769],[115.84914,2.91677],[115.84973,2.91557]]]]},"properties":{"kdprov":"65","kdkab":"01","kdkec":"060","kddesa":"003","kdsls":"0001","idsls":"65010600030001","nmprov":"KALIMANTAN UTARA","nmkab":"MALINAU","nmkec":"BAHAU HULU","nmdesa":"LONG ALANGO","nmsls":"RT 001"}},{"type":"Feature","geometry":{"type":"MultiPolygon","coordinates":[[[[115.71923,2.92069],[115.71996,2.92224],[115.71996,2.92224],[115.72018,2.9227],[115.72106,2.9241],[115.72149,2.92462],[115.72201,2.92523],[115.72285,2.92621],[115.72368,2.92754],[115.72477,2.92862],[115.72552,2.92972],[115.72631,2.93118],[115.72793,2.93294],[115.72881,2.93365],[115.72976,2.9348],[115.73096,2.93578],[115.73213,2.9373],[115.73315,2.93838],[115.73643,2.9407],[115.73852,2.94121],[115.73965,2.94166],[115.74096,2.94246],[115.74196,2.94262],[115.74296,2.9427],[115.74476,2.94347],[115.74626,2.94394],[115.74714,2.94429],[115.74905,2.9441],[115.75029,2.94464],[115.75203,2.94463],[115.75323,2.94484],[115.75437,2.94528],[115.75549,2.94517],[115.75606,2.94537],[115.75852,2.94538],[115.75971,2.94545],[115.76221,2.94546],[115.76235,2.94546],[115.76241,2.94546],[115.76252,2.94546],[115.76332,2.94523],[115.76385,2.94508],[115.76394,2.94509],[115.7644,2.94516],[115.76557,2.94532],[115.76587,2.94525],[115.76611,2.94519],[115.76616,2.94518],[115.76627,2.94515],[115.76678,2.94504],[115.76818,2.94522],[115.77841,2.94553],[115.78049,2.9476],[115.78584,2.95235],[115.78762,2.95561],[115.79326,2.96303],[115.79832,2.96778],[115.80307,2.96867],[115.80871,2.96719],[115.81406,2.96184],[115.81703,2.95443],[115.81911,2.95205],[115.82416,2.94849],[115.82684,2.9479],[115.83397,2.94968],[115.83753,2.94998],[115.84258,2.94998],[115.84734,2.9492],[115.85621,2.94704],[115.86047,2.94555],[115.86817,2.94411],[115.87966,2.94334],[115.88388,2.94404],[115.88863,2.94345],[115.89636,2.94464],[115.89992,2.94671],[115.90349,2.94731],[115.90765,2.94582],[115.91032,2.94256],[115.9124,2.94197],[115.91864,2.94226],[115.92131,2.94404],[115.92488,2.94493],[115.9307,2.94467],[115.93137,2.94369],[115.93205,2.94242],[115.9325,2.94117],[115.93278,2.94044],[115.93343,2.93873],[115.93369,2.93722],[115.93373,2.93698],[115.93381,2.93606],[115.93426,2.93479],[115.9353,2.93375],[115.93595,2.93332],[115.93697,2.93321],[115.93812,2.93281],[115.93889,2.93298],[115.93982,2.93299],[115.94077,2.93327],[115.94184,2.93349],[115.9425,2.93391],[115.94326,2.93391],[115.94376,2.93411],[115.94553,2.9338],[115.9472,2.9342],[115.9486,2.93386],[115.94923,2.9335],[115.94929,2.93383],[115.94967,2.93454],[115.95033,2.93502],[115.95141,2.93542],[115.9521,2.93587],[115.95313,2.93625],[115.95488,2.93717],[115.95614,2.93764],[115.95682,2.93804],[115.9577,2.93824],[115.95872,2.93869],[115.95977,2.93879],[115.96082,2.93872],[115.96169,2.93838],[115.96179,2.93832],[115.96176,2.93824],[115.96107,2.93687],[115.95868,2.93448],[115.95742,2.93402],[115.95634,2.93228],[115.95593,2.93162],[115.95354,2.92991],[115.95137,2.92945],[115.94862,2.93025],[115.94714,2.92934],[115.94611,2.92762],[115.94451,2.92511],[115.94326,2.92305],[115.94326,2.92305],[115.94371,2.91906],[115.94371,2.91906],[115.94189,2.91666],[115.94086,2.91517],[115.93937,2.91312],[115.93766,2.91106],[115.93629,2.90855],[115.93492,2.90672],[115.93286,2.90535],[115.93058,2.90421],[115.92898,2.90295],[115.92783,2.9018],[115.92783,2.90204],[115.92443,2.90332],[115.92253,2.90298],[115.92141,2.90277],[115.9179,2.90213],[115.91136,2.89709],[115.90453,2.89501],[115.89265,2.8959],[115.88106,2.89828],[115.87155,2.90095],[115.86264,2.90065],[115.85907,2.89739],[115.8564,2.89383],[115.84333,2.89679],[115.836,2.90047],[115.82907,2.90243],[115.81867,2.89679],[115.80381,2.89442],[115.79341,2.89739],[115.78747,2.90273],[115.77954,2.90951],[115.77845,2.90901],[115.77695,2.90947],[115.77416,2.91071],[115.7705,2.91256],[115.77012,2.91313],[115.76881,2.91358],[115.76779,2.9137],[115.76609,2.91426],[115.76493,2.91415],[115.76395,2.91445],[115.76278,2.91509],[115.75922,2.91537],[115.75647,2.9159],[115.75522,2.91632],[115.75315,2.91631],[115.75165,2.91608],[115.7504,2.91608],[115.74573,2.91551],[115.74374,2.91554],[115.74097,2.91518],[115.73833,2.91465],[115.73683,2.9145],[115.73536,2.91412],[115.73299,2.914],[115.73039,2.91464],[115.72847,2.91494],[115.72485,2.91649],[115.72338,2.9174],[115.72276,2.91791],[115.72224,2.9186],[115.72196,2.91897],[115.72117,2.91972],[115.72099,2.91986],[115.72089,2.91994],[115.72075,2.92005],[115.72038,2.92033],[115.71965,2.92056],[115.71923,2.92069]],[[115.84627,2.91416],[115.8462,2.91359],[115.84607,2.91269],[115.84608,2.91141],[115.84607,2.91116],[115.84584,2.90853],[115.84648,2.90831],[115.8512,2.90647],[115.85178,2.90677],[115.85164,2.90727],[115.85034,2.91339],[115.85025,2.91425],[115.84973,2.91557],[115.84914,2.91677],[115.84921,2.91769],[115.84962,2.91889],[115.85027,2.91997],[115.85042,2.92138],[115.84873,2.92216],[115.84794,2.92223],[115.84742,2.92217],[115.84697,2.92202],[115.84656,2.92153],[115.84629,2.92071],[115.84606,2.91957],[115.84583,2.91829],[115.84586,2.9174],[115.84614,2.91594],[115.84626,2.91543],[115.8463,2.91503],[115.84632,2.91456],[115.84627,2.91416]]]]},"properties":{"kdprov":"65","kdkab":"01","kdkec":"060","kddesa":"003","kdsls":"2001","idsls":"65010600032001","nmprov":"KALIMANTAN UTARA","nmkab":"MALINAU","nmkec":"BAHAU HULU","nmdesa":"LONG ALANGO","nmsls":"HUTAN"}},{"type":"Feature","geometry":{"type":"MultiPolygon","coordinates":[[[[115.67847,2.9038],[115.67848,2.9038],[115.68054,2.90401],[115.68133,2.9042],[115.68149,2.90424],[115.68326,2.90468],[115.68504,2.90518],[115.68532,2.90526],[115.68591,2.90542],[115.68627,2.9056],[115.68737,2.90612],[115.68858,2.9067],[115.69193,2.90777],[115.69317,2.90865],[115.6967,2.90943],[115.69794,2.90937],[115.69994,2.9102],[115.70133,2.9108],[115.70246,2.91213],[115.70321,2.91326],[115.70385,2.91395],[115.70506,2.91471],[115.7072,2.9155],[115.70942,2.91687],[115.71097,2.91744],[115.71236,2.91789],[115.71319,2.91835],[115.71454,2.91953],[115.71605,2.92025],[115.7176,2.92053],[115.7177,2.92055],[115.71777,2.92056],[115.71783,2.92057],[115.71812,2.92063],[115.71895,2.92078],[115.71923,2.92069],[115.71965,2.92056],[115.72038,2.92033],[115.72075,2.92005],[115.72089,2.91994],[115.72099,2.91986],[115.72117,2.91972],[115.72196,2.91897],[115.72224,2.9186],[115.72276,2.91791],[115.72338,2.9174],[115.72485,2.91649],[115.72847,2.91494],[115.73039,2.91464],[115.73299,2.914],[115.73536,2.91412],[115.73683,2.9145],[115.73833,2.91465],[115.74097,2.91518],[115.74374,2.91554],[115.74573,2.91551],[115.7504,2.91608],[115.75165,2.91608],[115.75315,2.91631],[115.75522,2.91632],[115.75647,2.9159],[115.75922,2.91537],[115.76278,2.91509],[115.76395,2.91445],[115.76493,2.91415],[115.76609,2.91426],[115.76779,2.9137],[115.76881,2.91358],[115.77012,2.91313],[115.7705,2.91256],[115.77416,2.91071],[115.77695,2.90947],[115.77845,2.90901],[115.77954,2.90951],[115.78747,2.90273],[115.79341,2.89739],[115.80381,2.89442],[115.81867,2.89679],[115.82907,2.90243],[115.836,2.90047],[115.84333,2.89679],[115.8564,2.89383],[115.85907,2.89739],[115.86264,2.90065],[115.87155,2.90095],[115.88106,2.89828],[115.89265,2.8959],[115.90453,2.89501],[115.91136,2.89709],[115.9179,2.90213],[115.92141,2.90277],[115.92253,2.90298],[115.92443,2.90332],[115.92783,2.90204],[115.92783,2.9018],[115.92715,2.90113],[115.92487,2.89896],[115.92373,2.8977],[115.92219,2.89621],[115.92052,2.89458],[115.92052,2.89458],[115.92111,2.89208],[115.92111,2.89208],[115.91956,2.8903],[115.91754,2.88911],[115.91671,2.88613],[115.91671,2.88613],[115.91671,2.88435],[115.91671,2.88435],[115.91599,2.88221],[115.91492,2.879],[115.91492,2.87899],[115.91599,2.87721],[115.91802,2.87519],[115.91802,2.87519],[115.91718,2.87317],[115.91649,2.87018],[115.91632,2.86944],[115.9164,2.86907],[115.9165,2.86855],[115.91659,2.8681],[115.91182,2.86869],[115.9113,2.86856],[115.90424,2.86676],[115.89949,2.8632],[115.89305,2.85735],[115.8879,2.85267],[115.87676,2.84332],[115.86339,2.8359],[115.85204,2.8298],[115.84592,2.83034],[115.84512,2.83041],[115.84229,2.83011],[115.83932,2.82937],[115.83323,2.82982],[115.82848,2.82922],[115.82595,2.82922],[115.82075,2.83056],[115.81154,2.83145],[115.80748,2.83043],[115.80323,2.82937],[115.79921,2.82685],[115.79609,2.82329],[115.79431,2.82091],[115.79104,2.81958],[115.78629,2.81854],[115.7778,2.81629],[115.7674,2.81777],[115.76053,2.82172],[115.75981,2.82244],[115.75979,2.82246],[115.75932,2.823],[115.75898,2.82339],[115.75856,2.82433],[115.75851,2.82446],[115.7585,2.82446],[115.7585,2.82447],[115.75814,2.82578],[115.75814,2.82578],[115.75814,2.82579],[115.75822,2.82636],[115.75826,2.82674],[115.75838,2.82793],[115.75806,2.82865],[115.75778,2.82925],[115.75744,2.82912],[115.75703,2.82896],[115.75683,2.82889],[115.75588,2.82769],[115.75445,2.82757],[115.7533,2.82745],[115.7518,2.82723],[115.75172,2.82721],[115.74994,2.82685],[115.74993,2.82685],[115.74993,2.82685],[115.7497,2.82667],[115.74626,2.82542],[115.74428,2.82427],[115.74346,2.82303],[115.74333,2.82282],[115.74333,2.82282],[115.74017,2.8229],[115.73895,2.82207],[115.73522,2.8245],[115.7343,2.82523],[115.73202,2.82702],[115.72988,2.82796],[115.72486,2.83037],[115.72121,2.83189],[115.71725,2.83402],[115.71356,2.838],[115.71192,2.83935],[115.70804,2.8403],[115.70701,2.84218],[115.70701,2.8422],[115.70693,2.84265],[115.70687,2.84306],[115.70663,2.8444],[115.70662,2.84448],[115.70641,2.84565],[115.70641,2.84565],[115.70613,2.84606],[115.70558,2.84684],[115.70557,2.84685],[115.70356,2.84935],[115.7032,2.85173],[115.7032,2.85177],[115.703,2.85312],[115.70283,2.85461],[115.70254,2.85728],[115.70254,2.8573],[115.70254,2.85731],[115.70253,2.85733],[115.70242,2.85884],[115.70229,2.85946],[115.70206,2.86052],[115.70205,2.86054],[115.69932,2.86269],[115.69932,2.86269],[115.6993,2.8627],[115.69682,2.86555],[115.69681,2.86555],[115.6953,2.86707],[115.6949,2.86747],[115.69485,2.86756],[115.69467,2.86773],[115.69174,2.87034],[115.6903,2.87179],[115.68801,2.87506],[115.68752,2.87778],[115.68481,2.87993],[115.68093,2.88306],[115.68131,2.88778],[115.68207,2.8912],[115.68268,2.89471],[115.68264,2.89668],[115.68261,2.89851],[115.68002,2.90027],[115.67942,2.90164],[115.67847,2.9038]],[[115.83903,2.84277],[115.83886,2.8426],[115.83871,2.84236],[115.83851,2.84197],[115.83846,2.84162],[115.83843,2.84122],[115.83866,2.84085],[115.83875,2.84072],[115.83898,2.8406],[115.83935,2.84041],[115.8406,2.83995],[115.84108,2.83975],[115.84179,2.84104],[115.84187,2.8412],[115.84182,2.84139],[115.84152,2.84207],[115.84124,2.84258],[115.84106,2.84291],[115.83999,2.84486],[115.83896,2.84437],[115.83927,2.84412],[115.83938,2.8439],[115.83942,2.84357],[115.83934,2.84318],[115.8391,2.84284],[115.83903,2.84277]]]]},"properties":{"kdprov":"65","kdkab":"01","kdkec":"060","kddesa":"002","kdsls":"2001","idsls":"65010600022001","nmprov":"KALIMANTAN UTARA","nmkab":"MALINAU","nmkec":"BAHAU HULU","nmdesa":"LONG TEBULO","nmsls":"HUTAN"}},{"type":"Feature","geometry":{"type":"MultiPolygon","coordinates":[[[[115.89883,2.72458],[115.89873,2.72457],[115.89644,2.72448],[115.89459,2.72449],[115.89244,2.72449],[115.89208,2.72443],[115.88983,2.72405],[115.88731,2.72329],[115.88431,2.72229],[115.88222,2.72069],[115.87979,2.7212],[115.87832,2.71951],[115.87793,2.71906],[115.87573,2.71874],[115.87521,2.71955],[115.8746,2.7205],[115.87303,2.72239],[115.8707,2.72267],[115.86875,2.72305],[115.86613,2.72177],[115.86384,2.7202],[115.86327,2.71982],[115.86184,2.72027],[115.86061,2.72067],[115.85823,2.72158],[115.85613,2.72215],[115.85466,2.72234],[115.85261,2.72148],[115.85,2.72039],[115.84881,2.71917],[115.84804,2.71839],[115.84481,2.71758],[115.84348,2.71771],[115.84243,2.71782],[115.83938,2.71774],[115.83724,2.71783],[115.83424,2.72034],[115.83286,2.722],[115.83205,2.72434],[115.83125,2.726],[115.82929,2.72681],[115.82806,2.72738],[115.82701,2.72919],[115.82572,2.73014],[115.82415,2.72967],[115.82277,2.72891],[115.82101,2.72957],[115.81954,2.73043],[115.81816,2.73286],[115.81751,2.73433],[115.81744,2.73447],[115.8143,2.73581],[115.81223,2.73853],[115.81002,2.74004],[115.8077,2.7402],[115.80521,2.73947],[115.80383,2.74128],[115.80341,2.74352],[115.80053,2.74471],[115.79927,2.74518],[115.79869,2.7478],[115.79922,2.75089],[115.8,2.75252],[115.80041,2.75337],[115.80006,2.75508],[115.80003,2.75527],[115.79908,2.76069],[115.79865,2.76083],[115.79814,2.76098],[115.79606,2.76161],[115.79529,2.76146],[115.79275,2.76098],[115.79055,2.76076],[115.7884,2.76172],[115.78612,2.76304],[115.78355,2.76384],[115.7815,2.76564],[115.78078,2.76803],[115.77935,2.76985],[115.7775,2.7716],[115.7755,2.77206],[115.7735,2.77297],[115.77093,2.77377],[115.7684,2.77376],[115.76505,2.77497],[115.76242,2.7748],[115.76042,2.7748],[115.75957,2.77651],[115.759,2.78],[115.75734,2.78177],[115.75505,2.78405],[115.75314,2.78705],[115.75332,2.78754],[115.75506,2.78978],[115.7555,2.79183],[115.75499,2.79311],[115.75468,2.79388],[115.75459,2.79413],[115.75431,2.79569],[115.75437,2.79722],[115.75523,2.79833],[115.75496,2.79983],[115.75528,2.80222],[115.75504,2.80462],[115.75319,2.80592],[115.75235,2.80806],[115.75228,2.80996],[115.75327,2.81278],[115.75365,2.81468],[115.75456,2.81674],[115.75395,2.81955],[115.75349,2.82191],[115.75372,2.82405],[115.75205,2.82564],[115.74994,2.82675],[115.7497,2.82667],[115.74993,2.82685],[115.74993,2.82685],[115.74994,2.82685],[115.75172,2.82721],[115.7518,2.82723],[115.7533,2.82745],[115.75445,2.82757],[115.75588,2.82769],[115.75683,2.82889],[115.75703,2.82896],[115.75744,2.82912],[115.75778,2.82925],[115.75806,2.82865],[115.75838,2.82793],[115.75826,2.82674],[115.75822,2.82636],[115.75814,2.82579],[115.75814,2.82578],[115.75814,2.82578],[115.7585,2.82447],[115.7585,2.82446],[115.75851,2.82446],[115.75856,2.82433],[115.75898,2.82339],[115.75932,2.823],[115.75979,2.82246],[115.75981,2.82244],[115.76053,2.82172],[115.7674,2.81777],[115.7778,2.81629],[115.78629,2.81854],[115.79104,2.81958],[115.79431,2.82091],[115.79609,2.82329],[115.79921,2.82685],[115.80323,2.82937],[115.80748,2.83043],[115.81154,2.83145],[115.82075,2.83056],[115.82595,2.82922],[115.82848,2.82922],[115.83323,2.82982],[115.83932,2.82937],[115.84229,2.83011],[115.84512,2.83041],[115.84592,2.83034],[115.85204,2.8298],[115.86339,2.8359],[115.87676,2.84332],[115.8879,2.85267],[115.89305,2.85735],[115.89949,2.8632],[115.90424,2.86676],[115.9113,2.86856],[115.91182,2.86869],[115.91659,2.8681],[115.91668,2.86764],[115.91673,2.86692],[115.91674,2.86682],[115.91675,2.86669],[115.91675,2.86661],[115.9168,2.86585],[115.91724,2.86486],[115.91728,2.86477],[115.9174,2.8637],[115.9174,2.86369],[115.91745,2.86352],[115.91782,2.86223],[115.91788,2.86202],[115.91788,2.86143],[115.91788,2.86118],[115.91788,2.86106],[115.91772,2.8609],[115.92132,2.86012],[115.92375,2.85906],[115.92695,2.85875],[115.92893,2.85753],[115.92863,2.8554],[115.93167,2.85373],[115.93548,2.85479],[115.93822,2.85312],[115.93898,2.84992],[115.9395,2.84889],[115.9402,2.84748],[115.94114,2.84506],[115.94127,2.84471],[115.94203,2.84276],[115.94249,2.83926],[115.94416,2.83652],[115.94614,2.83301],[115.94705,2.82936],[115.94507,2.82601],[115.94309,2.82357],[115.94208,2.8204],[115.94188,2.81977],[115.93944,2.81535],[115.93685,2.81322],[115.93439,2.80988],[115.93506,2.80873],[115.93507,2.80872],[115.93504,2.80866],[115.93739,2.80464],[115.94025,2.7989],[115.9402,2.79479],[115.93853,2.79114],[115.93518,2.78961],[115.93411,2.78718],[115.93548,2.78261],[115.93837,2.77941],[115.94233,2.77804],[115.94314,2.77778],[115.94705,2.77652],[115.9498,2.77469],[115.95315,2.7718],[115.95573,2.76875],[115.95771,2.76586],[115.95924,2.76296],[115.96076,2.75992],[115.95924,2.75733],[115.96015,2.75428],[115.9635,2.75459],[115.96761,2.75748],[115.96776,2.7523],[115.96944,2.74926],[115.97308,2.74868],[115.97614,2.74819],[115.97997,2.74578],[115.98105,2.7451],[115.97968,2.73984],[115.97967,2.73979],[115.97701,2.7357],[115.97546,2.73285],[115.97513,2.7283],[115.97512,2.72822],[115.97534,2.72488],[115.97481,2.72345],[115.97477,2.72334],[115.97418,2.72178],[115.97356,2.72012],[115.97134,2.71885],[115.96958,2.72229],[115.96746,2.72545],[115.96678,2.72648],[115.96573,2.72829],[115.9643,2.72933],[115.9624,2.73057],[115.95993,2.73114],[115.95269,2.73143],[115.94746,2.73162],[115.94536,2.72971],[115.94403,2.72838],[115.94337,2.72714],[115.94279,2.72624],[115.94208,2.72576],[115.94028,2.72582],[115.93937,2.72686],[115.93861,2.72764],[115.9379,2.72941],[115.93713,2.73043],[115.93613,2.73076],[115.93466,2.73067],[115.93228,2.72995],[115.93009,2.72924],[115.92757,2.72848],[115.9258,2.72686],[115.925,2.72586],[115.92304,2.72472],[115.92124,2.72413],[115.92029,2.72461],[115.91958,2.7258],[115.91814,2.72719],[115.91648,2.72776],[115.91476,2.72776],[115.91305,2.72748],[115.91072,2.72919],[115.90858,2.7281],[115.90701,2.727],[115.90591,2.72562],[115.90434,2.72524],[115.90239,2.72519],[115.90092,2.72477],[115.89883,2.72458]],[[115.80198,2.7719],[115.80226,2.77091],[115.80242,2.76991],[115.80379,2.76999],[115.80413,2.77001],[115.80515,2.77408],[115.80384,2.77527],[115.803,2.77497],[115.80216,2.77417],[115.80177,2.77266],[115.80198,2.7719]]]]},"properties":{"kdprov":"65","kdkab":"01","kdkec":"060","kddesa":"001","kdsls":"2001","idsls":"65010600012001","nmprov":"KALIMANTAN UTARA","nmkab":"MALINAU","nmkec":"BAHAU HULU","nmdesa":"LONG ULI","nmsls":"HUTAN"}}]}