{"type":"FeatureCollection","features":[{"type":"Feature","geometry":{"type":"MultiPolygon","coordinates":[[[[116.06518,3.05105],[116.06406,3.05239],[116.06503,3.0532],[116.06618,3.05187],[116.06518,3.05105]]]]},"properties":{"kdprov":"65","kdkab":"01","kdkec":"070","kddesa":"002","kdsls":"0001","idsls":"65010700020001","nmprov":"KALIMANTAN UTARA","nmkab":"MALINAU","nmkec":"SUNGAI TUBU","nmdesa":"LONG NYAU","nmsls":"RT 01"}},{"type":"Feature","geometry":{"type":"MultiPolygon","coordinates":[[[[116.06406,3.05239],[116.06518,3.05105],[116.06444,3.05044],[116.06358,3.05148],[116.06308,3.05157],[116.06406,3.05239]]]]},"properties":{"kdprov":"65","kdkab":"01","kdkec":"070","kddesa":"002","kdsls":"0002","idsls":"65010700020002","nmprov":"KALIMANTAN UTARA","nmkab":"MALINAU","nmkec":"SUNGAI TUBU","nmdesa":"LONG NYAU","nmsls":"RT 02"}},{"type":"Feature","geometry":{"type":"MultiPolygon","coordinates":[[[[116.06804,3.26003],[116.06819,3.25919],[116.06744,3.25878],[116.06733,3.25869],[116.06734,3.25858],[116.06743,3.25838],[116.06735,3.25829],[116.06715,3.25822],[116.06668,3.25796],[116.06641,3.25839],[116.06618,3.25893],[116.06663,3.25914],[116.06713,3.25944],[116.06804,3.26003]]]]},"properties":{"kdprov":"65","kdkab":"01","kdkec":"070","kddesa":"003","kdsls":"0002","idsls":"65010700030002","nmprov":"KALIMANTAN UTARA","nmkab":"MALINAU","nmkec":"SUNGAI TUBU","nmdesa":"LONG TITI","nmsls":"RT 02"}},{"type":"Feature","geometry":{"type":"MultiPolygon","coordinates":[[[[116.11248,3.31325],[116.11221,3.31274],[116.11157,3.31199],[116.111,3.31236],[116.11047,3.31272],[116.11104,3.31321],[116.11154,3.31343],[116.11193,3.31343],[116.11248,3.31325]]]]},"properties":{"kdprov":"65","kdkab":"01","kdkec":"070","kddesa":"005","kdsls":"0003","idsls":"65010700050003","nmprov":"KALIMANTAN UTARA","nmkab":"MALINAU","nmkec":"SUNGAI TUBU","nmdesa":"RIAN TUBU","nmsls":"RT 03"}},{"type":"Feature","geometry":{"type":"MultiPolygon","coordinates":[[[[116.11157,3.31199],[116.11221,3.31274],[116.11248,3.31325],[116.11282,3.31314],[116.11332,3.31298],[116.11356,3.31274],[116.11356,3.3125],[116.11347,3.31203],[116.11273,3.31121],[116.11157,3.31199]]]]},"properties":{"kdprov":"65","kdkab":"01","kdkec":"070","kddesa":"005","kdsls":"0001","idsls":"65010700050001","nmprov":"KALIMANTAN UTARA","nmkab":"MALINAU","nmkec":"SUNGAI TUBU","nmdesa":"RIAN TUBU","nmsls":"RT 01"}},{"type":"Feature","geometry":{"type":"MultiPolygon","coordinates":[[[[116.31148,3.22103],[116.31033,3.21906],[116.30819,3.21332],[116.30808,3.21263],[116.30808,3.21261],[116.30463,3.21292],[116.30246,3.21207],[116.3016,3.20996],[116.30113,3.20882],[116.29896,3.20942],[116.29896,3.20942],[116.29739,3.20966],[116.29567,3.21051],[116.29567,3.21051],[116.29438,3.21111],[116.29257,3.2099],[116.29257,3.20833],[116.28871,3.20821],[116.28678,3.20773],[116.28497,3.2064],[116.28294,3.206],[116.28294,3.206],[116.28078,3.2084],[116.28078,3.2084],[116.27846,3.21002],[116.27653,3.20894],[116.27653,3.20761],[116.2752,3.20399],[116.27315,3.20242],[116.27315,3.20242],[116.26941,3.20375],[116.26603,3.20279],[116.26603,3.20279],[116.26285,3.20432],[116.25928,3.20423],[116.25723,3.20291],[116.25723,3.20291],[116.25519,3.20423],[116.25519,3.20423],[116.25482,3.20447],[116.25344,3.20356],[116.25192,3.20254],[116.24993,3.20274],[116.24951,3.20279],[116.24848,3.202],[116.24649,3.20049],[116.24551,3.19811],[116.24465,3.19605],[116.24355,3.19315],[116.24187,3.18931],[116.24143,3.18843],[116.24276,3.18781],[116.24276,3.18781],[116.24543,3.18655],[116.24543,3.18655],[116.24742,3.18513],[116.24742,3.18513],[116.25008,3.18325],[116.25008,3.18325],[116.25228,3.1817],[116.25343,3.18042],[116.25485,3.17884],[116.25469,3.17661],[116.25456,3.17485],[116.25473,3.17356],[116.25501,3.17148],[116.25525,3.16951],[116.25551,3.16701],[116.25571,3.16514],[116.2571,3.16354],[116.2571,3.16354],[116.25913,3.16257],[116.2597,3.16057],[116.26,3.15969],[116.26061,3.15786],[116.26056,3.15648],[116.25942,3.15572],[116.25775,3.15349],[116.25685,3.15229],[116.25713,3.14858],[116.2597,3.14572],[116.2593,3.14195],[116.2612,3.13969],[116.26144,3.13707],[116.25751,3.13196],[116.25328,3.13087],[116.2487,3.12926],[116.24704,3.12839],[116.2449,3.12779],[116.24312,3.12773],[116.24169,3.12767],[116.24062,3.12756],[116.24086,3.12482],[116.24067,3.12223],[116.2404,3.12057],[116.23979,3.11839],[116.24074,3.1159],[116.24119,3.11467],[116.24157,3.11364],[116.24192,3.1118],[116.24229,3.10983],[116.24359,3.10769],[116.2449,3.10531],[116.2445,3.1026],[116.24419,3.09983],[116.24157,3.09888],[116.23836,3.09983],[116.23729,3.09829],[116.23788,3.09638],[116.23955,3.09496],[116.24014,3.09282],[116.23921,3.09104],[116.23986,3.08757],[116.23781,3.08514],[116.23781,3.08514],[116.23728,3.08567],[116.23175,3.08508],[116.22962,3.08508],[116.22729,3.08508],[116.22563,3.08365],[116.2261,3.08116],[116.22491,3.07835],[116.22384,3.07604],[116.22496,3.07363],[116.22468,3.07009],[116.22789,3.06676],[116.22599,3.06391],[116.22673,3.06043],[116.22599,3.05998],[116.22658,3.05724],[116.22884,3.05581],[116.22832,3.05316],[116.22832,3.05316],[116.23122,3.05177],[116.2321,3.04993],[116.23191,3.04764],[116.23081,3.04588],[116.22963,3.04382],[116.22851,3.04131],[116.22789,3.03939],[116.22753,3.03761],[116.22729,3.03333],[116.22575,3.03154],[116.22569,3.02993],[116.22578,3.02788],[116.2261,3.02667],[116.2261,3.02488],[116.22527,3.02334],[116.22535,3.0214],[116.22599,3.02012],[116.22741,3.01846],[116.22908,3.0156],[116.22956,3.01346],[116.22825,3.01013],[116.2261,3.01037],[116.22377,3.01049],[116.22194,3.01039],[116.22048,3.0102],[116.21992,3.01013],[116.21899,3.00945],[116.21814,3.00883],[116.21683,3.00787],[116.21521,3.00641],[116.21445,3.00573],[116.21337,3.00382],[116.20981,3.00406],[116.20738,3.00328],[116.20576,3.00275],[116.20638,3.00137],[116.20731,2.9993],[116.20673,2.99763],[116.20624,2.99621],[116.20358,2.99738],[116.20354,2.99739],[116.20197,2.99756],[116.20005,2.99776],[116.19749,2.99808],[116.19697,2.99815],[116.19541,2.99835],[116.19541,2.99835],[116.19383,2.99978],[116.19371,2.99988],[116.19172,3.00168],[116.19017,3.00223],[116.19017,3.00223],[116.1897,3.0024],[116.1897,3.0024],[116.18698,3.00198],[116.18684,3.00196],[116.18351,3.00144],[116.1809,3.00144],[116.17852,3.00157],[116.17649,3.00168],[116.17537,3.00082],[116.17326,2.99911],[116.17162,2.99764],[116.17163,2.99577],[116.17242,2.99425],[116.17176,2.9923],[116.17045,2.98955],[116.17185,2.98711],[116.17152,2.98616],[116.17157,2.98359],[116.17038,2.98183],[116.16858,2.98128],[116.16665,2.97979],[116.16617,2.97765],[116.16568,2.97542],[116.16605,2.97279],[116.16614,2.9705],[116.1655,2.96772],[116.16617,2.96504],[116.1652,2.96359],[116.16424,2.96127],[116.16286,2.96013],[116.16095,2.95903],[116.15891,2.95799],[116.15724,2.9568],[116.15382,2.95675],[116.15258,2.95716],[116.15108,2.95692],[116.15045,2.95682],[116.15001,2.95484],[116.14953,2.95323],[116.14925,2.95113],[116.14868,2.9498],[116.14715,2.94885],[116.14596,2.9479],[116.1458,2.94729],[116.14544,2.94595],[116.14476,2.94481],[116.14474,2.94465],[116.14474,2.94465],[116.14446,2.94253],[116.14442,2.94224],[116.14412,2.93991],[116.14299,2.93847],[116.14127,2.93705],[116.14115,2.93512],[116.13898,2.93452],[116.13741,2.93452],[116.13648,2.93369],[116.13543,2.93274],[116.13512,2.93247],[116.13275,2.93143],[116.13022,2.93204],[116.13022,2.93204],[116.12905,2.93213],[116.12837,2.93219],[116.12837,2.93219],[116.12709,2.9337],[116.12657,2.93401],[116.12507,2.9349],[116.12507,2.9349],[116.12388,2.93581],[116.12388,2.93581],[116.12269,2.93745],[116.12095,2.93866],[116.12095,2.93866],[116.11879,2.93824],[116.11781,2.93932],[116.11658,2.9405],[116.11562,2.9419],[116.11423,2.94359],[116.11299,2.94466],[116.11299,2.94466],[116.11105,2.94609],[116.11105,2.94609],[116.1091,2.94622],[116.10775,2.9465],[116.1064,2.94729],[116.10586,2.94761],[116.10586,2.94761],[116.10496,2.94818],[116.10496,2.94818],[116.10245,2.94888],[116.10134,2.95046],[116.10134,2.95046],[116.09944,2.95084],[116.09825,2.95062],[116.09671,2.94973],[116.09707,2.9491],[116.09844,2.94702],[116.09899,2.94542],[116.09982,2.94418],[116.09982,2.94228],[116.09944,2.9398],[116.09846,2.93882],[116.09771,2.93796],[116.09658,2.93619],[116.09557,2.93423],[116.09557,2.93423],[116.09423,2.93462],[116.09423,2.93462],[116.09304,2.93505],[116.09304,2.93505],[116.09271,2.93586],[116.09318,2.93711],[116.09296,2.93809],[116.09211,2.93947],[116.09144,2.94057],[116.09014,2.94214],[116.08878,2.9438],[116.08706,2.94418],[116.08706,2.94418],[116.08725,2.94628],[116.08699,2.94799],[116.08655,2.94935],[116.08584,2.95066],[116.08438,2.95299],[116.084,2.95432],[116.08413,2.95612],[116.08414,2.95837],[116.0823,2.95884],[116.0823,2.95884],[116.07962,2.95841],[116.0782,2.95784],[116.07682,2.95732],[116.07458,2.95661],[116.07277,2.9558],[116.07225,2.95508],[116.07092,2.95404],[116.07031,2.95294],[116.06668,2.95323],[116.06506,2.95289],[116.06325,2.95337],[116.06325,2.95337],[116.06173,2.95408],[116.06053,2.9543],[116.06196,2.95625],[116.0625,2.95841],[116.06374,2.962],[116.06535,2.96451],[116.06785,2.96613],[116.07285,2.96613],[116.07784,2.9665],[116.08134,2.96659],[116.08134,2.96659],[116.08378,2.96861],[116.08743,2.97186],[116.0899,2.9763],[116.08828,2.9816],[116.08785,2.98711],[116.08935,2.99177],[116.09139,2.99534],[116.09746,3.00098],[116.10082,3.00176],[116.10488,3.00158],[116.10726,3.00209],[116.1074,3.00213],[116.10754,3.00216],[116.10803,3.00226],[116.10921,3.00252],[116.11291,3.001],[116.11636,2.99971],[116.1173,3.00149],[116.11761,3.00207],[116.11829,3.00335],[116.11843,3.00361],[116.11919,3.00505],[116.12115,3.00908],[116.12368,3.01237],[116.12709,3.01084],[116.12983,3.00875],[116.13241,3.00852],[116.13524,3.01064],[116.1383,3.01392],[116.14095,3.01775],[116.14099,3.0197],[116.13764,3.0247],[116.137,3.02968],[116.14439,3.03378],[116.14779,3.03719],[116.15052,3.04331],[116.15104,3.04615],[116.15108,3.04672],[116.15137,3.05029],[116.15236,3.05726],[116.15249,3.05754],[116.154,3.06071],[116.15655,3.06607],[116.15377,3.065],[116.14963,3.06443],[116.14649,3.06507],[116.1445,3.06643],[116.14386,3.06878],[116.14279,3.07326],[116.13724,3.08158],[116.1368,3.08302],[116.13507,3.08647],[116.13385,3.08855],[116.13336,3.08938],[116.13141,3.09223],[116.13036,3.09311],[116.12884,3.09438],[116.12813,3.09745],[116.12595,3.10094],[116.12569,3.10137],[116.12292,3.1025],[116.11999,3.10389],[116.11855,3.10491],[116.11632,3.104],[116.11463,3.10359],[116.11435,3.10367],[116.11436,3.10386],[116.11438,3.10415],[116.11462,3.10455],[116.11496,3.10478],[116.11545,3.10527],[116.11553,3.10553],[116.11571,3.10615],[116.11571,3.10674],[116.11546,3.10716],[116.11523,3.10744],[116.11496,3.10769],[116.11445,3.10781],[116.11405,3.10772],[116.11746,3.11218],[116.11891,3.11277],[116.1216,3.11389],[116.12364,3.11269],[116.12645,3.11104],[116.13217,3.10463],[116.13751,3.10748],[116.1393,3.11745],[116.14075,3.12264],[116.14358,3.13276],[116.15463,3.15091],[116.16675,3.15696],[116.17495,3.1744],[116.16782,3.18295],[116.15463,3.18508],[116.15213,3.19078],[116.15159,3.19431],[116.15099,3.19819],[116.14999,3.20466],[116.1532,3.22068],[116.16019,3.23935],[116.16022,3.23943],[116.16022,3.23943],[116.16022,3.23943],[116.16026,3.23949],[116.16132,3.24125],[116.16177,3.24306],[116.16239,3.24724],[116.16347,3.25222],[116.16513,3.26152],[116.16513,3.26442],[116.15664,3.2801],[116.15614,3.28731],[116.1563,3.28965],[116.15638,3.29083],[116.15702,3.2999],[116.15704,3.30028],[116.15712,3.30136],[116.15829,3.30445],[116.15857,3.30493],[116.15873,3.3052],[116.15873,3.3052],[116.15946,3.30642],[116.16036,3.30795],[116.16174,3.31027],[116.16228,3.31118],[116.16252,3.3116],[116.16482,3.31547],[116.16497,3.31608],[116.16513,3.31673],[116.16516,3.31685],[116.16531,3.31748],[116.16549,3.31822],[116.16651,3.32077],[116.16653,3.3209],[116.16699,3.31904],[116.1693,3.31263],[116.18118,3.29698],[116.1849,3.28951],[116.18951,3.28186],[116.19465,3.27955],[116.2028,3.2776],[116.2067,3.27262],[116.20989,3.26621],[116.21592,3.25696],[116.22584,3.25039],[116.23487,3.24808],[116.24373,3.24399],[116.25701,3.24418],[116.28064,3.24963],[116.29658,3.2411],[116.30314,3.2306],[116.30562,3.22437],[116.31148,3.22103]]]]},"properties":{"kdprov":"65","kdkab":"01","kdkec":"070","kddesa":"004","kdsls":"2001","idsls":"65010700042001","nmprov":"KALIMANTAN UTARA","nmkab":"MALINAU","nmkec":"SUNGAI TUBU","nmdesa":"LONG RANAU","nmsls":"KAWASAN HUTAN ( BUKAN PERTANIAN )"}},{"type":"Feature","geometry":{"type":"MultiPolygon","coordinates":[[[[116.11553,3.10553],[116.11545,3.10527],[116.11496,3.10478],[116.11462,3.10455],[116.11438,3.10415],[116.11436,3.10386],[116.11435,3.10367],[116.11217,3.10431],[116.11227,3.1046],[116.11265,3.10499],[116.11282,3.10522],[116.11292,3.10566],[116.11313,3.10634],[116.11347,3.10624],[116.11412,3.10602],[116.11553,3.10553]]]]},"properties":{"kdprov":"65","kdkab":"01","kdkec":"070","kddesa":"004","kdsls":"0001","idsls":"65010700040001","nmprov":"KALIMANTAN UTARA","nmkab":"MALINAU","nmkec":"SUNGAI TUBU","nmdesa":"LONG RANAU","nmsls":"RT 01"}},{"type":"Feature","geometry":{"type":"MultiPolygon","coordinates":[[[[116.06308,3.05157],[116.06358,3.05148],[116.06444,3.05044],[116.06873,3.05075],[116.07299,3.05504],[116.08301,3.06094],[116.08474,3.06083],[116.08649,3.06072],[116.08996,3.06086],[116.09077,3.06272],[116.09144,3.06962],[116.09144,3.07193],[116.09181,3.07385],[116.09214,3.07554],[116.09616,3.07813],[116.1003,3.08222],[116.1017,3.08399],[116.10353,3.08765],[116.1038,3.0881],[116.10387,3.08821],[116.10393,3.08833],[116.10411,3.08862],[116.10471,3.08963],[116.10475,3.08969],[116.10524,3.09287],[116.10471,3.0937],[116.10325,3.096],[116.10337,3.09661],[116.10356,3.09755],[116.10441,3.09953],[116.10448,3.09968],[116.10461,3.09989],[116.10471,3.10006],[116.10531,3.10106],[116.1056,3.10153],[116.10572,3.1017],[116.10583,3.10185],[116.10879,3.1039],[116.11187,3.10452],[116.11193,3.10438],[116.11217,3.10431],[116.11435,3.10367],[116.11463,3.10359],[116.11632,3.104],[116.11855,3.10491],[116.11999,3.10389],[116.12292,3.1025],[116.12569,3.10137],[116.12595,3.10094],[116.12813,3.09745],[116.12884,3.09438],[116.13036,3.09311],[116.13141,3.09223],[116.13336,3.08938],[116.13385,3.08855],[116.13507,3.08647],[116.1368,3.08302],[116.13724,3.08158],[116.14279,3.07326],[116.14386,3.06878],[116.1445,3.06643],[116.14649,3.06507],[116.14963,3.06443],[116.15377,3.065],[116.15655,3.06607],[116.154,3.06071],[116.15249,3.05754],[116.15236,3.05726],[116.15137,3.05029],[116.15108,3.04672],[116.15104,3.04615],[116.15052,3.04331],[116.14779,3.03719],[116.14439,3.03378],[116.137,3.02968],[116.13764,3.0247],[116.14099,3.0197],[116.14095,3.01775],[116.1383,3.01392],[116.13524,3.01064],[116.13241,3.00852],[116.12983,3.00875],[116.12709,3.01084],[116.12368,3.01237],[116.12115,3.00908],[116.11919,3.00505],[116.11843,3.00361],[116.11829,3.00335],[116.11761,3.00207],[116.1173,3.00149],[116.11636,2.99971],[116.11291,3.001],[116.10921,3.00252],[116.10803,3.00226],[116.10754,3.00216],[116.1074,3.00213],[116.10726,3.00209],[116.10488,3.00158],[116.10082,3.00176],[116.09746,3.00098],[116.09139,2.99534],[116.08935,2.99177],[116.08785,2.98711],[116.08828,2.9816],[116.0899,2.9763],[116.08743,2.97186],[116.08378,2.96861],[116.08134,2.96659],[116.08134,2.96659],[116.07784,2.9665],[116.07285,2.96613],[116.06785,2.96613],[116.06535,2.96451],[116.06374,2.962],[116.0625,2.95841],[116.06196,2.95625],[116.06053,2.9543],[116.0604,2.95432],[116.0604,2.95432],[116.05905,2.95474],[116.05771,2.95593],[116.05746,2.95615],[116.05723,2.95636],[116.05723,2.95636],[116.05426,2.9567],[116.05426,2.9567],[116.05407,2.95678],[116.0538,2.9569],[116.05291,2.95728],[116.05272,2.95736],[116.05255,2.95743],[116.05255,2.95743],[116.05056,2.9566],[116.05047,2.95663],[116.05036,2.95666],[116.04818,2.95732],[116.04818,2.95732],[116.0454,2.95809],[116.0454,2.95809],[116.04362,2.95859],[116.04362,2.95859],[116.04254,2.95413],[116.04192,2.9513],[116.04055,2.94832],[116.04043,2.94712],[116.03849,2.94609],[116.03625,2.9467],[116.03425,2.94929],[116.03247,2.9487],[116.03068,2.9481],[116.02759,2.94763],[116.02521,2.9462],[116.02347,2.94632],[116.02161,2.94449],[116.02021,2.94382],[116.01689,2.94287],[116.01521,2.94239],[116.01141,2.94192],[116.00832,2.93997],[116.00688,2.93906],[116.0048,2.93809],[116.00337,2.93798],[116.00199,2.93846],[116.00172,2.93855],[116.00126,2.93998],[115.99998,2.94168],[115.99967,2.94359],[115.99875,2.94478],[115.99743,2.9465],[115.99366,2.9466],[115.99101,2.94564],[115.98814,2.94506],[115.98547,2.94516],[115.98246,2.94556],[115.98,2.94644],[115.9771,2.94774],[115.97355,2.94816],[115.97276,2.94825],[115.97,2.9481],[115.96956,2.94807],[115.96956,2.94807],[115.96922,2.94876],[115.96814,2.95094],[115.96722,2.95357],[115.96837,2.95654],[115.96837,2.95858],[115.96766,2.95958],[115.96691,2.96063],[115.96656,2.96243],[115.96733,2.96563],[115.96786,2.96714],[115.9681,2.97071],[115.96876,2.97268],[115.96854,2.97478],[115.96768,2.97619],[115.96792,2.97736],[115.96816,2.97848],[115.96758,2.9811],[115.96685,2.9834],[115.9662,2.98523],[115.96603,2.98778],[115.96608,2.98966],[115.96632,2.99135],[115.96667,2.99379],[115.96811,2.99536],[115.9688,2.99611],[115.96946,2.99794],[115.96977,3.00022],[115.97029,3.00256],[115.97072,3.0045],[115.97205,3.00602],[115.97324,3.00739],[115.9742,3.009],[115.97458,3.01079],[115.97462,3.01276],[115.97429,3.01544],[115.9748,3.0167],[115.97535,3.01803],[115.97595,3.01949],[115.97356,3.0209],[115.97191,3.02187],[115.97033,3.02169],[115.9683,3.02236],[115.96643,3.0233],[115.96527,3.02277],[115.96382,3.02211],[115.96278,3.02331],[115.96186,3.02436],[115.96017,3.02543],[115.95881,3.02481],[115.95748,3.02486],[115.95573,3.02591],[115.95406,3.02734],[115.95273,3.02887],[115.95097,3.03091],[115.95097,3.03234],[115.95097,3.03455],[115.95041,3.03622],[115.9493,3.03781],[115.95181,3.04079],[115.95312,3.04235],[115.95371,3.04148],[115.95609,3.039],[115.95609,3.039],[115.95696,3.03925],[115.96809,3.03865],[115.98227,3.03789],[115.98606,3.03841],[115.99209,3.0398],[116.00001,3.04327],[116.00621,3.04068],[116.01,3.04051],[116.01723,3.04277],[116.02635,3.04676],[116.03409,3.05144],[116.04184,3.05508],[116.04477,3.05716],[116.04639,3.06025],[116.04786,3.06305],[116.0514,3.05991],[116.05535,3.05641],[116.05801,3.05247],[116.06308,3.05157]],[[116.14231,3.05566],[116.14237,3.05421],[116.14245,3.05402],[116.14255,3.05377],[116.14256,3.05373],[116.14307,3.05347],[116.1436,3.05356],[116.14397,3.05406],[116.14402,3.05413],[116.14424,3.05442],[116.14416,3.05504],[116.14407,3.05569],[116.14401,3.05615],[116.1423,3.05595],[116.14231,3.05566]]]]},"properties":{"kdprov":"65","kdkab":"01","kdkec":"070","kddesa":"001","kdsls":"2001","idsls":"65010700012001","nmprov":"KALIMANTAN UTARA","nmkab":"MALINAU","nmkec":"SUNGAI TUBU","nmdesa":"LONG PADA","nmsls":"KAWASAN HUTAN"}},{"type":"Feature","geometry":{"type":"MultiPolygon","coordinates":[[[[116.11217,3.10431],[116.11193,3.10438],[116.11187,3.10452],[116.10879,3.1039],[116.10583,3.10185],[116.10572,3.1017],[116.1056,3.10153],[116.10531,3.10106],[116.10471,3.10006],[116.10461,3.09989],[116.10448,3.09968],[116.10441,3.09953],[116.10356,3.09755],[116.10337,3.09661],[116.10325,3.096],[116.10141,3.09722],[116.09896,3.09885],[116.0986,3.09902],[116.09735,3.0996],[116.09735,3.0996],[116.09682,3.09985],[116.09638,3.10005],[116.09618,3.10015],[116.09298,3.10164],[116.08954,3.10164],[116.08638,3.10222],[116.08363,3.10385],[116.08141,3.10571],[116.07882,3.10741],[116.07425,3.10884],[116.06649,3.11126],[116.0641,3.11171],[116.06301,3.11212],[116.06062,3.11089],[116.05638,3.10721],[116.05345,3.10521],[116.05031,3.10509],[116.04774,3.10586],[116.04462,3.10641],[116.04033,3.10586],[116.03487,3.10458],[116.03257,3.10462],[116.03038,3.10378],[116.0274,3.10346],[116.02424,3.10428],[116.02365,3.10491],[116.02172,3.10001],[116.01932,3.10132],[116.01449,3.10182],[116.01264,3.10272],[116.01083,3.10236],[116.00819,3.10161],[116.00648,3.10365],[116.00268,3.1075],[115.99889,3.10909],[115.99523,3.10867],[115.99279,3.10899],[115.98831,3.11531],[115.98735,3.11668],[115.98603,3.11903],[115.98502,3.11971],[115.98395,3.12043],[115.98077,3.12255],[115.97368,3.12336],[115.97356,3.12329],[115.96791,3.12036],[115.96676,3.11945],[115.96691,3.1209],[115.96695,3.12339],[115.96698,3.12543],[115.96525,3.12676],[115.96539,3.12725],[115.96509,3.12847],[115.96606,3.12944],[115.96638,3.13148],[115.96667,3.1335],[115.96695,3.13549],[115.96707,3.13629],[115.96773,3.1382],[115.9682,3.13956],[115.96864,3.1408],[115.96851,3.14252],[115.96783,3.14366],[115.96754,3.14414],[115.96754,3.14568],[115.96669,3.14737],[115.96606,3.14845],[115.9656,3.14982],[115.96492,3.15111],[115.96389,3.15237],[115.96278,3.15413],[115.96223,3.15578],[115.96158,3.15705],[115.96012,3.15799],[115.95829,3.15797],[115.95715,3.15819],[115.95658,3.15919],[115.9566,3.16008],[115.95603,3.1619],[115.95556,3.16342],[115.95541,3.16496],[115.95541,3.16704],[115.95548,3.16784],[115.95601,3.17049],[115.95618,3.17135],[115.95636,3.17222],[115.95655,3.17319],[115.95655,3.1732],[115.95657,3.17401],[115.95651,3.17504],[115.95647,3.17589],[115.95642,3.1768],[115.95636,3.17794],[115.95683,3.17855],[115.95858,3.17852],[115.95981,3.17814],[115.96235,3.17838],[115.96369,3.17938],[115.96483,3.18052],[115.96643,3.18238],[115.9673,3.18508],[115.96684,3.1866],[115.96641,3.18801],[115.96575,3.19019],[115.96383,3.19194],[115.96232,3.19266],[115.96015,3.1924],[115.95849,3.19334],[115.95786,3.19491],[115.95775,3.1962],[115.95749,3.19748],[115.95681,3.19857],[115.95612,3.19914],[115.95484,3.19882],[115.95369,3.19882],[115.95221,3.19994],[115.95087,3.20051],[115.94958,3.20091],[115.948,3.20118],[115.94664,3.20134],[115.94436,3.20299],[115.94361,3.20422],[115.94314,3.20509],[115.94127,3.20518],[115.94082,3.20608],[115.94156,3.20742],[115.94222,3.20847],[115.94322,3.20916],[115.94408,3.21049],[115.94378,3.2122],[115.94323,3.21403],[115.94268,3.21551],[115.94228,3.21704],[115.94196,3.21875],[115.94225,3.22032],[115.94219,3.2218],[115.94213,3.22342],[115.94274,3.22493],[115.9437,3.22689],[115.94458,3.22798],[115.94552,3.22929],[115.94621,3.23066],[115.94647,3.2322],[115.94647,3.23431],[115.94834,3.23644],[115.94914,3.23758],[115.95061,3.23925],[115.95167,3.2408],[115.95142,3.24246],[115.95142,3.24535],[115.95153,3.24635],[115.95198,3.24765],[115.95218,3.24925],[115.95203,3.25083],[115.95153,3.25245],[115.95127,3.25402],[115.95127,3.25567],[115.95127,3.25692],[115.95117,3.25847],[115.95108,3.2597],[115.95096,3.26149],[115.95038,3.26264],[115.95081,3.26407],[115.95149,3.26506],[115.9522,3.26664],[115.95287,3.26777],[115.95533,3.26888],[115.95676,3.26947],[115.95899,3.27209],[115.96001,3.27463],[115.96038,3.27572],[115.96083,3.27806],[115.95978,3.27897],[115.95821,3.28063],[115.9582,3.28246],[115.95892,3.28501],[115.95809,3.28762],[115.95666,3.29114],[115.95509,3.29448],[115.95539,3.29697],[115.95675,3.29987],[115.95797,3.30139],[115.95709,3.30325],[115.95658,3.30498],[115.95523,3.30657],[115.95329,3.30638],[115.95279,3.30581],[115.95081,3.30642],[115.94915,3.3065],[115.94715,3.30875],[115.946,3.31031],[115.94533,3.31098],[115.94294,3.31125],[115.94123,3.3102],[115.93939,3.30961],[115.93816,3.30728],[115.93616,3.30413],[115.93551,3.30098],[115.93542,3.29967],[115.93332,3.29886],[115.93239,3.29819],[115.93132,3.29686],[115.92997,3.29785],[115.92897,3.29953],[115.92845,3.30073],[115.92837,3.3027],[115.92777,3.30419],[115.92638,3.30406],[115.92523,3.30383],[115.92383,3.30473],[115.92303,3.3061],[115.92188,3.30711],[115.91914,3.30657],[115.91677,3.30581],[115.91526,3.30504],[115.91526,3.30664],[115.91524,3.30793],[115.91669,3.31061],[115.91594,3.3119],[115.9162,3.31409],[115.91609,3.31586],[115.91487,3.31768],[115.91394,3.31874],[115.91329,3.31995],[115.91355,3.32203],[115.91378,3.32402],[115.91198,3.32534],[115.91112,3.3268],[115.91189,3.32851],[115.91281,3.32977],[115.91283,3.33237],[115.91164,3.33303],[115.91076,3.33352],[115.91007,3.33491],[115.90925,3.3361],[115.90835,3.33662],[115.90649,3.33685],[115.90513,3.33702],[115.90301,3.33702],[115.90128,3.33697],[115.90041,3.33687],[115.89887,3.33694],[115.8977,3.33631],[115.89661,3.33605],[115.8965,3.33609],[115.8979,3.33788],[115.90489,3.34808],[115.91345,3.35915],[115.91958,3.3649],[115.92287,3.36648],[115.92537,3.36929],[115.93122,3.37274],[115.93665,3.37432],[115.94393,3.37634],[115.95022,3.37778],[115.95536,3.38037],[115.9595,3.38268],[115.96121,3.38498],[115.9625,3.389],[115.96278,3.39288],[115.96299,3.3974],[115.96456,3.40185],[115.96798,3.40631],[115.9704,3.40976],[115.97066,3.40999],[115.97141,3.41068],[115.97157,3.41082],[115.97168,3.41093],[115.97355,3.41263],[115.97387,3.41368],[115.97571,3.41175],[115.97693,3.41047],[115.99278,3.39383],[115.99329,3.39246],[115.99366,3.39148],[115.99418,3.39009],[115.9964,3.38681],[115.99864,3.38433],[115.99812,3.38082],[115.9983,3.37701],[115.99824,3.37432],[115.99823,3.36055],[116.00007,3.34753],[116.00136,3.34145],[116.00152,3.33054],[116.00198,3.32884],[116.00055,3.32222],[115.99844,3.32061],[115.99816,3.31666],[115.9951,3.31234],[115.99439,3.30298],[115.99747,3.29373],[115.99864,3.29256],[116.00053,3.29125],[116.00359,3.29008],[116.01385,3.28804],[116.0148,3.28731],[116.01836,3.2841],[116.01924,3.2819],[116.02244,3.28059],[116.02448,3.28293],[116.02702,3.28213],[116.03652,3.28101],[116.03943,3.2843],[116.04263,3.28255],[116.04671,3.2808],[116.04926,3.27846],[116.0526,3.2789],[116.05529,3.28037],[116.05777,3.27861],[116.06279,3.27855],[116.06717,3.27575],[116.06839,3.27497],[116.07043,3.2746],[116.07167,3.27475],[116.07341,3.27497],[116.07509,3.2738],[116.07033,3.2666],[116.06837,3.26411],[116.06858,3.26334],[116.06917,3.26126],[116.06939,3.26103],[116.07165,3.2587],[116.07238,3.25854],[116.07463,3.25804],[116.07453,3.25654],[116.07441,3.2549],[116.0726,3.25124],[116.07355,3.24912],[116.07755,3.24744],[116.08104,3.24862],[116.08333,3.24741],[116.08865,3.23945],[116.09215,3.23353],[116.10307,3.22579],[116.10671,3.22564],[116.10914,3.22517],[116.1122,3.22905],[116.11409,3.22766],[116.11531,3.22827],[116.11598,3.22861],[116.11794,3.2292],[116.1201,3.22857],[116.12054,3.22844],[116.1242,3.22738],[116.1314,3.23111],[116.13555,3.2328],[116.14013,3.23595],[116.14479,3.23646],[116.15453,3.2361],[116.15824,3.23779],[116.16014,3.23942],[116.16021,3.23947],[116.16026,3.23949],[116.16022,3.23943],[116.16022,3.23943],[116.16022,3.23943],[116.16019,3.23935],[116.1532,3.22068],[116.14999,3.20466],[116.15099,3.19819],[116.15159,3.19431],[116.15213,3.19078],[116.15463,3.18508],[116.16782,3.18295],[116.17495,3.1744],[116.16675,3.15696],[116.15463,3.15091],[116.14358,3.13276],[116.14075,3.12264],[116.1393,3.11745],[116.13751,3.10748],[116.13217,3.10463],[116.12645,3.11104],[116.12364,3.11269],[116.1216,3.11389],[116.11891,3.11277],[116.11746,3.11218],[116.11405,3.10772],[116.1137,3.10751],[116.1135,3.10727],[116.11328,3.10683],[116.11313,3.10634],[116.11292,3.10566],[116.11282,3.10522],[116.11265,3.10499],[116.11227,3.1046],[116.11217,3.10431]],[[116.06819,3.25919],[116.06804,3.26003],[116.06801,3.26025],[116.06747,3.26104],[116.06736,3.2612],[116.06596,3.26111],[116.06565,3.26087],[116.06567,3.26008],[116.06572,3.25998],[116.06618,3.25893],[116.06641,3.25839],[116.06668,3.25796],[116.06705,3.25735],[116.06835,3.25823],[116.06819,3.25919]]]]},"properties":{"kdprov":"65","kdkab":"01","kdkec":"070","kddesa":"003","kdsls":"2001","idsls":"65010700032001","nmprov":"KALIMANTAN UTARA","nmkab":"MALINAU","nmkec":"SUNGAI TUBU","nmdesa":"LONG TITI","nmsls":"KAWASAN HUTAN ( BUKAN PERTANIAN )"}},{"type":"Feature","geometry":{"type":"MultiPolygon","coordinates":[[[[116.14245,3.05402],[116.14237,3.05421],[116.14231,3.05566],[116.14307,3.05515],[116.14299,3.05511],[116.14296,3.05502],[116.14284,3.05497],[116.14277,3.05482],[116.14268,3.05471],[116.14278,3.0545],[116.14293,3.05422],[116.14245,3.05402]]]]},"properties":{"kdprov":"65","kdkab":"01","kdkec":"070","kddesa":"001","kdsls":"0002","idsls":"65010700010002","nmprov":"KALIMANTAN UTARA","nmkab":"MALINAU","nmkec":"SUNGAI TUBU","nmdesa":"LONG PADA","nmsls":"RT 02"}},{"type":"Feature","geometry":{"type":"MultiPolygon","coordinates":[[[[116.16174,3.31027],[116.16036,3.30795],[116.15946,3.30642],[116.1591,3.3066],[116.1598,3.30821],[116.16062,3.31048],[116.16174,3.31027]]]]},"properties":{"kdprov":"65","kdkab":"01","kdkec":"070","kddesa":"005","kdsls":"0002","idsls":"65010700050002","nmprov":"KALIMANTAN UTARA","nmkab":"MALINAU","nmkec":"SUNGAI TUBU","nmdesa":"RIAN TUBU","nmsls":"RT 02"}},{"type":"Feature","geometry":{"type":"MultiPolygon","coordinates":[[[[116.11313,3.10634],[116.11328,3.10683],[116.1135,3.10727],[116.1137,3.10751],[116.11405,3.10772],[116.11445,3.10781],[116.11496,3.10769],[116.11523,3.10744],[116.11546,3.10716],[116.11571,3.10674],[116.11571,3.10615],[116.11553,3.10553],[116.11412,3.10602],[116.11347,3.10624],[116.11313,3.10634]]]]},"properties":{"kdprov":"65","kdkab":"01","kdkec":"070","kddesa":"004","kdsls":"0002","idsls":"65010700040002","nmprov":"KALIMANTAN UTARA","nmkab":"MALINAU","nmkec":"SUNGAI TUBU","nmdesa":"LONG RANAU","nmsls":"RT 02"}},{"type":"Feature","geometry":{"type":"MultiPolygon","coordinates":[[[[116.18915,3.41302],[116.18756,3.41229],[116.1844,3.41085],[116.17899,3.40971],[116.17141,3.41004],[116.16769,3.40693],[116.16451,3.40428],[116.16139,3.39976],[116.16036,3.39646],[116.16184,3.39126],[116.1697,3.38616],[116.17084,3.38382],[116.17343,3.3823],[116.17533,3.37738],[116.178,3.37044],[116.18124,3.36623],[116.17988,3.36117],[116.17717,3.35451],[116.17439,3.34386],[116.17273,3.33712],[116.17102,3.33215],[116.16983,3.32978],[116.16858,3.32723],[116.16734,3.32435],[116.16678,3.3224],[116.16653,3.3209],[116.16651,3.32077],[116.16549,3.31822],[116.16531,3.31748],[116.16516,3.31685],[116.16513,3.31673],[116.16497,3.31608],[116.16482,3.31547],[116.16252,3.3116],[116.16228,3.31118],[116.16174,3.31027],[116.16062,3.31048],[116.1598,3.30821],[116.1591,3.3066],[116.15946,3.30642],[116.15873,3.3052],[116.15873,3.3052],[116.15857,3.30493],[116.15829,3.30445],[116.15712,3.30136],[116.15704,3.30028],[116.15702,3.2999],[116.15638,3.29083],[116.1563,3.28965],[116.15614,3.28731],[116.15664,3.2801],[116.16513,3.26442],[116.16513,3.26152],[116.16347,3.25222],[116.16239,3.24724],[116.16177,3.24306],[116.16132,3.24125],[116.16026,3.23949],[116.16021,3.23947],[116.16014,3.23942],[116.15824,3.23779],[116.15453,3.2361],[116.14479,3.23646],[116.14013,3.23595],[116.13555,3.2328],[116.1314,3.23111],[116.1242,3.22738],[116.12054,3.22844],[116.1201,3.22857],[116.11794,3.2292],[116.11598,3.22861],[116.11531,3.22827],[116.11409,3.22766],[116.1122,3.22905],[116.10914,3.22517],[116.10671,3.22564],[116.10307,3.22579],[116.09215,3.23353],[116.08865,3.23945],[116.08333,3.24741],[116.08104,3.24862],[116.07755,3.24744],[116.07355,3.24912],[116.0726,3.25124],[116.07441,3.2549],[116.07453,3.25654],[116.07463,3.25804],[116.07238,3.25854],[116.07165,3.2587],[116.06939,3.26103],[116.06917,3.26126],[116.06858,3.26334],[116.06837,3.26411],[116.07033,3.2666],[116.07509,3.2738],[116.07341,3.27497],[116.07167,3.27475],[116.07043,3.2746],[116.06839,3.27497],[116.06717,3.27575],[116.06279,3.27855],[116.05777,3.27861],[116.05529,3.28037],[116.0526,3.2789],[116.04926,3.27846],[116.04671,3.2808],[116.04263,3.28255],[116.03943,3.2843],[116.03652,3.28101],[116.02702,3.28213],[116.02448,3.28293],[116.02244,3.28059],[116.01924,3.2819],[116.01836,3.2841],[116.0148,3.28731],[116.01385,3.28804],[116.00359,3.29008],[116.00053,3.29125],[115.99864,3.29256],[115.99747,3.29373],[115.99439,3.30298],[115.9951,3.31234],[115.99816,3.31666],[115.99844,3.32061],[116.00055,3.32222],[116.00198,3.32884],[116.00152,3.33054],[116.00136,3.34145],[116.00007,3.34753],[115.99823,3.36055],[115.99824,3.37432],[115.9983,3.37701],[115.99812,3.38082],[115.99864,3.38433],[115.9964,3.38681],[115.99418,3.39009],[115.99366,3.39148],[115.99329,3.39246],[115.99278,3.39383],[115.97693,3.41047],[115.97571,3.41175],[115.97387,3.41368],[115.97355,3.41263],[115.97168,3.41093],[115.97157,3.41082],[115.97141,3.41068],[115.97066,3.40999],[115.9704,3.40976],[115.96798,3.40631],[115.96456,3.40185],[115.96299,3.3974],[115.96278,3.39288],[115.9625,3.389],[115.96121,3.38498],[115.9595,3.38268],[115.95536,3.38037],[115.95022,3.37778],[115.94393,3.37634],[115.93665,3.37432],[115.93122,3.37274],[115.92537,3.36929],[115.92287,3.36648],[115.91958,3.3649],[115.91345,3.35915],[115.90489,3.34808],[115.8979,3.33788],[115.8965,3.33609],[115.89507,3.33658],[115.89413,3.33805],[115.89303,3.33891],[115.89213,3.34022],[115.89245,3.34185],[115.89145,3.34325],[115.89027,3.34457],[115.88925,3.34504],[115.88756,3.34573],[115.88619,3.34628],[115.88571,3.34682],[115.88626,3.34823],[115.88686,3.34951],[115.88719,3.35133],[115.88499,3.35204],[115.88377,3.35349],[115.88297,3.35406],[115.88125,3.35486],[115.87943,3.35497],[115.87768,3.35612],[115.87668,3.3576],[115.87634,3.35965],[115.87668,3.36125],[115.87662,3.36267],[115.87623,3.36412],[115.87531,3.36632],[115.87657,3.3674],[115.87807,3.36814],[115.8789,3.36949],[115.87811,3.37097],[115.87951,3.37246],[115.88076,3.37307],[115.88211,3.37473],[115.88184,3.37631],[115.88125,3.37808],[115.88066,3.37927],[115.87965,3.38068],[115.87874,3.38182],[115.8786,3.38334],[115.87983,3.38496],[115.88185,3.38459],[115.88368,3.38448],[115.88551,3.38542],[115.88734,3.38608],[115.88959,3.38616],[115.89262,3.3869],[115.8941,3.38668],[115.89646,3.3875],[115.8985,3.38893],[115.90098,3.39036],[115.90233,3.39207],[115.90378,3.39474],[115.9039,3.39747],[115.90415,3.39924],[115.9053,3.40112],[115.90661,3.40229],[115.90905,3.40568],[115.91318,3.40592],[115.91402,3.40796],[115.9143,3.40972],[115.91609,3.41223],[115.91478,3.41432],[115.91437,3.41515],[115.91593,3.41554],[115.918,3.41509],[115.919,3.41449],[115.92031,3.41375],[115.92248,3.41386],[115.92388,3.41477],[115.92494,3.41352],[115.92637,3.41332],[115.92768,3.41315],[115.92861,3.41256],[115.93068,3.41386],[115.93239,3.41586],[115.93125,3.41829],[115.93139,3.42051],[115.93263,3.4225],[115.93131,3.4252],[115.93154,3.42691],[115.93199,3.42902],[115.93185,3.43071],[115.93136,3.43219],[115.93148,3.43382],[115.93136,3.43516],[115.93097,3.43665],[115.93176,3.43804],[115.93175,3.44085],[115.93149,3.44258],[115.93205,3.44387],[115.93276,3.44507],[115.93425,3.44393],[115.93542,3.44336],[115.93672,3.44344],[115.93754,3.44524],[115.93789,3.44724],[115.93801,3.44886],[115.93898,3.45127],[115.94022,3.45338],[115.94242,3.45349],[115.94404,3.45289],[115.9451,3.45244],[115.94785,3.4529],[115.94793,3.45292],[115.94945,3.45546],[115.94983,3.45917],[115.94914,3.46012],[115.94823,3.46102],[115.94754,3.46204],[115.94712,3.46301],[115.94626,3.46364],[115.94453,3.46378],[115.94312,3.46402],[115.94243,3.46459],[115.94236,3.46537],[115.94186,3.46668],[115.94131,3.46761],[115.94062,3.46863],[115.93976,3.46982],[115.93935,3.4707],[115.9382,3.47118],[115.9371,3.47147],[115.93584,3.47187],[115.93575,3.47194],[115.94035,3.47424],[115.94654,3.47805],[115.95154,3.48186],[115.9532,3.48447],[115.95558,3.48995],[115.95701,3.49351],[115.95963,3.49685],[115.9601,3.49899],[115.95939,3.50089],[115.95725,3.50541],[115.95513,3.51284],[115.95459,3.51409],[115.95467,3.51411],[115.95477,3.51412],[115.96083,3.51534],[115.96231,3.51682],[115.96436,3.51887],[115.96806,3.52256],[115.96968,3.52774],[115.97011,3.52914],[115.97127,3.53284],[115.97407,3.54181],[115.97638,3.54873],[115.97638,3.54873],[115.97665,3.54954],[115.97756,3.55226],[115.97768,3.55264],[115.97186,3.56058],[115.96813,3.56566],[115.96811,3.56569],[115.96627,3.5682],[115.96651,3.56816],[115.96878,3.5669],[115.96949,3.5665],[115.97015,3.5659],[115.97277,3.56351],[115.97227,3.56191],[115.97226,3.56188],[115.97372,3.56217],[115.9744,3.5623],[115.97518,3.56244],[115.97595,3.56259],[115.97721,3.56282],[115.9781,3.56299],[115.97902,3.56316],[115.97978,3.5633],[115.98047,3.56343],[115.98065,3.56315],[115.98088,3.56279],[115.98113,3.5624],[115.98136,3.56204],[115.9817,3.5615],[115.98222,3.56069],[115.98239,3.56008],[115.98256,3.55942],[115.98261,3.55925],[115.98266,3.55906],[115.98269,3.55896],[115.98306,3.55755],[115.98307,3.55748],[115.9831,3.55734],[115.98327,3.55659],[115.98344,3.55582],[115.98336,3.55515],[115.98329,3.55457],[115.9832,3.55381],[115.98311,3.55305],[115.98301,3.5522],[115.98325,3.55167],[115.9835,3.55114],[115.98438,3.54943],[115.98521,3.54819],[115.98603,3.5472],[115.98658,3.54673],[115.98661,3.54592],[115.98663,3.54546],[115.98665,3.54486],[115.98663,3.54423],[115.98658,3.54342],[115.98652,3.54267],[115.98635,3.54185],[115.98664,3.54112],[115.98692,3.54047],[115.98718,3.53983],[115.9873,3.53943],[115.98737,3.53922],[115.98749,3.53883],[115.98762,3.53841],[115.9878,3.53784],[115.98801,3.53697],[115.98812,3.53619],[115.98825,3.53531],[115.98847,3.53471],[115.98873,3.534],[115.98944,3.5334],[115.98968,3.53302],[115.99001,3.53251],[115.99027,3.53209],[115.99087,3.5315],[115.9911,3.53108],[115.99136,3.53053],[115.99176,3.52945],[115.99201,3.52859],[115.99218,3.52805],[115.99257,3.52768],[115.9931,3.52718],[115.99366,3.52665],[115.9942,3.52615],[115.99471,3.52605],[115.99551,3.52591],[115.99585,3.52514],[115.99621,3.52434],[115.99646,3.52378],[115.99669,3.52314],[115.99723,3.52321],[115.99793,3.52329],[115.99884,3.52341],[115.99949,3.52323],[116.00015,3.52305],[116.00053,3.52231],[116.00089,3.52163],[116.00122,3.52099],[116.00157,3.52078],[116.00206,3.52048],[116.00271,3.52008],[116.00337,3.51968],[116.00439,3.51978],[116.00513,3.51985],[116.00581,3.51991],[116.00638,3.51989],[116.00701,3.51986],[116.00764,3.51983],[116.00827,3.5198],[116.00909,3.51977],[116.00962,3.5198],[116.01088,3.51987],[116.01193,3.5199],[116.01315,3.51999],[116.01377,3.52001],[116.01511,3.52002],[116.01604,3.52005],[116.01713,3.52009],[116.01812,3.52021],[116.01909,3.52034],[116.01986,3.52065],[116.02037,3.52086],[116.021,3.52112],[116.02155,3.52134],[116.02235,3.52141],[116.02286,3.52146],[116.0235,3.52152],[116.02405,3.52158],[116.02485,3.52147],[116.02586,3.52134],[116.02671,3.52122],[116.02778,3.52108],[116.02848,3.5214],[116.02912,3.5217],[116.0298,3.52201],[116.03063,3.52239],[116.0312,3.52265],[116.03178,3.52292],[116.03262,3.52322],[116.03323,3.52344],[116.03389,3.52368],[116.03441,3.52386],[116.03511,3.52411],[116.0358,3.52468],[116.03615,3.52497],[116.03669,3.52541],[116.03759,3.52609],[116.03814,3.52648],[116.03868,3.52685],[116.03948,3.52697],[116.04023,3.52709],[116.04056,3.52691],[116.04121,3.52657],[116.04177,3.52627],[116.04249,3.5259],[116.04274,3.52569],[116.04327,3.52527],[116.04385,3.52481],[116.04415,3.52472],[116.04472,3.52456],[116.04545,3.52436],[116.04594,3.52477],[116.04628,3.52506],[116.04664,3.52538],[116.04651,3.52592],[116.04637,3.52647],[116.04618,3.52695],[116.04603,3.52735],[116.04639,3.528],[116.04655,3.52834],[116.04683,3.52875],[116.04739,3.52908],[116.04768,3.52896],[116.04817,3.52875],[116.04821,3.52811],[116.04847,3.52754],[116.04875,3.52692],[116.04871,3.52642],[116.04825,3.52582],[116.0481,3.52563],[116.04809,3.52509],[116.04808,3.52468],[116.04807,3.52427],[116.04846,3.52412],[116.04882,3.52405],[116.04946,3.52416],[116.05003,3.52412],[116.05053,3.52416],[116.05096,3.5238],[116.05132,3.52366],[116.05169,3.52337],[116.05211,3.52294],[116.05224,3.523],[116.05279,3.52316],[116.05314,3.52273],[116.05322,3.52242],[116.05331,3.52198],[116.0534,3.52147],[116.05368,3.5209],[116.05386,3.52072],[116.05425,3.5205],[116.05483,3.52058],[116.05522,3.52093],[116.05561,3.52129],[116.05586,3.52155],[116.05632,3.52189],[116.05675,3.52212],[116.05722,3.52212],[116.05793,3.52209],[116.05874,3.52197],[116.05933,3.52148],[116.05965,3.52094],[116.05993,3.52051],[116.06011,3.51986],[116.06028,3.51912],[116.06037,3.51864],[116.06055,3.51841],[116.06094,3.51803],[116.06137,3.51814],[116.0619,3.51836],[116.06243,3.51855],[116.06322,3.5189],[116.06338,3.51903],[116.06401,3.51951],[116.06465,3.51947],[116.06505,3.51908],[116.06566,3.5188],[116.06626,3.5185],[116.06687,3.5184],[116.06712,3.51854],[116.06744,3.51887],[116.06772,3.51913],[116.06797,3.51937],[116.0681,3.51965],[116.06822,3.52017],[116.06833,3.52052],[116.06858,3.52088],[116.06904,3.52114],[116.0694,3.52127],[116.0698,3.52117],[116.07026,3.52106],[116.07062,3.52063],[116.07073,3.51998],[116.0707,3.51947],[116.07062,3.5189],[116.07048,3.51871],[116.07026,3.5184],[116.07026,3.51795],[116.0703,3.51747],[116.07037,3.5171],[116.07042,3.51667],[116.07044,3.51621],[116.07044,3.51567],[116.07034,3.51517],[116.07022,3.5149],[116.07028,3.51455],[116.07045,3.51412],[116.07063,3.51377],[116.07096,3.51323],[116.07147,3.51278],[116.07195,3.51263],[116.07218,3.51241],[116.07245,3.51215],[116.07287,3.51203],[116.07322,3.51215],[116.07364,3.51227],[116.07376,3.51243],[116.07394,3.51266],[116.07397,3.51296],[116.07394,3.51347],[116.07403,3.51362],[116.07401,3.51392],[116.074,3.5141],[116.07409,3.51461],[116.07427,3.51479],[116.07459,3.51479],[116.07482,3.51468],[116.07522,3.51437],[116.0754,3.51392],[116.07546,3.51359],[116.07522,3.51311],[116.0751,3.51296],[116.07501,3.51269],[116.07512,3.51227],[116.07519,3.51198],[116.07543,3.51183],[116.07585,3.51171],[116.07614,3.51175],[116.07644,3.5118],[116.07704,3.51201],[116.07751,3.5121],[116.07771,3.51209],[116.07802,3.51207],[116.07841,3.51183],[116.07891,3.51156],[116.07927,3.51153],[116.0796,3.51144],[116.07981,3.51123],[116.08034,3.51117],[116.08077,3.51109],[116.08133,3.51096],[116.08183,3.51056],[116.0821,3.51033],[116.08258,3.50998],[116.08311,3.50971],[116.08344,3.50926],[116.08388,3.50896],[116.08428,3.50875],[116.08451,3.50872],[116.0849,3.50866],[116.08535,3.50843],[116.08553,3.50801],[116.08551,3.50771],[116.08544,3.50715],[116.08544,3.50668],[116.08547,3.50645],[116.08556,3.50628],[116.0858,3.50585],[116.08603,3.50549],[116.08652,3.5055],[116.0869,3.50567],[116.08743,3.50559],[116.0878,3.50534],[116.08819,3.50496],[116.08829,3.50479],[116.08848,3.50445],[116.08851,3.50398],[116.08854,3.5035],[116.08856,3.50312],[116.08855,3.50273],[116.08854,3.50245],[116.08875,3.50194],[116.08913,3.50167],[116.08931,3.50189],[116.08964,3.50242],[116.08976,3.50263],[116.08999,3.50293],[116.0902,3.50312],[116.09085,3.50324],[116.09152,3.50314],[116.09181,3.50287],[116.09199,3.50242],[116.09173,3.50194],[116.0914,3.50155],[116.09125,3.50134],[116.09107,3.50086],[116.09113,3.5002],[116.09125,3.49976],[116.09164,3.49925],[116.09214,3.49919],[116.09239,3.4992],[116.09289,3.49922],[116.09353,3.49935],[116.09426,3.49931],[116.09466,3.49898],[116.09518,3.49847],[116.09581,3.49799],[116.0964,3.498],[116.09669,3.4981],[116.09704,3.49845],[116.09732,3.49878],[116.09766,3.49919],[116.09789,3.49958],[116.09813,3.49988],[116.09846,3.50039],[116.09862,3.50055],[116.09878,3.50069],[116.09935,3.50051],[116.09977,3.50024],[116.10027,3.49994],[116.10057,3.49991],[116.10111,3.49998],[116.10144,3.50012],[116.10166,3.50021],[116.10212,3.50042],[116.10239,3.50049],[116.10286,3.5006],[116.10337,3.50049],[116.10364,3.50019],[116.10373,3.49971],[116.10374,3.49951],[116.10376,3.4992],[116.10396,3.4989],[116.10426,3.49875],[116.10489,3.49875],[116.10516,3.49866],[116.10535,3.49845],[116.10563,3.49812],[116.10611,3.49777],[116.10636,3.4977],[116.10687,3.49761],[116.10733,3.49764],[116.10804,3.49786],[116.10819,3.49798],[116.10867,3.4984],[116.10894,3.49865],[116.10932,3.49897],[116.10954,3.499],[116.10983,3.49906],[116.11019,3.49887],[116.11049,3.49873],[116.11069,3.49822],[116.11064,3.49774],[116.11055,3.49714],[116.11034,3.49672],[116.11019,3.4963],[116.10999,3.49594],[116.1098,3.49553],[116.10979,3.49527],[116.10977,3.49496],[116.10991,3.49462],[116.11015,3.4942],[116.1104,3.49385],[116.11064,3.49343],[116.11063,3.49313],[116.11062,3.4927],[116.11061,3.49218],[116.1106,3.49161],[116.11058,3.49115],[116.11061,3.49087],[116.11067,3.49035],[116.1107,3.4899],[116.11084,3.48954],[116.11118,3.48885],[116.11151,3.48844],[116.11201,3.48778],[116.11213,3.48739],[116.11192,3.48688],[116.11176,3.4867],[116.11154,3.48645],[116.11106,3.48607],[116.11057,3.48569],[116.1102,3.48541],[116.10981,3.48484],[116.10961,3.48434],[116.10952,3.48386],[116.10964,3.48341],[116.1099,3.48299],[116.1102,3.48254],[116.11107,3.48205],[116.1116,3.48188],[116.11196,3.48168],[116.11218,3.48107],[116.11208,3.48063],[116.11176,3.48049],[116.1114,3.48033],[116.11106,3.48006],[116.11086,3.47991],[116.11075,3.47934],[116.11077,3.47886],[116.11108,3.47851],[116.11143,3.47826],[116.11205,3.47829],[116.1125,3.47868],[116.11266,3.47876],[116.11309,3.47895],[116.11347,3.47876],[116.11375,3.47845],[116.11392,3.4781],[116.11443,3.47788],[116.11464,3.47821],[116.11521,3.47827],[116.11566,3.47827],[116.11601,3.47814],[116.11615,3.47799],[116.11646,3.47767],[116.11653,3.47713],[116.11634,3.47674],[116.11613,3.47623],[116.11607,3.47579],[116.1163,3.47519],[116.11643,3.47498],[116.11688,3.47486],[116.11724,3.4751],[116.1178,3.47516],[116.11831,3.47501],[116.1189,3.47533],[116.11927,3.47546],[116.12018,3.47546],[116.12066,3.47555],[116.12117,3.47546],[116.1217,3.47558],[116.12215,3.47543],[116.12254,3.47501],[116.12295,3.47457],[116.12336,3.47403],[116.12379,3.4734],[116.12418,3.47301],[116.12444,3.47274],[116.125,3.47219],[116.12532,3.47197],[116.12603,3.47184],[116.12629,3.47191],[116.12665,3.47155],[116.1268,3.47125],[116.12739,3.47083],[116.12802,3.47041],[116.12864,3.47038],[116.12912,3.4705],[116.12943,3.47069],[116.12986,3.47095],[116.13049,3.47128],[116.13074,3.47133],[116.13125,3.47144],[116.13174,3.47152],[116.13199,3.47169],[116.13236,3.47194],[116.13273,3.47214],[116.13308,3.47233],[116.13346,3.47278],[116.1336,3.47329],[116.13373,3.47396],[116.13379,3.47467],[116.13403,3.47512],[116.13416,3.47526],[116.13439,3.47549],[116.13474,3.47565],[116.13501,3.47577],[116.13552,3.47568],[116.13579,3.47528],[116.13599,3.475],[116.13608,3.47464],[116.13623,3.47419],[116.13641,3.47392],[116.1365,3.47351],[116.13658,3.47318],[116.13667,3.47273],[116.13678,3.4722],[116.13683,3.47182],[116.13689,3.47135],[116.13704,3.47097],[116.13714,3.4707],[116.13737,3.4702],[116.13765,3.46971],[116.13796,3.46925],[116.13826,3.46901],[116.13871,3.46875],[116.13918,3.46833],[116.13947,3.46818],[116.13956,3.46849],[116.13962,3.46883],[116.13967,3.46917],[116.13998,3.46935],[116.14031,3.4693],[116.14038,3.46911],[116.14052,3.46873],[116.14041,3.46811],[116.14022,3.46774],[116.14003,3.46729],[116.13992,3.46688],[116.13984,3.46657],[116.13965,3.46633],[116.13955,3.466],[116.13931,3.46557],[116.13927,3.46499],[116.13931,3.46454],[116.13968,3.46403],[116.14033,3.4638],[116.14098,3.46394],[116.14141,3.46447],[116.14163,3.46504],[116.14204,3.46559],[116.14241,3.4661],[116.1427,3.46643],[116.14279,3.46678],[116.14304,3.46725],[116.14326,3.46757],[116.14353,3.46798],[116.14363,3.46821],[116.14386,3.46875],[116.14402,3.46906],[116.14416,3.46932],[116.14417,3.46965],[116.14418,3.47019],[116.14435,3.47036],[116.14457,3.47061],[116.14487,3.47052],[116.1452,3.47016],[116.14603,3.46979],[116.14646,3.46945],[116.14652,3.46917],[116.1466,3.46863],[116.1466,3.46815],[116.14669,3.46789],[116.14669,3.46771],[116.14705,3.4675],[116.14764,3.46735],[116.14809,3.46696],[116.14822,3.4666],[116.14838,3.46612],[116.14864,3.46565],[116.14874,3.46496],[116.14883,3.46451],[116.14872,3.46385],[116.14837,3.46343],[116.14793,3.46311],[116.14742,3.46279],[116.14698,3.46254],[116.1466,3.46229],[116.14628,3.46196],[116.14627,3.4618],[116.14625,3.46142],[116.14669,3.46062],[116.14713,3.46012],[116.14762,3.45975],[116.14807,3.4593],[116.14843,3.4588],[116.14881,3.45868],[116.14926,3.45835],[116.14941,3.45787],[116.14932,3.45763],[116.1489,3.45727],[116.1489,3.45661],[116.14911,3.45616],[116.14962,3.45587],[116.14992,3.45587],[116.15034,3.45602],[116.15087,3.4562],[116.15141,3.45608],[116.15155,3.45587],[116.15186,3.45538],[116.15224,3.45488],[116.15218,3.45435],[116.15208,3.45393],[116.15189,3.45339],[116.15166,3.45284],[116.15134,3.45215],[116.15106,3.45154],[116.15082,3.45102],[116.15064,3.4506],[116.15054,3.45023],[116.15037,3.44955],[116.15022,3.44875],[116.15016,3.44794],[116.15025,3.44734],[116.15031,3.44662],[116.15042,3.44628],[116.15064,3.44572],[116.15089,3.44518],[116.15106,3.44474],[116.15116,3.44402],[116.15094,3.4436],[116.15026,3.4436],[116.1496,3.44369],[116.14912,3.44351],[116.14899,3.44337],[116.14859,3.44297],[116.14827,3.44243],[116.148,3.44205],[116.14771,3.44166],[116.14725,3.44102],[116.14695,3.44043],[116.14692,3.43992],[116.14719,3.43938],[116.14749,3.43869],[116.14752,3.43838],[116.14755,3.43794],[116.14717,3.43746],[116.14675,3.43698],[116.1469,3.43603],[116.14717,3.43561],[116.14803,3.43521],[116.14854,3.4345],[116.14815,3.43396],[116.14773,3.43337],[116.14782,3.43258],[116.14789,3.43199],[116.14849,3.43205],[116.14899,3.4325],[116.14939,3.43175],[116.1495,3.43136],[116.15039,3.43112],[116.15099,3.43112],[116.15168,3.43074],[116.1521,3.43047],[116.15272,3.43002],[116.15315,3.42988],[116.15391,3.42963],[116.15461,3.42979],[116.15558,3.43002],[116.15647,3.43023],[116.15714,3.42982],[116.15787,3.42937],[116.15887,3.42958],[116.1598,3.42979],[116.16029,3.42924],[116.16064,3.42886],[116.16138,3.42822],[116.16227,3.42745],[116.16316,3.42685],[116.16414,3.42601],[116.16501,3.42533],[116.16591,3.42467],[116.16671,3.42423],[116.16776,3.42396],[116.16889,3.42406],[116.16969,3.42414],[116.17027,3.42361],[116.1709,3.42302],[116.17166,3.42229],[116.17306,3.42193],[116.17437,3.42217],[116.17523,3.42238],[116.17551,3.42199],[116.17611,3.4212],[116.17637,3.42088],[116.17672,3.42044],[116.17746,3.41999],[116.17831,3.41921],[116.17895,3.41876],[116.17977,3.4182],[116.18056,3.41768],[116.18143,3.41721],[116.18172,3.41701],[116.18236,3.41657],[116.1832,3.41602],[116.18408,3.41552],[116.18518,3.4152],[116.18601,3.41542],[116.18701,3.41588],[116.18768,3.41517],[116.18807,3.41436],[116.18814,3.41423],[116.18832,3.41393],[116.18861,3.41358],[116.1889,3.41323],[116.18915,3.41302]],[[116.11157,3.31199],[116.11273,3.31121],[116.11347,3.31203],[116.11356,3.3125],[116.11356,3.31274],[116.11332,3.31298],[116.11282,3.31314],[116.11248,3.31325],[116.11193,3.31343],[116.11154,3.31343],[116.11104,3.31321],[116.11047,3.31272],[116.111,3.31236],[116.11157,3.31199]]]]},"properties":{"kdprov":"65","kdkab":"01","kdkec":"070","kddesa":"005","kdsls":"2001","idsls":"65010700052001","nmprov":"KALIMANTAN UTARA","nmkab":"MALINAU","nmkec":"SUNGAI TUBU","nmdesa":"RIAN TUBU","nmsls":"KAWASAN HUTAN ( BUKAN PERTANIAN )"}},{"type":"Feature","geometry":{"type":"MultiPolygon","coordinates":[[[[116.06804,3.26003],[116.06713,3.25944],[116.06663,3.25914],[116.06618,3.25893],[116.06572,3.25998],[116.06567,3.26008],[116.06565,3.26087],[116.06596,3.26111],[116.06736,3.2612],[116.06747,3.26104],[116.06801,3.26025],[116.06804,3.26003]]]]},"properties":{"kdprov":"65","kdkab":"01","kdkec":"070","kddesa":"003","kdsls":"0003","idsls":"65010700030003","nmprov":"KALIMANTAN UTARA","nmkab":"MALINAU","nmkec":"SUNGAI TUBU","nmdesa":"LONG TITI","nmsls":"RT 03"}},{"type":"Feature","geometry":{"type":"MultiPolygon","coordinates":[[[[116.06668,3.25796],[116.06715,3.25822],[116.06735,3.25829],[116.06743,3.25838],[116.06734,3.25858],[116.06733,3.25869],[116.06744,3.25878],[116.06819,3.25919],[116.06835,3.25823],[116.06705,3.25735],[116.06668,3.25796]]]]},"properties":{"kdprov":"65","kdkab":"01","kdkec":"070","kddesa":"003","kdsls":"0001","idsls":"65010700030001","nmprov":"KALIMANTAN UTARA","nmkab":"MALINAU","nmkec":"SUNGAI TUBU","nmdesa":"LONG TITI","nmsls":"RT 01"}},{"type":"Feature","geometry":{"type":"MultiPolygon","coordinates":[[[[116.14293,3.05422],[116.14278,3.0545],[116.14268,3.05471],[116.14277,3.05482],[116.14284,3.05497],[116.14296,3.05502],[116.14299,3.05511],[116.14307,3.05515],[116.14231,3.05566],[116.1423,3.05595],[116.14401,3.05615],[116.14407,3.05569],[116.14416,3.05504],[116.14379,3.05497],[116.14366,3.05476],[116.14354,3.05469],[116.14344,3.05467],[116.1432,3.05453],[116.14293,3.05422]]]]},"properties":{"kdprov":"65","kdkab":"01","kdkec":"070","kddesa":"001","kdsls":"0003","idsls":"65010700010003","nmprov":"KALIMANTAN UTARA","nmkab":"MALINAU","nmkec":"SUNGAI TUBU","nmdesa":"LONG PADA","nmsls":"RT 03"}},{"type":"Feature","geometry":{"type":"MultiPolygon","coordinates":[[[[116.14245,3.05402],[116.14293,3.05422],[116.1432,3.05453],[116.14344,3.05467],[116.14354,3.05469],[116.14366,3.05476],[116.14379,3.05497],[116.14416,3.05504],[116.14424,3.05442],[116.14402,3.05413],[116.14397,3.05406],[116.1436,3.05356],[116.14307,3.05347],[116.14256,3.05373],[116.14255,3.05377],[116.14245,3.05402]]]]},"properties":{"kdprov":"65","kdkab":"01","kdkec":"070","kddesa":"001","kdsls":"0001","idsls":"65010700010001","nmprov":"KALIMANTAN UTARA","nmkab":"MALINAU","nmkec":"SUNGAI TUBU","nmdesa":"LONG PADA","nmsls":"RT 01"}},{"type":"Feature","geometry":{"type":"MultiPolygon","coordinates":[[[[116.06444,3.05044],[116.06518,3.05105],[116.06618,3.05187],[116.06503,3.0532],[116.06406,3.05239],[116.06308,3.05157],[116.05801,3.05247],[116.05535,3.05641],[116.0514,3.05991],[116.04786,3.06305],[116.04639,3.06025],[116.04477,3.05716],[116.04184,3.05508],[116.03409,3.05144],[116.02635,3.04676],[116.01723,3.04277],[116.01,3.04051],[116.00621,3.04068],[116.00001,3.04327],[115.99209,3.0398],[115.98606,3.03841],[115.98227,3.03789],[115.96809,3.03865],[115.95696,3.03925],[115.95609,3.039],[115.95609,3.039],[115.95371,3.04148],[115.95312,3.04235],[115.95391,3.04328],[115.95532,3.04496],[115.95617,3.04656],[115.9562,3.04664],[115.95783,3.04976],[115.96046,3.05363],[115.96199,3.05567],[115.96137,3.05801],[115.96115,3.05928],[115.96097,3.0603],[115.95979,3.06191],[115.95979,3.06353],[115.95986,3.06525],[115.96104,3.0659],[115.96123,3.06733],[115.96175,3.06836],[115.96252,3.06956],[115.96326,3.07039],[115.96403,3.07056],[115.9648,3.07178],[115.9653,3.07257],[115.96606,3.0741],[115.9654,3.07527],[115.96417,3.07614],[115.96378,3.07738],[115.96342,3.07878],[115.96342,3.08018],[115.96326,3.08124],[115.9628,3.08228],[115.96247,3.08303],[115.96217,3.08427],[115.96293,3.0851],[115.96277,3.08652],[115.96232,3.08735],[115.96306,3.08826],[115.96361,3.08905],[115.9639,3.08946],[115.96366,3.09066],[115.96389,3.0926],[115.96392,3.09283],[115.96389,3.09436],[115.96391,3.09445],[115.96391,3.09445],[115.96409,3.09532],[115.96421,3.09589],[115.96369,3.09683],[115.96354,3.09794],[115.96414,3.09906],[115.96479,3.09991],[115.96497,3.10016],[115.96481,3.10068],[115.96466,3.1012],[115.96432,3.10211],[115.96472,3.10285],[115.96491,3.10315],[115.96517,3.10354],[115.96524,3.10462],[115.96513,3.10505],[115.96492,3.10583],[115.96447,3.10689],[115.96402,3.10794],[115.96392,3.10931],[115.96406,3.11082],[115.96421,3.11148],[115.96426,3.11168],[115.96362,3.11261],[115.96282,3.11325],[115.96226,3.11345],[115.96186,3.11545],[115.96274,3.11659],[115.96292,3.11787],[115.96358,3.11881],[115.96372,3.11901],[115.96314,3.12044],[115.96329,3.12284],[115.96374,3.12384],[115.96496,3.12583],[115.96525,3.12676],[115.96698,3.12543],[115.96695,3.12339],[115.96691,3.1209],[115.96676,3.11945],[115.96791,3.12036],[115.97356,3.12329],[115.97368,3.12336],[115.98077,3.12255],[115.98395,3.12043],[115.98502,3.11971],[115.98603,3.11903],[115.98735,3.11668],[115.98831,3.11531],[115.99279,3.10899],[115.99523,3.10867],[115.99889,3.10909],[116.00268,3.1075],[116.00648,3.10365],[116.00819,3.10161],[116.01083,3.10236],[116.01264,3.10272],[116.01449,3.10182],[116.01932,3.10132],[116.02172,3.10001],[116.02365,3.10491],[116.02424,3.10428],[116.0274,3.10346],[116.03038,3.10378],[116.03257,3.10462],[116.03487,3.10458],[116.04033,3.10586],[116.04462,3.10641],[116.04774,3.10586],[116.05031,3.10509],[116.05345,3.10521],[116.05638,3.10721],[116.06062,3.11089],[116.06301,3.11212],[116.0641,3.11171],[116.06649,3.11126],[116.07425,3.10884],[116.07882,3.10741],[116.08141,3.10571],[116.08363,3.10385],[116.08638,3.10222],[116.08954,3.10164],[116.09298,3.10164],[116.09618,3.10015],[116.09638,3.10005],[116.09682,3.09985],[116.09735,3.0996],[116.09735,3.0996],[116.0986,3.09902],[116.09896,3.09885],[116.10141,3.09722],[116.10325,3.096],[116.10471,3.0937],[116.10524,3.09287],[116.10475,3.08969],[116.10471,3.08963],[116.10411,3.08862],[116.10393,3.08833],[116.10387,3.08821],[116.1038,3.0881],[116.10353,3.08765],[116.1017,3.08399],[116.1003,3.08222],[116.09616,3.07813],[116.09214,3.07554],[116.09181,3.07385],[116.09144,3.07193],[116.09144,3.06962],[116.09077,3.06272],[116.08996,3.06086],[116.08649,3.06072],[116.08474,3.06083],[116.08301,3.06094],[116.07299,3.05504],[116.06873,3.05075],[116.06444,3.05044]]]]},"properties":{"kdprov":"65","kdkab":"01","kdkec":"070","kddesa":"002","kdsls":"2001","idsls":"65010700022001","nmprov":"KALIMANTAN UTARA","nmkab":"MALINAU","nmkec":"SUNGAI TUBU","nmdesa":"LONG NYAU","nmsls":"KAWASAN HUTAN ( BUKAN PERTANIAN )"}}]}