{"type":"FeatureCollection","features":[{"type":"Feature","geometry":{"type":"MultiPolygon","coordinates":[[[[116.18842,2.84572],[116.18877,2.84535],[116.18926,2.84507],[116.18969,2.84519],[116.1901,2.84524],[116.1904,2.84516],[116.19074,2.845],[116.19038,2.8448],[116.18874,2.84388],[116.18785,2.84431],[116.18695,2.84478],[116.18839,2.84611],[116.18842,2.84572]]]]},"properties":{"kdprov":"65","kdkab":"01","kdkec":"080","kddesa":"005","kdsls":"0004","idsls":"65010800050004","nmprov":"KALIMANTAN UTARA","nmkab":"MALINAU","nmkec":"MALINAU SELATAN HULU","nmdesa":"LONG LAKE","nmsls":"RT 004"}},{"type":"Feature","geometry":{"type":"MultiPolygon","coordinates":[[[[116.1852,2.88351],[116.18461,2.88517],[116.18474,2.88586],[116.18533,2.88603],[116.18541,2.88675],[116.18584,2.88697],[116.18585,2.88524],[116.18576,2.88395],[116.18602,2.88341],[116.1852,2.88351]]]]},"properties":{"kdprov":"65","kdkab":"01","kdkec":"080","kddesa":"005","kdsls":"0005","idsls":"65010800050005","nmprov":"KALIMANTAN UTARA","nmkab":"MALINAU","nmkec":"MALINAU SELATAN HULU","nmdesa":"LONG LAKE","nmsls":"RT 005"}},{"type":"Feature","geometry":{"type":"MultiPolygon","coordinates":[[[[116.34889,3.06138],[116.34867,3.06126],[116.34849,3.06101],[116.3484,3.06064],[116.34851,3.06036],[116.34878,3.06017],[116.34935,3.06017],[116.34961,3.06033],[116.35009,3.06029],[116.3506,3.06039],[116.35111,3.06081],[116.3519,3.0615],[116.35185,3.06173],[116.35179,3.06194],[116.35292,3.06292],[116.353,3.06294],[116.3535,3.06307],[116.35647,3.06383],[116.36315,3.06622],[116.36979,3.06828],[116.3765,3.07002],[116.37869,3.06987],[116.38201,3.07086],[116.38646,3.07071],[116.39016,3.06844],[116.39858,3.06788],[116.40258,3.06704],[116.40575,3.06469],[116.40904,3.06444],[116.41262,3.06417],[116.4149,3.0646],[116.41514,3.06465],[116.41547,3.06471],[116.41617,3.06484],[116.41671,3.06434],[116.4178,3.06331],[116.41932,3.06286],[116.42037,3.06255],[116.42189,3.0621],[116.42213,3.06166],[116.42216,3.06162],[116.42315,3.05989],[116.42737,3.05663],[116.43157,3.05633],[116.43266,3.05625],[116.43477,3.0561],[116.44846,3.07069],[116.44934,3.07162],[116.45411,3.07616],[116.46348,3.08509],[116.46467,3.08621],[116.46772,3.08524],[116.46951,3.08467],[116.46869,3.0811],[116.46706,3.07706],[116.4655,3.07316],[116.46474,3.06852],[116.4626,3.05536],[116.46388,3.05477],[116.4643,3.05457],[116.46442,3.05316],[116.4645,3.05315],[116.46479,3.05315],[116.46723,3.0531],[116.4685,3.05308],[116.46877,3.05282],[116.46937,3.05175],[116.46877,3.05069],[116.46869,3.04986],[116.46771,3.04841],[116.46719,3.04637],[116.46817,3.0453],[116.46802,3.04272],[116.46742,3.04022],[116.46787,3.03817],[116.46968,3.03681],[116.47195,3.03423],[116.4727,3.03104],[116.4721,3.02824],[116.47112,3.02664],[116.47018,3.02357],[116.47139,3.02251],[116.47267,3.01985],[116.47162,3.01538],[116.46845,3.0153],[116.46762,3.01409],[116.46618,3.01371],[116.46543,3.01211],[116.46347,3.01173],[116.46219,3.01181],[116.46053,3.01044],[116.46105,3.00877],[116.46173,3.00733],[116.46109,3.00441],[116.46117,3.00221],[116.46019,3.001],[116.45702,3.00084],[116.45521,3.00077],[116.45385,2.99993],[116.45355,2.99978],[116.45265,2.99864],[116.4534,2.99667],[116.45204,2.99583],[116.45076,2.99409],[116.45008,2.99257],[116.45114,2.98923],[116.45061,2.98764],[116.45197,2.98627],[116.45246,2.98282],[116.45133,2.98184],[116.45224,2.98077],[116.45307,2.97774],[116.45186,2.97584],[116.45066,2.97493],[116.45111,2.97303],[116.45292,2.9719],[116.45391,2.96924],[116.45251,2.96928],[116.45372,2.96109],[116.45342,2.95616],[116.45274,2.95176],[116.45169,2.94743],[116.45138,2.94471],[116.45128,2.94383],[116.44954,2.94026],[116.44804,2.93768],[116.44457,2.93502],[116.44389,2.93404],[116.44359,2.93176],[116.44578,2.92562],[116.44582,2.923],[116.44484,2.92247],[116.44227,2.92512],[116.44189,2.92535],[116.44076,2.92429],[116.44121,2.92178],[116.44212,2.91807],[116.44371,2.91579],[116.44295,2.91283],[116.44114,2.91116],[116.4413,2.90729],[116.44051,2.9046],[116.43948,2.90327],[116.43839,2.90187],[116.43855,2.89952],[116.43825,2.89694],[116.43491,2.89536],[116.43455,2.89519],[116.43432,2.89488],[116.4343,2.89485],[116.43327,2.89344],[116.43244,2.89094],[116.43153,2.88988],[116.43146,2.8879],[116.43282,2.88571],[116.43275,2.88546],[116.43221,2.88364],[116.43203,2.88301],[116.43014,2.88233],[116.42878,2.88127],[116.42916,2.87891],[116.42909,2.87656],[116.4269,2.87459],[116.42562,2.87163],[116.4214,2.87079],[116.41906,2.86965],[116.41759,2.86415],[116.41759,2.86127],[116.41895,2.85907],[116.41775,2.85057],[116.41903,2.84701],[116.41764,2.84333],[116.4162,2.84295],[116.41213,2.8305],[116.4075,2.8231],[116.40448,2.82105],[116.40328,2.81938],[116.40222,2.81718],[116.4029,2.81476],[116.40396,2.81354],[116.40396,2.81021],[116.40063,2.80635],[116.39257,2.80085],[116.38423,2.79766],[116.38135,2.79795],[116.37617,2.79592],[116.37416,2.79302],[116.36582,2.77363],[116.36295,2.76379],[116.36151,2.75424],[116.36152,2.74845],[116.35979,2.7444],[116.3572,2.74092],[116.35519,2.73658],[116.35462,2.7305],[116.35861,2.72383],[116.35978,2.72186],[116.36199,2.71816],[116.36285,2.71672],[116.36358,2.71691],[116.36361,2.71666],[116.36334,2.7157],[116.36329,2.71462],[116.36314,2.71415],[116.3623,2.71373],[116.3611,2.71331],[116.36067,2.7129],[116.36058,2.71281],[116.36017,2.71244],[116.35822,2.71137],[116.35745,2.71072],[116.35678,2.71031],[116.35542,2.7098],[116.35509,2.70968],[116.35465,2.70952],[116.35459,2.70949],[116.35433,2.70901],[116.35397,2.70835],[116.3538,2.70795],[116.35324,2.70787],[116.35265,2.70777],[116.35244,2.70725],[116.35231,2.70692],[116.35197,2.70616],[116.35113,2.70517],[116.3507,2.70503],[116.35055,2.70498],[116.34951,2.70476],[116.34789,2.70431],[116.34617,2.70311],[116.34502,2.70237],[116.34334,2.70257],[116.34262,2.70258],[116.34084,2.70194],[116.33927,2.70125],[116.33792,2.70049],[116.33742,2.70014],[116.33723,2.69991],[116.33687,2.69972],[116.33654,2.69912],[116.33549,2.69781],[116.33536,2.69765],[116.33507,2.69729],[116.33426,2.69651],[116.33272,2.69579],[116.33219,2.69536],[116.33119,2.69499],[116.33052,2.69461],[116.32963,2.69381],[116.32898,2.69279],[116.32804,2.69212],[116.32683,2.69159],[116.32694,2.6917],[116.32451,2.6932],[116.32223,2.69377],[116.31956,2.69568],[116.31728,2.69568],[116.31271,2.69777],[116.3087,2.69758],[116.30775,2.70082],[116.30537,2.70167],[116.30489,2.70443],[116.30165,2.70672],[116.29728,2.70757],[116.29356,2.70615],[116.29151,2.70706],[116.289,2.70763],[116.28467,2.7087],[116.28277,2.70695],[116.28191,2.70363],[116.28054,2.70043],[116.27929,2.69804],[116.27803,2.69609],[116.2778,2.69278],[116.27792,2.69096],[116.277,2.69004],[116.27449,2.68981],[116.27221,2.68924],[116.27072,2.6873],[116.26958,2.68593],[116.26547,2.68582],[116.2633,2.68662],[116.26113,2.68502],[116.25873,2.68502],[116.25166,2.69776],[116.25165,2.69776],[116.25102,2.69843],[116.24981,2.6997],[116.24969,2.69982],[116.2495,2.70002],[116.24752,2.70342],[116.2478,2.70825],[116.25005,2.7125],[116.24988,2.71446],[116.24949,2.71874],[116.24695,2.72271],[116.24553,2.72782],[116.24301,2.73475],[116.24175,2.73818],[116.24129,2.73945],[116.23593,2.74824],[116.23225,2.75817],[116.23366,2.76157],[116.2362,2.76753],[116.23704,2.7715],[116.24127,2.77689],[116.24183,2.78626],[116.23985,2.79136],[116.24407,2.80498],[116.24745,2.80981],[116.24731,2.81534],[116.25041,2.82215],[116.2521,2.82981],[116.25633,2.8335],[116.25463,2.84031],[116.25293,2.84314],[116.25257,2.84499],[116.24982,2.85903],[116.24111,2.86671],[116.23906,2.86851],[116.23825,2.86923],[116.23584,2.87116],[116.22272,2.8817],[116.22256,2.90454],[116.21889,2.91305],[116.20618,2.92864],[116.17993,2.93969],[116.16594,2.9428],[116.15453,2.94534],[116.14555,2.94471],[116.14539,2.9447],[116.14474,2.94465],[116.14476,2.94481],[116.14544,2.94595],[116.1458,2.94729],[116.14596,2.9479],[116.14715,2.94885],[116.14868,2.9498],[116.14925,2.95113],[116.14953,2.95323],[116.15001,2.95484],[116.15045,2.95682],[116.15108,2.95692],[116.15258,2.95716],[116.15382,2.95675],[116.15724,2.9568],[116.15891,2.95799],[116.16095,2.95903],[116.16286,2.96013],[116.16424,2.96127],[116.1652,2.96359],[116.16617,2.96504],[116.1655,2.96772],[116.16614,2.9705],[116.16605,2.97279],[116.16568,2.97542],[116.16617,2.97765],[116.16665,2.97979],[116.16858,2.98128],[116.17038,2.98183],[116.17157,2.98359],[116.17152,2.98616],[116.17185,2.98711],[116.17045,2.98955],[116.17176,2.9923],[116.17242,2.99425],[116.17163,2.99577],[116.17162,2.99764],[116.17326,2.99911],[116.17537,3.00082],[116.17649,3.00168],[116.17852,3.00157],[116.1809,3.00144],[116.18351,3.00144],[116.18684,3.00196],[116.18698,3.00198],[116.1897,3.0024],[116.1897,3.0024],[116.19017,3.00223],[116.19017,3.00223],[116.19172,3.00168],[116.19371,2.99988],[116.19383,2.99978],[116.19541,2.99835],[116.19541,2.99835],[116.19697,2.99815],[116.19749,2.99808],[116.20005,2.99776],[116.20197,2.99756],[116.20354,2.99739],[116.20358,2.99738],[116.20624,2.99621],[116.20673,2.99763],[116.20731,2.9993],[116.20638,3.00137],[116.20576,3.00275],[116.20738,3.00328],[116.20981,3.00406],[116.21337,3.00382],[116.21445,3.00573],[116.21521,3.00641],[116.21683,3.00787],[116.21814,3.00883],[116.21899,3.00945],[116.21992,3.01013],[116.22048,3.0102],[116.22194,3.01039],[116.22377,3.01049],[116.2261,3.01037],[116.22825,3.01013],[116.22956,3.01346],[116.22908,3.0156],[116.22741,3.01846],[116.22599,3.02012],[116.22535,3.0214],[116.22527,3.02334],[116.2261,3.02488],[116.2261,3.02667],[116.22578,3.02788],[116.22569,3.02993],[116.22575,3.03154],[116.22729,3.03333],[116.22753,3.03761],[116.22789,3.03939],[116.22851,3.04131],[116.22963,3.04382],[116.23081,3.04588],[116.23191,3.04764],[116.2321,3.04993],[116.23122,3.05177],[116.22832,3.05316],[116.22832,3.05316],[116.22884,3.05581],[116.22658,3.05724],[116.22599,3.05998],[116.22673,3.06043],[116.22599,3.06391],[116.22789,3.06676],[116.25553,3.06366],[116.25553,3.06388],[116.26135,3.05986],[116.26588,3.05645],[116.26765,3.05442],[116.26958,3.0522],[116.27117,3.05069],[116.28105,3.04751],[116.28626,3.04782],[116.28905,3.04956],[116.29403,3.05063],[116.29833,3.04995],[116.30912,3.05094],[116.31508,3.05254],[116.32387,3.05645],[116.33225,3.05668],[116.3367,3.05729],[116.34161,3.05881],[116.34545,3.06102],[116.34689,3.06138],[116.34755,3.06155],[116.34791,3.06164],[116.34912,3.06161],[116.34893,3.0614],[116.34889,3.06138]],[[116.45877,3.07389],[116.45756,3.07393],[116.45649,3.07384],[116.45561,3.0737],[116.45513,3.07346],[116.45475,3.07282],[116.45459,3.0722],[116.45478,3.0714],[116.45483,3.0712],[116.45506,3.07018],[116.45516,3.06986],[116.45542,3.069],[116.45543,3.06895],[116.45546,3.06871],[116.45553,3.06826],[116.45562,3.06766],[116.4558,3.0666],[116.45594,3.06589],[116.45608,3.06513],[116.45633,3.06398],[116.45688,3.06221],[116.45917,3.06345],[116.461,3.06444],[116.46019,3.06592],[116.46046,3.06753],[116.4608,3.06784],[116.46326,3.07],[116.46495,3.07588],[116.46255,3.07712],[116.4621,3.07621],[116.46139,3.07516],[116.46099,3.07461],[116.46013,3.07417],[116.4588,3.07389],[116.45877,3.07389]],[[116.3836,2.95421],[116.38207,2.95371],[116.38095,2.95335],[116.37985,2.953],[116.38037,2.9493],[116.38382,2.94998],[116.38845,2.9509],[116.38769,2.95477],[116.38755,2.95549],[116.38617,2.95504],[116.3836,2.95421]],[[116.40924,2.96386],[116.40928,2.96379],[116.40971,2.96324],[116.41021,2.96286],[116.41067,2.96272],[116.41114,2.96277],[116.41148,2.96296],[116.41167,2.96351],[116.41167,2.96353],[116.4117,2.96365],[116.41172,2.96371],[116.41183,2.96419],[116.41194,2.9644],[116.4112,2.96469],[116.41018,2.9651],[116.40976,2.96566],[116.40942,2.96647],[116.40889,2.96694],[116.40849,2.96717],[116.40837,2.96723],[116.40755,2.9673],[116.40652,2.96722],[116.40589,2.96732],[116.40285,2.96745],[116.40291,2.96875],[116.40263,2.97007],[116.40045,2.97073],[116.39893,2.97057],[116.38964,2.97486],[116.38764,2.97173],[116.38712,2.97092],[116.38784,2.96466],[116.39113,2.96024],[116.39214,2.95889],[116.3937,2.96046],[116.39517,2.96224],[116.39624,2.96363],[116.39702,2.96441],[116.39766,2.96416],[116.39809,2.96338],[116.39791,2.9621],[116.39788,2.96089],[116.39808,2.96031],[116.3987,2.95978],[116.39998,2.95989],[116.40188,2.96054],[116.40223,2.96097],[116.40268,2.96152],[116.40302,2.96241],[116.40305,2.96266],[116.40312,2.96349],[116.4034,2.96457],[116.4036,2.96498],[116.40377,2.96532],[116.40493,2.966],[116.40572,2.96638],[116.40694,2.9664],[116.40777,2.9663],[116.40779,2.96629],[116.40814,2.96613],[116.40831,2.96605],[116.4087,2.96535],[116.40877,2.96509],[116.4089,2.96455],[116.40924,2.96386]],[[116.34013,3.05712],[116.34005,3.05681],[116.33995,3.05646],[116.34038,3.05501],[116.34062,3.05506],[116.34096,3.05511],[116.34132,3.05518],[116.34147,3.05523],[116.34161,3.05531],[116.34187,3.05544],[116.34225,3.05548],[116.34239,3.05557],[116.34261,3.05565],[116.34283,3.05576],[116.343,3.05584],[116.3431,3.05587],[116.34337,3.05596],[116.34325,3.05619],[116.34298,3.05632],[116.34278,3.05645],[116.34263,3.0567],[116.34259,3.05677],[116.34257,3.05687],[116.34255,3.05704],[116.3426,3.05738],[116.34264,3.05745],[116.34273,3.05757],[116.34283,3.05774],[116.34279,3.0579],[116.34275,3.05805],[116.34248,3.05818],[116.34229,3.05815],[116.34212,3.05799],[116.34201,3.05788],[116.34189,3.05776],[116.34176,3.05778],[116.34121,3.05785],[116.34073,3.05785],[116.34063,3.05777],[116.34039,3.05759],[116.34027,3.05738],[116.34013,3.05714],[116.34013,3.05712]],[[116.42907,2.99772],[116.4312,2.99763],[116.43103,2.99855],[116.43123,2.99979],[116.42876,2.99994],[116.42907,2.99772]]]]},"properties":{"kdprov":"65","kdkab":"01","kdkec":"080","kddesa":"002","kdsls":"2001","idsls":"65010800022001","nmprov":"KALIMANTAN UTARA","nmkab":"MALINAU","nmkec":"MALINAU SELATAN HULU","nmdesa":"TANJUNG NANGA","nmsls":"HUTAN"}},{"type":"Feature","geometry":{"type":"MultiPolygon","coordinates":[[[[116.45543,3.06895],[116.45612,3.06912],[116.4561,3.06924],[116.45643,3.06933],[116.45642,3.06943],[116.45671,3.06988],[116.45792,3.06998],[116.45795,3.06839],[116.45792,3.06839],[116.45768,3.06848],[116.45746,3.06853],[116.45725,3.06855],[116.45702,3.0685],[116.45676,3.06842],[116.4564,3.06834],[116.45635,3.06839],[116.45553,3.06826],[116.45546,3.06871],[116.45543,3.06895]]]]},"properties":{"kdprov":"65","kdkab":"01","kdkec":"080","kddesa":"002","kdsls":"0004","idsls":"65010800020004","nmprov":"KALIMANTAN UTARA","nmkab":"MALINAU","nmkec":"MALINAU SELATAN HULU","nmdesa":"TANJUNG NANGA","nmsls":"RT 004"}},{"type":"Feature","geometry":{"type":"MultiPolygon","coordinates":[[[[116.1937,2.85607],[116.19367,2.85607],[116.19347,2.85608],[116.19334,2.85632],[116.19319,2.8565],[116.19296,2.85652],[116.19249,2.85639],[116.19249,2.85639],[116.19274,2.85778],[116.19328,2.85749],[116.19404,2.85743],[116.1939,2.85712],[116.19369,2.8569],[116.1937,2.85607]]]]},"properties":{"kdprov":"65","kdkab":"01","kdkec":"080","kddesa":"005","kdsls":"0002","idsls":"65010800050002","nmprov":"KALIMANTAN UTARA","nmkab":"MALINAU","nmkec":"MALINAU SELATAN HULU","nmdesa":"LONG LAKE","nmsls":"RT 002"}},{"type":"Feature","geometry":{"type":"MultiPolygon","coordinates":[[[[116.45792,3.06998],[116.45671,3.06988],[116.45642,3.06943],[116.45643,3.06933],[116.4561,3.06924],[116.45612,3.06912],[116.45543,3.06895],[116.45542,3.069],[116.45516,3.06986],[116.45594,3.07002],[116.45666,3.07013],[116.45791,3.07021],[116.45792,3.06998]]]]},"properties":{"kdprov":"65","kdkab":"01","kdkec":"080","kddesa":"002","kdsls":"0003","idsls":"65010800020003","nmprov":"KALIMANTAN UTARA","nmkab":"MALINAU","nmkec":"MALINAU SELATAN HULU","nmdesa":"TANJUNG NANGA","nmsls":"RT 003"}},{"type":"Feature","geometry":{"type":"MultiPolygon","coordinates":[[[[116.45848,3.07261],[116.45646,3.07195],[116.45634,3.07191],[116.45624,3.07184],[116.45603,3.07181],[116.4561,3.07151],[116.45569,3.07142],[116.45565,3.07139],[116.45483,3.0712],[116.45478,3.0714],[116.45459,3.0722],[116.45475,3.07282],[116.45513,3.07346],[116.45561,3.0737],[116.45649,3.07384],[116.45756,3.07393],[116.45877,3.07389],[116.45848,3.07261]]]]},"properties":{"kdprov":"65","kdkab":"01","kdkec":"080","kddesa":"002","kdsls":"0001","idsls":"65010800020001","nmprov":"KALIMANTAN UTARA","nmkab":"MALINAU","nmkec":"MALINAU SELATAN HULU","nmdesa":"TANJUNG NANGA","nmsls":"RT 001"}},{"type":"Feature","geometry":{"type":"MultiPolygon","coordinates":[[[[116.45483,3.0712],[116.45565,3.07139],[116.45569,3.07142],[116.4561,3.07151],[116.45603,3.07181],[116.45624,3.07184],[116.45634,3.07191],[116.45646,3.07195],[116.45848,3.07261],[116.45832,3.07193],[116.45791,3.07041],[116.45791,3.07021],[116.45666,3.07013],[116.45594,3.07002],[116.45516,3.06986],[116.45506,3.07018],[116.45483,3.0712]]]]},"properties":{"kdprov":"65","kdkab":"01","kdkec":"080","kddesa":"002","kdsls":"0002","idsls":"65010800020002","nmprov":"KALIMANTAN UTARA","nmkab":"MALINAU","nmkec":"MALINAU SELATAN HULU","nmdesa":"TANJUNG NANGA","nmsls":"RT 002"}},{"type":"Feature","geometry":{"type":"MultiPolygon","coordinates":[[[[116.42189,3.0621],[116.42037,3.06255],[116.41932,3.06286],[116.4178,3.06331],[116.41671,3.06434],[116.4168,3.06496],[116.41693,3.06538],[116.41698,3.06553],[116.41729,3.06605],[116.41776,3.06633],[116.4182,3.06618],[116.4185,3.0658],[116.41881,3.06517],[116.41906,3.06456],[116.41951,3.06405],[116.41995,3.06382],[116.42012,3.06404],[116.42029,3.06479],[116.42029,3.06498],[116.42163,3.06488],[116.42166,3.06458],[116.42177,3.0634],[116.42189,3.0621]]]]},"properties":{"kdprov":"65","kdkab":"01","kdkec":"080","kddesa":"006","kdsls":"0001","idsls":"65010800060001","nmprov":"KALIMANTAN UTARA","nmkab":"MALINAU","nmkec":"MALINAU SELATAN HULU","nmdesa":"HALANGA","nmsls":"RT 001"}},{"type":"Feature","geometry":{"type":"MultiPolygon","coordinates":[[[[116.38207,2.95371],[116.3836,2.95421],[116.38421,2.95093],[116.38389,2.95074],[116.38267,2.95074],[116.38207,2.95371]]]]},"properties":{"kdprov":"65","kdkab":"01","kdkec":"080","kddesa":"003","kdsls":"0001","idsls":"65010800030001","nmprov":"KALIMANTAN UTARA","nmkab":"MALINAU","nmkec":"MALINAU SELATAN HULU","nmdesa":"NAHAKRAMO","nmsls":"RT 001"}},{"type":"Feature","geometry":{"type":"MultiPolygon","coordinates":[[[[116.45553,3.06826],[116.45635,3.06839],[116.4564,3.06834],[116.45676,3.06842],[116.4569,3.06768],[116.45702,3.06681],[116.45717,3.06636],[116.45677,3.06623],[116.45594,3.06589],[116.4558,3.0666],[116.45562,3.06766],[116.45553,3.06826]]]]},"properties":{"kdprov":"65","kdkab":"01","kdkec":"080","kddesa":"002","kdsls":"0005","idsls":"65010800020005","nmprov":"KALIMANTAN UTARA","nmkab":"MALINAU","nmkec":"MALINAU SELATAN HULU","nmdesa":"TANJUNG NANGA","nmsls":"RT 005"}},{"type":"Feature","geometry":{"type":"MultiPolygon","coordinates":[[[[116.45594,3.06589],[116.45677,3.06623],[116.45717,3.06636],[116.45718,3.06637],[116.45739,3.06642],[116.45769,3.06646],[116.45803,3.06646],[116.45824,3.06648],[116.45849,3.06652],[116.45852,3.06646],[116.45856,3.06615],[116.45863,3.06584],[116.45867,3.06544],[116.45867,3.06514],[116.45917,3.06345],[116.45688,3.06221],[116.45633,3.06398],[116.45608,3.06513],[116.45594,3.06589]]]]},"properties":{"kdprov":"65","kdkab":"01","kdkec":"080","kddesa":"002","kdsls":"0006","idsls":"65010800020006","nmprov":"KALIMANTAN UTARA","nmkab":"MALINAU","nmkec":"MALINAU SELATAN HULU","nmdesa":"TANJUNG NANGA","nmsls":"RT 006"}},{"type":"Feature","geometry":{"type":"MultiPolygon","coordinates":[[[[116.19274,2.85778],[116.19249,2.85639],[116.19249,2.85639],[116.19296,2.85652],[116.19319,2.8565],[116.19334,2.85632],[116.19347,2.85608],[116.19367,2.85607],[116.1937,2.85607],[116.19409,2.85614],[116.19462,2.85635],[116.19461,2.85617],[116.19424,2.85541],[116.19401,2.85533],[116.19333,2.85564],[116.19296,2.8557],[116.19237,2.8554],[116.19209,2.85516],[116.19161,2.85614],[116.19128,2.85684],[116.19175,2.85815],[116.19247,2.85792],[116.19274,2.85778]]]]},"properties":{"kdprov":"65","kdkab":"01","kdkec":"080","kddesa":"005","kdsls":"0001","idsls":"65010800050001","nmprov":"KALIMANTAN UTARA","nmkab":"MALINAU","nmkec":"MALINAU SELATAN HULU","nmdesa":"LONG LAKE","nmsls":"RT 001"}},{"type":"Feature","geometry":{"type":"MultiPolygon","coordinates":[[[[116.35185,3.06173],[116.3519,3.0615],[116.35111,3.06081],[116.3506,3.06039],[116.35009,3.06029],[116.34961,3.06033],[116.34935,3.06017],[116.34878,3.06017],[116.34851,3.06036],[116.3484,3.06064],[116.34849,3.06101],[116.34867,3.06126],[116.34889,3.06138],[116.34939,3.06121],[116.34993,3.06118],[116.35082,3.06137],[116.35185,3.06173]]]]},"properties":{"kdprov":"65","kdkab":"01","kdkec":"080","kddesa":"008","kdsls":"0001","idsls":"65010800080001","nmprov":"KALIMANTAN UTARA","nmkab":"MALINAU","nmkec":"MALINAU SELATAN HULU","nmdesa":"LONG RAT","nmsls":"RT 001"}},{"type":"Feature","geometry":{"type":"MultiPolygon","coordinates":[[[[116.19462,2.85635],[116.19409,2.85614],[116.1937,2.85607],[116.19369,2.8569],[116.1939,2.85712],[116.19404,2.85743],[116.1942,2.85741],[116.19468,2.85784],[116.19462,2.85635]]]]},"properties":{"kdprov":"65","kdkab":"01","kdkec":"080","kddesa":"005","kdsls":"0003","idsls":"65010800050003","nmprov":"KALIMANTAN UTARA","nmkab":"MALINAU","nmkec":"MALINAU SELATAN HULU","nmdesa":"LONG LAKE","nmsls":"RT 003"}},{"type":"Feature","geometry":{"type":"MultiPolygon","coordinates":[[[[116.35185,3.06173],[116.35082,3.06137],[116.34993,3.06118],[116.34939,3.06121],[116.34889,3.06138],[116.34893,3.0614],[116.34912,3.06161],[116.35115,3.0621],[116.35179,3.06194],[116.35185,3.06173]]]]},"properties":{"kdprov":"65","kdkab":"01","kdkec":"080","kddesa":"008","kdsls":"0002","idsls":"65010800080002","nmprov":"KALIMANTAN UTARA","nmkab":"MALINAU","nmkec":"MALINAU SELATAN HULU","nmdesa":"LONG RAT","nmsls":"RT 002"}},{"type":"Feature","geometry":{"type":"MultiPolygon","coordinates":[[[[116.35115,3.0621],[116.34912,3.06161],[116.34791,3.06164],[116.34755,3.06155],[116.34689,3.06138],[116.34545,3.06102],[116.34161,3.05881],[116.3367,3.05729],[116.33225,3.05668],[116.32387,3.05645],[116.31508,3.05254],[116.30912,3.05094],[116.29833,3.04995],[116.29403,3.05063],[116.28905,3.04956],[116.28626,3.04782],[116.28105,3.04751],[116.27117,3.05069],[116.26958,3.0522],[116.26765,3.05442],[116.26588,3.05645],[116.26135,3.05986],[116.25553,3.06388],[116.25553,3.06366],[116.22789,3.06676],[116.22468,3.07009],[116.22496,3.07363],[116.22384,3.07604],[116.22491,3.07835],[116.2261,3.08116],[116.22563,3.08365],[116.22729,3.08508],[116.22962,3.08508],[116.23175,3.08508],[116.23728,3.08567],[116.23781,3.08514],[116.23781,3.08514],[116.23986,3.08757],[116.23921,3.09104],[116.24014,3.09282],[116.23955,3.09496],[116.23788,3.09638],[116.23729,3.09829],[116.23836,3.09983],[116.24157,3.09888],[116.24419,3.09983],[116.2445,3.1026],[116.2449,3.10531],[116.24359,3.10769],[116.24229,3.10983],[116.24192,3.1118],[116.24157,3.11364],[116.24119,3.11467],[116.24074,3.1159],[116.23979,3.11839],[116.2404,3.12057],[116.24067,3.12223],[116.24086,3.12482],[116.24062,3.12756],[116.24169,3.12767],[116.24312,3.12773],[116.2449,3.12779],[116.24704,3.12839],[116.2487,3.12926],[116.25328,3.13087],[116.25751,3.13196],[116.26144,3.13707],[116.28331,3.13195],[116.28661,3.12831],[116.29078,3.12724],[116.29519,3.12796],[116.29865,3.12832],[116.30152,3.1282],[116.30533,3.12665],[116.30812,3.12549],[116.30879,3.12521],[116.31225,3.12425],[116.31428,3.12437],[116.31595,3.12485],[116.31828,3.1242],[116.31911,3.1248],[116.31995,3.12528],[116.32102,3.12516],[116.32186,3.12564],[116.32293,3.126],[116.32329,3.126],[116.32412,3.12636],[116.32496,3.12612],[116.32555,3.12576],[116.32639,3.12576],[116.3271,3.1254],[116.32806,3.12324],[116.32901,3.12264],[116.33045,3.12241],[116.33152,3.12361],[116.33319,3.12409],[116.33474,3.12337],[116.33674,3.12247],[116.33719,3.12247],[116.33723,3.12249],[116.34002,3.12397],[116.343,3.12472],[116.34703,3.12487],[116.35046,3.12458],[116.35389,3.12398],[116.3571,3.12317],[116.35866,3.12278],[116.36268,3.12069],[116.36701,3.11889],[116.3694,3.11709],[116.37417,3.1135],[116.37685,3.11305],[116.37805,3.1135],[116.37834,3.1147],[116.37864,3.11665],[116.38028,3.11695],[116.38043,3.11815],[116.38013,3.11935],[116.38237,3.1189],[116.38296,3.1189],[116.38371,3.1189],[116.3849,3.11905],[116.38565,3.11995],[116.38669,3.121],[116.38744,3.121],[116.38744,3.1195],[116.3889,3.11977],[116.38908,3.1198],[116.38923,3.12145],[116.39072,3.12355],[116.39221,3.1249],[116.39295,3.1267],[116.39429,3.1285],[116.39563,3.12955],[116.39682,3.1318],[116.39682,3.1333],[116.39802,3.13465],[116.39913,3.13502],[116.40015,3.13477],[116.40033,3.13472],[116.40092,3.13382],[116.40212,3.13338],[116.40286,3.13203],[116.40361,3.13083],[116.4048,3.13113],[116.40599,3.13188],[116.40659,3.13158],[116.40734,3.13113],[116.40838,3.13173],[116.40928,3.13068],[116.41002,3.13038],[116.41107,3.13053],[116.41211,3.13068],[116.413,3.13128],[116.41405,3.13053],[116.41509,3.13068],[116.41628,3.13024],[116.41718,3.12889],[116.41763,3.12649],[116.42046,3.12574],[116.42031,3.12514],[116.42106,3.1205],[116.42494,3.11465],[116.4318,3.10821],[116.43509,3.10402],[116.43896,3.10132],[116.44198,3.10022],[116.44254,3.10001],[116.44245,3.09986],[116.44178,3.09519],[116.44027,3.09123],[116.43556,3.08324],[116.43361,3.08053],[116.43148,3.08082],[116.43135,3.08083],[116.42947,3.08108],[116.42802,3.08127],[116.42369,3.08185],[116.42236,3.08315],[116.41791,3.08753],[116.41606,3.09506],[116.41106,3.10154],[116.40567,3.10471],[116.39738,3.1121],[116.38957,3.11109],[116.38817,3.11091],[116.38659,3.11078],[116.38778,3.10919],[116.38739,3.10721],[116.38699,3.10575],[116.38699,3.10536],[116.38568,3.10456],[116.38634,3.10364],[116.38594,3.10298],[116.3845,3.10245],[116.38529,3.10179],[116.38515,3.10047],[116.38384,3.09914],[116.38384,3.09795],[116.38292,3.09782],[116.3795,3.09888],[116.37529,3.10138],[116.36977,3.1031],[116.36701,3.10125],[116.36596,3.0994],[116.36451,3.09873],[116.36227,3.09781],[116.35846,3.09781],[116.35438,3.09807],[116.3511,3.09833],[116.34768,3.09833],[116.34715,3.09806],[116.34649,3.09753],[116.3448,3.09591],[116.344,3.09515],[116.344,3.09343],[116.3436,3.09251],[116.34361,3.08934],[116.34236,3.08887],[116.3421,3.08768],[116.34236,3.0861],[116.34223,3.08438],[116.34249,3.08319],[116.34131,3.08134],[116.3396,3.08081],[116.33894,3.08081],[116.33894,3.07922],[116.33921,3.0783],[116.33855,3.07724],[116.33921,3.07565],[116.33921,3.07459],[116.33921,3.07195],[116.34027,3.07076],[116.34158,3.06944],[116.3425,3.06944],[116.34276,3.06891],[116.34211,3.06772],[116.34224,3.06666],[116.34106,3.06547],[116.34224,3.06455],[116.34382,3.06455],[116.34487,3.06376],[116.34566,3.0623],[116.34592,3.06204],[116.34711,3.06283],[116.34816,3.06283],[116.34942,3.06241],[116.34974,3.06231],[116.35005,3.06219],[116.35115,3.0621]]]]},"properties":{"kdprov":"65","kdkab":"01","kdkec":"080","kddesa":"006","kdsls":"2001","idsls":"65010800062001","nmprov":"KALIMANTAN UTARA","nmkab":"MALINAU","nmkec":"MALINAU SELATAN HULU","nmdesa":"HALANGA","nmsls":"HUTAN"}},{"type":"Feature","geometry":{"type":"MultiPolygon","coordinates":[[[[116.38421,2.95093],[116.3836,2.95421],[116.38617,2.95504],[116.38612,2.95398],[116.38584,2.95278],[116.38518,2.95147],[116.38421,2.95093]]]]},"properties":{"kdprov":"65","kdkab":"01","kdkec":"080","kddesa":"003","kdsls":"0003","idsls":"65010800030003","nmprov":"KALIMANTAN UTARA","nmkab":"MALINAU","nmkec":"MALINAU SELATAN HULU","nmdesa":"NAHAKRAMO","nmsls":"RT 003"}},{"type":"Feature","geometry":{"type":"MultiPolygon","coordinates":[[[[116.45795,3.06839],[116.45792,3.06998],[116.45791,3.07021],[116.45791,3.07041],[116.45832,3.07193],[116.45848,3.07261],[116.45877,3.07389],[116.4588,3.07389],[116.46013,3.07417],[116.46099,3.07461],[116.46139,3.07516],[116.4621,3.07621],[116.46255,3.07712],[116.46495,3.07588],[116.46326,3.07],[116.4608,3.06784],[116.45963,3.06828],[116.45935,3.06836],[116.4591,3.0684],[116.45882,3.06848],[116.4586,3.06847],[116.4585,3.06839],[116.45838,3.06834],[116.45814,3.06837],[116.45795,3.06839]]]]},"properties":{"kdprov":"65","kdkab":"01","kdkec":"080","kddesa":"002","kdsls":"0007","idsls":"65010800020007","nmprov":"KALIMANTAN UTARA","nmkab":"MALINAU","nmkec":"MALINAU SELATAN HULU","nmdesa":"TANJUNG NANGA","nmsls":"RT 007"}},{"type":"Feature","geometry":{"type":"MultiPolygon","coordinates":[[[[116.15168,2.83349],[116.15204,2.83389],[116.15205,2.8339],[116.15226,2.8343],[116.153,2.83589],[116.15311,2.83589],[116.15334,2.83644],[116.15341,2.8364],[116.15388,2.83621],[116.15279,2.83379],[116.15236,2.83356],[116.15171,2.83347],[116.15168,2.83349]]]]},"properties":{"kdprov":"65","kdkab":"01","kdkec":"080","kddesa":"001","kdsls":"0001","idsls":"65010800010001","nmprov":"KALIMANTAN UTARA","nmkab":"MALINAU","nmkec":"MALINAU SELATAN HULU","nmdesa":"LONG JALAN","nmsls":"RT 001"}},{"type":"Feature","geometry":{"type":"MultiPolygon","coordinates":[[[[116.45795,3.06839],[116.45814,3.06837],[116.45838,3.06834],[116.4585,3.06839],[116.4586,3.06847],[116.45882,3.06848],[116.4591,3.0684],[116.45935,3.06836],[116.45963,3.06828],[116.4608,3.06784],[116.46046,3.06753],[116.46019,3.06592],[116.461,3.06444],[116.45917,3.06345],[116.45867,3.06514],[116.45867,3.06544],[116.45863,3.06584],[116.45856,3.06615],[116.45852,3.06646],[116.45849,3.06652],[116.45824,3.06648],[116.45803,3.06646],[116.45769,3.06646],[116.45739,3.06642],[116.45718,3.06637],[116.45717,3.06636],[116.45702,3.06681],[116.4569,3.06768],[116.45676,3.06842],[116.45702,3.0685],[116.45725,3.06855],[116.45746,3.06853],[116.45768,3.06848],[116.45792,3.06839],[116.45795,3.06839]]]]},"properties":{"kdprov":"65","kdkab":"01","kdkec":"080","kddesa":"002","kdsls":"0008","idsls":"65010800020008","nmprov":"KALIMANTAN UTARA","nmkab":"MALINAU","nmkec":"MALINAU SELATAN HULU","nmdesa":"TANJUNG NANGA","nmsls":"RT 008"}},{"type":"Feature","geometry":{"type":"MultiPolygon","coordinates":[[[[116.4117,2.96365],[116.41167,2.96353],[116.41167,2.96351],[116.41148,2.96296],[116.41114,2.96277],[116.41067,2.96272],[116.41021,2.96286],[116.40971,2.96324],[116.40928,2.96379],[116.40924,2.96386],[116.40987,2.96388],[116.40989,2.96383],[116.41011,2.96381],[116.41018,2.96381],[116.41036,2.96379],[116.41063,2.96376],[116.41092,2.96373],[116.4117,2.96365]]]]},"properties":{"kdprov":"65","kdkab":"01","kdkec":"080","kddesa":"004","kdsls":"0001","idsls":"65010800040001","nmprov":"KALIMANTAN UTARA","nmkab":"MALINAU","nmkec":"MALINAU SELATAN HULU","nmdesa":"METUT","nmsls":"RT 001"}},{"type":"Feature","geometry":{"type":"MultiPolygon","coordinates":[[[[116.44186,3.10884],[116.44303,3.10829],[116.44348,3.10809],[116.44501,3.10737],[116.44508,3.10419],[116.4443,3.10291],[116.44254,3.10001],[116.44198,3.10022],[116.43896,3.10132],[116.43509,3.10402],[116.4318,3.10821],[116.42494,3.11465],[116.42106,3.1205],[116.42031,3.12514],[116.42046,3.12574],[116.41763,3.12649],[116.41718,3.12889],[116.41628,3.13024],[116.41509,3.13068],[116.41405,3.13053],[116.413,3.13128],[116.41211,3.13068],[116.41107,3.13053],[116.41002,3.13038],[116.40928,3.13068],[116.40838,3.13173],[116.40734,3.13113],[116.40659,3.13158],[116.40599,3.13188],[116.4048,3.13113],[116.40361,3.13083],[116.40286,3.13203],[116.40212,3.13338],[116.40092,3.13382],[116.40033,3.13472],[116.40015,3.13477],[116.39913,3.13502],[116.39802,3.13465],[116.39682,3.1333],[116.39682,3.1318],[116.39563,3.12955],[116.39429,3.1285],[116.39295,3.1267],[116.39221,3.1249],[116.39072,3.12355],[116.38923,3.12145],[116.38908,3.1198],[116.3889,3.11977],[116.38744,3.1195],[116.38744,3.121],[116.38669,3.121],[116.38565,3.11995],[116.3849,3.11905],[116.38371,3.1189],[116.38296,3.1189],[116.38237,3.1189],[116.38013,3.11935],[116.38043,3.11815],[116.38028,3.11695],[116.37864,3.11665],[116.37834,3.1147],[116.37805,3.1135],[116.37685,3.11305],[116.37417,3.1135],[116.3694,3.11709],[116.36701,3.11889],[116.36268,3.12069],[116.35866,3.12278],[116.3571,3.12317],[116.35389,3.12398],[116.35046,3.12458],[116.34703,3.12487],[116.343,3.12472],[116.34002,3.12397],[116.33723,3.12249],[116.33719,3.12247],[116.33674,3.12247],[116.33474,3.12337],[116.33319,3.12409],[116.33152,3.12361],[116.33045,3.12241],[116.32901,3.12264],[116.32806,3.12324],[116.3271,3.1254],[116.32639,3.12576],[116.32555,3.12576],[116.32496,3.12612],[116.32412,3.12636],[116.32329,3.126],[116.32293,3.126],[116.32186,3.12564],[116.32102,3.12516],[116.31995,3.12528],[116.31911,3.1248],[116.31828,3.1242],[116.31595,3.12485],[116.31428,3.12437],[116.31225,3.12425],[116.30879,3.12521],[116.30812,3.12549],[116.30533,3.12665],[116.30152,3.1282],[116.29865,3.12832],[116.29519,3.12796],[116.29078,3.12724],[116.28661,3.12831],[116.28331,3.13195],[116.26144,3.13707],[116.2612,3.13969],[116.2593,3.14195],[116.2597,3.14572],[116.25713,3.14858],[116.25685,3.15229],[116.25775,3.15349],[116.25942,3.15572],[116.26056,3.15648],[116.26061,3.15786],[116.26,3.15969],[116.2597,3.16057],[116.25913,3.16257],[116.2571,3.16354],[116.2571,3.16354],[116.25571,3.16514],[116.25551,3.16701],[116.25525,3.16951],[116.25501,3.17148],[116.25473,3.17356],[116.25456,3.17485],[116.25469,3.17661],[116.25485,3.17884],[116.25343,3.18042],[116.25228,3.1817],[116.25008,3.18325],[116.25008,3.18325],[116.24742,3.18513],[116.24742,3.18513],[116.24543,3.18655],[116.24543,3.18655],[116.24276,3.18781],[116.24276,3.18781],[116.24143,3.18843],[116.24187,3.18931],[116.24355,3.19315],[116.24465,3.19605],[116.24551,3.19811],[116.24649,3.20049],[116.24848,3.202],[116.24951,3.20279],[116.24993,3.20274],[116.25192,3.20254],[116.25344,3.20356],[116.25482,3.20447],[116.25519,3.20423],[116.25519,3.20423],[116.25723,3.20291],[116.25723,3.20291],[116.25928,3.20423],[116.26285,3.20432],[116.26603,3.20279],[116.26603,3.20279],[116.26941,3.20375],[116.27315,3.20242],[116.27315,3.20242],[116.2752,3.20399],[116.27653,3.20761],[116.27653,3.20894],[116.27846,3.21002],[116.28078,3.2084],[116.28078,3.2084],[116.28294,3.206],[116.28294,3.206],[116.28497,3.2064],[116.28678,3.20773],[116.28871,3.20821],[116.29257,3.20833],[116.29257,3.2099],[116.29438,3.21111],[116.29567,3.21051],[116.29567,3.21051],[116.29739,3.20966],[116.29896,3.20942],[116.29896,3.20942],[116.30113,3.20882],[116.3016,3.20996],[116.30246,3.21207],[116.30463,3.21292],[116.30808,3.21261],[116.30808,3.21263],[116.31098,3.21239],[116.31342,3.21125],[116.31672,3.2087],[116.31917,3.20662],[116.31992,3.20417],[116.32256,3.20133],[116.32387,3.20039],[116.32519,3.19982],[116.32594,3.19869],[116.32557,3.19642],[116.3267,3.1949],[116.3282,3.19415],[116.32839,3.19264],[116.3299,3.19093],[116.33235,3.18999],[116.33404,3.18905],[116.33592,3.18602],[116.33649,3.18489],[116.33517,3.183],[116.33348,3.18262],[116.33122,3.18243],[116.33217,3.17883],[116.33217,3.17694],[116.33066,3.17543],[116.33179,3.17392],[116.33048,3.17297],[116.33048,3.1707],[116.32935,3.16919],[116.32954,3.16522],[116.33142,3.16408],[116.33443,3.16352],[116.33838,3.16276],[116.34215,3.15879],[116.3429,3.1552],[116.34742,3.15256],[116.35005,3.15275],[116.35081,3.15275],[116.35306,3.15294],[116.35457,3.15313],[116.35608,3.15275],[116.35702,3.15181],[116.36097,3.15162],[116.36398,3.15181],[116.36699,3.15219],[116.37018,3.15333],[116.37451,3.15484],[116.37865,3.15655],[116.38448,3.15806],[116.38824,3.15769],[116.39182,3.15466],[116.39596,3.15259],[116.40104,3.15202],[116.40631,3.1524],[116.4112,3.15505],[116.4159,3.15449],[116.41872,3.15317],[116.42061,3.15071],[116.42249,3.14712],[116.4223,3.14277],[116.42127,3.14054],[116.42099,3.13993],[116.42325,3.13577],[116.42626,3.13161],[116.42758,3.12878],[116.42922,3.12565],[116.42946,3.12518],[116.43116,3.12235],[116.43304,3.11932],[116.43375,3.11857],[116.43411,3.1182],[116.43462,3.11766],[116.43588,3.11308],[116.43874,3.1095],[116.439,3.10916],[116.43937,3.10912],[116.43953,3.1091],[116.43978,3.10907],[116.44186,3.10884]]]]},"properties":{"kdprov":"65","kdkab":"01","kdkec":"080","kddesa":"007","kdsls":"2001","idsls":"65010800072001","nmprov":"KALIMANTAN UTARA","nmkab":"MALINAU","nmkec":"MALINAU SELATAN HULU","nmdesa":"PUNAN MIRAU","nmsls":"HUTAN"}},{"type":"Feature","geometry":{"type":"MultiPolygon","coordinates":[[[[116.15334,2.83644],[116.15311,2.83589],[116.153,2.83589],[116.15226,2.8343],[116.15205,2.8339],[116.15204,2.83389],[116.15168,2.83349],[116.14916,2.83494],[116.14928,2.83504],[116.14938,2.83527],[116.14932,2.83559],[116.14935,2.836],[116.14944,2.83626],[116.1497,2.83664],[116.15014,2.83697],[116.15035,2.83722],[116.15046,2.83751],[116.15192,2.83703],[116.15326,2.83647],[116.15334,2.83644]]]]},"properties":{"kdprov":"65","kdkab":"01","kdkec":"080","kddesa":"001","kdsls":"0002","idsls":"65010800010002","nmprov":"KALIMANTAN UTARA","nmkab":"MALINAU","nmkec":"MALINAU SELATAN HULU","nmdesa":"LONG JALAN","nmsls":"RT 002"}},{"type":"Feature","geometry":{"type":"MultiPolygon","coordinates":[[[[116.46794,3.14816],[116.4693,3.14606],[116.46966,3.1455],[116.47047,3.14424],[116.46549,3.13592],[116.46408,3.13619],[116.46323,3.13635],[116.46295,3.1364],[116.46118,3.13665],[116.46084,3.13627],[116.46069,3.1361],[116.46041,3.13579],[116.46022,3.13558],[116.45917,3.1344],[116.45648,3.13141],[116.45464,3.13117],[116.45379,3.13107],[116.45297,3.13459],[116.4526,3.13619],[116.45235,3.13724],[116.45193,3.14163],[116.4526,3.14764],[116.45361,3.15001],[116.4546,3.15334],[116.45472,3.15429],[116.45472,3.15439],[116.45542,3.16033],[116.45444,3.16242],[116.45312,3.16649],[116.4518,3.16979],[116.44863,3.17375],[116.44698,3.17584],[116.446,3.17793],[116.44567,3.17936],[116.44545,3.18058],[116.44456,3.18146],[116.44402,3.18201],[116.44457,3.18333],[116.44002,3.19174],[116.43663,3.19471],[116.43498,3.19845],[116.43257,3.20098],[116.42953,3.20478],[116.42796,3.20742],[116.42603,3.21085],[116.42559,3.21349],[116.42629,3.21693],[116.42707,3.21921],[116.42795,3.22089],[116.42847,3.22177],[116.4293,3.22481],[116.43044,3.22745],[116.43062,3.2285],[116.43018,3.23132],[116.43096,3.23379],[116.4321,3.23537],[116.43201,3.23678],[116.4314,3.23801],[116.4314,3.24039],[116.43218,3.24285],[116.43271,3.24444],[116.43262,3.24523],[116.43376,3.2462],[116.43455,3.24752],[116.43463,3.24884],[116.43611,3.25044],[116.43578,3.25231],[116.43612,3.25272],[116.43567,3.25266],[116.43528,3.25278],[116.43455,3.25306],[116.43421,3.25407],[116.43388,3.25407],[116.43354,3.25385],[116.43315,3.25317],[116.43298,3.253],[116.43236,3.25272],[116.43169,3.25238],[116.43085,3.25238],[116.43018,3.25255],[116.42979,3.2526],[116.42788,3.25311],[116.42687,3.25333],[116.42519,3.25362],[116.42424,3.25395],[116.42289,3.25474],[116.42216,3.25542],[116.42132,3.25626],[116.4202,3.25744],[116.41941,3.25784],[116.41779,3.25919],[116.41621,3.26127],[116.41571,3.26364],[116.41475,3.2655],[116.41526,3.26815],[116.41543,3.26905],[116.41559,3.27102],[116.41811,3.27333],[116.41817,3.2744],[116.41873,3.27491],[116.42024,3.27666],[116.42063,3.27863],[116.42198,3.27897],[116.42254,3.27976],[116.42428,3.27998],[116.42551,3.27998],[116.42545,3.28072],[116.42489,3.28122],[116.42495,3.28184],[116.42596,3.28246],[116.42708,3.2819],[116.42814,3.28218],[116.42733,3.28401],[116.4275,3.28508],[116.42828,3.28649],[116.42733,3.28672],[116.42693,3.28739],[116.42643,3.28784],[116.42615,3.28846],[116.42559,3.28858],[116.42537,3.28739],[116.42374,3.287],[116.422,3.287],[116.42088,3.28694],[116.41847,3.28722],[116.4178,3.28744],[116.41651,3.28834],[116.41527,3.28857],[116.41354,3.28834],[116.4123,3.28806],[116.41034,3.28924],[116.40928,3.28969],[116.40799,3.28924],[116.40692,3.28783],[116.40552,3.28676],[116.40446,3.28541],[116.40266,3.28479],[116.40098,3.28591],[116.39652,3.28842],[116.39518,3.28926],[116.39288,3.28937],[116.39097,3.28971],[116.38666,3.28881],[116.38442,3.2879],[116.38144,3.28661],[116.37965,3.28587],[116.37707,3.28564],[116.37528,3.28547],[116.37388,3.28587],[116.37309,3.28598],[116.37236,3.28666],[116.37203,3.28677],[116.37085,3.28688],[116.37004,3.2868],[116.36942,3.28741],[116.36908,3.28843],[116.36819,3.28916],[116.3674,3.28978],[116.36734,3.29051],[116.36746,3.29136],[116.36751,3.29192],[116.36695,3.29288],[116.36594,3.29445],[116.36611,3.29541],[116.36672,3.29637],[116.36661,3.29761],[116.36622,3.29846],[116.36566,3.29879],[116.36566,3.29981],[116.36526,3.3006],[116.36386,3.30048],[116.36297,3.30082],[116.3628,3.30161],[116.36207,3.30172],[116.36134,3.3024],[116.36033,3.30296],[116.35971,3.30307],[116.35839,3.30541],[116.35901,3.30659],[116.35789,3.30783],[116.3566,3.30856],[116.35592,3.3098],[116.35559,3.31194],[116.35508,3.31324],[116.35463,3.31431],[116.35312,3.31521],[116.35233,3.31645],[116.35155,3.3169],[116.35143,3.31808],[116.35093,3.31921],[116.34964,3.31949],[116.34675,3.32036],[116.34658,3.32171],[116.34569,3.32171],[116.34462,3.32239],[116.34468,3.32357],[116.34518,3.32436],[116.34428,3.32475],[116.34299,3.32441],[116.34254,3.32447],[116.3421,3.32571],[116.34221,3.32706],[116.34159,3.32802],[116.34086,3.32864],[116.34041,3.32914],[116.34058,3.32993],[116.34063,3.33066],[116.34024,3.33112],[116.33946,3.33219],[116.33929,3.33348],[116.33878,3.33444],[116.33817,3.33472],[116.33777,3.33613],[116.33783,3.33692],[116.33767,3.33693],[116.34106,3.34035],[116.34499,3.34268],[116.3491,3.34448],[116.35499,3.34574],[116.36017,3.34646],[116.36535,3.34665],[116.36892,3.34665],[116.37035,3.34741],[116.37225,3.34587],[116.37407,3.34308],[116.37286,3.34029],[116.37009,3.33846],[116.36914,3.3355],[116.36853,3.33193],[116.37586,3.32415],[116.37664,3.32371],[116.37776,3.32276],[116.37906,3.32223],[116.38123,3.32137],[116.38365,3.32067],[116.38487,3.32102],[116.38608,3.32233],[116.38668,3.32233],[116.3879,3.32154],[116.38937,3.32224],[116.38998,3.32224],[116.39266,3.32259],[116.39431,3.32146],[116.39613,3.32225],[116.39881,3.32172],[116.39942,3.32242],[116.40063,3.32321],[116.40236,3.3239],[116.40418,3.32504],[116.40656,3.32534],[116.40751,3.32439],[116.40838,3.32552],[116.40899,3.32526],[116.40881,3.3243],[116.40855,3.32352],[116.41046,3.32378],[116.41263,3.32186],[116.41375,3.32204],[116.41514,3.32187],[116.41566,3.32004],[116.41618,3.31943],[116.41713,3.31908],[116.41748,3.31821],[116.41679,3.31795],[116.4154,3.3176],[116.4154,3.31638],[116.41661,3.3156],[116.41748,3.31316],[116.41861,3.31212],[116.42,3.31116],[116.42155,3.31168],[116.42251,3.31107],[116.42311,3.3102],[116.42519,3.30855],[116.42753,3.30559],[116.43005,3.3022],[116.43425,3.29885],[116.43893,3.29668],[116.44058,3.29172],[116.44093,3.28728],[116.43946,3.28371],[116.43721,3.28066],[116.43495,3.27883],[116.43374,3.27744],[116.43496,3.27552],[116.43639,3.27287],[116.43604,3.27217],[116.43535,3.272],[116.435,3.2713],[116.43526,3.26982],[116.43544,3.26756],[116.43587,3.26703],[116.43674,3.26677],[116.437,3.26608],[116.43682,3.26573],[116.43561,3.2659],[116.4357,3.26503],[116.43657,3.26434],[116.437,3.26294],[116.43873,3.26294],[116.43986,3.26286],[116.44116,3.26164],[116.44124,3.26033],[116.44073,3.25842],[116.44012,3.25668],[116.44159,3.25633],[116.44194,3.25589],[116.44281,3.2552],[116.44411,3.25511],[116.44514,3.25572],[116.44601,3.25459],[116.44653,3.25407],[116.44766,3.25416],[116.45104,3.25329],[116.45337,3.25285],[116.45537,3.25146],[116.45585,3.24707],[116.45368,3.24358],[116.45213,3.2327],[116.44767,3.22316],[116.44638,3.21959],[116.44759,3.21455],[116.45115,3.20976],[116.45158,3.20576],[116.45093,3.19979],[116.45042,3.19361],[116.45163,3.18839],[116.45423,3.18517],[116.45588,3.18421],[116.45588,3.18409],[116.45589,3.18379],[116.45597,3.18038],[116.45731,3.17538],[116.45723,3.17137],[116.4581,3.16754],[116.45844,3.16406],[116.45931,3.16215],[116.46148,3.16084],[116.46295,3.16093],[116.46349,3.16089],[116.46633,3.16067],[116.46672,3.16047],[116.46682,3.16042],[116.46754,3.16006],[116.46815,3.15975],[116.46858,3.15954],[116.46857,3.15951],[116.46857,3.15951],[116.46655,3.15461],[116.46636,3.15416],[116.46521,3.15135],[116.46794,3.14816]]]]},"properties":{"kdprov":"65","kdkab":"01","kdkec":"080","kddesa":"008","kdsls":"2001","idsls":"65010800082001","nmprov":"KALIMANTAN UTARA","nmkab":"MALINAU","nmkec":"MALINAU SELATAN HULU","nmdesa":"LONG RAT","nmsls":"HUTAN"}},{"type":"Feature","geometry":{"type":"MultiPolygon","coordinates":[[[[116.48419,3.08003],[116.48419,3.08003],[116.48436,3.07973],[116.48436,3.07786],[116.48436,3.07724],[116.4841,3.07678],[116.48331,3.07539],[116.48285,3.07459],[116.48218,3.07341],[116.48216,3.07337],[116.48155,3.07152],[116.48207,3.06792],[116.48474,3.06474],[116.48597,3.05845],[116.48629,3.05596],[116.48602,3.05182],[116.48767,3.04933],[116.48795,3.04491],[116.4863,3.04353],[116.48217,3.04546],[116.48053,3.04242],[116.48328,3.03634],[116.4874,3.03192],[116.4885,3.02916],[116.4918,3.02916],[116.49208,3.0275],[116.49345,3.02806],[116.49758,3.02392],[116.50308,3.01176],[116.50638,3.01121],[116.50803,3.00872],[116.51325,3.00624],[116.52645,3.00016],[116.53002,3.00127],[116.53469,3.00238],[116.53744,3.00017],[116.53579,2.99768],[116.53799,2.99658],[116.53992,2.98829],[116.5424,2.98497],[116.54212,2.98027],[116.53883,2.97751],[116.53979,2.97267],[116.53897,2.96411],[116.53485,2.96024],[116.53705,2.95278],[116.54365,2.95029],[116.54695,2.94947],[116.55052,2.95334],[116.55464,2.95168],[116.55959,2.94864],[116.56481,2.94837],[116.56811,2.94782],[116.57223,2.94975],[116.57883,2.94672],[116.5846,2.94202],[116.589,2.94064],[116.59257,2.94368],[116.59724,2.94783],[116.60163,2.94883],[116.60329,2.94921],[116.60669,2.94844],[116.60699,2.94837],[116.60699,2.94837],[116.60758,2.94835],[116.60849,2.94831],[116.6085,2.94806],[116.6085,2.94802],[116.60851,2.94789],[116.60852,2.94779],[116.60905,2.93958],[116.60905,2.93958],[116.60938,2.93898],[116.61003,2.93779],[116.61045,2.93705],[116.61061,2.93677],[116.61085,2.9365],[116.61108,2.93603],[116.61118,2.93591],[116.61302,2.93382],[116.61504,2.9316],[116.61439,2.92963],[116.6132,2.92813],[116.61097,2.92729],[116.60963,2.92642],[116.60799,2.92311],[116.60774,2.92267],[116.60347,2.91756],[116.59762,2.91931],[116.59709,2.91946],[116.59554,2.91993],[116.59517,2.92004],[116.59009,2.92089],[116.58813,2.91809],[116.58813,2.91809],[116.58778,2.91773],[116.58598,2.91589],[116.5848,2.91383],[116.58441,2.91301],[116.58422,2.91191],[116.58409,2.91132],[116.58408,2.91067],[116.58405,2.90915],[116.58404,2.90859],[116.5837,2.90674],[116.58371,2.90509],[116.58415,2.90384],[116.58444,2.90289],[116.58445,2.90286],[116.5845,2.90146],[116.5844,2.90069],[116.58458,2.89997],[116.58467,2.8991],[116.58446,2.89856],[116.58392,2.89795],[116.58349,2.8969],[116.58325,2.89595],[116.58326,2.89511],[116.58342,2.89409],[116.58395,2.89261],[116.58416,2.89207],[116.58433,2.89058],[116.5836,2.89017],[116.58236,2.89009],[116.582,2.88977],[116.58165,2.88945],[116.58105,2.88862],[116.57962,2.88797],[116.57869,2.88712],[116.57834,2.88685],[116.57775,2.88639],[116.577,2.88545],[116.57605,2.88494],[116.57543,2.88469],[116.57484,2.8846],[116.57219,2.88496],[116.57146,2.88506],[116.57051,2.88519],[116.56909,2.88538],[116.5686,2.8845],[116.56749,2.88252],[116.56585,2.88195],[116.56536,2.88175],[116.56345,2.88097],[116.56274,2.88029],[116.56175,2.88004],[116.56053,2.87973],[116.55823,2.8789],[116.55713,2.87834],[116.55648,2.87802],[116.55592,2.87792],[116.55585,2.87792],[116.55488,2.87792],[116.55444,2.87808],[116.55394,2.87809],[116.55335,2.87824],[116.55266,2.87855],[116.55143,2.87866],[116.55031,2.87861],[116.54973,2.87785],[116.54973,2.87642],[116.54949,2.87541],[116.54874,2.87472],[116.54757,2.87378],[116.54583,2.87234],[116.54263,2.87048],[116.54253,2.87041],[116.54187,2.86999],[116.54031,2.86898],[116.53859,2.86814],[116.5372,2.86783],[116.53691,2.86774],[116.53651,2.86756],[116.53578,2.86719],[116.53565,2.86702],[116.53548,2.86661],[116.53547,2.86659],[116.53543,2.86637],[116.53547,2.86578],[116.53548,2.86562],[116.5356,2.86516],[116.53576,2.86454],[116.53547,2.86396],[116.53544,2.86388],[116.53422,2.86277],[116.53358,2.86173],[116.53326,2.86095],[116.53185,2.85987],[116.53077,2.85958],[116.52966,2.85939],[116.52879,2.85904],[116.52805,2.85855],[116.52766,2.85841],[116.52728,2.85828],[116.52639,2.85801],[116.52624,2.85797],[116.52573,2.85782],[116.52526,2.85765],[116.52439,2.85732],[116.52411,2.85617],[116.52404,2.85588],[116.52362,2.85495],[116.52296,2.85425],[116.52224,2.8535],[116.52152,2.85314],[116.52123,2.85295],[116.52081,2.85267],[116.52029,2.85225],[116.52002,2.85144],[116.5198,2.85089],[116.5198,2.85014],[116.51938,2.84914],[116.51923,2.84884],[116.51896,2.84821],[116.5185,2.84791],[116.51667,2.84783],[116.51585,2.84785],[116.51564,2.848],[116.51522,2.84801],[116.51497,2.84805],[116.51439,2.84792],[116.51414,2.84787],[116.51398,2.84782],[116.51349,2.84765],[116.51315,2.84732],[116.5109,2.84597],[116.51031,2.84547],[116.5103,2.84546],[116.51005,2.84478],[116.50986,2.84428],[116.50958,2.84388],[116.50956,2.84383],[116.5095,2.84369],[116.50895,2.84325],[116.5088,2.84318],[116.50857,2.84308],[116.5076,2.84217],[116.50752,2.8421],[116.50623,2.84085],[116.50576,2.8406],[116.50509,2.84025],[116.50205,2.83995],[116.50019,2.83977],[116.49896,2.83921],[116.49844,2.83881],[116.49809,2.83792],[116.49777,2.83699],[116.49765,2.83649],[116.49763,2.8364],[116.49734,2.83559],[116.49667,2.8347],[116.49622,2.83387],[116.49555,2.83219],[116.4946,2.83097],[116.49427,2.83034],[116.49351,2.82882],[116.49344,2.82864],[116.49313,2.82786],[116.49158,2.8275],[116.48993,2.82683],[116.488,2.82685],[116.48711,2.82685],[116.48359,2.82526],[116.48174,2.82447],[116.48052,2.82351],[116.48025,2.82304],[116.47995,2.82251],[116.47891,2.82418],[116.47569,2.82623],[116.4749,2.82673],[116.47302,2.82751],[116.47152,2.82758],[116.47009,2.82717],[116.46862,2.82641],[116.46661,2.82518],[116.46552,2.82484],[116.46474,2.82474],[116.46335,2.82454],[116.46212,2.82461],[116.45851,2.82515],[116.45695,2.82573],[116.45526,2.82582],[116.45398,2.82566],[116.4531,2.82386],[116.45188,2.82259],[116.45092,2.82191],[116.44884,2.82042],[116.4458,2.81583],[116.44351,2.81634],[116.4425,2.81632],[116.44166,2.8163],[116.43901,2.81311],[116.43587,2.8118],[116.43463,2.80889],[116.43475,2.80806],[116.43498,2.80654],[116.43534,2.80547],[116.43576,2.80332],[116.43539,2.80216],[116.43432,2.80044],[116.43359,2.79816],[116.43297,2.79591],[116.43244,2.79408],[116.43197,2.79162],[116.43166,2.79139],[116.43012,2.79025],[116.42976,2.78999],[116.42987,2.78749],[116.43029,2.78684],[116.43107,2.7856],[116.43252,2.78094],[116.43278,2.77942],[116.43283,2.77772],[116.42996,2.77636],[116.42658,2.77671],[116.42474,2.77691],[116.42293,2.77684],[116.42138,2.77614],[116.42022,2.7749],[116.4201,2.77462],[116.4195,2.77324],[116.41945,2.77287],[116.4193,2.7717],[116.41812,2.77176],[116.41716,2.77179],[116.41591,2.77128],[116.41473,2.77032],[116.4133,2.76976],[116.41127,2.76843],[116.41039,2.76811],[116.40952,2.76772],[116.40726,2.76655],[116.40629,2.76548],[116.40646,2.7645],[116.40703,2.76311],[116.4072,2.76198],[116.40577,2.75949],[116.40409,2.75651],[116.40227,2.75487],[116.40213,2.75475],[116.40089,2.7542],[116.39915,2.75342],[116.39868,2.75321],[116.39812,2.75296],[116.39692,2.75243],[116.39597,2.75157],[116.39347,2.74931],[116.39254,2.74847],[116.39142,2.74798],[116.39113,2.74742],[116.39106,2.74711],[116.39103,2.74698],[116.39068,2.74652],[116.39045,2.74606],[116.38941,2.74544],[116.38821,2.74433],[116.38762,2.74369],[116.38605,2.74106],[116.38605,2.73955],[116.38525,2.73851],[116.384,2.73693],[116.38317,2.73635],[116.38291,2.73626],[116.3817,2.73584],[116.38123,2.73547],[116.38137,2.73446],[116.38149,2.73348],[116.38079,2.73356],[116.38,2.73374],[116.37912,2.73368],[116.3782,2.73348],[116.37748,2.73319],[116.37708,2.73251],[116.37707,2.73248],[116.37672,2.73174],[116.37637,2.73096],[116.37491,2.73047],[116.37427,2.73041],[116.37316,2.73058],[116.37279,2.73064],[116.37247,2.73069],[116.3717,2.72997],[116.37088,2.72916],[116.36963,2.72822],[116.36903,2.7277],[116.36831,2.72672],[116.367,2.72564],[116.36684,2.7251],[116.36688,2.72443],[116.36647,2.72284],[116.36636,2.7225],[116.36618,2.72188],[116.36589,2.72143],[116.36549,2.72111],[116.3652,2.72083],[116.36506,2.72069],[116.3643,2.72001],[116.3637,2.71934],[116.36333,2.71896],[116.3633,2.71823],[116.36342,2.71772],[116.36353,2.71729],[116.36358,2.71691],[116.36285,2.71672],[116.36199,2.71816],[116.35978,2.72186],[116.35861,2.72383],[116.35462,2.7305],[116.35519,2.73658],[116.3572,2.74092],[116.35979,2.7444],[116.36152,2.74845],[116.36151,2.75424],[116.36295,2.76379],[116.36582,2.77363],[116.37416,2.79302],[116.37617,2.79592],[116.38135,2.79795],[116.38423,2.79766],[116.39257,2.80085],[116.40063,2.80635],[116.40396,2.81021],[116.40396,2.81354],[116.4029,2.81476],[116.40222,2.81718],[116.40328,2.81938],[116.40448,2.82105],[116.4075,2.8231],[116.41213,2.8305],[116.4162,2.84295],[116.41764,2.84333],[116.41903,2.84701],[116.41775,2.85057],[116.41895,2.85907],[116.41759,2.86127],[116.41759,2.86415],[116.41906,2.86965],[116.4214,2.87079],[116.42562,2.87163],[116.4269,2.87459],[116.42909,2.87656],[116.42916,2.87891],[116.42878,2.88127],[116.43014,2.88233],[116.43203,2.88301],[116.43221,2.88364],[116.43275,2.88546],[116.43282,2.88571],[116.43146,2.8879],[116.43153,2.88988],[116.43244,2.89094],[116.43327,2.89344],[116.4343,2.89485],[116.43432,2.89488],[116.43455,2.89519],[116.43491,2.89536],[116.43825,2.89694],[116.43855,2.89952],[116.43839,2.90187],[116.43948,2.90327],[116.44051,2.9046],[116.4413,2.90729],[116.44114,2.91116],[116.44295,2.91283],[116.44371,2.91579],[116.44212,2.91807],[116.44121,2.92178],[116.44076,2.92429],[116.44189,2.92535],[116.44227,2.92512],[116.44484,2.92247],[116.44582,2.923],[116.44578,2.92562],[116.44359,2.93176],[116.44389,2.93404],[116.44457,2.93502],[116.44804,2.93768],[116.44954,2.94026],[116.45128,2.94383],[116.45138,2.94471],[116.45169,2.94743],[116.45274,2.95176],[116.45342,2.95616],[116.45372,2.96109],[116.45251,2.96928],[116.45391,2.96924],[116.45292,2.9719],[116.45111,2.97303],[116.45066,2.97493],[116.45186,2.97584],[116.45307,2.97774],[116.45224,2.98077],[116.45133,2.98184],[116.45246,2.98282],[116.45197,2.98627],[116.45061,2.98764],[116.45114,2.98923],[116.45008,2.99257],[116.45076,2.99409],[116.45204,2.99583],[116.4534,2.99667],[116.45265,2.99864],[116.45355,2.99978],[116.45385,2.99993],[116.45521,3.00077],[116.45702,3.00084],[116.46019,3.001],[116.46117,3.00221],[116.46109,3.00441],[116.46173,3.00733],[116.46105,3.00877],[116.46053,3.01044],[116.46219,3.01181],[116.46347,3.01173],[116.46543,3.01211],[116.46618,3.01371],[116.46762,3.01409],[116.46845,3.0153],[116.47162,3.01538],[116.47267,3.01985],[116.47139,3.02251],[116.47018,3.02357],[116.47112,3.02664],[116.4721,3.02824],[116.4727,3.03104],[116.47195,3.03423],[116.46968,3.03681],[116.46787,3.03817],[116.46742,3.04022],[116.46802,3.04272],[116.46817,3.0453],[116.46719,3.04637],[116.46771,3.04841],[116.46869,3.04986],[116.46877,3.05069],[116.46937,3.05175],[116.46877,3.05282],[116.4685,3.05308],[116.46723,3.0531],[116.46479,3.05315],[116.4645,3.05315],[116.46442,3.05316],[116.4643,3.05457],[116.46388,3.05477],[116.4626,3.05536],[116.46474,3.06852],[116.4655,3.07316],[116.46706,3.07706],[116.46869,3.0811],[116.46951,3.08467],[116.46951,3.08467],[116.46951,3.08468],[116.46951,3.08469],[116.46951,3.0847],[116.4694,3.08809],[116.46937,3.08916],[116.46937,3.08921],[116.46936,3.08951],[116.47158,3.08914],[116.47173,3.08859],[116.4718,3.08833],[116.47437,3.08859],[116.47539,3.08764],[116.47558,3.08759],[116.47571,3.08755],[116.47611,3.08745],[116.47645,3.08736],[116.47743,3.08672],[116.47826,3.08618],[116.47968,3.08525],[116.4816,3.0847],[116.48161,3.08469],[116.48191,3.08415],[116.48202,3.08394],[116.48396,3.08045],[116.48419,3.08003]],[[116.47359,3.06391],[116.47278,3.06283],[116.47483,3.06211],[116.47668,3.06163],[116.47837,3.06143],[116.47999,3.06143],[116.48084,3.06124],[116.48366,3.06364],[116.48376,3.06474],[116.48299,3.06584],[116.48246,3.06659],[116.47908,3.06698],[116.47636,3.06626],[116.47405,3.06451],[116.47359,3.06391]]]]},"properties":{"kdprov":"65","kdkab":"01","kdkec":"080","kddesa":"004","kdsls":"2001","idsls":"65010800042001","nmprov":"KALIMANTAN UTARA","nmkab":"MALINAU","nmkec":"MALINAU SELATAN HULU","nmdesa":"METUT","nmsls":"HUTAN"}},{"type":"Feature","geometry":{"type":"MultiPolygon","coordinates":[[[[116.4117,2.96365],[116.41092,2.96373],[116.41063,2.96376],[116.41036,2.96379],[116.41018,2.96381],[116.41011,2.96381],[116.40989,2.96383],[116.40987,2.96388],[116.40924,2.96386],[116.4089,2.96455],[116.40877,2.96509],[116.4087,2.96535],[116.40831,2.96605],[116.40814,2.96613],[116.40849,2.96717],[116.40889,2.96694],[116.40942,2.96647],[116.40976,2.96566],[116.41018,2.9651],[116.4112,2.96469],[116.41194,2.9644],[116.41183,2.96419],[116.41172,2.96371],[116.4117,2.96365]]]]},"properties":{"kdprov":"65","kdkab":"01","kdkec":"080","kddesa":"004","kdsls":"0003","idsls":"65010800040003","nmprov":"KALIMANTAN UTARA","nmkab":"MALINAU","nmkec":"MALINAU SELATAN HULU","nmdesa":"METUT","nmsls":"RT 003"}},{"type":"Feature","geometry":{"type":"MultiPolygon","coordinates":[[[[116.48998,3.07678],[116.48984,3.07458],[116.48999,3.07408],[116.49,3.07407],[116.49028,3.07317],[116.49062,3.07206],[116.49088,3.07121],[116.49392,3.07031],[116.49939,3.07121],[116.50223,3.07359],[116.50401,3.07509],[116.50533,3.07743],[116.51032,3.07914],[116.51294,3.07908],[116.51294,3.07908],[116.51294,3.07908],[116.51318,3.07838],[116.51319,3.07836],[116.51338,3.07779],[116.51374,3.07672],[116.51443,3.0747],[116.51438,3.07423],[116.51434,3.07393],[116.51328,3.06398],[116.51366,3.05572],[116.51598,3.04887],[116.51829,3.04875],[116.52073,3.04565],[116.52125,3.04152],[116.52433,3.03777],[116.5278,3.03532],[116.52999,3.03287],[116.53102,3.03016],[116.53911,3.02745],[116.54052,3.02977],[116.54951,3.03171],[116.55169,3.03688],[116.5549,3.04075],[116.56145,3.04179],[116.56826,3.04386],[116.57044,3.04606],[116.57563,3.0506],[116.58913,3.04721],[116.59089,3.04677],[116.5946,3.04501],[116.60112,3.04193],[116.60351,3.04022],[116.6067,3.03793],[116.61096,3.03487],[116.61849,3.02683],[116.6206,3.02459],[116.62441,3.01712],[116.62547,3.01593],[116.63405,3.00623],[116.63987,3.00664],[116.64308,3.00361],[116.64811,2.99029],[116.64991,2.98586],[116.6536,2.98418],[116.65849,2.98196],[116.65849,2.98196],[116.65937,2.98169],[116.65938,2.98148],[116.65958,2.98031],[116.65921,2.97918],[116.65919,2.97911],[116.6582,2.97835],[116.65804,2.97803],[116.65771,2.9774],[116.65791,2.97692],[116.65805,2.97659],[116.65827,2.97603],[116.65823,2.97588],[116.65774,2.97399],[116.6569,2.97391],[116.65662,2.97394],[116.65629,2.97406],[116.65475,2.97457],[116.65323,2.97503],[116.65173,2.97541],[116.65011,2.97488],[116.6487,2.97455],[116.64647,2.97472],[116.64516,2.97495],[116.64444,2.97523],[116.64378,2.97525],[116.64328,2.97507],[116.64242,2.97479],[116.64187,2.97459],[116.64144,2.97443],[116.64089,2.97422],[116.64006,2.9739],[116.63921,2.97389],[116.63899,2.97398],[116.63845,2.9742],[116.63751,2.9743],[116.63639,2.97383],[116.63606,2.97325],[116.63527,2.97217],[116.63487,2.97168],[116.63454,2.97099],[116.63393,2.97033],[116.63307,2.97001],[116.63263,2.9697],[116.63238,2.9691],[116.63189,2.96764],[116.63164,2.96703],[116.63143,2.96668],[116.63104,2.966],[116.63028,2.96468],[116.63025,2.96464],[116.63006,2.96399],[116.62949,2.96335],[116.6289,2.96283],[116.6286,2.96263],[116.62827,2.9624],[116.62749,2.96142],[116.62711,2.96118],[116.62683,2.96099],[116.62659,2.96073],[116.62635,2.96057],[116.62613,2.96035],[116.62577,2.96007],[116.62503,2.9596],[116.62402,2.95893],[116.6229,2.95805],[116.62235,2.95703],[116.62126,2.95639],[116.62003,2.95533],[116.6192,2.9552],[116.61813,2.95475],[116.61772,2.95387],[116.61746,2.95319],[116.61725,2.95267],[116.61701,2.95223],[116.61684,2.95201],[116.61656,2.95165],[116.61548,2.95175],[116.61334,2.95169],[116.61158,2.95106],[116.61022,2.95013],[116.61019,2.9501],[116.60849,2.94832],[116.60849,2.94832],[116.60849,2.94831],[116.60758,2.94835],[116.60699,2.94837],[116.60699,2.94837],[116.60669,2.94844],[116.60329,2.94921],[116.60163,2.94883],[116.59724,2.94783],[116.59257,2.94368],[116.589,2.94064],[116.5846,2.94202],[116.57883,2.94672],[116.57223,2.94975],[116.56811,2.94782],[116.56481,2.94837],[116.55959,2.94864],[116.55464,2.95168],[116.55052,2.95334],[116.54695,2.94947],[116.54365,2.95029],[116.53705,2.95278],[116.53485,2.96024],[116.53897,2.96411],[116.53979,2.97267],[116.53883,2.97751],[116.54212,2.98027],[116.5424,2.98497],[116.53992,2.98829],[116.53799,2.99658],[116.53579,2.99768],[116.53744,3.00017],[116.53469,3.00238],[116.53002,3.00127],[116.52645,3.00016],[116.51325,3.00624],[116.50803,3.00872],[116.50638,3.01121],[116.50308,3.01176],[116.49758,3.02392],[116.49345,3.02806],[116.49208,3.0275],[116.4918,3.02916],[116.4885,3.02916],[116.4874,3.03192],[116.48328,3.03634],[116.48053,3.04242],[116.48217,3.04546],[116.4863,3.04353],[116.48795,3.04491],[116.48767,3.04933],[116.48602,3.05182],[116.48629,3.05596],[116.48597,3.05845],[116.48474,3.06474],[116.48207,3.06792],[116.48155,3.07152],[116.48216,3.07337],[116.48218,3.07341],[116.48285,3.07459],[116.48331,3.07539],[116.4841,3.07678],[116.48436,3.07724],[116.48436,3.07786],[116.48436,3.07973],[116.48419,3.08003],[116.48419,3.08003],[116.48998,3.07678]]]]},"properties":{"kdprov":"65","kdkab":"01","kdkec":"080","kddesa":"005","kdsls":"2001","idsls":"65010800052001","nmprov":"KALIMANTAN UTARA","nmkab":"MALINAU","nmkec":"MALINAU SELATAN HULU","nmdesa":"LONG LAKE","nmsls":"HUTAN"}},{"type":"Feature","geometry":{"type":"MultiPolygon","coordinates":[[[[116.38267,2.95074],[116.38199,2.95074],[116.38068,2.9514],[116.38046,2.95221],[116.38095,2.95335],[116.38207,2.95371],[116.38267,2.95074]]]]},"properties":{"kdprov":"65","kdkab":"01","kdkec":"080","kddesa":"003","kdsls":"0002","idsls":"65010800030002","nmprov":"KALIMANTAN UTARA","nmkab":"MALINAU","nmkec":"MALINAU SELATAN HULU","nmdesa":"NAHAKRAMO","nmsls":"RT 002"}},{"type":"Feature","geometry":{"type":"MultiPolygon","coordinates":[[[[116.38267,2.95074],[116.38389,2.95074],[116.38421,2.95093],[116.38518,2.95147],[116.38584,2.95278],[116.38612,2.95398],[116.38617,2.95504],[116.38755,2.95549],[116.38769,2.95477],[116.38845,2.9509],[116.38382,2.94998],[116.38037,2.9493],[116.37985,2.953],[116.38095,2.95335],[116.38046,2.95221],[116.38068,2.9514],[116.38199,2.95074],[116.38267,2.95074]]]]},"properties":{"kdprov":"65","kdkab":"01","kdkec":"080","kddesa":"003","kdsls":"2001","idsls":"65010800032001","nmprov":"KALIMANTAN UTARA","nmkab":"MALINAU","nmkec":"MALINAU SELATAN HULU","nmdesa":"NAHAKRAMO","nmsls":"HUTAN"}},{"type":"Feature","geometry":{"type":"MultiPolygon","coordinates":[[[[115.96179,2.93832],[115.96256,2.94007],[115.96256,2.94007],[115.96256,2.94258],[115.96256,2.94258],[115.96316,2.94356],[115.96381,2.94464],[115.96519,2.94533],[115.96724,2.94567],[115.96855,2.94685],[115.96945,2.94794],[115.96956,2.94807],[115.96956,2.94807],[115.97,2.9481],[115.97276,2.94825],[115.97355,2.94816],[115.9771,2.94774],[115.98,2.94644],[115.98246,2.94556],[115.98547,2.94516],[115.98814,2.94506],[115.99101,2.94564],[115.99366,2.9466],[115.99743,2.9465],[115.99875,2.94478],[115.99967,2.94359],[115.99998,2.94168],[116.00126,2.93998],[116.00172,2.93855],[116.00199,2.93846],[116.00337,2.93798],[116.0048,2.93809],[116.00688,2.93906],[116.00832,2.93997],[116.01141,2.94192],[116.01521,2.94239],[116.01689,2.94287],[116.02021,2.94382],[116.02161,2.94449],[116.02347,2.94632],[116.02521,2.9462],[116.02759,2.94763],[116.03068,2.9481],[116.03247,2.9487],[116.03425,2.94929],[116.03625,2.9467],[116.03849,2.94609],[116.04043,2.94712],[116.04055,2.94832],[116.04192,2.9513],[116.04254,2.95413],[116.04362,2.95859],[116.04362,2.95859],[116.0454,2.95809],[116.0454,2.95809],[116.04818,2.95732],[116.04818,2.95732],[116.05036,2.95666],[116.05047,2.95663],[116.05056,2.9566],[116.05255,2.95743],[116.05255,2.95743],[116.05272,2.95736],[116.05291,2.95728],[116.0538,2.9569],[116.05407,2.95678],[116.05426,2.9567],[116.05426,2.9567],[116.05723,2.95636],[116.05723,2.95636],[116.05746,2.95615],[116.05771,2.95593],[116.05905,2.95474],[116.0604,2.95432],[116.0604,2.95432],[116.06053,2.9543],[116.06173,2.95408],[116.06325,2.95337],[116.06325,2.95337],[116.06506,2.95289],[116.06668,2.95323],[116.07031,2.95294],[116.07092,2.95404],[116.07225,2.95508],[116.07277,2.9558],[116.07458,2.95661],[116.07682,2.95732],[116.0782,2.95784],[116.07962,2.95841],[116.0823,2.95884],[116.0823,2.95884],[116.08414,2.95837],[116.08413,2.95612],[116.084,2.95432],[116.08438,2.95299],[116.08584,2.95066],[116.08655,2.94935],[116.08699,2.94799],[116.08725,2.94628],[116.08706,2.94418],[116.08706,2.94418],[116.08878,2.9438],[116.09014,2.94214],[116.09144,2.94057],[116.09211,2.93947],[116.09296,2.93809],[116.09318,2.93711],[116.09271,2.93586],[116.09304,2.93505],[116.09304,2.93505],[116.09423,2.93462],[116.09423,2.93462],[116.09557,2.93423],[116.09557,2.93423],[116.09658,2.93619],[116.09771,2.93796],[116.09846,2.93882],[116.09944,2.9398],[116.09982,2.94228],[116.09982,2.94418],[116.09899,2.94542],[116.09844,2.94702],[116.09707,2.9491],[116.09671,2.94973],[116.09825,2.95062],[116.09944,2.95084],[116.10134,2.95046],[116.10134,2.95046],[116.10245,2.94888],[116.10496,2.94818],[116.10496,2.94818],[116.10586,2.94761],[116.10586,2.94761],[116.1064,2.94729],[116.10775,2.9465],[116.1091,2.94622],[116.11105,2.94609],[116.11105,2.94609],[116.11299,2.94466],[116.11299,2.94466],[116.11423,2.94359],[116.11562,2.9419],[116.11658,2.9405],[116.11781,2.93932],[116.11879,2.93824],[116.12095,2.93866],[116.12095,2.93866],[116.12269,2.93745],[116.12388,2.93581],[116.12388,2.93581],[116.12507,2.9349],[116.12507,2.9349],[116.12657,2.93401],[116.12709,2.9337],[116.12837,2.93219],[116.12837,2.93219],[116.12905,2.93213],[116.13022,2.93204],[116.13022,2.93204],[116.13275,2.93143],[116.13512,2.93247],[116.13543,2.93274],[116.13648,2.93369],[116.13741,2.93452],[116.13898,2.93452],[116.14115,2.93512],[116.14127,2.93705],[116.14299,2.93847],[116.14412,2.93991],[116.14442,2.94224],[116.14446,2.94253],[116.14474,2.94465],[116.14474,2.94465],[116.14539,2.9447],[116.14555,2.94471],[116.15453,2.94534],[116.16594,2.9428],[116.17993,2.93969],[116.20618,2.92864],[116.21889,2.91305],[116.22256,2.90454],[116.22272,2.8817],[116.23584,2.87116],[116.23825,2.86923],[116.23906,2.86851],[116.24111,2.86671],[116.24982,2.85903],[116.25257,2.84499],[116.25293,2.84314],[116.25463,2.84031],[116.25633,2.8335],[116.2521,2.82981],[116.25041,2.82215],[116.24731,2.81534],[116.24745,2.80981],[116.24407,2.80498],[116.23985,2.79136],[116.24183,2.78626],[116.24127,2.77689],[116.23704,2.7715],[116.2362,2.76753],[116.23366,2.76157],[116.23225,2.75817],[116.23593,2.74824],[116.24129,2.73945],[116.24175,2.73818],[116.24301,2.73475],[116.24553,2.72782],[116.24695,2.72271],[116.24949,2.71874],[116.24988,2.71446],[116.25005,2.7125],[116.2478,2.70825],[116.24752,2.70342],[116.2495,2.70002],[116.24969,2.69982],[116.24981,2.6997],[116.25102,2.69843],[116.25165,2.69776],[116.25166,2.69776],[116.25873,2.68502],[116.2561,2.68376],[116.25336,2.68376],[116.25073,2.6841],[116.24685,2.6841],[116.24479,2.68022],[116.24285,2.67691],[116.23908,2.67588],[116.23452,2.67439],[116.23086,2.67074],[116.22641,2.66925],[116.22298,2.66868],[116.22254,2.66794],[116.22104,2.66537],[116.21853,2.66628],[116.21544,2.66571],[116.21419,2.66537],[116.2127,2.66697],[116.21167,2.66903],[116.21122,2.67222],[116.20767,2.67268],[116.20505,2.67497],[116.20071,2.67497],[116.19694,2.67497],[116.19488,2.67485],[116.19385,2.67691],[116.19214,2.67793],[116.18997,2.67771],[116.18872,2.67919],[116.18655,2.68045],[116.18312,2.6809],[116.181,2.68254],[116.18055,2.68259],[116.17752,2.68298],[116.17661,2.6857],[116.17501,2.68696],[116.17478,2.68936],[116.17101,2.6897],[116.16896,2.68913],[116.16599,2.69073],[116.16325,2.68981],[116.1605,2.68776],[116.15674,2.6873],[116.15502,2.68696],[116.1526,2.68519],[116.15259,2.68518],[116.14624,2.68277],[116.14346,2.68265],[116.13888,2.68373],[116.13599,2.68506],[116.13178,2.68814],[116.13177,2.68815],[116.1308,2.69229],[116.12996,2.69435],[116.12984,2.69591],[116.13068,2.69857],[116.12911,2.70074],[116.12622,2.70122],[116.12212,2.69953],[116.11934,2.69796],[116.11717,2.69652],[116.11325,2.69517],[116.11325,2.69517],[116.1109,2.69519],[116.10957,2.69097],[116.10776,2.68783],[116.10656,2.6853],[116.10463,2.68361],[116.10403,2.67855],[116.10288,2.67512],[116.103,2.6725],[116.10323,2.66964],[116.10334,2.66793],[116.10197,2.66599],[116.10003,2.66256],[116.10003,2.65811],[116.10106,2.65514],[116.1006,2.65228],[116.10083,2.64965],[116.09775,2.64885],[116.09592,2.6476],[116.09295,2.64691],[116.08964,2.64783],[116.08724,2.64828],[116.08198,2.64805],[116.07913,2.64748],[116.07719,2.64714],[116.07467,2.6476],[116.0725,2.64726],[116.07056,2.64703],[116.06691,2.64657],[116.06417,2.64531],[116.06234,2.64371],[116.05834,2.64326],[116.05412,2.64543],[116.05195,2.64828],[116.04761,2.65022],[116.04578,2.6516],[116.04235,2.65411],[116.03959,2.65349],[116.03649,2.65278],[116.03376,2.65278],[116.03031,2.65183],[116.02555,2.65195],[116.02341,2.65278],[116.01984,2.65361],[116.01758,2.65516],[116.01651,2.65801],[116.01567,2.65968],[116.01365,2.66242],[116.01056,2.66337],[116.00758,2.66254],[116.00508,2.6617],[116.00306,2.66265],[115.99914,2.6642],[115.99985,2.66694],[116.0014,2.66932],[116.0014,2.67312],[116.00056,2.67622],[116.00033,2.67955],[115.99747,2.68336],[115.99744,2.68344],[115.99569,2.68788],[115.99259,2.68895],[115.99042,2.69085],[115.98974,2.69145],[115.98791,2.69439],[115.98787,2.69442],[115.98498,2.69656],[115.98302,2.69879],[115.98288,2.69883],[115.97867,2.70013],[115.97616,2.70151],[115.97368,2.70287],[115.97213,2.70489],[115.97158,2.70538],[115.96856,2.7081],[115.96449,2.70846],[115.96444,2.70853],[115.96535,2.71381],[115.96654,2.71631],[115.96939,2.71774],[115.97134,2.71885],[115.97356,2.72012],[115.97418,2.72178],[115.97477,2.72334],[115.97481,2.72345],[115.97534,2.72488],[115.97512,2.72822],[115.97513,2.7283],[115.97546,2.73285],[115.97701,2.7357],[115.97967,2.73979],[115.97968,2.73984],[115.98105,2.7451],[115.97997,2.74578],[115.97614,2.74819],[115.97308,2.74868],[115.96944,2.74926],[115.96776,2.7523],[115.96761,2.75748],[115.9635,2.75459],[115.96015,2.75428],[115.95924,2.75733],[115.96076,2.75992],[115.95924,2.76296],[115.95771,2.76586],[115.95573,2.76875],[115.95315,2.7718],[115.9498,2.77469],[115.94705,2.77652],[115.94314,2.77778],[115.94233,2.77804],[115.93837,2.77941],[115.93548,2.78261],[115.93411,2.78718],[115.93518,2.78961],[115.93853,2.79114],[115.9402,2.79479],[115.94025,2.7989],[115.93739,2.80464],[115.93504,2.80866],[115.93507,2.80872],[115.93506,2.80873],[115.93439,2.80988],[115.93685,2.81322],[115.93944,2.81535],[115.94188,2.81977],[115.94208,2.8204],[115.94309,2.82357],[115.94507,2.82601],[115.94705,2.82936],[115.94614,2.83301],[115.94416,2.83652],[115.94249,2.83926],[115.94203,2.84276],[115.94127,2.84471],[115.94114,2.84506],[115.9402,2.84748],[115.9395,2.84889],[115.93898,2.84992],[115.93822,2.85312],[115.93548,2.85479],[115.93167,2.85373],[115.92863,2.8554],[115.92893,2.85753],[115.92695,2.85875],[115.92375,2.85906],[115.92132,2.86012],[115.91772,2.8609],[115.91788,2.86106],[115.91788,2.86118],[115.91788,2.86143],[115.91788,2.86202],[115.91782,2.86223],[115.91745,2.86352],[115.9174,2.86369],[115.9174,2.8637],[115.91728,2.86477],[115.91724,2.86486],[115.9168,2.86585],[115.91675,2.86661],[115.91675,2.86669],[115.91674,2.86682],[115.91673,2.86692],[115.91668,2.86764],[115.91659,2.8681],[115.9165,2.86855],[115.9164,2.86907],[115.91632,2.86944],[115.91649,2.87018],[115.91718,2.87317],[115.91802,2.87519],[115.91802,2.87519],[115.91599,2.87721],[115.91492,2.87899],[115.91492,2.879],[115.91599,2.88221],[115.91671,2.88435],[115.91671,2.88435],[115.91671,2.88613],[115.91671,2.88613],[115.91754,2.88911],[115.91956,2.8903],[115.92111,2.89208],[115.92111,2.89208],[115.92052,2.89458],[115.92052,2.89458],[115.92219,2.89621],[115.92373,2.8977],[115.92487,2.89896],[115.92715,2.90113],[115.92783,2.9018],[115.92898,2.90295],[115.93058,2.90421],[115.93286,2.90535],[115.93492,2.90672],[115.93629,2.90855],[115.93766,2.91106],[115.93937,2.91312],[115.94086,2.91517],[115.94189,2.91666],[115.94371,2.91906],[115.94371,2.91906],[115.94326,2.92305],[115.94326,2.92305],[115.94451,2.92511],[115.94611,2.92762],[115.94714,2.92934],[115.94862,2.93025],[115.95137,2.92945],[115.95354,2.92991],[115.95593,2.93162],[115.95634,2.93228],[115.95742,2.93402],[115.95868,2.93448],[115.96107,2.93687],[115.96176,2.93824],[115.96179,2.93832]],[[116.1852,2.88351],[116.18602,2.88341],[116.18576,2.88395],[116.18585,2.88524],[116.18584,2.88697],[116.18541,2.88675],[116.18533,2.88603],[116.18474,2.88586],[116.18461,2.88517],[116.1852,2.88351]],[[116.22926,2.84248],[116.22978,2.8429],[116.23003,2.84337],[116.23018,2.84397],[116.23025,2.8447],[116.23039,2.84533],[116.2306,2.84574],[116.23058,2.84709],[116.22966,2.84754],[116.22871,2.84609],[116.22814,2.84437],[116.22847,2.84274],[116.22926,2.84248]],[[116.18842,2.84572],[116.18839,2.84611],[116.18695,2.84478],[116.18785,2.84431],[116.18874,2.84388],[116.19038,2.8448],[116.19074,2.845],[116.1904,2.84516],[116.1901,2.84524],[116.18969,2.84519],[116.18926,2.84507],[116.18877,2.84535],[116.18842,2.84572]],[[116.19404,2.85743],[116.19328,2.85749],[116.19274,2.85778],[116.19247,2.85792],[116.19175,2.85815],[116.19128,2.85684],[116.19161,2.85614],[116.19209,2.85516],[116.19237,2.8554],[116.19296,2.8557],[116.19333,2.85564],[116.19401,2.85533],[116.19424,2.85541],[116.19461,2.85617],[116.19462,2.85635],[116.19468,2.85784],[116.1942,2.85741],[116.19404,2.85743]],[[116.15168,2.83349],[116.15171,2.83347],[116.15236,2.83356],[116.15279,2.83379],[116.15388,2.83621],[116.15341,2.8364],[116.15334,2.83644],[116.15326,2.83647],[116.15192,2.83703],[116.15046,2.83751],[116.15035,2.83722],[116.15014,2.83697],[116.1497,2.83664],[116.14944,2.83626],[116.14935,2.836],[116.14932,2.83559],[116.14938,2.83527],[116.14928,2.83504],[116.14916,2.83494],[116.15168,2.83349]]]]},"properties":{"kdprov":"65","kdkab":"01","kdkec":"080","kddesa":"001","kdsls":"2001","idsls":"65010800012001","nmprov":"KALIMANTAN UTARA","nmkab":"MALINAU","nmkec":"MALINAU SELATAN HULU","nmdesa":"LONG JALAN","nmsls":"HUTAN"}},{"type":"Feature","geometry":{"type":"MultiPolygon","coordinates":[[[[116.34257,3.05687],[116.34259,3.05677],[116.34263,3.0567],[116.34278,3.05645],[116.34298,3.05632],[116.34325,3.05619],[116.34337,3.05596],[116.3431,3.05587],[116.343,3.05584],[116.34283,3.05576],[116.34261,3.05565],[116.34239,3.05557],[116.34225,3.05548],[116.34187,3.05544],[116.34161,3.05531],[116.34147,3.05523],[116.34132,3.05518],[116.34096,3.05511],[116.34062,3.05506],[116.34038,3.05501],[116.33995,3.05646],[116.34005,3.05681],[116.34013,3.05712],[116.34257,3.05687]]]]},"properties":{"kdprov":"65","kdkab":"01","kdkec":"080","kddesa":"007","kdsls":"0002","idsls":"65010800070002","nmprov":"KALIMANTAN UTARA","nmkab":"MALINAU","nmkec":"MALINAU SELATAN HULU","nmdesa":"PUNAN MIRAU","nmsls":"RT 002"}},{"type":"Feature","geometry":{"type":"MultiPolygon","coordinates":[[[[116.42163,3.06488],[116.42029,3.06498],[116.42029,3.06506],[116.42029,3.06578],[116.42031,3.06622],[116.42033,3.06663],[116.42008,3.06734],[116.41974,3.06813],[116.41957,3.06865],[116.41942,3.06925],[116.41949,3.06962],[116.41972,3.06977],[116.42023,3.06988],[116.42094,3.06958],[116.42153,3.06922],[116.42212,3.06889],[116.42257,3.06867],[116.42286,3.06865],[116.42322,3.06825],[116.42318,3.06749],[116.42149,3.06641],[116.42156,3.06565],[116.42163,3.06488]]]]},"properties":{"kdprov":"65","kdkab":"01","kdkec":"080","kddesa":"006","kdsls":"0002","idsls":"65010800060002","nmprov":"KALIMANTAN UTARA","nmkab":"MALINAU","nmkec":"MALINAU SELATAN HULU","nmdesa":"HALANGA","nmsls":"RT 002"}},{"type":"Feature","geometry":{"type":"MultiPolygon","coordinates":[[[[116.40849,2.96717],[116.40814,2.96613],[116.40779,2.96629],[116.40777,2.9663],[116.40694,2.9664],[116.40572,2.96638],[116.40493,2.966],[116.40377,2.96532],[116.4036,2.96498],[116.4034,2.96457],[116.40312,2.96349],[116.40305,2.96266],[116.40302,2.96241],[116.40268,2.96152],[116.40223,2.96097],[116.40188,2.96054],[116.39998,2.95989],[116.3987,2.95978],[116.39808,2.96031],[116.39788,2.96089],[116.39791,2.9621],[116.39809,2.96338],[116.39766,2.96416],[116.39702,2.96441],[116.39624,2.96363],[116.39517,2.96224],[116.3937,2.96046],[116.39214,2.95889],[116.39113,2.96024],[116.38784,2.96466],[116.38712,2.97092],[116.38764,2.97173],[116.38964,2.97486],[116.39893,2.97057],[116.40045,2.97073],[116.40263,2.97007],[116.40291,2.96875],[116.40285,2.96745],[116.40589,2.96732],[116.40652,2.96722],[116.40755,2.9673],[116.40837,2.96723],[116.40849,2.96717]]]]},"properties":{"kdprov":"65","kdkab":"01","kdkec":"080","kddesa":"004","kdsls":"0002","idsls":"65010800040002","nmprov":"KALIMANTAN UTARA","nmkab":"MALINAU","nmkec":"MALINAU SELATAN HULU","nmdesa":"METUT","nmsls":"RT 002"}},{"type":"Feature","geometry":{"type":"MultiPolygon","coordinates":[[[[116.34257,3.05687],[116.34013,3.05712],[116.34013,3.05714],[116.34027,3.05738],[116.34039,3.05759],[116.34063,3.05777],[116.34073,3.05785],[116.34121,3.05785],[116.34176,3.05778],[116.34189,3.05776],[116.34201,3.05788],[116.34212,3.05799],[116.34229,3.05815],[116.34248,3.05818],[116.34275,3.05805],[116.34279,3.0579],[116.34283,3.05774],[116.34273,3.05757],[116.34264,3.05745],[116.3426,3.05738],[116.34255,3.05704],[116.34257,3.05687]]]]},"properties":{"kdprov":"65","kdkab":"01","kdkec":"080","kddesa":"007","kdsls":"0001","idsls":"65010800070001","nmprov":"KALIMANTAN UTARA","nmkab":"MALINAU","nmkec":"MALINAU SELATAN HULU","nmdesa":"PUNAN MIRAU","nmsls":"RT 001"}}]}