{"type":"FeatureCollection","features":[{"type":"Feature","geometry":{"type":"MultiPolygon","coordinates":[[[[116.52302,3.2279],[116.52273,3.22662],[116.52268,3.22556],[116.51932,3.22542],[116.51775,3.2271],[116.51877,3.22904],[116.52029,3.22942],[116.52154,3.22823],[116.52302,3.2279]]]]},"properties":{"kdprov":"65","kdkab":"01","kdkec":"090","kddesa":"007","kdsls":"0006","idsls":"65010900070006","nmprov":"KALIMANTAN UTARA","nmkab":"MALINAU","nmkec":"MALINAU SELATAN","nmdesa":"LONG LOREH","nmsls":"RT 006"}},{"type":"Feature","geometry":{"type":"MultiPolygon","coordinates":[[[[116.5227,3.15865],[116.52315,3.15684],[116.52335,3.15438],[116.52322,3.15383],[116.52089,3.15397],[116.52013,3.15542],[116.52027,3.15802],[116.5227,3.15865]]]]},"properties":{"kdprov":"65","kdkab":"01","kdkec":"090","kddesa":"006","kdsls":"4001","idsls":"65010900064001","nmprov":"KALIMANTAN UTARA","nmkab":"MALINAU","nmkec":"MALINAU SELATAN","nmdesa":"BILA BEKAYUK","nmsls":"PEMUKIMAN BIASA"}},{"type":"Feature","geometry":{"type":"MultiPolygon","coordinates":[[[[116.22926,2.84248],[116.22847,2.84274],[116.22814,2.84437],[116.22871,2.84609],[116.22966,2.84754],[116.23058,2.84709],[116.2306,2.84574],[116.23039,2.84533],[116.23025,2.8447],[116.23018,2.84397],[116.23003,2.84337],[116.22978,2.8429],[116.22926,2.84248]]]]},"properties":{"kdprov":"65","kdkab":"01","kdkec":"090","kddesa":"005","kdsls":"4002","idsls":"65010900054002","nmprov":"KALIMANTAN UTARA","nmkab":"MALINAU","nmkec":"MALINAU SELATAN","nmdesa":"PELENCAU","nmsls":"PELENCAU HULU (KAWASAN PERMUKIMAN)"}},{"type":"Feature","geometry":{"type":"MultiPolygon","coordinates":[[[[116.46639,3.1724],[116.46852,3.17249],[116.46931,3.17249],[116.4693,3.17198],[116.46882,3.17199],[116.4685,3.17199],[116.46792,3.172],[116.4663,3.17192],[116.46639,3.1724]]]]},"properties":{"kdprov":"65","kdkab":"01","kdkec":"090","kddesa":"005","kdsls":"0001","idsls":"65010900050001","nmprov":"KALIMANTAN UTARA","nmkab":"MALINAU","nmkec":"MALINAU SELATAN","nmdesa":"PELENCAU","nmsls":"RT 001"}},{"type":"Feature","geometry":{"type":"MultiPolygon","coordinates":[[[[116.47537,3.13876],[116.47582,3.13885],[116.47648,3.13884],[116.47794,3.13249],[116.47795,3.13133],[116.47573,3.13039],[116.47252,3.13176],[116.47291,3.13217],[116.47309,3.13297],[116.4731,3.13339],[116.47393,3.13354],[116.47443,3.13375],[116.4747,3.13395],[116.47482,3.1342],[116.47486,3.13437],[116.47474,3.13443],[116.47452,3.13439],[116.47437,3.13435],[116.47432,3.13443],[116.4744,3.13453],[116.47441,3.13467],[116.47432,3.13477],[116.47415,3.13491],[116.47412,3.135],[116.47413,3.13539],[116.47412,3.13553],[116.47419,3.13564],[116.47435,3.13571],[116.47441,3.13579],[116.47443,3.13598],[116.47452,3.1361],[116.47468,3.13612],[116.47489,3.13598],[116.47506,3.13596],[116.47522,3.13609],[116.47544,3.13639],[116.47581,3.13678],[116.47567,3.13744],[116.47537,3.13876]]]]},"properties":{"kdprov":"65","kdkab":"01","kdkec":"090","kddesa":"001","kdsls":"0001","idsls":"65010900010001","nmprov":"KALIMANTAN UTARA","nmkab":"MALINAU","nmkec":"MALINAU SELATAN","nmdesa":"LANGAP","nmsls":"RT 001"}},{"type":"Feature","geometry":{"type":"MultiPolygon","coordinates":[[[[116.48999,3.07408],[116.4907,3.07478],[116.49338,3.07477],[116.49351,3.07453],[116.49345,3.07452],[116.4933,3.0744],[116.49321,3.07424],[116.49306,3.07414],[116.49279,3.07407],[116.49255,3.07393],[116.49211,3.07358],[116.4917,3.07328],[116.49144,3.07315],[116.49105,3.07312],[116.49075,3.0732],[116.49053,3.07325],[116.49034,3.07321],[116.49028,3.07317],[116.49,3.07407],[116.48999,3.07408]]]]},"properties":{"kdprov":"65","kdkab":"01","kdkec":"090","kddesa":"009","kdsls":"0002","idsls":"65010900090002","nmprov":"KALIMANTAN UTARA","nmkab":"MALINAU","nmkec":"MALINAU SELATAN","nmdesa":"PUNAN RIAN","nmsls":"RT 002"}},{"type":"Feature","geometry":{"type":"MultiPolygon","coordinates":[[[[116.42907,2.99772],[116.42876,2.99994],[116.43123,2.99979],[116.43103,2.99855],[116.4312,2.99763],[116.42907,2.99772]]]]},"properties":{"kdprov":"65","kdkab":"01","kdkec":"090","kddesa":"005","kdsls":"4001","idsls":"65010900054001","nmprov":"KALIMANTAN UTARA","nmkab":"MALINAU","nmkec":"MALINAU SELATAN","nmdesa":"PELENCAU","nmsls":"SUNGAI BENGAWAT (KAWASAN PERMUKIMAN)"}},{"type":"Feature","geometry":{"type":"MultiPolygon","coordinates":[[[[116.46912,3.16674],[116.46931,3.16741],[116.46937,3.16747],[116.46945,3.16757],[116.46963,3.16773],[116.46968,3.16805],[116.46971,3.16823],[116.46974,3.1684],[116.46974,3.1684],[116.46975,3.16847],[116.46976,3.16852],[116.47006,3.16853],[116.4706,3.16852],[116.47056,3.16758],[116.47055,3.16731],[116.47052,3.16669],[116.47047,3.16526],[116.47081,3.16499],[116.47152,3.16462],[116.47144,3.16313],[116.47141,3.16251],[116.47027,3.16131],[116.46906,3.16233],[116.46962,3.16379],[116.46971,3.16467],[116.46963,3.16592],[116.46961,3.16627],[116.46942,3.16662],[116.46912,3.16674]]]]},"properties":{"kdprov":"65","kdkab":"01","kdkec":"090","kddesa":"004","kdsls":"0001","idsls":"65010900040001","nmprov":"KALIMANTAN UTARA","nmkab":"MALINAU","nmkec":"MALINAU SELATAN","nmdesa":"SENGAYAN","nmsls":"RT 001"}},{"type":"Feature","geometry":{"type":"MultiPolygon","coordinates":[[[[116.44417,3.11606],[116.4447,3.11654],[116.44502,3.11759],[116.44507,3.11858],[116.44503,3.12017],[116.44351,3.1203],[116.44349,3.11875],[116.44311,3.11823],[116.44278,3.11785],[116.44275,3.1173],[116.44301,3.11681],[116.44278,3.11626],[116.44266,3.11601],[116.44278,3.11406],[116.44245,3.1129],[116.44239,3.11195],[116.44215,3.11088],[116.44206,3.11025],[116.44194,3.10942],[116.44051,3.11283],[116.4396,3.11502],[116.43888,3.11672],[116.43762,3.11687],[116.43662,3.11679],[116.43593,3.11645],[116.4358,3.11599],[116.43582,3.11545],[116.43626,3.11489],[116.43666,3.11442],[116.43695,3.11407],[116.43775,3.11262],[116.43824,3.11179],[116.43874,3.11096],[116.43926,3.10957],[116.43937,3.10912],[116.439,3.10916],[116.43874,3.1095],[116.43588,3.11308],[116.43462,3.11766],[116.43411,3.1182],[116.43375,3.11857],[116.43304,3.11932],[116.43116,3.12235],[116.42946,3.12518],[116.42922,3.12565],[116.42758,3.12878],[116.42626,3.13161],[116.42325,3.13577],[116.42099,3.13993],[116.42127,3.14054],[116.4223,3.14277],[116.42249,3.14712],[116.42061,3.15071],[116.41872,3.15317],[116.4159,3.15449],[116.4112,3.15505],[116.40631,3.1524],[116.40104,3.15202],[116.39596,3.15259],[116.39182,3.15466],[116.38824,3.15769],[116.38448,3.15806],[116.37865,3.15655],[116.37451,3.15484],[116.37018,3.15333],[116.36699,3.15219],[116.36398,3.15181],[116.36097,3.15162],[116.35702,3.15181],[116.35608,3.15275],[116.35457,3.15313],[116.35306,3.15294],[116.35081,3.15275],[116.35005,3.15275],[116.34742,3.15256],[116.3429,3.1552],[116.34215,3.15879],[116.33838,3.16276],[116.33443,3.16352],[116.33142,3.16408],[116.32954,3.16522],[116.32935,3.16919],[116.33048,3.1707],[116.33048,3.17297],[116.33179,3.17392],[116.33066,3.17543],[116.33217,3.17694],[116.33217,3.17883],[116.33122,3.18243],[116.33348,3.18262],[116.33517,3.183],[116.33649,3.18489],[116.33592,3.18602],[116.33404,3.18905],[116.33235,3.18999],[116.3299,3.19093],[116.32839,3.19264],[116.3282,3.19415],[116.3267,3.1949],[116.32557,3.19642],[116.32594,3.19869],[116.32519,3.19982],[116.32387,3.20039],[116.32256,3.20133],[116.31992,3.20417],[116.31917,3.20662],[116.31672,3.2087],[116.31342,3.21125],[116.31098,3.21239],[116.30808,3.21263],[116.30819,3.21332],[116.31033,3.21906],[116.31148,3.22103],[116.31265,3.22302],[116.31587,3.22661],[116.31997,3.23002],[116.32533,3.23362],[116.33193,3.23559],[116.33845,3.23712],[116.34077,3.23856],[116.34345,3.24179],[116.34523,3.24539],[116.34463,3.24703],[116.34666,3.24761],[116.35042,3.24868],[116.35403,3.24943],[116.35659,3.24959],[116.35929,3.24883],[116.36652,3.24702],[116.37028,3.24718],[116.37178,3.24793],[116.37569,3.24763],[116.37554,3.24506],[116.37705,3.24204],[116.37885,3.23872],[116.38006,3.2366],[116.37976,3.23222],[116.37961,3.2304],[116.37758,3.22367],[116.37774,3.22156],[116.37849,3.2211],[116.37789,3.21989],[116.37729,3.21899],[116.37834,3.21611],[116.37879,3.21475],[116.3791,3.21294],[116.37819,3.21097],[116.37669,3.20946],[116.37549,3.20765],[116.37414,3.20538],[116.37354,3.20311],[116.37459,3.20175],[116.37459,3.19918],[116.37595,3.19782],[116.3761,3.1951],[116.37655,3.19328],[116.37595,3.19102],[116.37505,3.19011],[116.3761,3.18845],[116.37625,3.18693],[116.37655,3.18648],[116.37776,3.18633],[116.37866,3.18573],[116.37971,3.18527],[116.37926,3.18361],[116.38092,3.18301],[116.38212,3.18271],[116.38333,3.1815],[116.38483,3.18135],[116.38543,3.18029],[116.38633,3.18089],[116.38678,3.1821],[116.38799,3.18105],[116.38799,3.17999],[116.38889,3.17984],[116.38919,3.18014],[116.38979,3.18059],[116.39024,3.17984],[116.39175,3.17923],[116.39205,3.17984],[116.3937,3.1806],[116.39476,3.17893],[116.39506,3.17772],[116.39551,3.17772],[116.39807,3.17818],[116.39701,3.17621],[116.39566,3.17455],[116.39822,3.17425],[116.39927,3.17531],[116.39927,3.17652],[116.40047,3.17712],[116.40348,3.17894],[116.40574,3.1806],[116.40694,3.17728],[116.40709,3.17546],[116.40905,3.17501],[116.4113,3.17456],[116.41356,3.17426],[116.41506,3.17456],[116.41702,3.1735],[116.41867,3.1735],[116.42048,3.17215],[116.42228,3.17215],[116.42604,3.1726],[116.42484,3.17048],[116.4259,3.16928],[116.42845,3.17124],[116.4292,3.1717],[116.43056,3.17245],[116.43086,3.17366],[116.43251,3.17321],[116.43402,3.17079],[116.43582,3.1714],[116.43687,3.17609],[116.43853,3.17412],[116.43808,3.17215],[116.43928,3.16989],[116.43793,3.16701],[116.43733,3.16429],[116.43778,3.16293],[116.43402,3.1584],[116.43342,3.15567],[116.43584,3.15256],[116.43658,3.15159],[116.43733,3.13835],[116.43856,3.12746],[116.43857,3.1274],[116.43858,3.12729],[116.43873,3.12598],[116.43967,3.12546],[116.4404,3.12505],[116.44308,3.12356],[116.44539,3.12228],[116.44629,3.12178],[116.45052,3.11943],[116.45246,3.12158],[116.45707,3.12671],[116.45566,3.12177],[116.4552,3.12014],[116.45429,3.11847],[116.45184,3.11398],[116.45026,3.11212],[116.44635,3.1136],[116.4446,3.11577],[116.44417,3.11606]]]]},"properties":{"kdprov":"65","kdkab":"01","kdkec":"090","kddesa":"002","kdsls":"2001","idsls":"65010900022001","nmprov":"KALIMANTAN UTARA","nmkab":"MALINAU","nmkec":"MALINAU SELATAN","nmdesa":"LABAN NYARIT","nmsls":"HUTAN"}},{"type":"Feature","geometry":{"type":"MultiPolygon","coordinates":[[[[116.44278,3.11626],[116.44301,3.11681],[116.44275,3.1173],[116.44278,3.11785],[116.44311,3.11823],[116.44349,3.11875],[116.44351,3.1203],[116.44503,3.12017],[116.44507,3.11858],[116.44502,3.11759],[116.4447,3.11654],[116.44417,3.11606],[116.44416,3.11607],[116.44386,3.11596],[116.44318,3.11607],[116.44278,3.11626]]]]},"properties":{"kdprov":"65","kdkab":"01","kdkec":"090","kddesa":"007","kdsls":"5001","idsls":"65010900075001","nmprov":"KALIMANTAN UTARA","nmkab":"MALINAU","nmkec":"MALINAU SELATAN","nmdesa":"LONG LOREH","nmsls":"KAMP SUNGAI UDANG (BARAK PT BDMS)"}},{"type":"Feature","geometry":{"type":"MultiPolygon","coordinates":[[[[116.47648,3.13884],[116.47582,3.13885],[116.47537,3.13876],[116.47535,3.13885],[116.47474,3.13884],[116.47448,3.14091],[116.47505,3.14095],[116.47496,3.1419],[116.47489,3.14285],[116.47492,3.14359],[116.47489,3.14449],[116.47583,3.14456],[116.4759,3.14478],[116.47664,3.14505],[116.47863,3.14476],[116.47934,3.14209],[116.47876,3.14144],[116.47642,3.14108],[116.47648,3.13885],[116.47648,3.13884]]]]},"properties":{"kdprov":"65","kdkab":"01","kdkec":"090","kddesa":"001","kdsls":"0004","idsls":"65010900010004","nmprov":"KALIMANTAN UTARA","nmkab":"MALINAU","nmkec":"MALINAU SELATAN","nmdesa":"LANGAP","nmsls":"RT 004"}},{"type":"Feature","geometry":{"type":"MultiPolygon","coordinates":[[[[116.46937,3.16747],[116.46931,3.16741],[116.46912,3.16674],[116.46874,3.16682],[116.46805,3.16697],[116.46701,3.16721],[116.46629,3.16755],[116.46523,3.16839],[116.46532,3.16926],[116.46541,3.16955],[116.46822,3.16946],[116.46864,3.16955],[116.46933,3.16956],[116.46932,3.16763],[116.46937,3.16747]]]]},"properties":{"kdprov":"65","kdkab":"01","kdkec":"090","kddesa":"007","kdsls":"0001","idsls":"65010900070001","nmprov":"KALIMANTAN UTARA","nmkab":"MALINAU","nmkec":"MALINAU SELATAN","nmdesa":"LONG LOREH","nmsls":"RT 001"}},{"type":"Feature","geometry":{"type":"MultiPolygon","coordinates":[[[[116.49028,3.07317],[116.49034,3.07321],[116.49053,3.07325],[116.49075,3.0732],[116.49105,3.07312],[116.49144,3.07315],[116.4917,3.07328],[116.49211,3.07358],[116.49255,3.07393],[116.49279,3.07407],[116.49306,3.07414],[116.49321,3.07424],[116.4933,3.0744],[116.49345,3.07452],[116.49351,3.07453],[116.49371,3.07416],[116.49216,3.07283],[116.49062,3.07206],[116.49028,3.07317]]]]},"properties":{"kdprov":"65","kdkab":"01","kdkec":"090","kddesa":"009","kdsls":"0001","idsls":"65010900090001","nmprov":"KALIMANTAN UTARA","nmkab":"MALINAU","nmkec":"MALINAU SELATAN","nmdesa":"PUNAN RIAN","nmsls":"RT 001"}},{"type":"Feature","geometry":{"type":"MultiPolygon","coordinates":[[[[116.71059,3.15669],[116.71094,3.15446],[116.71135,3.15194],[116.7137,3.15018],[116.71653,3.14836],[116.71942,3.14722],[116.72209,3.146],[116.72361,3.14455],[116.724,3.14298],[116.726,3.14087],[116.72886,3.13925],[116.73053,3.13818],[116.73332,3.13638],[116.73401,3.13543],[116.73458,3.13465],[116.73662,3.13354],[116.73668,3.13333],[116.73631,3.13196],[116.73623,3.13118],[116.73606,3.13103],[116.73527,3.13034],[116.73468,3.12872],[116.73377,3.12715],[116.7336,3.12686],[116.73358,3.12681],[116.73235,3.12469],[116.73108,3.12302],[116.73017,3.12132],[116.73004,3.1211],[116.72997,3.12053],[116.72981,3.12004],[116.72979,3.11981],[116.72974,3.11881],[116.7296,3.11826],[116.72958,3.1182],[116.7293,3.11762],[116.72898,3.11739],[116.72808,3.1167],[116.72772,3.1163],[116.72712,3.11527],[116.72705,3.11514],[116.72684,3.11416],[116.72665,3.11369],[116.72646,3.11275],[116.72642,3.11229],[116.72651,3.11212],[116.72678,3.11158],[116.72689,3.11049],[116.72711,3.10965],[116.7266,3.10878],[116.72602,3.10791],[116.72563,3.10737],[116.72516,3.10684],[116.72489,3.10664],[116.72484,3.10654],[116.72486,3.10598],[116.7248,3.10564],[116.72503,3.10438],[116.72501,3.10414],[116.72493,3.10303],[116.72487,3.10221],[116.72489,3.10072],[116.72654,3.1004],[116.72709,3.10007],[116.72834,3.09932],[116.72903,3.09887],[116.72996,3.09834],[116.73129,3.0976],[116.73227,3.0966],[116.73247,3.0957],[116.73336,3.09501],[116.73417,3.09415],[116.73465,3.09322],[116.73617,3.0903],[116.73697,3.0891],[116.73766,3.08855],[116.73816,3.08817],[116.73911,3.08772],[116.73989,3.08709],[116.74068,3.08645],[116.74081,3.08555],[116.74083,3.08543],[116.7412,3.08367],[116.74137,3.08202],[116.74141,3.08159],[116.74174,3.08018],[116.74182,3.07987],[116.74214,3.07907],[116.74219,3.07893],[116.74294,3.07707],[116.74382,3.07593],[116.74391,3.07583],[116.74472,3.07502],[116.7448,3.07491],[116.74527,3.0743],[116.74565,3.07372],[116.74606,3.07293],[116.74616,3.07273],[116.74627,3.07228],[116.74639,3.07178],[116.74672,3.0709],[116.74708,3.06991],[116.74718,3.06955],[116.74747,3.06861],[116.7476,3.06847],[116.74766,3.06841],[116.74791,3.06824],[116.74794,3.06822],[116.74821,3.06803],[116.74863,3.06792],[116.74924,3.06771],[116.74945,3.06749],[116.74953,3.06709],[116.74954,3.06651],[116.74934,3.06617],[116.74926,3.06547],[116.74911,3.06414],[116.74774,3.06268],[116.74684,3.06172],[116.74715,3.05969],[116.74741,3.05921],[116.7476,3.05877],[116.7477,3.05852],[116.74799,3.05776],[116.74821,3.05702],[116.74824,3.05634],[116.7485,3.05551],[116.74827,3.05479],[116.74771,3.05314],[116.74744,3.0521],[116.7466,3.05073],[116.74638,3.05038],[116.74623,3.04934],[116.74569,3.04752],[116.74571,3.0461],[116.74574,3.04388],[116.74574,3.04377],[116.74574,3.04324],[116.74518,3.04169],[116.74443,3.04117],[116.74282,3.04003],[116.74107,3.0388],[116.73676,3.03846],[116.73402,3.03766],[116.73247,3.03625],[116.73243,3.03427],[116.73183,3.033],[116.73158,3.03192],[116.73143,3.03147],[116.72978,3.03111],[116.7284,3.03074],[116.72656,3.03056],[116.72463,3.0308],[116.72308,3.03152],[116.72258,3.03152],[116.72239,3.03079],[116.72195,3.02959],[116.72152,3.02788],[116.72138,3.02732],[116.71973,3.02658],[116.71702,3.02531],[116.71396,3.02551],[116.71259,3.02615],[116.71245,3.02619],[116.71245,3.02619],[116.70974,3.02703],[116.70892,3.02685],[116.707,3.02658],[116.70463,3.02811],[116.70331,3.02816],[116.69954,3.0282],[116.69517,3.02856],[116.6943,3.0278],[116.69321,3.02614],[116.69261,3.02521],[116.69082,3.02367],[116.68873,3.02273],[116.68657,3.02241],[116.68346,3.0207],[116.68256,3.02037],[116.68175,3.02019],[116.68118,3.02018],[116.68012,3.01966],[116.67997,3.01956],[116.67776,3.01794],[116.67707,3.01739],[116.67641,3.01709],[116.67554,3.01664],[116.67466,3.01585],[116.67412,3.01527],[116.67408,3.01495],[116.67407,3.01396],[116.67407,3.01358],[116.67306,3.012],[116.67283,3.01161],[116.67244,3.01095],[116.6721,3.0106],[116.6715,3.0101],[116.67098,3.00988],[116.67043,3.00968],[116.66911,3.00903],[116.66855,3.00882],[116.66849,3.0088],[116.66571,3.00828],[116.66435,3.00803],[116.66335,3.0075],[116.66263,3.00605],[116.66225,3.00541],[116.66225,3.00541],[116.66166,3.00442],[116.66145,3.00325],[116.66116,3.00205],[116.6615,3.00081],[116.66166,3.00021],[116.66204,2.99899],[116.66268,2.99784],[116.66293,2.99731],[116.66266,2.99613],[116.66254,2.99533],[116.66291,2.99434],[116.6632,2.99329],[116.66319,2.99301],[116.66319,2.993],[116.66214,2.99114],[116.66187,2.99037],[116.66062,2.98735],[116.66016,2.98639],[116.65986,2.98474],[116.65946,2.98337],[116.65934,2.98228],[116.65937,2.98169],[116.65849,2.98196],[116.65849,2.98196],[116.6536,2.98418],[116.64991,2.98586],[116.64811,2.99029],[116.64308,3.00361],[116.63987,3.00664],[116.63405,3.00623],[116.62547,3.01593],[116.62441,3.01712],[116.6206,3.02459],[116.61849,3.02683],[116.61096,3.03487],[116.6067,3.03793],[116.60351,3.04022],[116.60112,3.04193],[116.5946,3.04501],[116.59089,3.04677],[116.58913,3.04721],[116.57563,3.0506],[116.57044,3.04606],[116.56826,3.04386],[116.56145,3.04179],[116.5549,3.04075],[116.55169,3.03688],[116.54951,3.03171],[116.54052,3.02977],[116.53911,3.02745],[116.53102,3.03016],[116.52999,3.03287],[116.5278,3.03532],[116.52433,3.03777],[116.52125,3.04152],[116.52073,3.04565],[116.51829,3.04875],[116.51598,3.04887],[116.51366,3.05572],[116.51328,3.06398],[116.51434,3.07393],[116.51438,3.07423],[116.51443,3.0747],[116.51374,3.07672],[116.51338,3.07779],[116.51319,3.07836],[116.51318,3.07838],[116.51294,3.07908],[116.51294,3.07908],[116.51294,3.07908],[116.51032,3.07914],[116.50533,3.07743],[116.50401,3.07509],[116.50223,3.07359],[116.49939,3.07121],[116.49392,3.07031],[116.49088,3.07121],[116.49062,3.07206],[116.49216,3.07283],[116.49371,3.07416],[116.49351,3.07453],[116.49338,3.07477],[116.4907,3.07478],[116.48999,3.07408],[116.48984,3.07458],[116.48998,3.07678],[116.49022,3.08037],[116.49308,3.08495],[116.49357,3.08679],[116.49417,3.08902],[116.49548,3.09353],[116.4981,3.09672],[116.50532,3.10035],[116.511,3.10222],[116.51778,3.10475],[116.52095,3.10717],[116.5291,3.11646],[116.5362,3.12625],[116.54714,3.13032],[116.55567,3.13451],[116.56124,3.13924],[116.56879,3.14056],[116.5771,3.14056],[116.58136,3.14144],[116.58579,3.14403],[116.58732,3.14678],[116.58787,3.14909],[116.58699,3.15062],[116.58677,3.15117],[116.58458,3.15227],[116.58458,3.15293],[116.58349,3.15425],[116.58338,3.15557],[116.58272,3.15612],[116.58163,3.15832],[116.58174,3.15986],[116.58075,3.16096],[116.58097,3.1615],[116.57977,3.16315],[116.57813,3.16392],[116.57725,3.16414],[116.57627,3.16436],[116.57539,3.1648],[116.57594,3.16645],[116.5767,3.16656],[116.57758,3.1659],[116.57922,3.16568],[116.58031,3.16568],[116.58063,3.16575],[116.58452,3.16662],[116.59065,3.16717],[116.59579,3.16805],[116.59962,3.17069],[116.60344,3.17355],[116.60585,3.17564],[116.60858,3.17663],[116.61088,3.17663],[116.61438,3.17663],[116.61821,3.17653],[116.61849,3.17641],[116.61919,3.17626],[116.61934,3.17604],[116.62003,3.17573],[116.62046,3.17559],[116.62124,3.17558],[116.62185,3.17596],[116.62215,3.17665],[116.62215,3.17703],[116.62208,3.17733],[116.62177,3.17762],[116.62176,3.17802],[116.62216,3.17809],[116.62276,3.17786],[116.62391,3.17802],[116.6242,3.17824],[116.62474,3.17847],[116.62506,3.17847],[116.62566,3.17808],[116.6262,3.17793],[116.62704,3.1781],[116.62754,3.17824],[116.62841,3.17855],[116.62914,3.17839],[116.62977,3.17886],[116.6304,3.17923],[116.63091,3.17914],[116.63158,3.17848],[116.63197,3.17825],[116.63288,3.17816],[116.63342,3.17863],[116.63425,3.17863],[116.63519,3.17832],[116.63577,3.17758],[116.63636,3.17748],[116.63693,3.17763],[116.6377,3.17794],[116.63814,3.17786],[116.63933,3.17634],[116.64185,3.17197],[116.64781,3.16793],[116.65209,3.16819],[116.65734,3.16916],[116.66364,3.16916],[116.67204,3.1667],[116.6746,3.16388],[116.6758,3.16114],[116.67837,3.15907],[116.68721,3.15193],[116.69622,3.15261],[116.69807,3.15331],[116.70156,3.15462],[116.70556,3.15697],[116.71016,3.15671],[116.71059,3.15669]]]]},"properties":{"kdprov":"65","kdkab":"01","kdkec":"090","kddesa":"009","kdsls":"2001","idsls":"65010900092001","nmprov":"KALIMANTAN UTARA","nmkab":"MALINAU","nmkec":"MALINAU SELATAN","nmdesa":"PUNAN RIAN","nmsls":"HUTAN"}},{"type":"Feature","geometry":{"type":"MultiPolygon","coordinates":[[[[116.46922,3.17295],[116.46846,3.17296],[116.46816,3.17305],[116.46785,3.17308],[116.4676,3.17306],[116.46651,3.1731],[116.46653,3.17318],[116.46639,3.17413],[116.46648,3.17513],[116.46865,3.17511],[116.46922,3.17295]]]]},"properties":{"kdprov":"65","kdkab":"01","kdkec":"090","kddesa":"005","kdsls":"0003","idsls":"65010900050003","nmprov":"KALIMANTAN UTARA","nmkab":"MALINAU","nmkec":"MALINAU SELATAN","nmdesa":"PELENCAU","nmsls":"RT 003"}},{"type":"Feature","geometry":{"type":"MultiPolygon","coordinates":[[[[116.46932,3.17258],[116.46931,3.17249],[116.46852,3.17249],[116.46639,3.1724],[116.46651,3.1731],[116.4676,3.17306],[116.46785,3.17308],[116.46816,3.17305],[116.46846,3.17296],[116.46922,3.17295],[116.46932,3.17258]]]]},"properties":{"kdprov":"65","kdkab":"01","kdkec":"090","kddesa":"005","kdsls":"0002","idsls":"65010900050002","nmprov":"KALIMANTAN UTARA","nmkab":"MALINAU","nmkec":"MALINAU SELATAN","nmdesa":"PELENCAU","nmsls":"RT 002"}},{"type":"Feature","geometry":{"type":"MultiPolygon","coordinates":[[[[116.46931,3.17249],[116.46932,3.17258],[116.46986,3.17258],[116.47027,3.17268],[116.47064,3.17272],[116.47061,3.16963],[116.47023,3.16957],[116.46998,3.16956],[116.46933,3.16956],[116.4693,3.17198],[116.46931,3.17249]]]]},"properties":{"kdprov":"65","kdkab":"01","kdkec":"090","kddesa":"007","kdsls":"0004","idsls":"65010900070004","nmprov":"KALIMANTAN UTARA","nmkab":"MALINAU","nmkec":"MALINAU SELATAN","nmdesa":"LONG LOREH","nmsls":"RT 004"}},{"type":"Feature","geometry":{"type":"MultiPolygon","coordinates":[[[[116.47664,3.14505],[116.4759,3.14478],[116.47583,3.14456],[116.47489,3.14449],[116.47492,3.14359],[116.47489,3.14285],[116.47496,3.1419],[116.47369,3.14174],[116.47112,3.14153],[116.47139,3.14311],[116.47184,3.14573],[116.47184,3.1458],[116.47296,3.14583],[116.47336,3.14604],[116.47349,3.1461],[116.47468,3.14616],[116.47515,3.14621],[116.47515,3.14648],[116.47616,3.14656],[116.47624,3.14614],[116.47664,3.14505]]]]},"properties":{"kdprov":"65","kdkab":"01","kdkec":"090","kddesa":"001","kdsls":"0005","idsls":"65010900010005","nmprov":"KALIMANTAN UTARA","nmkab":"MALINAU","nmkec":"MALINAU SELATAN","nmdesa":"LANGAP","nmsls":"RT 005"}},{"type":"Feature","geometry":{"type":"MultiPolygon","coordinates":[[[[116.43824,3.11179],[116.43775,3.11262],[116.43695,3.11407],[116.43666,3.11442],[116.43751,3.11475],[116.43785,3.11477],[116.4396,3.11502],[116.44051,3.11283],[116.43872,3.11198],[116.43824,3.11179]]]]},"properties":{"kdprov":"65","kdkab":"01","kdkec":"090","kddesa":"002","kdsls":"0002","idsls":"65010900020002","nmprov":"KALIMANTAN UTARA","nmkab":"MALINAU","nmkec":"MALINAU SELATAN","nmdesa":"LABAN NYARIT","nmsls":"RT 02"}},{"type":"Feature","geometry":{"type":"MultiPolygon","coordinates":[[[[116.47567,3.13744],[116.47581,3.13678],[116.47544,3.13639],[116.47522,3.13609],[116.47506,3.13596],[116.47489,3.13598],[116.47468,3.13612],[116.47452,3.1361],[116.47443,3.13598],[116.47441,3.13579],[116.47435,3.13571],[116.47419,3.13564],[116.47412,3.13553],[116.47413,3.13539],[116.47412,3.135],[116.47415,3.13491],[116.47432,3.13477],[116.47441,3.13467],[116.4744,3.13453],[116.47432,3.13443],[116.47437,3.13435],[116.47452,3.13439],[116.47474,3.13443],[116.47486,3.13437],[116.47482,3.1342],[116.4747,3.13395],[116.47443,3.13375],[116.47393,3.13354],[116.4731,3.13339],[116.4731,3.13362],[116.4729,3.1342],[116.47251,3.13503],[116.47167,3.13622],[116.47118,3.13721],[116.47067,3.13888],[116.47112,3.14153],[116.47369,3.14174],[116.47496,3.1419],[116.47505,3.14095],[116.47448,3.14091],[116.47474,3.13884],[116.474,3.13883],[116.47399,3.13848],[116.47398,3.13798],[116.47397,3.13682],[116.47567,3.13744]]]]},"properties":{"kdprov":"65","kdkab":"01","kdkec":"090","kddesa":"001","kdsls":"0002","idsls":"65010900010002","nmprov":"KALIMANTAN UTARA","nmkab":"MALINAU","nmkec":"MALINAU SELATAN","nmdesa":"LANGAP","nmsls":"RT 002"}},{"type":"Feature","geometry":{"type":"MultiPolygon","coordinates":[[[[116.47052,3.16669],[116.47055,3.16731],[116.47056,3.16758],[116.4706,3.16852],[116.47061,3.16874],[116.47194,3.16851],[116.47215,3.16846],[116.47254,3.1684],[116.47296,3.16831],[116.47304,3.16801],[116.47312,3.16758],[116.47334,3.16634],[116.47329,3.16638],[116.47208,3.16651],[116.47105,3.16663],[116.47052,3.16669]]]]},"properties":{"kdprov":"65","kdkab":"01","kdkec":"090","kddesa":"007","kdsls":"0005","idsls":"65010900070005","nmprov":"KALIMANTAN UTARA","nmkab":"MALINAU","nmkec":"MALINAU SELATAN","nmdesa":"LONG LOREH","nmsls":"RT 005"}},{"type":"Feature","geometry":{"type":"MultiPolygon","coordinates":[[[[116.47537,3.13876],[116.47567,3.13744],[116.47397,3.13682],[116.47398,3.13798],[116.47399,3.13848],[116.474,3.13883],[116.47474,3.13884],[116.47535,3.13885],[116.47537,3.13876]]]]},"properties":{"kdprov":"65","kdkab":"01","kdkec":"090","kddesa":"001","kdsls":"0003","idsls":"65010900010003","nmprov":"KALIMANTAN UTARA","nmkab":"MALINAU","nmkec":"MALINAU SELATAN","nmdesa":"LANGAP","nmsls":"RT 003"}},{"type":"Feature","geometry":{"type":"MultiPolygon","coordinates":[[[[116.4396,3.11502],[116.43785,3.11477],[116.43751,3.11475],[116.43666,3.11442],[116.43626,3.11489],[116.43582,3.11545],[116.4358,3.11599],[116.43593,3.11645],[116.43662,3.11679],[116.43762,3.11687],[116.43888,3.11672],[116.4396,3.11502]]]]},"properties":{"kdprov":"65","kdkab":"01","kdkec":"090","kddesa":"002","kdsls":"0001","idsls":"65010900020001","nmprov":"KALIMANTAN UTARA","nmkab":"MALINAU","nmkec":"MALINAU SELATAN","nmdesa":"LABAN NYARIT","nmsls":"RT 01"}},{"type":"Feature","geometry":{"type":"MultiPolygon","coordinates":[[[[116.47296,3.16831],[116.47254,3.1684],[116.47215,3.16846],[116.47194,3.16851],[116.47061,3.16874],[116.47063,3.16927],[116.47064,3.1695],[116.47061,3.1696],[116.47061,3.16963],[116.47064,3.17272],[116.47079,3.17289],[116.47087,3.17302],[116.47099,3.17322],[116.47107,3.17334],[116.4712,3.17339],[116.47129,3.17339],[116.47136,3.17334],[116.47148,3.17313],[116.47161,3.17285],[116.4717,3.17266],[116.47241,3.17217],[116.47268,3.17174],[116.47284,3.17166],[116.47335,3.17165],[116.47378,3.17154],[116.47435,3.17148],[116.47504,3.17142],[116.47556,3.1713],[116.476,3.17118],[116.47617,3.17108],[116.47663,3.1708],[116.47683,3.17054],[116.47697,3.17047],[116.47706,3.17038],[116.47722,3.17015],[116.47741,3.16971],[116.4774,3.16961],[116.47725,3.16933],[116.47681,3.16903],[116.47641,3.16881],[116.47618,3.16865],[116.47578,3.1683],[116.47559,3.16814],[116.47552,3.16796],[116.47548,3.16774],[116.47541,3.16735],[116.47532,3.16688],[116.47533,3.1668],[116.47296,3.16831]]]]},"properties":{"kdprov":"65","kdkab":"01","kdkec":"090","kddesa":"007","kdsls":"0007","idsls":"65010900070007","nmprov":"KALIMANTAN UTARA","nmkab":"MALINAU","nmkec":"MALINAU SELATAN","nmdesa":"LONG LOREH","nmsls":"RT 007"}},{"type":"Feature","geometry":{"type":"MultiPolygon","coordinates":[[[[116.4693,3.17198],[116.46933,3.16956],[116.46864,3.16955],[116.46822,3.16946],[116.46541,3.16955],[116.4659,3.17098],[116.46627,3.17174],[116.4663,3.17192],[116.46792,3.172],[116.4685,3.17199],[116.46882,3.17199],[116.4693,3.17198]]]]},"properties":{"kdprov":"65","kdkab":"01","kdkec":"090","kddesa":"007","kdsls":"0003","idsls":"65010900070003","nmprov":"KALIMANTAN UTARA","nmkab":"MALINAU","nmkec":"MALINAU SELATAN","nmdesa":"LONG LOREH","nmsls":"RT 003"}},{"type":"Feature","geometry":{"type":"MultiPolygon","coordinates":[[[[116.46986,3.17258],[116.46932,3.17258],[116.46922,3.17295],[116.46865,3.17511],[116.46648,3.17513],[116.46659,3.17635],[116.46666,3.17706],[116.46682,3.17886],[116.46558,3.18079],[116.46558,3.18087],[116.46557,3.18099],[116.46535,3.18556],[116.46195,3.18972],[116.46229,3.19155],[116.46237,3.19196],[116.46152,3.19292],[116.46311,3.19452],[116.46248,3.19537],[116.46311,3.19634],[116.46385,3.19783],[116.46392,3.19813],[116.46571,3.20568],[116.46656,3.2092],[116.46528,3.21261],[116.46496,3.2172],[116.46899,3.22211],[116.47031,3.237],[116.47211,3.24405],[116.47579,3.24838],[116.47706,3.24768],[116.47887,3.24653],[116.47995,3.24581],[116.48097,3.24557],[116.48193,3.24551],[116.48266,3.24575],[116.48356,3.24515],[116.48458,3.24478],[116.485,3.2446],[116.48536,3.24485],[116.4859,3.24503],[116.48645,3.24479],[116.48723,3.24473],[116.48783,3.24497],[116.48783,3.24551],[116.48909,3.24612],[116.49017,3.24588],[116.49126,3.24527],[116.49186,3.24557],[116.4924,3.24485],[116.49318,3.24449],[116.49402,3.24473],[116.49481,3.24419],[116.49547,3.2437],[116.49589,3.24394],[116.49685,3.24346],[116.49721,3.24357],[116.49974,3.24437],[116.5019,3.24812],[116.5037,3.2506],[116.50495,3.25173],[116.50611,3.25278],[116.50803,3.25538],[116.50887,3.2561],[116.51068,3.25598],[116.51134,3.25374],[116.51104,3.25223],[116.51182,3.25066],[116.51249,3.24957],[116.5111,3.24722],[116.51092,3.24558],[116.51177,3.24365],[116.51291,3.24311],[116.51364,3.24301],[116.51243,3.24206],[116.51256,3.2418],[116.5127,3.24153],[116.51281,3.24131],[116.51307,3.24082],[116.51307,3.24082],[116.51292,3.23951],[116.51419,3.23938],[116.51435,3.24076],[116.51472,3.241],[116.51488,3.2411],[116.51523,3.24133],[116.51579,3.24263],[116.5161,3.24335],[116.51674,3.24232],[116.517,3.2419],[116.51714,3.24177],[116.51814,3.24087],[116.51869,3.24039],[116.52002,3.24075],[116.52107,3.24134],[116.52225,3.24146],[116.52319,3.24099],[116.5253,3.24075],[116.52671,3.24205],[116.52777,3.24382],[116.52977,3.24547],[116.53247,3.24465],[116.53118,3.24264],[116.5319,3.24191],[116.532,3.24182],[116.53353,3.24193],[116.53505,3.24323],[116.53646,3.24371],[116.53858,3.24489],[116.54026,3.24531],[116.5437,3.24618],[116.54781,3.24647],[116.55002,3.245],[116.55339,3.24352],[116.55662,3.24308],[116.56338,3.24353],[116.56749,3.24441],[116.57175,3.24397],[116.57498,3.24176],[116.57806,3.24073],[116.58276,3.23778],[116.5857,3.2366],[116.58805,3.23616],[116.59216,3.23572],[116.59481,3.23557],[116.59671,3.23705],[116.59759,3.23926],[116.59818,3.24059],[116.5995,3.24148],[116.60215,3.24074],[116.60567,3.23808],[116.60508,3.23513],[116.60621,3.23421],[116.6067,3.2338],[116.60832,3.23439],[116.60861,3.23587],[116.60875,3.23808],[116.61008,3.23941],[116.6111,3.24104],[116.61052,3.24237],[116.6089,3.24458],[116.60863,3.24595],[116.60863,3.24595],[116.61224,3.24417],[116.61224,3.24417],[116.61442,3.24395],[116.61881,3.24424],[116.62053,3.24377],[116.62252,3.24322],[116.62377,3.24288],[116.6247,3.24263],[116.6247,3.24262],[116.62702,3.23966],[116.62703,3.23965],[116.62751,3.23969],[116.6284,3.23975],[116.62953,3.23983],[116.63197,3.24125],[116.63197,3.24125],[116.63639,3.23943],[116.64065,3.2376],[116.64538,3.2344],[116.64827,3.23196],[116.64994,3.22998],[116.65314,3.22556],[116.65314,3.22556],[116.66106,3.22526],[116.66106,3.22526],[116.66578,3.22298],[116.66578,3.22298],[116.66296,3.22128],[116.66059,3.22077],[116.65794,3.22077],[116.65619,3.22076],[116.6544,3.22076],[116.65158,3.22076],[116.65034,3.21987],[116.6491,3.21614],[116.64928,3.21508],[116.65052,3.21295],[116.65317,3.2101],[116.656,3.20744],[116.65688,3.20513],[116.65494,3.20211],[116.65264,3.20033],[116.65088,3.19962],[116.64964,3.19927],[116.64876,3.19731],[116.64805,3.19465],[116.64593,3.19376],[116.64398,3.19482],[116.64151,3.19482],[116.63992,3.19553],[116.63974,3.19678],[116.63868,3.19838],[116.63656,3.20761],[116.62772,3.21507],[116.61835,3.21986],[116.6088,3.22359],[116.60156,3.2243],[116.59378,3.22465],[116.5853,3.22394],[116.58141,3.22109],[116.57416,3.22144],[116.55885,3.22486],[116.55613,3.22494],[116.55605,3.22495],[116.55523,3.22622],[116.55433,3.22768],[116.55288,3.22658],[116.55351,3.22413],[116.55252,3.22267],[116.55062,3.22294],[116.54781,3.22294],[116.54751,3.22275],[116.54609,3.22185],[116.54144,3.21826],[116.53881,3.21616],[116.53736,3.21543],[116.53716,3.21548],[116.53683,3.21556],[116.53583,3.2158],[116.53284,3.21643],[116.5304,3.21607],[116.52623,3.21625],[116.52397,3.21543],[116.52008,3.2127],[116.5161,3.20997],[116.51489,3.20997],[116.51484,3.20997],[116.51384,3.21033],[116.51131,3.2096],[116.51022,3.20869],[116.50814,3.20742],[116.5066,3.20605],[116.50488,3.20423],[116.50009,3.2005],[116.49357,3.20186],[116.48922,3.20424],[116.4857,3.20401],[116.48213,3.20293],[116.48371,3.1953],[116.48149,3.19585],[116.47913,3.19692],[116.47889,3.19422],[116.48175,3.19006],[116.48096,3.18628],[116.47712,3.18586],[116.47415,3.18395],[116.47099,3.17833],[116.47099,3.17833],[116.47099,3.17833],[116.46986,3.17258]],[[116.52302,3.2279],[116.52154,3.22823],[116.52029,3.22942],[116.51877,3.22904],[116.51775,3.2271],[116.51932,3.22542],[116.52268,3.22556],[116.52273,3.22662],[116.52302,3.2279]]]]},"properties":{"kdprov":"65","kdkab":"01","kdkec":"090","kddesa":"005","kdsls":"2003","idsls":"65010900052003","nmprov":"KALIMANTAN UTARA","nmkab":"MALINAU","nmkec":"MALINAU SELATAN","nmdesa":"PELENCAU","nmsls":"HUTAN"}},{"type":"Feature","geometry":{"type":"MultiPolygon","coordinates":[[[[116.46558,3.18087],[116.46558,3.18079],[116.46682,3.17886],[116.46666,3.17706],[116.46183,3.17852],[116.46253,3.18126],[116.46558,3.18087]]]]},"properties":{"kdprov":"65","kdkab":"01","kdkec":"090","kddesa":"004","kdsls":"0003","idsls":"65010900040003","nmprov":"KALIMANTAN UTARA","nmkab":"MALINAU","nmkec":"MALINAU SELATAN","nmdesa":"SENGAYAN","nmsls":"RT 003"}},{"type":"Feature","geometry":{"type":"MultiPolygon","coordinates":[[[[116.5161,3.24335],[116.51579,3.24263],[116.51523,3.24133],[116.51364,3.24301],[116.51467,3.24418],[116.5161,3.24335]]]]},"properties":{"kdprov":"65","kdkab":"01","kdkec":"090","kddesa":"006","kdsls":"0001","idsls":"65010900060001","nmprov":"KALIMANTAN UTARA","nmkab":"MALINAU","nmkec":"MALINAU SELATAN","nmdesa":"BILA BEKAYUK","nmsls":"RT 01"}},{"type":"Feature","geometry":{"type":"MultiPolygon","coordinates":[[[[116.47061,3.16874],[116.4706,3.16852],[116.47006,3.16853],[116.46976,3.16852],[116.46975,3.16847],[116.46974,3.1684],[116.46974,3.1684],[116.46971,3.16823],[116.46968,3.16805],[116.46963,3.16773],[116.46945,3.16757],[116.46937,3.16747],[116.46932,3.16763],[116.46933,3.16956],[116.46998,3.16956],[116.47023,3.16957],[116.47061,3.16963],[116.47061,3.1696],[116.47064,3.1695],[116.47063,3.16927],[116.47061,3.16874]]]]},"properties":{"kdprov":"65","kdkab":"01","kdkec":"090","kddesa":"007","kdsls":"0002","idsls":"65010900070002","nmprov":"KALIMANTAN UTARA","nmkab":"MALINAU","nmkec":"MALINAU SELATAN","nmdesa":"LONG LOREH","nmsls":"RT 002"}},{"type":"Feature","geometry":{"type":"MultiPolygon","coordinates":[[[[116.47359,3.06391],[116.47741,3.06356],[116.47831,3.06364],[116.47913,3.06377],[116.47965,3.06408],[116.48003,3.06405],[116.48034,3.064],[116.48056,3.064],[116.48087,3.06405],[116.48142,3.0646],[116.48168,3.06506],[116.48189,3.06532],[116.48214,3.06544],[116.48256,3.06546],[116.48272,3.06556],[116.48292,3.0658],[116.48299,3.06584],[116.48376,3.06474],[116.48366,3.06364],[116.48084,3.06124],[116.47999,3.06143],[116.47837,3.06143],[116.47668,3.06163],[116.47483,3.06211],[116.47278,3.06283],[116.47359,3.06391]]]]},"properties":{"kdprov":"65","kdkab":"01","kdkec":"090","kddesa":"008","kdsls":"0001","idsls":"65010900080001","nmprov":"KALIMANTAN UTARA","nmkab":"MALINAU","nmkec":"MALINAU SELATAN","nmdesa":"PAYA SETURAN","nmsls":"RT 01"}},{"type":"Feature","geometry":{"type":"MultiPolygon","coordinates":[[[[116.48299,3.06584],[116.48292,3.0658],[116.48272,3.06556],[116.48256,3.06546],[116.48214,3.06544],[116.48189,3.06532],[116.48168,3.06506],[116.48142,3.0646],[116.48087,3.06405],[116.48056,3.064],[116.48034,3.064],[116.48003,3.06405],[116.47965,3.06408],[116.47913,3.06377],[116.47831,3.06364],[116.47741,3.06356],[116.47359,3.06391],[116.47405,3.06451],[116.47636,3.06626],[116.47908,3.06698],[116.48246,3.06659],[116.48299,3.06584]]]]},"properties":{"kdprov":"65","kdkab":"01","kdkec":"090","kddesa":"008","kdsls":"0002","idsls":"65010900080002","nmprov":"KALIMANTAN UTARA","nmkab":"MALINAU","nmkec":"MALINAU SELATAN","nmdesa":"PAYA SETURAN","nmsls":"RT 02"}},{"type":"Feature","geometry":{"type":"MultiPolygon","coordinates":[[[[116.48998,3.07678],[116.48419,3.08003],[116.48396,3.08045],[116.48202,3.08394],[116.48191,3.08415],[116.48161,3.08469],[116.4816,3.0847],[116.47968,3.08525],[116.47826,3.08618],[116.47743,3.08672],[116.47645,3.08736],[116.47611,3.08745],[116.47571,3.08755],[116.47558,3.08759],[116.47539,3.08764],[116.47437,3.08859],[116.4718,3.08833],[116.47173,3.08859],[116.47158,3.08914],[116.46936,3.08951],[116.4693,3.09123],[116.46928,3.09179],[116.46927,3.09206],[116.46935,3.09274],[116.46942,3.09331],[116.46943,3.09338],[116.47013,3.09946],[116.46988,3.10001],[116.46968,3.10044],[116.46948,3.10088],[116.46765,3.1049],[116.46661,3.1072],[116.46667,3.11384],[116.46798,3.12114],[116.46966,3.12557],[116.46987,3.12612],[116.46908,3.12729],[116.47097,3.12976],[116.47325,3.1297],[116.4769,3.12794],[116.48163,3.12947],[116.48454,3.1317],[116.48186,3.14047],[116.48015,3.14588],[116.48043,3.14981],[116.48121,3.15089],[116.48511,3.15636],[116.49219,3.15083],[116.49424,3.14963],[116.49566,3.14963],[116.49749,3.14963],[116.4984,3.14963],[116.49981,3.14963],[116.50944,3.15169],[116.51265,3.15375],[116.51557,3.15698],[116.51907,3.16079],[116.5217,3.16285],[116.5252,3.16578],[116.53133,3.16843],[116.53833,3.16931],[116.54709,3.17049],[116.55555,3.17167],[116.56314,3.17255],[116.5684,3.17197],[116.57277,3.17021],[116.57827,3.16905],[116.57832,3.16904],[116.58063,3.16575],[116.58031,3.16568],[116.57922,3.16568],[116.57758,3.1659],[116.5767,3.16656],[116.57594,3.16645],[116.57539,3.1648],[116.57627,3.16436],[116.57725,3.16414],[116.57813,3.16392],[116.57977,3.16315],[116.58097,3.1615],[116.58075,3.16096],[116.58174,3.15986],[116.58163,3.15832],[116.58272,3.15612],[116.58338,3.15557],[116.58349,3.15425],[116.58458,3.15293],[116.58458,3.15227],[116.58677,3.15117],[116.58699,3.15062],[116.58787,3.14909],[116.58732,3.14678],[116.58579,3.14403],[116.58136,3.14144],[116.5771,3.14056],[116.56879,3.14056],[116.56124,3.13924],[116.55567,3.13451],[116.54714,3.13032],[116.5362,3.12625],[116.5291,3.11646],[116.52095,3.10717],[116.51778,3.10475],[116.511,3.10222],[116.50532,3.10035],[116.4981,3.09672],[116.49548,3.09353],[116.49417,3.08902],[116.49357,3.08679],[116.49308,3.08495],[116.49022,3.08037],[116.48998,3.07678]],[[116.5227,3.15865],[116.52027,3.15802],[116.52013,3.15542],[116.52089,3.15397],[116.52322,3.15383],[116.52335,3.15438],[116.52315,3.15684],[116.5227,3.15865]],[[116.50114,3.11499],[116.50131,3.11047],[116.50646,3.11049],[116.50633,3.11531],[116.50631,3.11611],[116.5011,3.11615],[116.5011,3.11613],[116.50114,3.11499]]]]},"properties":{"kdprov":"65","kdkab":"01","kdkec":"090","kddesa":"008","kdsls":"2001","idsls":"65010900082001","nmprov":"KALIMANTAN UTARA","nmkab":"MALINAU","nmkec":"MALINAU SELATAN","nmdesa":"PAYA SETURAN","nmsls":"HUTAN"}},{"type":"Feature","geometry":{"type":"MultiPolygon","coordinates":[[[[116.44278,3.11626],[116.44318,3.11607],[116.44386,3.11596],[116.44416,3.11607],[116.44417,3.11606],[116.4446,3.11577],[116.44635,3.1136],[116.45026,3.11212],[116.45184,3.11398],[116.45429,3.11847],[116.4552,3.12014],[116.45566,3.12177],[116.45707,3.12671],[116.45707,3.12671],[116.45708,3.12677],[116.45937,3.13001],[116.46015,3.13112],[116.46027,3.13129],[116.46041,3.1315],[116.46052,3.13165],[116.46276,3.13357],[116.46418,3.1348],[116.46549,3.13592],[116.47047,3.14424],[116.46966,3.1455],[116.4693,3.14606],[116.46794,3.14816],[116.47045,3.15431],[116.4712,3.15503],[116.47183,3.15298],[116.47219,3.15084],[116.47184,3.1458],[116.47184,3.14573],[116.47139,3.14311],[116.47112,3.14153],[116.47067,3.13888],[116.47118,3.13721],[116.47167,3.13622],[116.47251,3.13503],[116.4729,3.1342],[116.4731,3.13362],[116.4731,3.13339],[116.47309,3.13297],[116.47291,3.13217],[116.47252,3.13176],[116.47573,3.13039],[116.47795,3.13133],[116.47794,3.13249],[116.47648,3.13884],[116.47648,3.13885],[116.47642,3.14108],[116.47876,3.14144],[116.47934,3.14209],[116.47863,3.14476],[116.47664,3.14505],[116.47624,3.14614],[116.47616,3.14656],[116.47541,3.15104],[116.4745,3.15275],[116.47316,3.15636],[116.47918,3.15858],[116.48511,3.15636],[116.48121,3.15089],[116.48043,3.14981],[116.48015,3.14588],[116.48186,3.14047],[116.48454,3.1317],[116.48163,3.12947],[116.4769,3.12794],[116.47325,3.1297],[116.47097,3.12976],[116.46908,3.12729],[116.46987,3.12612],[116.46966,3.12557],[116.46798,3.12114],[116.46667,3.11384],[116.46661,3.1072],[116.46765,3.1049],[116.46948,3.10088],[116.46968,3.10044],[116.46988,3.10001],[116.47013,3.09946],[116.46943,3.09338],[116.46942,3.09331],[116.46935,3.09274],[116.46927,3.09206],[116.46928,3.09179],[116.4693,3.09123],[116.46936,3.08951],[116.46937,3.08921],[116.46937,3.08916],[116.4694,3.08809],[116.46951,3.0847],[116.46951,3.08469],[116.46951,3.08468],[116.46951,3.08467],[116.46951,3.08467],[116.46772,3.08524],[116.46467,3.08621],[116.46348,3.08509],[116.45411,3.07616],[116.44934,3.07162],[116.44846,3.07069],[116.43477,3.0561],[116.43266,3.05625],[116.43157,3.05633],[116.42737,3.05663],[116.42315,3.05989],[116.42216,3.06162],[116.42213,3.06166],[116.42189,3.0621],[116.42177,3.0634],[116.42166,3.06458],[116.42163,3.06488],[116.42156,3.06565],[116.42149,3.06641],[116.42318,3.06749],[116.42322,3.06825],[116.42286,3.06865],[116.42257,3.06867],[116.42212,3.06889],[116.42153,3.06922],[116.42094,3.06958],[116.42023,3.06988],[116.41972,3.06977],[116.41949,3.06962],[116.41942,3.06925],[116.41957,3.06865],[116.41974,3.06813],[116.42008,3.06734],[116.42033,3.06663],[116.42031,3.06622],[116.42029,3.06578],[116.42029,3.06506],[116.42029,3.06498],[116.42029,3.06479],[116.42012,3.06404],[116.41995,3.06382],[116.41951,3.06405],[116.41906,3.06456],[116.41881,3.06517],[116.4185,3.0658],[116.4182,3.06618],[116.41776,3.06633],[116.41729,3.06605],[116.41698,3.06553],[116.41693,3.06538],[116.4168,3.06496],[116.41671,3.06434],[116.41617,3.06484],[116.41547,3.06471],[116.41514,3.06465],[116.4149,3.0646],[116.41262,3.06417],[116.40904,3.06444],[116.40575,3.06469],[116.40258,3.06704],[116.39858,3.06788],[116.39016,3.06844],[116.38646,3.07071],[116.38201,3.07086],[116.37869,3.06987],[116.3765,3.07002],[116.36979,3.06828],[116.36315,3.06622],[116.35647,3.06383],[116.3535,3.06307],[116.353,3.06294],[116.35292,3.06292],[116.35179,3.06194],[116.35115,3.0621],[116.35005,3.06219],[116.34974,3.06231],[116.34942,3.06241],[116.34816,3.06283],[116.34711,3.06283],[116.34592,3.06204],[116.34566,3.0623],[116.34487,3.06376],[116.34382,3.06455],[116.34224,3.06455],[116.34106,3.06547],[116.34224,3.06666],[116.34211,3.06772],[116.34276,3.06891],[116.3425,3.06944],[116.34158,3.06944],[116.34027,3.07076],[116.33921,3.07195],[116.33921,3.07459],[116.33921,3.07565],[116.33855,3.07724],[116.33921,3.0783],[116.33894,3.07922],[116.33894,3.08081],[116.3396,3.08081],[116.34131,3.08134],[116.34249,3.08319],[116.34223,3.08438],[116.34236,3.0861],[116.3421,3.08768],[116.34236,3.08887],[116.34361,3.08934],[116.3436,3.09251],[116.344,3.09343],[116.344,3.09515],[116.3448,3.09591],[116.34649,3.09753],[116.34715,3.09806],[116.34768,3.09833],[116.3511,3.09833],[116.35438,3.09807],[116.35846,3.09781],[116.36227,3.09781],[116.36451,3.09873],[116.36596,3.0994],[116.36701,3.10125],[116.36977,3.1031],[116.37529,3.10138],[116.3795,3.09888],[116.38292,3.09782],[116.38384,3.09795],[116.38384,3.09914],[116.38515,3.10047],[116.38529,3.10179],[116.3845,3.10245],[116.38594,3.10298],[116.38634,3.10364],[116.38568,3.10456],[116.38699,3.10536],[116.38699,3.10575],[116.38739,3.10721],[116.38778,3.10919],[116.38659,3.11078],[116.38817,3.11091],[116.38957,3.11109],[116.39738,3.1121],[116.40567,3.10471],[116.41106,3.10154],[116.41606,3.09506],[116.41791,3.08753],[116.42236,3.08315],[116.42369,3.08185],[116.42802,3.08127],[116.42947,3.08108],[116.43135,3.08083],[116.43148,3.08082],[116.43361,3.08053],[116.43556,3.08324],[116.44027,3.09123],[116.44178,3.09519],[116.44245,3.09986],[116.44254,3.10001],[116.4443,3.10291],[116.44508,3.10419],[116.44501,3.10737],[116.44348,3.10809],[116.44303,3.10829],[116.44186,3.10884],[116.44192,3.10928],[116.44193,3.10932],[116.44194,3.10942],[116.44206,3.11025],[116.44215,3.11088],[116.44239,3.11195],[116.44245,3.1129],[116.44278,3.11406],[116.44266,3.11601],[116.44278,3.11626]]]]},"properties":{"kdprov":"65","kdkab":"01","kdkec":"090","kddesa":"001","kdsls":"2001","idsls":"65010900012001","nmprov":"KALIMANTAN UTARA","nmkab":"MALINAU","nmkec":"MALINAU SELATAN","nmdesa":"LANGAP","nmsls":"HUTAN"}},{"type":"Feature","geometry":{"type":"MultiPolygon","coordinates":[[[[116.46549,3.13592],[116.46418,3.1348],[116.46276,3.13357],[116.46052,3.13165],[116.46041,3.1315],[116.46027,3.13129],[116.46015,3.13112],[116.45937,3.13001],[116.45708,3.12677],[116.45707,3.12671],[116.45707,3.12671],[116.45246,3.12158],[116.45052,3.11943],[116.44629,3.12178],[116.44539,3.12228],[116.44308,3.12356],[116.4404,3.12505],[116.43967,3.12546],[116.43873,3.12598],[116.43858,3.12729],[116.44074,3.12643],[116.44122,3.12742],[116.44148,3.12836],[116.44152,3.12851],[116.44178,3.12931],[116.44222,3.1299],[116.44263,3.13063],[116.44123,3.13138],[116.44005,3.12962],[116.43948,3.12878],[116.43862,3.12749],[116.43856,3.12746],[116.43733,3.13835],[116.43658,3.15159],[116.43584,3.15256],[116.43342,3.15567],[116.43402,3.1584],[116.43778,3.16293],[116.43733,3.16429],[116.43793,3.16701],[116.43928,3.16989],[116.43808,3.17215],[116.43853,3.17412],[116.43687,3.17609],[116.43582,3.1714],[116.43402,3.17079],[116.43251,3.17321],[116.43086,3.17366],[116.43056,3.17245],[116.4292,3.1717],[116.42845,3.17124],[116.4259,3.16928],[116.42484,3.17048],[116.42604,3.1726],[116.42228,3.17215],[116.42048,3.17215],[116.41867,3.1735],[116.41702,3.1735],[116.41506,3.17456],[116.41356,3.17426],[116.4113,3.17456],[116.40905,3.17501],[116.40709,3.17546],[116.40694,3.17728],[116.40574,3.1806],[116.40348,3.17894],[116.40047,3.17712],[116.39927,3.17652],[116.39927,3.17531],[116.39822,3.17425],[116.39566,3.17455],[116.39701,3.17621],[116.39807,3.17818],[116.39551,3.17772],[116.39506,3.17772],[116.39476,3.17893],[116.3937,3.1806],[116.39205,3.17984],[116.39175,3.17923],[116.39024,3.17984],[116.38979,3.18059],[116.38919,3.18014],[116.38889,3.17984],[116.38799,3.17999],[116.38799,3.18105],[116.38678,3.1821],[116.38633,3.18089],[116.38543,3.18029],[116.38483,3.18135],[116.38333,3.1815],[116.38212,3.18271],[116.38092,3.18301],[116.37926,3.18361],[116.37971,3.18527],[116.37866,3.18573],[116.37776,3.18633],[116.37655,3.18648],[116.37625,3.18693],[116.3761,3.18845],[116.37505,3.19011],[116.37595,3.19102],[116.37655,3.19328],[116.3761,3.1951],[116.37595,3.19782],[116.37459,3.19918],[116.37459,3.20175],[116.37354,3.20311],[116.37414,3.20538],[116.37549,3.20765],[116.37669,3.20946],[116.37819,3.21097],[116.3791,3.21294],[116.37879,3.21475],[116.37834,3.21611],[116.37729,3.21899],[116.37789,3.21989],[116.37849,3.2211],[116.37774,3.22156],[116.37758,3.22367],[116.37961,3.2304],[116.37976,3.23222],[116.38006,3.2366],[116.37885,3.23872],[116.37705,3.24204],[116.37554,3.24506],[116.37569,3.24763],[116.37178,3.24793],[116.37028,3.24718],[116.36652,3.24702],[116.35929,3.24883],[116.35659,3.24959],[116.35403,3.24943],[116.35042,3.24868],[116.34666,3.24761],[116.34463,3.24703],[116.34398,3.2488],[116.34273,3.25292],[116.34219,3.25831],[116.34183,3.26405],[116.34022,3.2698],[116.33932,3.27698],[116.33744,3.28335],[116.33637,3.28712],[116.33582,3.2934],[116.33421,3.30004],[116.33278,3.30543],[116.33188,3.31171],[116.33116,3.31781],[116.33196,3.32347],[116.33268,3.32634],[116.33428,3.33173],[116.33767,3.33693],[116.33783,3.33692],[116.33777,3.33613],[116.33817,3.33472],[116.33878,3.33444],[116.33929,3.33348],[116.33946,3.33219],[116.34024,3.33112],[116.34063,3.33066],[116.34058,3.32993],[116.34041,3.32914],[116.34086,3.32864],[116.34159,3.32802],[116.34221,3.32706],[116.3421,3.32571],[116.34254,3.32447],[116.34299,3.32441],[116.34428,3.32475],[116.34518,3.32436],[116.34468,3.32357],[116.34462,3.32239],[116.34569,3.32171],[116.34658,3.32171],[116.34675,3.32036],[116.34964,3.31949],[116.35093,3.31921],[116.35143,3.31808],[116.35155,3.3169],[116.35233,3.31645],[116.35312,3.31521],[116.35463,3.31431],[116.35508,3.31324],[116.35559,3.31194],[116.35592,3.3098],[116.3566,3.30856],[116.35789,3.30783],[116.35901,3.30659],[116.35839,3.30541],[116.35971,3.30307],[116.36033,3.30296],[116.36134,3.3024],[116.36207,3.30172],[116.3628,3.30161],[116.36297,3.30082],[116.36386,3.30048],[116.36526,3.3006],[116.36566,3.29981],[116.36566,3.29879],[116.36622,3.29846],[116.36661,3.29761],[116.36672,3.29637],[116.36611,3.29541],[116.36594,3.29445],[116.36695,3.29288],[116.36751,3.29192],[116.36746,3.29136],[116.36734,3.29051],[116.3674,3.28978],[116.36819,3.28916],[116.36908,3.28843],[116.36942,3.28741],[116.37004,3.2868],[116.37085,3.28688],[116.37203,3.28677],[116.37236,3.28666],[116.37309,3.28598],[116.37388,3.28587],[116.37528,3.28547],[116.37707,3.28564],[116.37965,3.28587],[116.38144,3.28661],[116.38442,3.2879],[116.38666,3.28881],[116.39097,3.28971],[116.39288,3.28937],[116.39518,3.28926],[116.39652,3.28842],[116.40098,3.28591],[116.40266,3.28479],[116.40446,3.28541],[116.40552,3.28676],[116.40692,3.28783],[116.40799,3.28924],[116.40928,3.28969],[116.41034,3.28924],[116.4123,3.28806],[116.41354,3.28834],[116.41527,3.28857],[116.41651,3.28834],[116.4178,3.28744],[116.41847,3.28722],[116.42088,3.28694],[116.422,3.287],[116.42374,3.287],[116.42537,3.28739],[116.42559,3.28858],[116.42615,3.28846],[116.42643,3.28784],[116.42693,3.28739],[116.42733,3.28672],[116.42828,3.28649],[116.4275,3.28508],[116.42733,3.28401],[116.42814,3.28218],[116.42708,3.2819],[116.42596,3.28246],[116.42495,3.28184],[116.42489,3.28122],[116.42545,3.28072],[116.42551,3.27998],[116.42428,3.27998],[116.42254,3.27976],[116.42198,3.27897],[116.42063,3.27863],[116.42024,3.27666],[116.41873,3.27491],[116.41817,3.2744],[116.41811,3.27333],[116.41559,3.27102],[116.41543,3.26905],[116.41526,3.26815],[116.41475,3.2655],[116.41571,3.26364],[116.41621,3.26127],[116.41779,3.25919],[116.41941,3.25784],[116.4202,3.25744],[116.42132,3.25626],[116.42216,3.25542],[116.42289,3.25474],[116.42424,3.25395],[116.42519,3.25362],[116.42687,3.25333],[116.42788,3.25311],[116.42979,3.2526],[116.43018,3.25255],[116.43085,3.25238],[116.43169,3.25238],[116.43236,3.25272],[116.43298,3.253],[116.43315,3.25317],[116.43354,3.25385],[116.43388,3.25407],[116.43421,3.25407],[116.43455,3.25306],[116.43528,3.25278],[116.43567,3.25266],[116.43612,3.25272],[116.43578,3.25231],[116.43611,3.25044],[116.43463,3.24884],[116.43455,3.24752],[116.43376,3.2462],[116.43262,3.24523],[116.43271,3.24444],[116.43218,3.24285],[116.4314,3.24039],[116.4314,3.23801],[116.43201,3.23678],[116.4321,3.23537],[116.43096,3.23379],[116.43018,3.23132],[116.43062,3.2285],[116.43044,3.22745],[116.4293,3.22481],[116.42847,3.22177],[116.42795,3.22089],[116.42707,3.21921],[116.42629,3.21693],[116.42559,3.21349],[116.42603,3.21085],[116.42796,3.20742],[116.42953,3.20478],[116.43257,3.20098],[116.43498,3.19845],[116.43663,3.19471],[116.44002,3.19174],[116.44457,3.18333],[116.44402,3.18201],[116.44456,3.18146],[116.44545,3.18058],[116.44567,3.17936],[116.446,3.17793],[116.44698,3.17584],[116.44863,3.17375],[116.4518,3.16979],[116.45312,3.16649],[116.45444,3.16242],[116.45542,3.16033],[116.45472,3.15439],[116.45472,3.15429],[116.4546,3.15334],[116.45361,3.15001],[116.4526,3.14764],[116.45193,3.14163],[116.45235,3.13724],[116.4526,3.13619],[116.45297,3.13459],[116.45379,3.13107],[116.45464,3.13117],[116.45648,3.13141],[116.45917,3.1344],[116.46022,3.13558],[116.46041,3.13579],[116.46069,3.1361],[116.46084,3.13627],[116.46118,3.13665],[116.46295,3.1364],[116.46323,3.13635],[116.46408,3.13619],[116.46549,3.13592]]]]},"properties":{"kdprov":"65","kdkab":"01","kdkec":"090","kddesa":"003","kdsls":"2001","idsls":"65010900032001","nmprov":"KALIMANTAN UTARA","nmkab":"MALINAU","nmkec":"MALINAU SELATAN","nmdesa":"NUNUK TANAH KIBANG","nmsls":"HUTAN"}},{"type":"Feature","geometry":{"type":"MultiPolygon","coordinates":[[[[116.44148,3.12836],[116.44122,3.12742],[116.44074,3.12643],[116.43858,3.12729],[116.43857,3.1274],[116.43856,3.12746],[116.43862,3.12749],[116.43948,3.12878],[116.43998,3.12874],[116.44045,3.12872],[116.44148,3.12836]]]]},"properties":{"kdprov":"65","kdkab":"01","kdkec":"090","kddesa":"003","kdsls":"0002","idsls":"65010900030002","nmprov":"KALIMANTAN UTARA","nmkab":"MALINAU","nmkec":"MALINAU SELATAN","nmdesa":"NUNUK TANAH KIBANG","nmsls":"RT 02"}},{"type":"Feature","geometry":{"type":"MultiPolygon","coordinates":[[[[116.47616,3.14656],[116.47515,3.14648],[116.47515,3.14621],[116.47468,3.14616],[116.47349,3.1461],[116.47336,3.14604],[116.47296,3.14583],[116.47184,3.1458],[116.47219,3.15084],[116.47183,3.15298],[116.4712,3.15503],[116.47222,3.15602],[116.47316,3.15636],[116.4745,3.15275],[116.47541,3.15104],[116.47616,3.14656]]]]},"properties":{"kdprov":"65","kdkab":"01","kdkec":"090","kddesa":"001","kdsls":"0006","idsls":"65010900010006","nmprov":"KALIMANTAN UTARA","nmkab":"MALINAU","nmkec":"MALINAU SELATAN","nmdesa":"LANGAP","nmsls":"RT 006"}},{"type":"Feature","geometry":{"type":"MultiPolygon","coordinates":[[[[116.44148,3.12836],[116.44045,3.12872],[116.43998,3.12874],[116.43948,3.12878],[116.44005,3.12962],[116.44123,3.13138],[116.44263,3.13063],[116.44222,3.1299],[116.44178,3.12931],[116.44152,3.12851],[116.44148,3.12836]]]]},"properties":{"kdprov":"65","kdkab":"01","kdkec":"090","kddesa":"003","kdsls":"0001","idsls":"65010900030001","nmprov":"KALIMANTAN UTARA","nmkab":"MALINAU","nmkec":"MALINAU SELATAN","nmdesa":"NUNUK TANAH KIBANG","nmsls":"RT 01"}},{"type":"Feature","geometry":{"type":"MultiPolygon","coordinates":[[[[116.46558,3.18087],[116.46253,3.18126],[116.46183,3.17852],[116.46666,3.17706],[116.46659,3.17635],[116.46648,3.17513],[116.46639,3.17413],[116.46653,3.17318],[116.46651,3.1731],[116.46639,3.1724],[116.4663,3.17192],[116.46627,3.17174],[116.4659,3.17098],[116.46541,3.16955],[116.46532,3.16926],[116.46523,3.16839],[116.46629,3.16755],[116.46701,3.16721],[116.46805,3.16697],[116.46874,3.16682],[116.46912,3.16674],[116.46942,3.16662],[116.46961,3.16627],[116.46963,3.16592],[116.46971,3.16467],[116.46962,3.16379],[116.46906,3.16233],[116.47027,3.16131],[116.46857,3.15951],[116.46857,3.15951],[116.46858,3.15954],[116.46815,3.15975],[116.46754,3.16006],[116.46682,3.16042],[116.46672,3.16047],[116.46633,3.16067],[116.46349,3.16089],[116.46295,3.16093],[116.46148,3.16084],[116.45931,3.16215],[116.45844,3.16406],[116.4581,3.16754],[116.45723,3.17137],[116.45731,3.17538],[116.45597,3.18038],[116.45589,3.18379],[116.45588,3.18409],[116.45588,3.18421],[116.45423,3.18517],[116.45163,3.18839],[116.45042,3.19361],[116.45093,3.19979],[116.45158,3.20576],[116.45115,3.20976],[116.44759,3.21455],[116.44638,3.21959],[116.44767,3.22316],[116.45213,3.2327],[116.45368,3.24358],[116.45585,3.24707],[116.45537,3.25146],[116.45337,3.25285],[116.45104,3.25329],[116.44766,3.25416],[116.44653,3.25407],[116.44601,3.25459],[116.44514,3.25572],[116.44411,3.25511],[116.44281,3.2552],[116.44194,3.25589],[116.44159,3.25633],[116.44012,3.25668],[116.44073,3.25842],[116.44124,3.26033],[116.44116,3.26164],[116.43986,3.26286],[116.43873,3.26294],[116.437,3.26294],[116.43657,3.26434],[116.4357,3.26503],[116.43561,3.2659],[116.43682,3.26573],[116.437,3.26608],[116.43674,3.26677],[116.43587,3.26703],[116.43544,3.26756],[116.43526,3.26982],[116.435,3.2713],[116.43535,3.272],[116.43604,3.27217],[116.43639,3.27287],[116.43496,3.27552],[116.43374,3.27744],[116.43495,3.27883],[116.43721,3.28066],[116.43946,3.28371],[116.44093,3.28728],[116.44058,3.29172],[116.43893,3.29668],[116.43425,3.29885],[116.43005,3.3022],[116.42753,3.30559],[116.42519,3.30855],[116.42311,3.3102],[116.42251,3.31107],[116.42155,3.31168],[116.42,3.31116],[116.41861,3.31212],[116.41748,3.31316],[116.41661,3.3156],[116.4154,3.31638],[116.4154,3.3176],[116.41679,3.31795],[116.41748,3.31821],[116.41713,3.31908],[116.41618,3.31943],[116.41566,3.32004],[116.41514,3.32187],[116.41375,3.32204],[116.41263,3.32186],[116.41046,3.32378],[116.40855,3.32352],[116.40881,3.3243],[116.40899,3.32526],[116.40838,3.32552],[116.40751,3.32439],[116.40656,3.32534],[116.40418,3.32504],[116.40236,3.3239],[116.40063,3.32321],[116.39942,3.32242],[116.39881,3.32172],[116.39613,3.32225],[116.39431,3.32146],[116.39266,3.32259],[116.38998,3.32224],[116.38937,3.32224],[116.3879,3.32154],[116.38668,3.32233],[116.38608,3.32233],[116.38487,3.32102],[116.38365,3.32067],[116.38123,3.32137],[116.37906,3.32223],[116.37776,3.32276],[116.37664,3.32371],[116.37586,3.32415],[116.36853,3.33193],[116.36914,3.3355],[116.37009,3.33846],[116.37286,3.34029],[116.37407,3.34308],[116.37225,3.34587],[116.37035,3.34741],[116.37196,3.34827],[116.37464,3.3497],[116.37714,3.35258],[116.37856,3.35599],[116.38017,3.36066],[116.38142,3.36461],[116.38503,3.36845],[116.38534,3.36817],[116.38555,3.3671],[116.38704,3.36603],[116.3881,3.36603],[116.38885,3.3655],[116.39001,3.36572],[116.39118,3.3655],[116.39129,3.36444],[116.39256,3.36305],[116.39363,3.36198],[116.39384,3.35964],[116.39448,3.35857],[116.39565,3.35707],[116.39607,3.35654],[116.39798,3.35548],[116.39979,3.35516],[116.40213,3.35494],[116.40531,3.35495],[116.40977,3.35452],[116.41455,3.35538],[116.41689,3.35687],[116.41988,3.35728],[116.424,3.35784],[116.4308,3.35261],[116.44254,3.34467],[116.44509,3.34254],[116.44753,3.34104],[116.44552,3.33763],[116.44414,3.33592],[116.44414,3.33314],[116.44382,3.33016],[116.44329,3.32813],[116.4468,3.32728],[116.45003,3.3268],[116.45503,3.32381],[116.4613,3.31741],[116.46183,3.30919],[116.46077,3.30375],[116.45865,3.29713],[116.45706,3.29126],[116.45775,3.28705],[116.45882,3.28598],[116.45999,3.28587],[116.46115,3.2863],[116.46211,3.28726],[116.46317,3.2862],[116.46423,3.2847],[116.46402,3.28364],[116.46413,3.28268],[116.46434,3.28129],[116.4651,3.28053],[116.46519,3.28043],[116.46594,3.27947],[116.46519,3.2783],[116.46371,3.27755],[116.46477,3.27723],[116.46594,3.27638],[116.46519,3.27531],[116.46557,3.27259],[116.46695,3.2712],[116.4713,3.2679],[116.47513,3.26384],[116.47583,3.24842],[116.47579,3.24838],[116.47211,3.24405],[116.47031,3.237],[116.46899,3.22211],[116.46496,3.2172],[116.46528,3.21261],[116.46656,3.2092],[116.46571,3.20568],[116.46392,3.19813],[116.46385,3.19783],[116.46311,3.19634],[116.46248,3.19537],[116.46311,3.19452],[116.46152,3.19292],[116.46237,3.19196],[116.46229,3.19155],[116.46195,3.18972],[116.46535,3.18556],[116.46557,3.18099],[116.46558,3.18087]]]]},"properties":{"kdprov":"65","kdkab":"01","kdkec":"090","kddesa":"004","kdsls":"2001","idsls":"65010900042001","nmprov":"KALIMANTAN UTARA","nmkab":"MALINAU","nmkec":"MALINAU SELATAN","nmdesa":"SENGAYAN","nmsls":"HUTAN"}},{"type":"Feature","geometry":{"type":"MultiPolygon","coordinates":[[[[116.47144,3.16313],[116.47152,3.16462],[116.47163,3.16473],[116.47171,3.16482],[116.47194,3.165],[116.4721,3.16516],[116.47248,3.16557],[116.47261,3.16572],[116.47278,3.16593],[116.47293,3.16606],[116.47334,3.16634],[116.47312,3.16758],[116.47304,3.16801],[116.47296,3.16831],[116.47533,3.1668],[116.47532,3.16688],[116.47541,3.16735],[116.47548,3.16774],[116.47552,3.16796],[116.47559,3.16814],[116.47578,3.1683],[116.47618,3.16865],[116.47641,3.16881],[116.47681,3.16903],[116.47725,3.16933],[116.4774,3.16961],[116.47741,3.16971],[116.47722,3.17015],[116.47706,3.17038],[116.47697,3.17047],[116.47683,3.17054],[116.47663,3.1708],[116.47617,3.17108],[116.47652,3.17134],[116.47675,3.17171],[116.47685,3.17184],[116.47714,3.172],[116.47739,3.1721],[116.47753,3.17221],[116.47761,3.17235],[116.47791,3.17234],[116.4814,3.16952],[116.482,3.16913],[116.48304,3.16792],[116.48326,3.16729],[116.48233,3.16422],[116.48109,3.16377],[116.47898,3.16346],[116.47689,3.16357],[116.47486,3.16368],[116.47286,3.16341],[116.47144,3.16313]]]]},"properties":{"kdprov":"65","kdkab":"01","kdkec":"090","kddesa":"007","kdsls":"0008","idsls":"65010900070008","nmprov":"KALIMANTAN UTARA","nmkab":"MALINAU","nmkec":"MALINAU SELATAN","nmdesa":"LONG LOREH","nmsls":"RT 008"}},{"type":"Feature","geometry":{"type":"MultiPolygon","coordinates":[[[[116.51364,3.24301],[116.51523,3.24133],[116.51488,3.2411],[116.51472,3.241],[116.51435,3.24076],[116.51419,3.23938],[116.51292,3.23951],[116.51307,3.24082],[116.51307,3.24082],[116.51281,3.24131],[116.5127,3.24153],[116.51256,3.2418],[116.51243,3.24206],[116.51364,3.24301]]]]},"properties":{"kdprov":"65","kdkab":"01","kdkec":"090","kddesa":"006","kdsls":"0002","idsls":"65010900060002","nmprov":"KALIMANTAN UTARA","nmkab":"MALINAU","nmkec":"MALINAU SELATAN","nmdesa":"BILA BEKAYUK","nmsls":"RT 02"}},{"type":"Feature","geometry":{"type":"MultiPolygon","coordinates":[[[[116.43824,3.11179],[116.43872,3.11198],[116.44051,3.11283],[116.44194,3.10942],[116.44193,3.10932],[116.44192,3.10928],[116.44186,3.10884],[116.43978,3.10907],[116.43953,3.1091],[116.43937,3.10912],[116.43926,3.10957],[116.43874,3.11096],[116.43824,3.11179]]]]},"properties":{"kdprov":"65","kdkab":"01","kdkec":"090","kddesa":"002","kdsls":"0003","idsls":"65010900020003","nmprov":"KALIMANTAN UTARA","nmkab":"MALINAU","nmkec":"MALINAU SELATAN","nmdesa":"LABAN NYARIT","nmsls":"RT 03"}},{"type":"Feature","geometry":{"type":"MultiPolygon","coordinates":[[[[116.48511,3.15636],[116.47918,3.15858],[116.47316,3.15636],[116.47222,3.15602],[116.4712,3.15503],[116.47045,3.15431],[116.46794,3.14816],[116.46521,3.15135],[116.46636,3.15416],[116.46655,3.15461],[116.46857,3.15951],[116.47027,3.16131],[116.47141,3.16251],[116.47144,3.16313],[116.47286,3.16341],[116.47486,3.16368],[116.47689,3.16357],[116.47898,3.16346],[116.48109,3.16377],[116.48233,3.16422],[116.48326,3.16729],[116.48304,3.16792],[116.482,3.16913],[116.4814,3.16952],[116.47791,3.17234],[116.47761,3.17235],[116.47753,3.17221],[116.47739,3.1721],[116.47714,3.172],[116.47685,3.17184],[116.47675,3.17171],[116.47652,3.17134],[116.47617,3.17108],[116.476,3.17118],[116.47556,3.1713],[116.47504,3.17142],[116.47435,3.17148],[116.47378,3.17154],[116.47335,3.17165],[116.47284,3.17166],[116.47268,3.17174],[116.47241,3.17217],[116.4717,3.17266],[116.47161,3.17285],[116.47148,3.17313],[116.47136,3.17334],[116.47129,3.17339],[116.4712,3.17339],[116.47107,3.17334],[116.47099,3.17322],[116.47087,3.17302],[116.47079,3.17289],[116.47064,3.17272],[116.47027,3.17268],[116.46986,3.17258],[116.47099,3.17833],[116.47099,3.17833],[116.47099,3.17833],[116.47214,3.17823],[116.47385,3.17806],[116.47404,3.17805],[116.47474,3.1772],[116.476,3.17568],[116.47911,3.17608],[116.48244,3.17776],[116.48911,3.17915],[116.49032,3.17811],[116.49291,3.17649],[116.49636,3.17754],[116.49777,3.17762],[116.49984,3.17676],[116.501,3.17543],[116.50215,3.17312],[116.50465,3.17146],[116.50468,3.17144],[116.50514,3.17127],[116.50612,3.17179],[116.50681,3.17254],[116.50715,3.17381],[116.50813,3.17491],[116.50928,3.17555],[116.51026,3.17636],[116.51129,3.1774],[116.51187,3.17769],[116.5129,3.17694],[116.51394,3.17619],[116.51538,3.17584],[116.51618,3.17653],[116.51664,3.17758],[116.51802,3.17856],[116.51894,3.1796],[116.51911,3.1807],[116.51946,3.18261],[116.52026,3.18521],[116.52026,3.18689],[116.52038,3.18804],[116.52095,3.18914],[116.52112,3.19053],[116.5217,3.19209],[116.52092,3.19484],[116.5204,3.19605],[116.52121,3.19808],[116.52126,3.2008],[116.52123,3.2017],[116.5212,3.20218],[116.52422,3.20421],[116.52633,3.20404],[116.53142,3.20228],[116.53388,3.20087],[116.53792,3.19875],[116.53792,3.19874],[116.53879,3.19716],[116.53967,3.19487],[116.54108,3.19328],[116.54336,3.19187],[116.54371,3.18958],[116.5467,3.18887],[116.55091,3.19223],[116.55214,3.19893],[116.55301,3.20317],[116.556,3.20758],[116.55713,3.20744],[116.56038,3.20705],[116.56214,3.20811],[116.56319,3.21006],[116.566,3.20829],[116.56864,3.21006],[116.57145,3.20882],[116.57443,3.20847],[116.57689,3.20847],[116.57829,3.20847],[116.58462,3.20301],[116.58251,3.2023],[116.58427,3.20036],[116.58392,3.19789],[116.58813,3.19207],[116.59077,3.18642],[116.58796,3.18483],[116.58445,3.18253],[116.58234,3.18094],[116.57953,3.18077],[116.57971,3.17794],[116.57971,3.17618],[116.5769,3.17565],[116.57883,3.17177],[116.57827,3.16905],[116.57277,3.17021],[116.5684,3.17197],[116.56314,3.17255],[116.55555,3.17167],[116.54709,3.17049],[116.53833,3.16931],[116.53133,3.16843],[116.5252,3.16578],[116.5217,3.16285],[116.51907,3.16079],[116.51557,3.15698],[116.51265,3.15375],[116.50944,3.15169],[116.49981,3.14963],[116.4984,3.14963],[116.49749,3.14963],[116.49566,3.14963],[116.49424,3.14963],[116.49219,3.15083],[116.48511,3.15636]],[[116.57981,3.19956],[116.57921,3.19904],[116.5792,3.19903],[116.57891,3.19877],[116.57863,3.19856],[116.57842,3.19851],[116.57811,3.19846],[116.57788,3.19841],[116.57763,3.19836],[116.57737,3.19819],[116.57728,3.19813],[116.57714,3.1979],[116.57711,3.19757],[116.57732,3.19729],[116.57755,3.19707],[116.57796,3.19691],[116.57814,3.19686],[116.57842,3.19677],[116.57877,3.19673],[116.57921,3.19673],[116.57947,3.19664],[116.57962,3.19653],[116.57969,3.19648],[116.57969,3.19655],[116.57977,3.19872],[116.57978,3.19884],[116.57981,3.19956]]]]},"properties":{"kdprov":"65","kdkab":"01","kdkec":"090","kddesa":"007","kdsls":"2002","idsls":"65010900072002","nmprov":"KALIMANTAN UTARA","nmkab":"MALINAU","nmkec":"MALINAU SELATAN","nmdesa":"LONG LOREH","nmsls":"HUTAN"}},{"type":"Feature","geometry":{"type":"MultiPolygon","coordinates":[[[[116.47152,3.16462],[116.47081,3.16499],[116.47047,3.16526],[116.47052,3.16669],[116.47105,3.16663],[116.47208,3.16651],[116.47329,3.16638],[116.47334,3.16634],[116.47293,3.16606],[116.47278,3.16593],[116.47261,3.16572],[116.47248,3.16557],[116.4721,3.16516],[116.47194,3.165],[116.47171,3.16482],[116.47163,3.16473],[116.47152,3.16462]]]]},"properties":{"kdprov":"65","kdkab":"01","kdkec":"090","kddesa":"004","kdsls":"0002","idsls":"65010900040002","nmprov":"KALIMANTAN UTARA","nmkab":"MALINAU","nmkec":"MALINAU SELATAN","nmdesa":"SENGAYAN","nmsls":"RT 002"}},{"type":"Feature","geometry":{"type":"MultiPolygon","coordinates":[[[[116.50114,3.11499],[116.5011,3.11613],[116.5011,3.11615],[116.50631,3.11611],[116.50633,3.11531],[116.50646,3.11049],[116.50131,3.11047],[116.50114,3.11499]]]]},"properties":{"kdprov":"65","kdkab":"01","kdkec":"090","kddesa":"001","kdsls":"0007","idsls":"65010900010007","nmprov":"KALIMANTAN UTARA","nmkab":"MALINAU","nmkec":"MALINAU SELATAN","nmdesa":"LANGAP","nmsls":"RT 007"}},{"type":"Feature","geometry":{"type":"MultiPolygon","coordinates":[[[[116.58063,3.16575],[116.57832,3.16904],[116.57827,3.16905],[116.57883,3.17177],[116.5769,3.17565],[116.57971,3.17618],[116.57971,3.17794],[116.57953,3.18077],[116.58234,3.18094],[116.58445,3.18253],[116.58796,3.18483],[116.59077,3.18642],[116.58813,3.19207],[116.58392,3.19789],[116.58427,3.20036],[116.58251,3.2023],[116.58462,3.20301],[116.57829,3.20847],[116.57689,3.20847],[116.57443,3.20847],[116.57145,3.20882],[116.56864,3.21006],[116.566,3.20829],[116.56319,3.21006],[116.56214,3.20811],[116.56038,3.20705],[116.55713,3.20744],[116.556,3.20758],[116.55301,3.20317],[116.55214,3.19893],[116.55091,3.19223],[116.5467,3.18887],[116.54371,3.18958],[116.54336,3.19187],[116.54108,3.19328],[116.53967,3.19487],[116.53879,3.19716],[116.53792,3.19874],[116.53792,3.19875],[116.53388,3.20087],[116.53142,3.20228],[116.52633,3.20404],[116.52422,3.20421],[116.5212,3.20218],[116.52123,3.2017],[116.52126,3.2008],[116.52121,3.19808],[116.5204,3.19605],[116.52092,3.19484],[116.5217,3.19209],[116.52112,3.19053],[116.52095,3.18914],[116.52038,3.18804],[116.52026,3.18689],[116.52026,3.18521],[116.51946,3.18261],[116.51911,3.1807],[116.51894,3.1796],[116.51802,3.17856],[116.51664,3.17758],[116.51618,3.17653],[116.51538,3.17584],[116.51394,3.17619],[116.5129,3.17694],[116.51187,3.17769],[116.51129,3.1774],[116.51026,3.17636],[116.50928,3.17555],[116.50813,3.17491],[116.50715,3.17381],[116.50681,3.17254],[116.50612,3.17179],[116.50514,3.17127],[116.50468,3.17144],[116.50465,3.17146],[116.50215,3.17312],[116.501,3.17543],[116.49984,3.17676],[116.49777,3.17762],[116.49636,3.17754],[116.49291,3.17649],[116.49032,3.17811],[116.48911,3.17915],[116.48244,3.17776],[116.47911,3.17608],[116.476,3.17568],[116.47474,3.1772],[116.47404,3.17805],[116.47385,3.17806],[116.47214,3.17823],[116.47099,3.17833],[116.47415,3.18395],[116.47712,3.18586],[116.48096,3.18628],[116.48175,3.19006],[116.47889,3.19422],[116.47913,3.19692],[116.48149,3.19585],[116.48371,3.1953],[116.48213,3.20293],[116.4857,3.20401],[116.48922,3.20424],[116.49357,3.20186],[116.50009,3.2005],[116.50488,3.20423],[116.5066,3.20605],[116.50814,3.20742],[116.51022,3.20869],[116.51131,3.2096],[116.51384,3.21033],[116.51484,3.20997],[116.51489,3.20997],[116.5161,3.20997],[116.52008,3.2127],[116.52397,3.21543],[116.52623,3.21625],[116.5304,3.21607],[116.53284,3.21643],[116.53583,3.2158],[116.53683,3.21556],[116.53716,3.21548],[116.53736,3.21543],[116.53881,3.21616],[116.54144,3.21826],[116.54609,3.22185],[116.54751,3.22275],[116.54781,3.22294],[116.55062,3.22294],[116.55252,3.22267],[116.55351,3.22413],[116.55288,3.22658],[116.55433,3.22768],[116.55523,3.22622],[116.55605,3.22495],[116.55613,3.22494],[116.55885,3.22486],[116.57416,3.22144],[116.58141,3.22109],[116.5853,3.22394],[116.59378,3.22465],[116.60156,3.2243],[116.6088,3.22359],[116.61835,3.21986],[116.62772,3.21507],[116.63656,3.20761],[116.63868,3.19838],[116.63974,3.19678],[116.63992,3.19553],[116.64151,3.19482],[116.64398,3.19482],[116.64593,3.19376],[116.64805,3.19465],[116.64876,3.19731],[116.64964,3.19927],[116.65088,3.19962],[116.65264,3.20033],[116.65494,3.20211],[116.65688,3.20513],[116.656,3.20744],[116.65317,3.2101],[116.65052,3.21295],[116.64928,3.21508],[116.6491,3.21614],[116.65034,3.21987],[116.65158,3.22076],[116.6544,3.22076],[116.65619,3.22076],[116.65794,3.22077],[116.66059,3.22077],[116.66296,3.22128],[116.66578,3.22298],[116.66578,3.22298],[116.66776,3.2213],[116.66928,3.22009],[116.67293,3.21607],[116.67704,3.21158],[116.67686,3.20839],[116.67684,3.20794],[116.67678,3.20697],[116.68006,3.20674],[116.68087,3.20668],[116.68087,3.20668],[116.68136,3.20665],[116.68154,3.20663],[116.68299,3.20653],[116.68299,3.20653],[116.68482,3.20394],[116.68558,3.20075],[116.68649,3.19526],[116.6942,3.1913],[116.69764,3.19032],[116.69764,3.19031],[116.69813,3.18867],[116.6983,3.18808],[116.70016,3.18666],[116.70236,3.18491],[116.70313,3.18323],[116.70488,3.18011],[116.70587,3.17867],[116.70709,3.17752],[116.70731,3.17471],[116.70686,3.17212],[116.70609,3.17101],[116.70677,3.16866],[116.70541,3.1658],[116.70655,3.16443],[116.70724,3.1626],[116.70747,3.1607],[116.70912,3.15994],[116.71036,3.15818],[116.71059,3.15669],[116.71016,3.15671],[116.70556,3.15697],[116.70156,3.15462],[116.69807,3.15331],[116.69622,3.15261],[116.68721,3.15193],[116.67837,3.15907],[116.6758,3.16114],[116.6746,3.16388],[116.67204,3.1667],[116.66364,3.16916],[116.65734,3.16916],[116.65209,3.16819],[116.64781,3.16793],[116.64185,3.17197],[116.63933,3.17634],[116.63814,3.17786],[116.6377,3.17794],[116.63693,3.17763],[116.63636,3.17748],[116.63577,3.17758],[116.63519,3.17832],[116.63425,3.17863],[116.63342,3.17863],[116.63288,3.17816],[116.63197,3.17825],[116.63158,3.17848],[116.63091,3.17914],[116.6304,3.17923],[116.62977,3.17886],[116.62914,3.17839],[116.62841,3.17855],[116.62754,3.17824],[116.62704,3.1781],[116.6262,3.17793],[116.62566,3.17808],[116.62506,3.17847],[116.62474,3.17847],[116.6242,3.17824],[116.62391,3.17802],[116.62276,3.17786],[116.62216,3.17809],[116.62176,3.17802],[116.62177,3.17762],[116.62208,3.17733],[116.62215,3.17703],[116.62215,3.17665],[116.62185,3.17596],[116.62124,3.17558],[116.62046,3.17559],[116.62003,3.17573],[116.61934,3.17604],[116.61919,3.17626],[116.61849,3.17641],[116.61821,3.17653],[116.61438,3.17663],[116.61088,3.17663],[116.60858,3.17663],[116.60585,3.17564],[116.60344,3.17355],[116.59962,3.17069],[116.59579,3.16805],[116.59065,3.16717],[116.58452,3.16662],[116.58063,3.16575]]]]},"properties":{"kdprov":"65","kdkab":"01","kdkec":"090","kddesa":"006","kdsls":"2002","idsls":"65010900062002","nmprov":"KALIMANTAN UTARA","nmkab":"MALINAU","nmkec":"MALINAU SELATAN","nmdesa":"BILA BEKAYUK","nmsls":"HUTAN"}}]}