{"type":"FeatureCollection","features":[{"type":"Feature","geometry":{"type":"MultiPolygon","coordinates":[[[[116.50417,3.31501],[116.50441,3.31418],[116.5042,3.31422],[116.50396,3.31422],[116.50345,3.31419],[116.50281,3.31415],[116.50224,3.31411],[116.50197,3.3141],[116.5019,3.31539],[116.50205,3.31541],[116.50268,3.31529],[116.50417,3.31501]]]]},"properties":{"kdprov":"65","kdkab":"01","kdkec":"100","kddesa":"001","kdsls":"0002","idsls":"65011000010002","nmprov":"KALIMANTAN UTARA","nmkab":"MALINAU","nmkec":"MALINAU SELATAN HILIR","nmdesa":"LONG ADIU","nmsls":"RT 02"}},{"type":"Feature","geometry":{"type":"MultiPolygon","coordinates":[[[[116.50441,3.31418],[116.50417,3.31501],[116.50486,3.31484],[116.50539,3.31484],[116.50601,3.31498],[116.50645,3.31542],[116.50769,3.31458],[116.50826,3.31431],[116.5073,3.31268],[116.50581,3.31191],[116.50576,3.31214],[116.50564,3.31237],[116.5055,3.31264],[116.50531,3.31285],[116.50508,3.31312],[116.50457,3.31364],[116.50441,3.31418]]]]},"properties":{"kdprov":"65","kdkab":"01","kdkec":"100","kddesa":"005","kdsls":"0001","idsls":"65011000050001","nmprov":"KALIMANTAN UTARA","nmkab":"MALINAU","nmkec":"MALINAU SELATAN HILIR","nmdesa":"PUNAN LONG ADIU","nmsls":"RT 01"}},{"type":"Feature","geometry":{"type":"MultiPolygon","coordinates":[[[[116.49875,3.39692],[116.49987,3.39627],[116.50213,3.39497],[116.50205,3.39416],[116.50205,3.39412],[116.50192,3.39357],[116.50186,3.39348],[116.49992,3.3945],[116.49935,3.3946],[116.49907,3.39451],[116.49875,3.39494],[116.4985,3.395],[116.49824,3.395],[116.49807,3.39519],[116.49807,3.39559],[116.49826,3.39595],[116.49839,3.39621],[116.49875,3.39692]]]]},"properties":{"kdprov":"65","kdkab":"01","kdkec":"100","kddesa":"006","kdsls":"0002","idsls":"65011000060002","nmprov":"KALIMANTAN UTARA","nmkab":"MALINAU","nmkec":"MALINAU SELATAN HILIR","nmdesa":"PUNAN SETARAP","nmsls":"RT 02"}},{"type":"Feature","geometry":{"type":"MultiPolygon","coordinates":[[[[116.50645,3.31542],[116.50601,3.31498],[116.50539,3.31484],[116.50486,3.31484],[116.50417,3.31501],[116.50268,3.31529],[116.50205,3.31541],[116.5019,3.31539],[116.50128,3.31531],[116.50054,3.31521],[116.49973,3.3151],[116.49925,3.31492],[116.49865,3.31464],[116.49804,3.31449],[116.49722,3.31461],[116.49656,3.31469],[116.49588,3.31459],[116.49531,3.31411],[116.49499,3.31355],[116.49477,3.31274],[116.49503,3.31181],[116.4955,3.31132],[116.49569,3.31059],[116.49556,3.3091],[116.49495,3.30814],[116.49332,3.30765],[116.49116,3.30777],[116.49027,3.30713],[116.489,3.30713],[116.48823,3.30649],[116.48645,3.30624],[116.48556,3.30624],[116.48455,3.30572],[116.48467,3.30534],[116.48506,3.30381],[116.48417,3.30278],[116.48213,3.30125],[116.48124,3.29984],[116.47984,3.3001],[116.47883,3.29856],[116.4773,3.29741],[116.47603,3.29716],[116.47489,3.29537],[116.47387,3.29562],[116.47272,3.29536],[116.4726,3.29332],[116.47184,3.29281],[116.47069,3.29319],[116.46993,3.29153],[116.4698,3.29051],[116.46968,3.28884],[116.46853,3.28795],[116.46764,3.28795],[116.46777,3.28705],[116.4665,3.28578],[116.4665,3.2845],[116.46599,3.28399],[116.46612,3.28245],[116.46574,3.28117],[116.4651,3.28053],[116.46434,3.28129],[116.46413,3.28268],[116.46402,3.28364],[116.46423,3.2847],[116.46317,3.2862],[116.46211,3.28726],[116.46115,3.2863],[116.45999,3.28587],[116.45882,3.28598],[116.45775,3.28705],[116.45706,3.29126],[116.45865,3.29713],[116.46077,3.30375],[116.46183,3.30919],[116.4613,3.31741],[116.45503,3.32381],[116.45003,3.3268],[116.4468,3.32728],[116.44329,3.32813],[116.44382,3.33016],[116.44414,3.33314],[116.44414,3.33592],[116.44552,3.33763],[116.44753,3.34104],[116.44509,3.34254],[116.44254,3.34467],[116.4308,3.35261],[116.424,3.35784],[116.41988,3.35728],[116.42002,3.35875],[116.42001,3.36116],[116.4199,3.36311],[116.42001,3.3646],[116.42058,3.36644],[116.42195,3.36862],[116.42389,3.36966],[116.42606,3.37035],[116.42755,3.37046],[116.42869,3.37023],[116.43246,3.36932],[116.4352,3.37024],[116.43611,3.37127],[116.43611,3.37403],[116.43645,3.37747],[116.43862,3.37942],[116.44239,3.3808],[116.44479,3.37943],[116.44707,3.37851],[116.44799,3.37759],[116.4481,3.3769],[116.44776,3.37484],[116.4489,3.37495],[116.44982,3.37507],[116.45267,3.3761],[116.45507,3.37599],[116.4577,3.37679],[116.46044,3.37576],[116.46192,3.37542],[116.46284,3.37461],[116.46478,3.37289],[116.46615,3.37267],[116.46706,3.37244],[116.46672,3.37129],[116.46832,3.36945],[116.46958,3.36991],[116.47118,3.37095],[116.47277,3.3706],[116.47506,3.36934],[116.47643,3.36762],[116.47735,3.36487],[116.47727,3.36444],[116.47678,3.36395],[116.47529,3.36223],[116.47346,3.36177],[116.47335,3.36039],[116.47221,3.35798],[116.47084,3.3558],[116.4697,3.35442],[116.46976,3.35183],[116.46942,3.34942],[116.46816,3.34667],[116.46965,3.3446],[116.4717,3.34196],[116.47262,3.33887],[116.47456,3.33715],[116.47776,3.336],[116.48096,3.33566],[116.48393,3.33554],[116.4877,3.33451],[116.49358,3.33262],[116.49598,3.32998],[116.49804,3.32826],[116.50009,3.327],[116.50204,3.32585],[116.50398,3.32413],[116.50603,3.32299],[116.50775,3.32276],[116.5085,3.32266],[116.51037,3.32241],[116.51232,3.32127],[116.51303,3.32065],[116.51214,3.31839],[116.51091,3.31823],[116.50832,3.31788],[116.50716,3.31761],[116.50645,3.31542]]]]},"properties":{"kdprov":"65","kdkab":"01","kdkec":"100","kddesa":"005","kdsls":"2001","idsls":"65011000052001","nmprov":"KALIMANTAN UTARA","nmkab":"MALINAU","nmkec":"MALINAU SELATAN HILIR","nmdesa":"PUNAN LONG ADIU","nmsls":"HUTAN"}},{"type":"Feature","geometry":{"type":"MultiPolygon","coordinates":[[[[116.5582,3.3225],[116.5553,3.31957],[116.55286,3.31885],[116.55267,3.31891],[116.55258,3.31939],[116.55265,3.3198],[116.55249,3.32019],[116.55231,3.32055],[116.55213,3.32093],[116.55195,3.32124],[116.55165,3.32192],[116.55124,3.32242],[116.55083,3.32279],[116.55335,3.32421],[116.55313,3.32464],[116.55546,3.32642],[116.55675,3.32469],[116.5582,3.3225]]]]},"properties":{"kdprov":"65","kdkab":"01","kdkec":"100","kddesa":"004","kdsls":"0001","idsls":"65011000040001","nmprov":"KALIMANTAN UTARA","nmkab":"MALINAU","nmkec":"MALINAU SELATAN HILIR","nmdesa":"GONG SOLOK","nmsls":"RT 01"}},{"type":"Feature","geometry":{"type":"MultiPolygon","coordinates":[[[[116.5565,3.31275],[116.55585,3.31323],[116.55547,3.31349],[116.55497,3.31381],[116.55486,3.3139],[116.55483,3.31398],[116.55326,3.31516],[116.55337,3.31524],[116.55341,3.31543],[116.55342,3.3156],[116.55351,3.31577],[116.55376,3.316],[116.55419,3.31626],[116.55433,3.31642],[116.55451,3.31667],[116.5548,3.31695],[116.55492,3.31716],[116.5555,3.31773],[116.55614,3.31794],[116.55671,3.3178],[116.55976,3.31646],[116.55868,3.31501],[116.55813,3.31472],[116.5578,3.31444],[116.55745,3.31404],[116.55723,3.31379],[116.55701,3.31343],[116.5567,3.31301],[116.55653,3.31277],[116.5565,3.31275]]]]},"properties":{"kdprov":"65","kdkab":"01","kdkec":"100","kddesa":"002","kdsls":"0002","idsls":"65011000020002","nmprov":"KALIMANTAN UTARA","nmkab":"MALINAU","nmkec":"MALINAU SELATAN HILIR","nmdesa":"PUNAN GONG SOLOK","nmsls":"RT 02"}},{"type":"Feature","geometry":{"type":"MultiPolygon","coordinates":[[[[116.55286,3.31885],[116.5553,3.31957],[116.5582,3.3225],[116.55928,3.32106],[116.55944,3.32084],[116.56013,3.3203],[116.5606,3.31993],[116.56069,3.31956],[116.56039,3.31914],[116.56061,3.31798],[116.561,3.31773],[116.56139,3.31765],[116.56147,3.3173],[116.5619,3.31743],[116.5623,3.31754],[116.56287,3.31754],[116.5632,3.31767],[116.56377,3.3179],[116.56415,3.32008],[116.56618,3.32072],[116.56682,3.32417],[116.56809,3.32519],[116.56923,3.32634],[116.56974,3.32839],[116.5705,3.32992],[116.57088,3.33158],[116.57114,3.33363],[116.57165,3.3358],[116.57292,3.33797],[116.57304,3.33913],[116.57406,3.34104],[116.57431,3.34232],[116.57482,3.34501],[116.57584,3.34641],[116.57635,3.34974],[116.57673,3.35242],[116.57762,3.35383],[116.57939,3.35638],[116.57914,3.35932],[116.5799,3.36226],[116.58041,3.36444],[116.5813,3.36507],[116.58206,3.36827],[116.58181,3.3697],[116.58231,3.36976],[116.58364,3.36986],[116.58365,3.36985],[116.58396,3.36798],[116.58501,3.36552],[116.58501,3.36136],[116.58549,3.35636],[116.58525,3.3541],[116.58418,3.35244],[116.58039,3.3509],[116.58047,3.3502],[116.58061,3.34899],[116.58002,3.34708],[116.5793,3.34542],[116.57918,3.34339],[116.57954,3.34042],[116.58037,3.33816],[116.58061,3.33554],[116.58037,3.33316],[116.57966,3.33173],[116.57978,3.32936],[116.58014,3.32638],[116.58014,3.32364],[116.58049,3.32067],[116.58037,3.3171],[116.58002,3.31425],[116.57942,3.31103],[116.57811,3.30925],[116.57728,3.30723],[116.57752,3.30354],[116.57764,3.30116],[116.57835,3.29937],[116.5793,3.29747],[116.57963,3.29556],[116.57963,3.29555],[116.57966,3.29536],[116.57968,3.29529],[116.57969,3.29519],[116.58136,3.2947],[116.58136,3.2947],[116.58147,3.29465],[116.58156,3.29462],[116.58158,3.29461],[116.58162,3.29459],[116.58163,3.29459],[116.58357,3.2938],[116.5862,3.29272],[116.58977,3.29105],[116.59053,3.29063],[116.59191,3.28986],[116.5931,3.28772],[116.59334,3.28581],[116.59328,3.28453],[116.59322,3.28331],[116.59322,3.28058],[116.59332,3.27966],[116.59346,3.27832],[116.59417,3.27641],[116.59465,3.27392],[116.59453,3.27189],[116.5931,3.26987],[116.59329,3.26848],[116.59317,3.26375],[116.59312,3.26145],[116.59312,3.26145],[116.59202,3.26155],[116.58935,3.26308],[116.5877,3.26449],[116.58669,3.26481],[116.5849,3.26538],[116.58271,3.26538],[116.57994,3.26538],[116.57562,3.26295],[116.57371,3.26231],[116.5718,3.26193],[116.56786,3.26269],[116.56456,3.26346],[116.56214,3.26397],[116.5582,3.26601],[116.55425,3.26754],[116.55044,3.26818],[116.54777,3.26664],[116.54744,3.26665],[116.54696,3.26666],[116.54516,3.26671],[116.54313,3.26543],[116.54033,3.2644],[116.53791,3.26415],[116.5355,3.26376],[116.53245,3.26402],[116.53105,3.26414],[116.52736,3.26606],[116.52634,3.26759],[116.5271,3.269],[116.52736,3.27053],[116.52659,3.27219],[116.52596,3.27398],[116.52672,3.27654],[116.52621,3.27884],[116.5285,3.28101],[116.52773,3.28319],[116.52951,3.2851],[116.5304,3.28741],[116.53167,3.29035],[116.53396,3.29086],[116.53459,3.29226],[116.53567,3.29476],[116.53415,3.29655],[116.53249,3.29859],[116.53249,3.30025],[116.53147,3.30242],[116.53147,3.30381],[116.53147,3.30549],[116.53325,3.30715],[116.53173,3.30894],[116.53363,3.30907],[116.53465,3.30933],[116.53503,3.31009],[116.53534,3.31118],[116.53554,3.31188],[116.53554,3.31367],[116.53536,3.31399],[116.53944,3.31377],[116.55286,3.31885]],[[116.55326,3.31516],[116.55318,3.3151],[116.55279,3.3149],[116.55235,3.31469],[116.55211,3.31466],[116.55225,3.31249],[116.55461,3.31056],[116.55472,3.31084],[116.55506,3.31112],[116.55512,3.31125],[116.55523,3.31148],[116.55537,3.31165],[116.55576,3.31206],[116.55618,3.31241],[116.5565,3.31275],[116.55653,3.31277],[116.5567,3.31301],[116.55701,3.31343],[116.55723,3.31379],[116.55745,3.31404],[116.5578,3.31444],[116.55813,3.31472],[116.55868,3.31501],[116.55976,3.31646],[116.55671,3.3178],[116.55614,3.31794],[116.5555,3.31773],[116.55492,3.31716],[116.5548,3.31695],[116.55451,3.31667],[116.55433,3.31642],[116.55419,3.31626],[116.55376,3.316],[116.55351,3.31577],[116.55342,3.3156],[116.55341,3.31543],[116.55337,3.31524],[116.55326,3.31516]]]]},"properties":{"kdprov":"65","kdkab":"01","kdkec":"100","kddesa":"002","kdsls":"2001","idsls":"65011000022001","nmprov":"KALIMANTAN UTARA","nmkab":"MALINAU","nmkec":"MALINAU SELATAN HILIR","nmdesa":"PUNAN GONG SOLOK","nmsls":"HUTAN"}},{"type":"Feature","geometry":{"type":"MultiPolygon","coordinates":[[[[116.5565,3.31275],[116.55618,3.31241],[116.55576,3.31206],[116.55537,3.31165],[116.55523,3.31148],[116.55512,3.31125],[116.55506,3.31112],[116.55472,3.31084],[116.55461,3.31056],[116.55225,3.31249],[116.55211,3.31466],[116.55235,3.31469],[116.55279,3.3149],[116.55318,3.3151],[116.55326,3.31516],[116.55483,3.31398],[116.55486,3.3139],[116.55497,3.31381],[116.55547,3.31349],[116.55585,3.31323],[116.5565,3.31275]]]]},"properties":{"kdprov":"65","kdkab":"01","kdkec":"100","kddesa":"002","kdsls":"0001","idsls":"65011000020001","nmprov":"KALIMANTAN UTARA","nmkab":"MALINAU","nmkec":"MALINAU SELATAN HILIR","nmdesa":"PUNAN GONG SOLOK","nmsls":"RT 01"}},{"type":"Feature","geometry":{"type":"MultiPolygon","coordinates":[[[[116.49606,3.45889],[116.49604,3.45888],[116.49556,3.45858],[116.49562,3.45851],[116.49531,3.45831],[116.49509,3.45813],[116.4949,3.45824],[116.49462,3.45835],[116.49441,3.45847],[116.4942,3.45846],[116.49407,3.45846],[116.49391,3.45852],[116.4941,3.45886],[116.49446,3.45951],[116.49506,3.46009],[116.49543,3.46034],[116.49656,3.45925],[116.49606,3.45889]]]]},"properties":{"kdprov":"65","kdkab":"01","kdkec":"100","kddesa":"008","kdsls":"0005","idsls":"65011000080005","nmprov":"KALIMANTAN UTARA","nmkab":"MALINAU","nmkec":"MALINAU SELATAN HILIR","nmdesa":"SETULANG","nmsls":"RT 05"}},{"type":"Feature","geometry":{"type":"MultiPolygon","coordinates":[[[[116.49509,3.45813],[116.49531,3.45831],[116.49562,3.45851],[116.49556,3.45858],[116.49604,3.45888],[116.49606,3.45889],[116.49608,3.45887],[116.49624,3.45871],[116.49638,3.45856],[116.49655,3.45833],[116.49676,3.45812],[116.49698,3.45789],[116.497,3.45786],[116.49666,3.45763],[116.49654,3.45757],[116.49626,3.45747],[116.4961,3.45782],[116.49566,3.45761],[116.49541,3.45773],[116.49527,3.45787],[116.49516,3.45807],[116.49509,3.45813]]]]},"properties":{"kdprov":"65","kdkab":"01","kdkec":"100","kddesa":"008","kdsls":"0003","idsls":"65011000080003","nmprov":"KALIMANTAN UTARA","nmkab":"MALINAU","nmkec":"MALINAU SELATAN HILIR","nmdesa":"SETULANG","nmsls":"RT 03"}},{"type":"Feature","geometry":{"type":"MultiPolygon","coordinates":[[[[116.54557,3.37151],[116.54504,3.37192],[116.54511,3.37202],[116.54482,3.37222],[116.54413,3.37278],[116.54418,3.37598],[116.54596,3.37639],[116.54693,3.37611],[116.5473,3.37548],[116.54734,3.37454],[116.54557,3.37151]]]]},"properties":{"kdprov":"65","kdkab":"01","kdkec":"100","kddesa":"003","kdsls":"0001","idsls":"65011000030001","nmprov":"KALIMANTAN UTARA","nmkab":"MALINAU","nmkec":"MALINAU SELATAN HILIR","nmdesa":"BATU KAJANG","nmsls":"RT 01"}},{"type":"Feature","geometry":{"type":"MultiPolygon","coordinates":[[[[116.54413,3.37278],[116.54482,3.37222],[116.54511,3.37202],[116.54504,3.37192],[116.54557,3.37151],[116.54517,3.37082],[116.54476,3.37012],[116.54461,3.36899],[116.53855,3.36942],[116.53901,3.37305],[116.54017,3.37335],[116.54249,3.37347],[116.54413,3.37278]]]]},"properties":{"kdprov":"65","kdkab":"01","kdkec":"100","kddesa":"003","kdsls":"0002","idsls":"65011000030002","nmprov":"KALIMANTAN UTARA","nmkab":"MALINAU","nmkec":"MALINAU SELATAN HILIR","nmdesa":"BATU KAJANG","nmsls":"RT 02"}},{"type":"Feature","geometry":{"type":"MultiPolygon","coordinates":[[[[116.54418,3.37598],[116.54413,3.37278],[116.54249,3.37347],[116.54017,3.37335],[116.53901,3.37305],[116.53855,3.36942],[116.54461,3.36899],[116.54454,3.36778],[116.54479,3.36662],[116.54527,3.36573],[116.54616,3.36502],[116.54725,3.36441],[116.54831,3.3638],[116.55117,3.36157],[116.55165,3.36079],[116.55206,3.35972],[116.55264,3.35792],[116.553,3.35594],[116.55305,3.35488],[116.55317,3.35429],[116.55348,3.35386],[116.55429,3.35356],[116.55526,3.35351],[116.55665,3.35391],[116.55838,3.35465],[116.5598,3.35566],[116.56092,3.35668],[116.56163,3.35741],[116.56219,3.358],[116.56278,3.35825],[116.56351,3.3581],[116.56443,3.35744],[116.56509,3.35637],[116.56577,3.35488],[116.56641,3.35318],[116.56689,3.35181],[116.5672,3.35062],[116.56692,3.34983],[116.56616,3.3492],[116.56494,3.34861],[116.56387,3.34785],[116.56349,3.34717],[116.56326,3.34613],[116.56298,3.34478],[116.56275,3.34377],[116.56255,3.34324],[116.56204,3.34291],[116.56105,3.34268],[116.56021,3.34261],[116.56012,3.34296],[116.55937,3.34579],[116.55721,3.34749],[116.5566,3.34797],[116.55438,3.34971],[116.54701,3.34935],[116.54476,3.34793],[116.53679,3.35564],[116.53656,3.36098],[116.53613,3.36152],[116.53532,3.36256],[116.53359,3.36478],[116.5305,3.36549],[116.52836,3.36869],[116.53014,3.37391],[116.52871,3.38257],[116.53109,3.38767],[116.53259,3.39102],[116.53269,3.39126],[116.53314,3.3896],[116.53326,3.38864],[116.53354,3.38696],[116.53385,3.38567],[116.53435,3.38415],[116.53507,3.38308],[116.53557,3.3823],[116.53568,3.38133],[116.5357,3.38017],[116.53575,3.37915],[116.5356,3.37859],[116.53562,3.37791],[116.53596,3.37717],[116.53641,3.37662],[116.53712,3.37646],[116.53844,3.37641],[116.53918,3.37652],[116.5401,3.37641],[116.54119,3.37621],[116.54241,3.37598],[116.54348,3.37596],[116.54418,3.37598]]]]},"properties":{"kdprov":"65","kdkab":"01","kdkec":"100","kddesa":"003","kdsls":"2001","idsls":"65011000032001","nmprov":"KALIMANTAN UTARA","nmkab":"MALINAU","nmkec":"MALINAU SELATAN HILIR","nmdesa":"BATU KAJANG","nmsls":"HUTAN"}},{"type":"Feature","geometry":{"type":"MultiPolygon","coordinates":[[[[116.54831,3.3638],[116.54916,3.36548],[116.55148,3.36712],[116.55288,3.36534],[116.55334,3.36468],[116.55357,3.36417],[116.55388,3.36344],[116.55389,3.36326],[116.55117,3.36157],[116.54831,3.3638]]]]},"properties":{"kdprov":"65","kdkab":"01","kdkec":"100","kddesa":"003","kdsls":"0003","idsls":"65011000030003","nmprov":"KALIMANTAN UTARA","nmkab":"MALINAU","nmkec":"MALINAU SELATAN HILIR","nmdesa":"BATU KAJANG","nmsls":"RT 03"}},{"type":"Feature","geometry":{"type":"MultiPolygon","coordinates":[[[[116.50213,3.39497],[116.49987,3.39627],[116.49875,3.39692],[116.49858,3.39701],[116.49841,3.39809],[116.49907,3.39891],[116.50024,3.39772],[116.50108,3.39721],[116.50295,3.39707],[116.50423,3.39939],[116.50433,3.39971],[116.5045,3.40022],[116.50528,3.40264],[116.50474,3.40469],[116.50298,3.40468],[116.50207,3.40567],[116.50001,3.4059],[116.49801,3.4043],[116.4967,3.40453],[116.49596,3.40544],[116.49556,3.40886],[116.49556,3.41199],[116.49539,3.4129],[116.49425,3.41353],[116.49317,3.41387],[116.49254,3.41512],[116.49408,3.41916],[116.49647,3.42412],[116.4979,3.42412],[116.4995,3.42258],[116.50014,3.42202],[116.50055,3.42166],[116.50252,3.42156],[116.50532,3.42342],[116.50678,3.42276],[116.50837,3.42205],[116.50866,3.42224],[116.51252,3.42473],[116.5131,3.4251],[116.51434,3.42676],[116.5161,3.42911],[116.51868,3.43254],[116.51661,3.43559],[116.51285,3.44643],[116.51418,3.45058],[116.50507,3.45836],[116.50277,3.46033],[116.50301,3.46398],[116.50334,3.46463],[116.50495,3.46777],[116.50082,3.47069],[116.50085,3.47164],[116.50107,3.47163],[116.50131,3.47162],[116.50615,3.47108],[116.5092,3.47072],[116.51278,3.46856],[116.51637,3.46712],[116.51942,3.46514],[116.52056,3.46281],[116.52149,3.46091],[116.52298,3.45932],[116.52489,3.45731],[116.52562,3.45482],[116.52629,3.45283],[116.52657,3.45064],[116.52813,3.4483],[116.52945,3.44719],[116.53209,3.44626],[116.53343,3.44421],[116.53607,3.44343],[116.53961,3.44272],[116.53999,3.44055],[116.54209,3.44083],[116.54311,3.44142],[116.54315,3.44139],[116.54335,3.44121],[116.54379,3.44113],[116.54408,3.44109],[116.54454,3.4413],[116.5449,3.44147],[116.54563,3.44155],[116.54609,3.44152],[116.54649,3.44148],[116.54684,3.44159],[116.5472,3.44181],[116.54764,3.44195],[116.54837,3.44211],[116.54906,3.44251],[116.54944,3.44273],[116.5499,3.4429],[116.55037,3.44302],[116.55084,3.44313],[116.55132,3.44318],[116.55194,3.44337],[116.55252,3.44362],[116.55248,3.44315],[116.55268,3.44223],[116.55268,3.44174],[116.55268,3.44118],[116.55307,3.4402],[116.55339,3.43972],[116.55367,3.43931],[116.55418,3.43854],[116.55468,3.43743],[116.55516,3.43639],[116.55529,3.43589],[116.55549,3.4351],[116.55569,3.43429],[116.55562,3.4337],[116.5553,3.43298],[116.55536,3.432],[116.55591,3.43108],[116.55634,3.43036],[116.55647,3.4295],[116.55647,3.42898],[116.55625,3.42865],[116.55595,3.42819],[116.55563,3.42796],[116.55523,3.42767],[116.55501,3.42737],[116.55464,3.42686],[116.55442,3.4266],[116.55399,3.42609],[116.55386,3.4255],[116.55386,3.42523],[116.55386,3.42452],[116.55385,3.42375],[116.5538,3.42314],[116.554,3.42248],[116.55422,3.42227],[116.55464,3.42187],[116.55511,3.42143],[116.55525,3.42094],[116.55537,3.42052],[116.5554,3.42032],[116.5555,3.4196],[116.55555,3.41911],[116.5556,3.41857],[116.55568,3.41824],[116.55576,3.41789],[116.55432,3.41753],[116.55382,3.41719],[116.55202,3.41629],[116.55067,3.41493],[116.5491,3.41177],[116.54579,3.41031],[116.54399,3.40952],[116.54192,3.40861],[116.53787,3.40635],[116.53474,3.40351],[116.53338,3.40228],[116.53269,3.39879],[116.53226,3.39664],[116.53232,3.3965],[116.53356,3.39318],[116.53355,3.39318],[116.53355,3.39318],[116.53344,3.39311],[116.5334,3.3931],[116.53314,3.39307],[116.53248,3.39297],[116.53089,3.39274],[116.52989,3.39096],[116.52931,3.38994],[116.52756,3.38921],[116.52595,3.38855],[116.52458,3.38798],[116.52264,3.38847],[116.52046,3.38884],[116.5162,3.38851],[116.51513,3.3871],[116.51313,3.38671],[116.51016,3.38767],[116.50845,3.38876],[116.50834,3.39018],[116.50771,3.39155],[116.50606,3.39308],[116.50429,3.39405],[116.50224,3.39491],[116.50213,3.39497]]]]},"properties":{"kdprov":"65","kdkab":"01","kdkec":"100","kddesa":"007","kdsls":"2001","idsls":"65011000072001","nmprov":"KALIMANTAN UTARA","nmkab":"MALINAU","nmkec":"MALINAU SELATAN HILIR","nmdesa":"SETARAP","nmsls":"HUTAN"}},{"type":"Feature","geometry":{"type":"MultiPolygon","coordinates":[[[[116.50433,3.39971],[116.50423,3.39939],[116.50295,3.39707],[116.50108,3.39721],[116.50024,3.39772],[116.49907,3.39891],[116.49933,3.39923],[116.49984,3.39989],[116.50052,3.40076],[116.50161,3.40214],[116.50162,3.40215],[116.5021,3.40178],[116.50311,3.40101],[116.50319,3.401],[116.50342,3.4008],[116.50433,3.39971]]]]},"properties":{"kdprov":"65","kdkab":"01","kdkec":"100","kddesa":"007","kdsls":"0002","idsls":"65011000070002","nmprov":"KALIMANTAN UTARA","nmkab":"MALINAU","nmkec":"MALINAU SELATAN HILIR","nmdesa":"SETARAP","nmsls":"RT 02"}},{"type":"Feature","geometry":{"type":"MultiPolygon","coordinates":[[[[116.54831,3.3638],[116.54725,3.36441],[116.54616,3.36502],[116.54527,3.36573],[116.54479,3.36662],[116.54454,3.36778],[116.54461,3.36899],[116.54476,3.37012],[116.54517,3.37082],[116.54557,3.37151],[116.54734,3.37454],[116.5473,3.37548],[116.54693,3.37611],[116.54596,3.37639],[116.54418,3.37598],[116.54348,3.37596],[116.54241,3.37598],[116.54119,3.37621],[116.5401,3.37641],[116.53918,3.37652],[116.53844,3.37641],[116.53712,3.37646],[116.53641,3.37662],[116.53596,3.37717],[116.53562,3.37791],[116.5356,3.37859],[116.53575,3.37915],[116.5357,3.38017],[116.53568,3.38133],[116.53557,3.3823],[116.53507,3.38308],[116.53435,3.38415],[116.53385,3.38567],[116.53354,3.38696],[116.53326,3.38864],[116.53314,3.3896],[116.53269,3.39126],[116.53337,3.39276],[116.53355,3.39318],[116.53356,3.39318],[116.53232,3.3965],[116.53226,3.39664],[116.53269,3.39879],[116.53338,3.40228],[116.53474,3.40351],[116.53787,3.40635],[116.54192,3.40861],[116.54399,3.40952],[116.54579,3.41031],[116.5491,3.41177],[116.55067,3.41493],[116.55202,3.41629],[116.55382,3.41719],[116.55432,3.41753],[116.55576,3.41789],[116.55596,3.41776],[116.55635,3.4177],[116.55691,3.41798],[116.55726,3.41816],[116.55765,3.41816],[116.55778,3.4177],[116.55755,3.41726],[116.55731,3.41682],[116.55707,3.41638],[116.55701,3.4162],[116.55687,3.41573],[116.55671,3.41549],[116.55648,3.41514],[116.55646,3.4147],[116.55644,3.41438],[116.55642,3.41412],[116.55644,3.41385],[116.55648,3.41337],[116.55648,3.41258],[116.55642,3.41199],[116.556,3.41125],[116.55563,3.41061],[116.55511,3.41002],[116.55492,3.40949],[116.55479,3.4089],[116.55524,3.40838],[116.55583,3.40786],[116.55603,3.40694],[116.55622,3.40628],[116.55625,3.40591],[116.55635,3.40471],[116.5559,3.40392],[116.55518,3.40326],[116.55498,3.40261],[116.55466,3.40195],[116.55471,3.40121],[116.55479,3.40018],[116.55512,3.39965],[116.55528,3.39898],[116.55531,3.39821],[116.55511,3.39766],[116.55479,3.39677],[116.55414,3.39631],[116.55375,3.39532],[116.55377,3.39437],[116.55377,3.39326],[116.55372,3.3927],[116.55368,3.39231],[116.55414,3.39185],[116.55421,3.39126],[116.55377,3.3905],[116.55342,3.38988],[116.55342,3.38967],[116.55342,3.38909],[116.55375,3.38852],[116.55401,3.38804],[116.55408,3.38758],[116.55414,3.38719],[116.55426,3.38688],[116.55441,3.3865],[116.55453,3.38609],[116.55463,3.38568],[116.55473,3.38529],[116.55473,3.38493],[116.55507,3.385],[116.55544,3.38511],[116.55568,3.38518],[116.55597,3.38527],[116.55614,3.38536],[116.55638,3.38541],[116.55672,3.38532],[116.55693,3.38527],[116.55735,3.38526],[116.55755,3.38525],[116.55797,3.38499],[116.55854,3.38468],[116.55882,3.38444],[116.55901,3.38413],[116.55925,3.38387],[116.55982,3.38364],[116.5601,3.3836],[116.56051,3.38348],[116.56085,3.38337],[116.56118,3.38308],[116.56169,3.38251],[116.562,3.38234],[116.56238,3.3822],[116.56258,3.38205],[116.56267,3.38187],[116.56269,3.3817],[116.56279,3.38159],[116.56296,3.38154],[116.5631,3.38139],[116.56337,3.38109],[116.56367,3.38077],[116.56396,3.38048],[116.5643,3.38021],[116.56485,3.37991],[116.56533,3.37987],[116.56602,3.37982],[116.56648,3.37985],[116.56695,3.37991],[116.56728,3.37983],[116.56747,3.3797],[116.56785,3.37948],[116.56823,3.37948],[116.56848,3.37945],[116.56907,3.37933],[116.56947,3.37929],[116.56966,3.37937],[116.57017,3.37945],[116.57063,3.37945],[116.57121,3.37956],[116.5716,3.37975],[116.57206,3.38006],[116.57246,3.38039],[116.57279,3.38076],[116.57322,3.38108],[116.57392,3.38158],[116.5744,3.38193],[116.5747,3.38124],[116.57478,3.38109],[116.57489,3.38089],[116.57513,3.38044],[116.57543,3.37986],[116.57568,3.37939],[116.57589,3.37896],[116.576,3.37879],[116.5764,3.37821],[116.57687,3.37764],[116.57721,3.37732],[116.57805,3.37651],[116.57852,3.37594],[116.57866,3.3757],[116.57893,3.37527],[116.57922,3.37496],[116.57948,3.37452],[116.57977,3.37406],[116.5803,3.37348],[116.58068,3.37308],[116.58103,3.37286],[116.58138,3.3727],[116.5816,3.37239],[116.58169,3.37205],[116.58178,3.37167],[116.58173,3.37132],[116.58171,3.37077],[116.58173,3.37046],[116.58189,3.36973],[116.58231,3.36976],[116.58181,3.3697],[116.58206,3.36827],[116.5813,3.36507],[116.58041,3.36444],[116.5799,3.36226],[116.57914,3.35932],[116.57939,3.35638],[116.57762,3.35383],[116.57673,3.35242],[116.57635,3.34974],[116.57584,3.34641],[116.57482,3.34501],[116.57431,3.34232],[116.57406,3.34104],[116.57304,3.33913],[116.57292,3.33797],[116.57165,3.3358],[116.57114,3.33363],[116.57088,3.33158],[116.5705,3.32992],[116.56974,3.32839],[116.56923,3.32634],[116.56809,3.32519],[116.56682,3.32417],[116.56618,3.32072],[116.56415,3.32008],[116.56377,3.3179],[116.5632,3.31767],[116.56287,3.31754],[116.5623,3.31754],[116.5619,3.31743],[116.56147,3.3173],[116.56139,3.31765],[116.561,3.31773],[116.56061,3.31798],[116.56039,3.31914],[116.56069,3.31956],[116.5606,3.31993],[116.56013,3.3203],[116.55944,3.32084],[116.55928,3.32106],[116.5582,3.3225],[116.55641,3.32929],[116.55648,3.33328],[116.55811,3.33806],[116.55949,3.33945],[116.56002,3.34028],[116.56058,3.34119],[116.56021,3.34261],[116.56105,3.34268],[116.56204,3.34291],[116.56255,3.34324],[116.56275,3.34377],[116.56298,3.34478],[116.56326,3.34613],[116.56349,3.34717],[116.56387,3.34785],[116.56494,3.34861],[116.56616,3.3492],[116.56692,3.34983],[116.5672,3.35062],[116.56689,3.35181],[116.56641,3.35318],[116.56577,3.35488],[116.56509,3.35637],[116.56443,3.35744],[116.56351,3.3581],[116.56278,3.35825],[116.56219,3.358],[116.56163,3.35741],[116.56092,3.35668],[116.5598,3.35566],[116.55838,3.35465],[116.55665,3.35391],[116.55526,3.35351],[116.55429,3.35356],[116.55348,3.35386],[116.55317,3.35429],[116.55305,3.35488],[116.553,3.35594],[116.55264,3.35792],[116.55206,3.35972],[116.55165,3.36079],[116.55117,3.36157],[116.55389,3.36326],[116.55388,3.36344],[116.55357,3.36417],[116.55334,3.36468],[116.55288,3.36534],[116.55148,3.36712],[116.54916,3.36548],[116.54831,3.3638]]]]},"properties":{"kdprov":"65","kdkab":"01","kdkec":"100","kddesa":"003","kdsls":"2002","idsls":"65011000032002","nmprov":"KALIMANTAN UTARA","nmkab":"MALINAU","nmkec":"MALINAU SELATAN HILIR","nmdesa":"BATU KAJANG","nmsls":"HUTAN"}},{"type":"Feature","geometry":{"type":"MultiPolygon","coordinates":[[[[116.53355,3.39318],[116.53337,3.39276],[116.53269,3.39126],[116.53259,3.39102],[116.53109,3.38767],[116.52871,3.38257],[116.53014,3.37391],[116.52836,3.36869],[116.5305,3.36549],[116.53359,3.36478],[116.53532,3.36256],[116.53613,3.36152],[116.53656,3.36098],[116.53679,3.35564],[116.54476,3.34793],[116.54701,3.34935],[116.55438,3.34971],[116.5566,3.34797],[116.55721,3.34749],[116.55937,3.34579],[116.56012,3.34296],[116.56021,3.34261],[116.56058,3.34119],[116.56002,3.34028],[116.55949,3.33945],[116.55811,3.33806],[116.55648,3.33328],[116.55641,3.32929],[116.5582,3.3225],[116.55675,3.32469],[116.55546,3.32642],[116.55384,3.32859],[116.55036,3.32567],[116.54954,3.32362],[116.55025,3.32321],[116.55076,3.32286],[116.55083,3.32279],[116.55124,3.32242],[116.55165,3.32192],[116.55195,3.32124],[116.55213,3.32093],[116.55231,3.32055],[116.55249,3.32019],[116.55265,3.3198],[116.55258,3.31939],[116.55267,3.31891],[116.55286,3.31885],[116.53944,3.31377],[116.53536,3.31399],[116.53439,3.31572],[116.53337,3.31648],[116.5321,3.31789],[116.53241,3.31871],[116.53312,3.32057],[116.53331,3.32143],[116.5335,3.32224],[116.5333,3.32314],[116.53324,3.32339],[116.53279,3.32351],[116.53005,3.32428],[116.52919,3.32452],[116.52778,3.32492],[116.52307,3.32491],[116.52167,3.323],[116.52384,3.32019],[116.52244,3.31622],[116.5185,3.31622],[116.51519,3.3175],[116.51557,3.32325],[116.51468,3.32478],[116.51303,3.32065],[116.51232,3.32127],[116.51037,3.32241],[116.5085,3.32266],[116.50775,3.32276],[116.50603,3.32299],[116.50398,3.32413],[116.50204,3.32585],[116.50009,3.327],[116.49804,3.32826],[116.49598,3.32998],[116.49358,3.33262],[116.4877,3.33451],[116.48393,3.33554],[116.48096,3.33566],[116.47776,3.336],[116.47456,3.33715],[116.47262,3.33887],[116.4717,3.34196],[116.46965,3.3446],[116.46816,3.34667],[116.46942,3.34942],[116.46976,3.35183],[116.4697,3.35442],[116.47084,3.3558],[116.47221,3.35798],[116.47335,3.36039],[116.47346,3.36177],[116.47529,3.36223],[116.47678,3.36395],[116.47727,3.36444],[116.47815,3.36533],[116.47951,3.36693],[116.47997,3.36498],[116.48226,3.36407],[116.48283,3.3659],[116.48317,3.36762],[116.48431,3.3682],[116.48511,3.36946],[116.48534,3.37095],[116.48671,3.37199],[116.48711,3.37242],[116.48819,3.3736],[116.48739,3.37578],[116.48728,3.37727],[116.48933,3.37761],[116.49002,3.37888],[116.48933,3.38106],[116.49038,3.38212],[116.49081,3.38255],[116.49161,3.38473],[116.49414,3.38505],[116.49545,3.38606],[116.49607,3.38654],[116.49681,3.38649],[116.49683,3.38649],[116.49876,3.38636],[116.49924,3.3877],[116.49939,3.38814],[116.49985,3.38942],[116.49993,3.38965],[116.50024,3.38994],[116.50023,3.39023],[116.50023,3.39051],[116.50027,3.39084],[116.50075,3.39111],[116.50107,3.3912],[116.50153,3.39109],[116.50179,3.39113],[116.50206,3.39133],[116.50219,3.39147],[116.50206,3.39168],[116.50192,3.39192],[116.50189,3.39236],[116.50206,3.39268],[116.50174,3.393],[116.50169,3.3931],[116.50173,3.39329],[116.50186,3.39348],[116.50192,3.39357],[116.50205,3.39412],[116.50205,3.39416],[116.50213,3.39497],[116.50224,3.39491],[116.50429,3.39405],[116.50606,3.39308],[116.50771,3.39155],[116.50834,3.39018],[116.50845,3.38876],[116.51016,3.38767],[116.51313,3.38671],[116.51513,3.3871],[116.5162,3.38851],[116.52046,3.38884],[116.52264,3.38847],[116.52458,3.38798],[116.52595,3.38855],[116.52756,3.38921],[116.52931,3.38994],[116.52989,3.39096],[116.53089,3.39274],[116.53248,3.39297],[116.53314,3.39307],[116.5334,3.3931],[116.53344,3.39311],[116.53355,3.39318],[116.53355,3.39318]]]]},"properties":{"kdprov":"65","kdkab":"01","kdkec":"100","kddesa":"004","kdsls":"2001","idsls":"65011000042001","nmprov":"KALIMANTAN UTARA","nmkab":"MALINAU","nmkec":"MALINAU SELATAN HILIR","nmdesa":"GONG SOLOK","nmsls":"HUTAN"}},{"type":"Feature","geometry":{"type":"MultiPolygon","coordinates":[[[[116.50186,3.39348],[116.50173,3.39329],[116.50169,3.3931],[116.50174,3.393],[116.50206,3.39268],[116.50189,3.39236],[116.50192,3.39192],[116.50206,3.39168],[116.50219,3.39147],[116.50206,3.39133],[116.50179,3.39113],[116.50153,3.39109],[116.50107,3.3912],[116.50075,3.39111],[116.50027,3.39084],[116.50012,3.39133],[116.49986,3.3916],[116.49953,3.39195],[116.49934,3.39215],[116.49852,3.39228],[116.49856,3.39276],[116.4989,3.39342],[116.49911,3.39401],[116.49909,3.39449],[116.49907,3.39451],[116.49935,3.3946],[116.49992,3.3945],[116.50186,3.39348]]]]},"properties":{"kdprov":"65","kdkab":"01","kdkec":"100","kddesa":"006","kdsls":"0001","idsls":"65011000060001","nmprov":"KALIMANTAN UTARA","nmkab":"MALINAU","nmkec":"MALINAU SELATAN HILIR","nmdesa":"PUNAN SETARAP","nmsls":"RT 01"}},{"type":"Feature","geometry":{"type":"MultiPolygon","coordinates":[[[[116.55546,3.32642],[116.55313,3.32464],[116.55335,3.32421],[116.55083,3.32279],[116.55076,3.32286],[116.55025,3.32321],[116.54954,3.32362],[116.55036,3.32567],[116.55384,3.32859],[116.55546,3.32642]]]]},"properties":{"kdprov":"65","kdkab":"01","kdkec":"100","kddesa":"004","kdsls":"0002","idsls":"65011000040002","nmprov":"KALIMANTAN UTARA","nmkab":"MALINAU","nmkec":"MALINAU SELATAN HILIR","nmdesa":"GONG SOLOK","nmsls":"RT 02"}},{"type":"Feature","geometry":{"type":"MultiPolygon","coordinates":[[[[116.50298,3.40468],[116.50474,3.40469],[116.50528,3.40264],[116.5045,3.40022],[116.50433,3.39971],[116.50342,3.4008],[116.50319,3.401],[116.50311,3.40101],[116.5021,3.40178],[116.50162,3.40215],[116.50191,3.4027],[116.50252,3.40382],[116.50298,3.40468]]]]},"properties":{"kdprov":"65","kdkab":"01","kdkec":"100","kddesa":"007","kdsls":"0001","idsls":"65011000070001","nmprov":"KALIMANTAN UTARA","nmkab":"MALINAU","nmkec":"MALINAU SELATAN HILIR","nmdesa":"SETARAP","nmsls":"RT 01"}},{"type":"Feature","geometry":{"type":"MultiPolygon","coordinates":[[[[116.497,3.45786],[116.49698,3.45789],[116.49676,3.45812],[116.49655,3.45833],[116.49638,3.45856],[116.49624,3.45871],[116.49608,3.45887],[116.49606,3.45889],[116.49656,3.45925],[116.49675,3.45908],[116.497,3.4589],[116.49725,3.45873],[116.49761,3.45848],[116.49988,3.45689],[116.49942,3.45644],[116.49898,3.45641],[116.49882,3.45639],[116.4987,3.45637],[116.49854,3.45629],[116.49844,3.45639],[116.49817,3.45626],[116.49795,3.45616],[116.49762,3.45686],[116.49754,3.45702],[116.497,3.45786]]]]},"properties":{"kdprov":"65","kdkab":"01","kdkec":"100","kddesa":"008","kdsls":"0004","idsls":"65011000080004","nmprov":"KALIMANTAN UTARA","nmkab":"MALINAU","nmkec":"MALINAU SELATAN HILIR","nmdesa":"SETULANG","nmsls":"RT 04"}},{"type":"Feature","geometry":{"type":"MultiPolygon","coordinates":[[[[116.50298,3.40468],[116.50252,3.40382],[116.50191,3.4027],[116.50162,3.40215],[116.50161,3.40214],[116.50052,3.40076],[116.49984,3.39989],[116.49933,3.39923],[116.49907,3.39891],[116.49841,3.39809],[116.49858,3.39701],[116.49875,3.39692],[116.49839,3.39621],[116.49826,3.39595],[116.49807,3.39559],[116.49807,3.39519],[116.49824,3.395],[116.4985,3.395],[116.49875,3.39494],[116.49907,3.39451],[116.49909,3.39449],[116.49911,3.39401],[116.4989,3.39342],[116.49856,3.39276],[116.49852,3.39228],[116.49934,3.39215],[116.49953,3.39195],[116.49986,3.3916],[116.50012,3.39133],[116.50027,3.39084],[116.50023,3.39051],[116.50023,3.39023],[116.50024,3.38994],[116.49993,3.38965],[116.49985,3.38942],[116.49939,3.38814],[116.49924,3.3877],[116.49876,3.38636],[116.49683,3.38649],[116.49681,3.38649],[116.49607,3.38654],[116.49545,3.38606],[116.49414,3.38505],[116.49161,3.38473],[116.49081,3.38255],[116.49038,3.38212],[116.48933,3.38106],[116.49002,3.37888],[116.48933,3.37761],[116.48728,3.37727],[116.48739,3.37578],[116.48819,3.3736],[116.48711,3.37242],[116.48671,3.37199],[116.48534,3.37095],[116.48511,3.36946],[116.48431,3.3682],[116.48317,3.36762],[116.48283,3.3659],[116.48226,3.36407],[116.47997,3.36498],[116.47951,3.36693],[116.47815,3.36533],[116.47727,3.36444],[116.47735,3.36487],[116.47643,3.36762],[116.47506,3.36934],[116.47277,3.3706],[116.47118,3.37095],[116.46958,3.36991],[116.46832,3.36945],[116.46672,3.37129],[116.46706,3.37244],[116.46615,3.37267],[116.46478,3.37289],[116.46284,3.37461],[116.46192,3.37542],[116.46044,3.37576],[116.4577,3.37679],[116.45507,3.37599],[116.45267,3.3761],[116.44982,3.37507],[116.4489,3.37495],[116.44776,3.37484],[116.4481,3.3769],[116.44799,3.37759],[116.44707,3.37851],[116.44479,3.37943],[116.44239,3.3808],[116.43862,3.37942],[116.43645,3.37747],[116.43611,3.37403],[116.43611,3.37127],[116.4352,3.37024],[116.43246,3.36932],[116.42869,3.37023],[116.42755,3.37046],[116.42606,3.37035],[116.42389,3.36966],[116.42195,3.36862],[116.42058,3.36644],[116.42001,3.3646],[116.4199,3.36311],[116.42001,3.36116],[116.42002,3.35875],[116.41988,3.35728],[116.41689,3.35687],[116.41455,3.35538],[116.40977,3.35452],[116.40531,3.35495],[116.40213,3.35494],[116.39979,3.35516],[116.39798,3.35548],[116.39607,3.35654],[116.39565,3.35707],[116.39448,3.35857],[116.39384,3.35964],[116.39363,3.36198],[116.39256,3.36305],[116.39129,3.36444],[116.39118,3.3655],[116.39001,3.36572],[116.38885,3.3655],[116.3881,3.36603],[116.38704,3.36603],[116.38555,3.3671],[116.38534,3.36817],[116.38503,3.36845],[116.38775,3.37134],[116.39097,3.37476],[116.39525,3.37871],[116.39677,3.38206],[116.39721,3.38302],[116.39978,3.38654],[116.40114,3.38841],[116.40364,3.3911],[116.40506,3.39451],[116.40524,3.40187],[116.4047,3.40834],[116.4043,3.40993],[116.40354,3.41291],[116.40354,3.41291],[116.40478,3.41632],[116.40478,3.41632],[116.40523,3.42065],[116.40742,3.41912],[116.40902,3.41774],[116.41176,3.41556],[116.41444,3.41309],[116.41599,3.41166],[116.41896,3.40833],[116.41964,3.40755],[116.42056,3.4065],[116.42444,3.40363],[116.4289,3.40191],[116.43267,3.40123],[116.43587,3.40146],[116.43804,3.40146],[116.43929,3.40134],[116.44215,3.40089],[116.44535,3.39951],[116.44638,3.39905],[116.44878,3.39733],[116.45015,3.39653],[116.45197,3.39538],[116.45414,3.39516],[116.45609,3.39642],[116.45631,3.39757],[116.45745,3.39894],[116.45814,3.40021],[116.45928,3.40193],[116.46042,3.40354],[116.46122,3.40549],[116.46236,3.40744],[116.46362,3.40905],[116.46384,3.41077],[116.4651,3.41261],[116.46441,3.41502],[116.46533,3.4164],[116.46624,3.41789],[116.46578,3.41904],[116.46692,3.42018],[116.46829,3.42179],[116.46875,3.42225],[116.46955,3.42225],[116.47195,3.42111],[116.47286,3.42065],[116.47549,3.41916],[116.47789,3.41778],[116.48029,3.41663],[116.48189,3.41595],[116.4884,3.41538],[116.49034,3.4171],[116.49079,3.41905],[116.49216,3.42169],[116.49319,3.42502],[116.49559,3.42651],[116.4989,3.42674],[116.50061,3.42629],[116.50233,3.42479],[116.50234,3.42476],[116.50532,3.42342],[116.50252,3.42156],[116.50055,3.42166],[116.50014,3.42202],[116.4995,3.42258],[116.4979,3.42412],[116.49647,3.42412],[116.49408,3.41916],[116.49254,3.41512],[116.49317,3.41387],[116.49425,3.41353],[116.49539,3.4129],[116.49556,3.41199],[116.49556,3.40886],[116.49596,3.40544],[116.4967,3.40453],[116.49801,3.4043],[116.50001,3.4059],[116.50207,3.40567],[116.50298,3.40468]]]]},"properties":{"kdprov":"65","kdkab":"01","kdkec":"100","kddesa":"006","kdsls":"2001","idsls":"65011000062001","nmprov":"KALIMANTAN UTARA","nmkab":"MALINAU","nmkec":"MALINAU SELATAN HILIR","nmdesa":"PUNAN SETARAP","nmsls":"HUTAN"}},{"type":"Feature","geometry":{"type":"MultiPolygon","coordinates":[[[[116.50457,3.31364],[116.50414,3.31298],[116.50376,3.31222],[116.50293,3.31238],[116.50214,3.31247],[116.50158,3.31234],[116.50098,3.31201],[116.5006,3.31155],[116.4997,3.3119],[116.49967,3.31216],[116.49977,3.31267],[116.49999,3.31317],[116.50034,3.31351],[116.50085,3.31384],[116.50197,3.3141],[116.50224,3.31411],[116.50281,3.31415],[116.50345,3.31419],[116.50396,3.31422],[116.5042,3.31422],[116.50441,3.31418],[116.50457,3.31364]]]]},"properties":{"kdprov":"65","kdkab":"01","kdkec":"100","kddesa":"001","kdsls":"0001","idsls":"65011000010001","nmprov":"KALIMANTAN UTARA","nmkab":"MALINAU","nmkec":"MALINAU SELATAN HILIR","nmdesa":"LONG ADIU","nmsls":"RT 01"}},{"type":"Feature","geometry":{"type":"MultiPolygon","coordinates":[[[[116.5161,3.24335],[116.51467,3.24418],[116.51364,3.24301],[116.51291,3.24311],[116.51177,3.24365],[116.51092,3.24558],[116.5111,3.24722],[116.51249,3.24957],[116.51182,3.25066],[116.51104,3.25223],[116.51134,3.25374],[116.51068,3.25598],[116.50887,3.2561],[116.50803,3.25538],[116.50611,3.25278],[116.50495,3.25173],[116.5037,3.2506],[116.5019,3.24812],[116.49974,3.24437],[116.49721,3.24357],[116.49685,3.24346],[116.49589,3.24394],[116.49547,3.2437],[116.49481,3.24419],[116.49402,3.24473],[116.49318,3.24449],[116.4924,3.24485],[116.49186,3.24557],[116.49126,3.24527],[116.49017,3.24588],[116.48909,3.24612],[116.48783,3.24551],[116.48783,3.24497],[116.48723,3.24473],[116.48645,3.24479],[116.4859,3.24503],[116.48536,3.24485],[116.485,3.2446],[116.48458,3.24478],[116.48356,3.24515],[116.48266,3.24575],[116.48193,3.24551],[116.48097,3.24557],[116.47995,3.24581],[116.47887,3.24653],[116.47706,3.24768],[116.47579,3.24838],[116.47583,3.24842],[116.47513,3.26384],[116.4713,3.2679],[116.46695,3.2712],[116.46557,3.27259],[116.46519,3.27531],[116.46594,3.27638],[116.46477,3.27723],[116.46371,3.27755],[116.46519,3.2783],[116.46594,3.27947],[116.46519,3.28043],[116.4651,3.28053],[116.46574,3.28117],[116.46612,3.28245],[116.46599,3.28399],[116.4665,3.2845],[116.4665,3.28578],[116.46777,3.28705],[116.46764,3.28795],[116.46853,3.28795],[116.46968,3.28884],[116.4698,3.29051],[116.46993,3.29153],[116.47069,3.29319],[116.47184,3.29281],[116.4726,3.29332],[116.47272,3.29536],[116.47387,3.29562],[116.47489,3.29537],[116.47603,3.29716],[116.4773,3.29741],[116.47883,3.29856],[116.47984,3.3001],[116.48124,3.29984],[116.48213,3.30125],[116.48417,3.30278],[116.48506,3.30381],[116.48467,3.30534],[116.48455,3.30572],[116.48556,3.30624],[116.48645,3.30624],[116.48823,3.30649],[116.489,3.30713],[116.49027,3.30713],[116.49116,3.30777],[116.49332,3.30765],[116.49495,3.30814],[116.49556,3.3091],[116.49569,3.31059],[116.4955,3.31132],[116.49503,3.31181],[116.49477,3.31274],[116.49499,3.31355],[116.49531,3.31411],[116.49588,3.31459],[116.49656,3.31469],[116.49722,3.31461],[116.49804,3.31449],[116.49865,3.31464],[116.49925,3.31492],[116.49973,3.3151],[116.50054,3.31521],[116.50128,3.31531],[116.5019,3.31539],[116.50197,3.3141],[116.50085,3.31384],[116.50034,3.31351],[116.49999,3.31317],[116.49977,3.31267],[116.49967,3.31216],[116.4997,3.3119],[116.5006,3.31155],[116.50098,3.31201],[116.50158,3.31234],[116.50214,3.31247],[116.50293,3.31238],[116.50376,3.31222],[116.50414,3.31298],[116.50457,3.31364],[116.50508,3.31312],[116.50531,3.31285],[116.5055,3.31264],[116.50564,3.31237],[116.50576,3.31214],[116.50581,3.31191],[116.5073,3.31268],[116.50826,3.31431],[116.50769,3.31458],[116.50645,3.31542],[116.50716,3.31761],[116.50832,3.31788],[116.51091,3.31823],[116.51214,3.31839],[116.51303,3.32065],[116.51468,3.32478],[116.51557,3.32325],[116.51519,3.3175],[116.5185,3.31622],[116.52244,3.31622],[116.52384,3.32019],[116.52167,3.323],[116.52307,3.32491],[116.52778,3.32492],[116.52919,3.32452],[116.53005,3.32428],[116.53279,3.32351],[116.53324,3.32339],[116.5333,3.32314],[116.5335,3.32224],[116.53331,3.32143],[116.53312,3.32057],[116.53241,3.31871],[116.5321,3.31789],[116.53337,3.31648],[116.53439,3.31572],[116.53536,3.31399],[116.53554,3.31367],[116.53554,3.31188],[116.53534,3.31118],[116.53503,3.31009],[116.53465,3.30933],[116.53363,3.30907],[116.53173,3.30894],[116.53325,3.30715],[116.53147,3.30549],[116.53147,3.30381],[116.53147,3.30242],[116.53249,3.30025],[116.53249,3.29859],[116.53415,3.29655],[116.53567,3.29476],[116.53459,3.29226],[116.53396,3.29086],[116.53167,3.29035],[116.5304,3.28741],[116.52951,3.2851],[116.52773,3.28319],[116.5285,3.28101],[116.52621,3.27884],[116.52672,3.27654],[116.52596,3.27398],[116.52659,3.27219],[116.52736,3.27053],[116.5271,3.269],[116.52634,3.26759],[116.52736,3.26606],[116.53105,3.26414],[116.53245,3.26402],[116.5355,3.26376],[116.53791,3.26415],[116.54033,3.2644],[116.54313,3.26543],[116.54516,3.26671],[116.54696,3.26666],[116.54744,3.26665],[116.54777,3.26664],[116.55044,3.26818],[116.55425,3.26754],[116.5582,3.26601],[116.56214,3.26397],[116.56456,3.26346],[116.56786,3.26269],[116.5718,3.26193],[116.57371,3.26231],[116.57562,3.26295],[116.57994,3.26538],[116.58271,3.26538],[116.5849,3.26538],[116.58669,3.26481],[116.5877,3.26449],[116.58935,3.26308],[116.59202,3.26155],[116.59312,3.26145],[116.59312,3.26145],[116.59241,3.25695],[116.5928,3.25494],[116.59502,3.25192],[116.59502,3.25192],[116.59847,3.25086],[116.60317,3.24883],[116.60823,3.24614],[116.60845,3.24604],[116.60863,3.24595],[116.6089,3.24458],[116.61052,3.24237],[116.6111,3.24104],[116.61008,3.23941],[116.60875,3.23808],[116.60861,3.23587],[116.60832,3.23439],[116.6067,3.2338],[116.60621,3.23421],[116.60508,3.23513],[116.60567,3.23808],[116.60215,3.24074],[116.5995,3.24148],[116.59818,3.24059],[116.59759,3.23926],[116.59671,3.23705],[116.59481,3.23557],[116.59216,3.23572],[116.58805,3.23616],[116.5857,3.2366],[116.58276,3.23778],[116.57806,3.24073],[116.57498,3.24176],[116.57175,3.24397],[116.56749,3.24441],[116.56338,3.24353],[116.55662,3.24308],[116.55339,3.24352],[116.55002,3.245],[116.54781,3.24647],[116.5437,3.24618],[116.54026,3.24531],[116.53858,3.24489],[116.53646,3.24371],[116.53505,3.24323],[116.53353,3.24193],[116.532,3.24182],[116.5319,3.24191],[116.53118,3.24264],[116.53247,3.24465],[116.52977,3.24547],[116.52777,3.24382],[116.52671,3.24205],[116.5253,3.24075],[116.52319,3.24099],[116.52225,3.24146],[116.52107,3.24134],[116.52002,3.24075],[116.51869,3.24039],[116.51814,3.24087],[116.51714,3.24177],[116.517,3.2419],[116.51674,3.24232],[116.5161,3.24335]]]]},"properties":{"kdprov":"65","kdkab":"01","kdkec":"100","kddesa":"001","kdsls":"2001","idsls":"65011000012001","nmprov":"KALIMANTAN UTARA","nmkab":"MALINAU","nmkec":"MALINAU SELATAN HILIR","nmdesa":"LONG ADIU","nmsls":"HUTAN LINDUNG"}},{"type":"Feature","geometry":{"type":"MultiPolygon","coordinates":[[[[116.49777,3.45608],[116.49788,3.45581],[116.49779,3.45573],[116.49783,3.45562],[116.49787,3.45552],[116.49793,3.45539],[116.49796,3.45496],[116.49762,3.45491],[116.49721,3.45498],[116.49693,3.45513],[116.49673,3.45525],[116.49659,3.45536],[116.49647,3.45534],[116.49634,3.45528],[116.49623,3.45513],[116.49603,3.45583],[116.496,3.45602],[116.49613,3.45629],[116.49632,3.45617],[116.49647,3.45625],[116.49652,3.45635],[116.49669,3.45632],[116.49681,3.45636],[116.49693,3.45639],[116.49711,3.45646],[116.49717,3.4564],[116.49741,3.45591],[116.49777,3.45608]]]]},"properties":{"kdprov":"65","kdkab":"01","kdkec":"100","kddesa":"008","kdsls":"0002","idsls":"65011000080002","nmprov":"KALIMANTAN UTARA","nmkab":"MALINAU","nmkec":"MALINAU SELATAN HILIR","nmdesa":"SETULANG","nmsls":"RT 02"}},{"type":"Feature","geometry":{"type":"MultiPolygon","coordinates":[[[[116.49623,3.45513],[116.49634,3.45528],[116.49647,3.45534],[116.49659,3.45536],[116.49673,3.45525],[116.49693,3.45513],[116.49721,3.45498],[116.49762,3.45491],[116.49796,3.45496],[116.49793,3.45539],[116.49787,3.45552],[116.49783,3.45562],[116.49779,3.45573],[116.49788,3.45581],[116.49777,3.45608],[116.49795,3.45616],[116.49817,3.45626],[116.49844,3.45639],[116.49854,3.45629],[116.4987,3.45637],[116.49882,3.45639],[116.49898,3.45641],[116.49942,3.45644],[116.49988,3.45689],[116.50108,3.45605],[116.50203,3.45505],[116.50265,3.4539],[116.50307,3.45352],[116.50421,3.45339],[116.50404,3.4527],[116.50374,3.45147],[116.5036,3.45128],[116.50323,3.45078],[116.50283,3.45056],[116.50241,3.45062],[116.50217,3.45082],[116.50203,3.45133],[116.50191,3.4521],[116.50161,3.45287],[116.5013,3.45335],[116.50067,3.45357],[116.50012,3.45344],[116.49982,3.45285],[116.49945,3.45237],[116.49885,3.4521],[116.49849,3.45171],[116.49813,3.45149],[116.49764,3.4513],[116.49756,3.45177],[116.49748,3.45241],[116.49741,3.45271],[116.49735,3.45295],[116.49722,3.45328],[116.49709,3.45348],[116.49669,3.45388],[116.49627,3.45428],[116.49617,3.45458],[116.49619,3.45493],[116.49623,3.45513]]]]},"properties":{"kdprov":"65","kdkab":"01","kdkec":"100","kddesa":"008","kdsls":"0001","idsls":"65011000080001","nmprov":"KALIMANTAN UTARA","nmkab":"MALINAU","nmkec":"MALINAU SELATAN HILIR","nmdesa":"SETULANG","nmsls":"RT 01"}},{"type":"Feature","geometry":{"type":"MultiPolygon","coordinates":[[[[116.49509,3.45813],[116.49516,3.45807],[116.49527,3.45787],[116.49541,3.45773],[116.49566,3.45761],[116.4961,3.45782],[116.49626,3.45747],[116.49654,3.45757],[116.49666,3.45763],[116.497,3.45786],[116.49754,3.45702],[116.49762,3.45686],[116.49795,3.45616],[116.49777,3.45608],[116.49741,3.45591],[116.49717,3.4564],[116.49711,3.45646],[116.49693,3.45639],[116.49681,3.45636],[116.49669,3.45632],[116.49652,3.45635],[116.49647,3.45625],[116.49632,3.45617],[116.49613,3.45629],[116.496,3.45602],[116.49603,3.45583],[116.49623,3.45513],[116.49619,3.45493],[116.49617,3.45458],[116.49627,3.45428],[116.49669,3.45388],[116.49709,3.45348],[116.49722,3.45328],[116.49735,3.45295],[116.49741,3.45271],[116.49748,3.45241],[116.49756,3.45177],[116.49764,3.4513],[116.49731,3.45126],[116.49684,3.45137],[116.49637,3.4518],[116.49602,3.45203],[116.4955,3.4524],[116.49524,3.45247],[116.49501,3.4526],[116.4949,3.45281],[116.49393,3.45253],[116.49291,3.45226],[116.4925,3.45261],[116.4923,3.45328],[116.49203,3.45708],[116.49234,3.4572],[116.49257,3.45761],[116.49276,3.45782],[116.49303,3.45792],[116.49337,3.45796],[116.4935,3.45824],[116.49358,3.45839],[116.49373,3.45849],[116.49391,3.45852],[116.49407,3.45846],[116.4942,3.45846],[116.49441,3.45847],[116.49462,3.45835],[116.4949,3.45824],[116.49509,3.45813]]]]},"properties":{"kdprov":"65","kdkab":"01","kdkec":"100","kddesa":"008","kdsls":"0006","idsls":"65011000080006","nmprov":"KALIMANTAN UTARA","nmkab":"MALINAU","nmkec":"MALINAU SELATAN HILIR","nmdesa":"SETULANG","nmsls":"RT 06"}},{"type":"Feature","geometry":{"type":"MultiPolygon","coordinates":[[[[116.57981,3.19956],[116.57978,3.19884],[116.57977,3.19872],[116.57969,3.19655],[116.57969,3.19648],[116.57962,3.19653],[116.57947,3.19664],[116.57921,3.19673],[116.57877,3.19673],[116.57842,3.19677],[116.57814,3.19686],[116.57796,3.19691],[116.57755,3.19707],[116.57732,3.19729],[116.57711,3.19757],[116.57714,3.1979],[116.57728,3.19813],[116.57737,3.19819],[116.57763,3.19836],[116.57788,3.19841],[116.57811,3.19846],[116.57842,3.19851],[116.57863,3.19856],[116.57891,3.19877],[116.5792,3.19903],[116.57921,3.19904],[116.57981,3.19956]]]]},"properties":{"kdprov":"65","kdkab":"01","kdkec":"100","kddesa":"002","kdsls":"0003","idsls":"65011000020003","nmprov":"KALIMANTAN UTARA","nmkab":"MALINAU","nmkec":"MALINAU SELATAN HILIR","nmdesa":"PUNAN GONG SOLOK","nmsls":"RT 03"}},{"type":"Feature","geometry":{"type":"MultiPolygon","coordinates":[[[[116.40523,3.42065],[116.40532,3.42153],[116.40532,3.42153],[116.40532,3.42153],[116.40739,3.42374],[116.40922,3.4242],[116.40998,3.42679],[116.41074,3.42923],[116.41196,3.43242],[116.41013,3.43456],[116.40834,3.43894],[116.40834,3.43894],[116.40694,3.44056],[116.40591,3.44227],[116.4042,3.44421],[116.4042,3.44604],[116.405,3.44741],[116.40637,3.4481],[116.40637,3.4481],[116.40888,3.4481],[116.40888,3.4481],[116.4098,3.44878],[116.4106,3.45038],[116.41236,3.45211],[116.41236,3.45211],[116.41277,3.45192],[116.41319,3.45152],[116.41348,3.45101],[116.41351,3.45038],[116.41376,3.44964],[116.41456,3.44952],[116.41528,3.44947],[116.41609,3.44926],[116.41616,3.44924],[116.41631,3.44921],[116.41691,3.44884],[116.4177,3.4483],[116.41825,3.44787],[116.41873,3.4475],[116.41956,3.4469],[116.42067,3.44573],[116.42107,3.44467],[116.42133,3.44396],[116.42176,3.44356],[116.42246,3.44306],[116.4236,3.44357],[116.4236,3.44357],[116.42483,3.44407],[116.42483,3.44407],[116.42643,3.4437],[116.42707,3.44284],[116.42876,3.44188],[116.43059,3.44192],[116.43228,3.44224],[116.4342,3.44169],[116.43529,3.4411],[116.4368,3.43932],[116.43845,3.43854],[116.44055,3.43799],[116.44109,3.43694],[116.44279,3.43521],[116.44466,3.43484],[116.44608,3.43425],[116.44905,3.43366],[116.45396,3.4334],[116.4564,3.43366],[116.46109,3.43541],[116.46109,3.43541],[116.46125,3.43882],[116.46299,3.43922],[116.46299,3.43922],[116.46368,3.44185],[116.46617,3.44493],[116.46994,3.44493],[116.47388,3.44512],[116.47388,3.44512],[116.47556,3.44606],[116.47556,3.44606],[116.47711,3.44692],[116.47818,3.44962],[116.47903,3.45133],[116.47997,3.45323],[116.48113,3.45498],[116.48205,3.45636],[116.48248,3.45701],[116.48259,3.45827],[116.48284,3.46134],[116.48268,3.46319],[116.48248,3.46548],[116.48319,3.46801],[116.48732,3.46945],[116.48732,3.46945],[116.49015,3.47028],[116.49211,3.47076],[116.49365,3.47114],[116.49682,3.4718],[116.49904,3.47171],[116.49921,3.4717],[116.50085,3.47164],[116.50082,3.47069],[116.50495,3.46777],[116.50334,3.46463],[116.50301,3.46398],[116.50277,3.46033],[116.50507,3.45836],[116.51418,3.45058],[116.51285,3.44643],[116.51661,3.43559],[116.51868,3.43254],[116.5161,3.42911],[116.51434,3.42676],[116.5131,3.4251],[116.51252,3.42473],[116.50866,3.42224],[116.50837,3.42205],[116.50678,3.42276],[116.50532,3.42342],[116.50234,3.42476],[116.50233,3.42479],[116.50061,3.42629],[116.4989,3.42674],[116.49559,3.42651],[116.49319,3.42502],[116.49216,3.42169],[116.49079,3.41905],[116.49034,3.4171],[116.4884,3.41538],[116.48189,3.41595],[116.48029,3.41663],[116.47789,3.41778],[116.47549,3.41916],[116.47286,3.42065],[116.47195,3.42111],[116.46955,3.42225],[116.46875,3.42225],[116.46829,3.42179],[116.46692,3.42018],[116.46578,3.41904],[116.46624,3.41789],[116.46533,3.4164],[116.46441,3.41502],[116.4651,3.41261],[116.46384,3.41077],[116.46362,3.40905],[116.46236,3.40744],[116.46122,3.40549],[116.46042,3.40354],[116.45928,3.40193],[116.45814,3.40021],[116.45745,3.39894],[116.45631,3.39757],[116.45609,3.39642],[116.45414,3.39516],[116.45197,3.39538],[116.45015,3.39653],[116.44878,3.39733],[116.44638,3.39905],[116.44535,3.39951],[116.44215,3.40089],[116.43929,3.40134],[116.43804,3.40146],[116.43587,3.40146],[116.43267,3.40123],[116.4289,3.40191],[116.42444,3.40363],[116.42056,3.4065],[116.41964,3.40755],[116.41896,3.40833],[116.41599,3.41166],[116.41444,3.41309],[116.41176,3.41556],[116.40902,3.41774],[116.40742,3.41912],[116.40523,3.42065]],[[116.49391,3.45852],[116.49373,3.45849],[116.49358,3.45839],[116.4935,3.45824],[116.49337,3.45796],[116.49303,3.45792],[116.49276,3.45782],[116.49257,3.45761],[116.49234,3.4572],[116.49203,3.45708],[116.4923,3.45328],[116.4925,3.45261],[116.49291,3.45226],[116.49393,3.45253],[116.4949,3.45281],[116.49501,3.4526],[116.49524,3.45247],[116.4955,3.4524],[116.49602,3.45203],[116.49637,3.4518],[116.49684,3.45137],[116.49731,3.45126],[116.49764,3.4513],[116.49813,3.45149],[116.49849,3.45171],[116.49885,3.4521],[116.49945,3.45237],[116.49982,3.45285],[116.50012,3.45344],[116.50067,3.45357],[116.5013,3.45335],[116.50161,3.45287],[116.50191,3.4521],[116.50203,3.45133],[116.50217,3.45082],[116.50241,3.45062],[116.50283,3.45056],[116.50323,3.45078],[116.5036,3.45128],[116.50374,3.45147],[116.50404,3.4527],[116.50421,3.45339],[116.50307,3.45352],[116.50265,3.4539],[116.50203,3.45505],[116.50108,3.45605],[116.49988,3.45689],[116.49761,3.45848],[116.49725,3.45873],[116.497,3.4589],[116.49675,3.45908],[116.49656,3.45925],[116.49543,3.46034],[116.49506,3.46009],[116.49446,3.45951],[116.4941,3.45886],[116.49391,3.45852]]]]},"properties":{"kdprov":"65","kdkab":"01","kdkec":"100","kddesa":"008","kdsls":"2001","idsls":"65011000082001","nmprov":"KALIMANTAN UTARA","nmkab":"MALINAU","nmkec":"MALINAU SELATAN HILIR","nmdesa":"SETULANG","nmsls":"HUTAN"}}]}