{"type":"FeatureCollection","features":[{"type":"Feature","geometry":{"type":"MultiPolygon","coordinates":[[[[116.38338,3.49952],[116.38339,3.49936],[116.38354,3.4993],[116.38357,3.49928],[116.38401,3.49945],[116.38424,3.49952],[116.38446,3.49961],[116.38453,3.49964],[116.38455,3.49971],[116.38486,3.49972],[116.38506,3.4997],[116.38409,3.49928],[116.38403,3.49923],[116.3835,3.49893],[116.38331,3.49883],[116.38331,3.4988],[116.38309,3.49878],[116.38259,3.49868],[116.38215,3.4986],[116.38184,3.49854],[116.38065,3.49837],[116.38058,3.49881],[116.38216,3.49915],[116.38261,3.49925],[116.38269,3.49959],[116.38315,3.49949],[116.38338,3.49952]]]]},"properties":{"kdprov":"65","kdkab":"01","kdkec":"110","kddesa":"001","kdsls":"0002","idsls":"65011100010002","nmprov":"KALIMANTAN UTARA","nmkab":"MALINAU","nmkec":"MENTARANG","nmdesa":"HARAPAN MAJU","nmsls":"RT 002"}},{"type":"Feature","geometry":{"type":"MultiPolygon","coordinates":[[[[116.52018,3.52639],[116.51982,3.5256],[116.51953,3.52489],[116.51948,3.5246],[116.51934,3.52393],[116.51921,3.52347],[116.51921,3.52348],[116.51918,3.52342],[116.51912,3.52334],[116.51907,3.52329],[116.51889,3.52321],[116.5187,3.52313],[116.51854,3.52304],[116.51843,3.52317],[116.51815,3.52308],[116.51789,3.52308],[116.51796,3.52374],[116.51742,3.52393],[116.51733,3.52454],[116.51698,3.52472],[116.51711,3.52497],[116.51731,3.5255],[116.5181,3.52508],[116.51817,3.5252],[116.51821,3.5253],[116.51856,3.52513],[116.51865,3.52527],[116.51872,3.52538],[116.51876,3.52544],[116.51885,3.52562],[116.51908,3.52607],[116.51944,3.52677],[116.52018,3.52639]]]]},"properties":{"kdprov":"65","kdkab":"01","kdkec":"110","kddesa":"009","kdsls":"0005","idsls":"65011100090005","nmprov":"KALIMANTAN UTARA","nmkab":"MALINAU","nmkec":"MENTARANG","nmdesa":"PULAU SAPI","nmsls":"RT 005"}},{"type":"Feature","geometry":{"type":"MultiPolygon","coordinates":[[[[116.38338,3.49952],[116.38349,3.49955],[116.38365,3.49959],[116.38382,3.49964],[116.38396,3.49968],[116.38428,3.49976],[116.38449,3.49982],[116.38449,3.49981],[116.38455,3.49971],[116.38453,3.49964],[116.38446,3.49961],[116.38424,3.49952],[116.38401,3.49945],[116.38357,3.49928],[116.38354,3.4993],[116.38339,3.49936],[116.38338,3.49952]]]]},"properties":{"kdprov":"65","kdkab":"01","kdkec":"110","kddesa":"001","kdsls":"0003","idsls":"65011100010003","nmprov":"KALIMANTAN UTARA","nmkab":"MALINAU","nmkec":"MENTARANG","nmdesa":"HARAPAN MAJU","nmsls":"RT 003"}},{"type":"Feature","geometry":{"type":"MultiPolygon","coordinates":[[[[116.38338,3.49952],[116.38315,3.49949],[116.38269,3.49959],[116.38295,3.50069],[116.38352,3.50038],[116.3839,3.50018],[116.38391,3.50018],[116.38425,3.50004],[116.38449,3.49982],[116.38428,3.49976],[116.38396,3.49968],[116.38382,3.49964],[116.38365,3.49959],[116.38349,3.49955],[116.38338,3.49952]]]]},"properties":{"kdprov":"65","kdkab":"01","kdkec":"110","kddesa":"001","kdsls":"0004","idsls":"65011100010004","nmprov":"KALIMANTAN UTARA","nmkab":"MALINAU","nmkec":"MENTARANG","nmdesa":"HARAPAN MAJU","nmsls":"RT 004"}},{"type":"Feature","geometry":{"type":"MultiPolygon","coordinates":[[[[116.49923,3.52891],[116.50007,3.52867],[116.5008,3.52848],[116.50068,3.52802],[116.50053,3.5274],[116.50035,3.52671],[116.49993,3.52625],[116.49936,3.52584],[116.49937,3.52535],[116.49936,3.52532],[116.49842,3.5252],[116.49762,3.52506],[116.4975,3.52473],[116.49719,3.52484],[116.49662,3.52521],[116.49641,3.52497],[116.4963,3.52485],[116.49612,3.52469],[116.49587,3.52449],[116.49554,3.52425],[116.49521,3.52405],[116.49475,3.52441],[116.49531,3.52495],[116.49597,3.52554],[116.49635,3.52607],[116.49656,3.52632],[116.49687,3.52645],[116.49706,3.52662],[116.49465,3.52941],[116.49517,3.53058],[116.49923,3.52891]]]]},"properties":{"kdprov":"65","kdkab":"01","kdkec":"110","kddesa":"005","kdsls":"0003","idsls":"65011100050003","nmprov":"KALIMANTAN UTARA","nmkab":"MALINAU","nmkec":"MENTARANG","nmdesa":"LONG BISAI","nmsls":"RT 03"}},{"type":"Feature","geometry":{"type":"MultiPolygon","coordinates":[[[[116.38683,3.49959],[116.38581,3.50065],[116.38567,3.50075],[116.38525,3.50112],[116.38569,3.50159],[116.38651,3.50234],[116.38711,3.50288],[116.38735,3.50268],[116.38793,3.50218],[116.38849,3.50171],[116.38683,3.49959]]]]},"properties":{"kdprov":"65","kdkab":"01","kdkec":"110","kddesa":"002","kdsls":"0001","idsls":"65011100020001","nmprov":"KALIMANTAN UTARA","nmkab":"MALINAU","nmkec":"MENTARANG","nmdesa":"PAKING","nmsls":"RT 001"}},{"type":"Feature","geometry":{"type":"MultiPolygon","coordinates":[[[[116.51623,3.51746],[116.51625,3.51699],[116.51615,3.51663],[116.51583,3.51601],[116.51519,3.51519],[116.51428,3.5162],[116.51379,3.51658],[116.51321,3.51703],[116.51375,3.51773],[116.51478,3.51702],[116.51509,3.51746],[116.51534,3.51731],[116.51549,3.51754],[116.51623,3.51746]]]]},"properties":{"kdprov":"65","kdkab":"01","kdkec":"110","kddesa":"008","kdsls":"0002","idsls":"65011100080002","nmprov":"KALIMANTAN UTARA","nmkab":"MALINAU","nmkec":"MENTARANG","nmdesa":"LIDUNG KEMENCI","nmsls":"RT 002"}},{"type":"Feature","geometry":{"type":"MultiPolygon","coordinates":[[[[116.38525,3.50112],[116.38567,3.50075],[116.38581,3.50065],[116.38683,3.49959],[116.38649,3.49916],[116.38611,3.49885],[116.38548,3.49949],[116.38506,3.4997],[116.38486,3.49972],[116.38455,3.49971],[116.38449,3.49981],[116.38449,3.49982],[116.38425,3.50004],[116.38391,3.50018],[116.3839,3.50018],[116.38428,3.50054],[116.3843,3.50051],[116.38509,3.50127],[116.38525,3.50112]]]]},"properties":{"kdprov":"65","kdkab":"01","kdkec":"110","kddesa":"002","kdsls":"0002","idsls":"65011100020002","nmprov":"KALIMANTAN UTARA","nmkab":"MALINAU","nmkec":"MENTARANG","nmdesa":"PAKING","nmsls":"RT 002"}},{"type":"Feature","geometry":{"type":"MultiPolygon","coordinates":[[[[116.51711,3.52497],[116.51698,3.52472],[116.51733,3.52454],[116.51742,3.52393],[116.51796,3.52374],[116.51789,3.52308],[116.51815,3.52308],[116.51843,3.52317],[116.51854,3.52304],[116.5187,3.52313],[116.51889,3.52321],[116.51907,3.52329],[116.51912,3.52334],[116.51918,3.52342],[116.51921,3.52348],[116.52098,3.52265],[116.5211,3.52247],[116.52027,3.52234],[116.51972,3.52225],[116.51927,3.52206],[116.51864,3.5216],[116.51778,3.52113],[116.51704,3.52076],[116.51548,3.52144],[116.51467,3.52171],[116.51456,3.5218],[116.51444,3.5219],[116.51417,3.52205],[116.51408,3.52217],[116.51379,3.52278],[116.51377,3.52288],[116.51374,3.52292],[116.51355,3.52308],[116.51393,3.52341],[116.51427,3.52375],[116.51433,3.52384],[116.51443,3.52387],[116.5145,3.52394],[116.51468,3.52398],[116.51485,3.52403],[116.5151,3.52402],[116.51521,3.52407],[116.51538,3.52427],[116.51559,3.5245],[116.51574,3.52459],[116.5159,3.52465],[116.51597,3.52472],[116.51601,3.52477],[116.51607,3.52481],[116.51606,3.52486],[116.51612,3.52493],[116.51621,3.52499],[116.51633,3.5251],[116.51638,3.52518],[116.5163,3.52525],[116.51636,3.52536],[116.51653,3.52528],[116.51711,3.52497]]]]},"properties":{"kdprov":"65","kdkab":"01","kdkec":"110","kddesa":"009","kdsls":"0006","idsls":"65011100090006","nmprov":"KALIMANTAN UTARA","nmkab":"MALINAU","nmkec":"MENTARANG","nmdesa":"PULAU SAPI","nmsls":"RT 006"}},{"type":"Feature","geometry":{"type":"MultiPolygon","coordinates":[[[[116.51921,3.52347],[116.51934,3.52393],[116.51948,3.5246],[116.51953,3.52489],[116.51982,3.5256],[116.52018,3.52639],[116.52088,3.52604],[116.52194,3.52535],[116.52302,3.52463],[116.52387,3.52408],[116.52438,3.52374],[116.52564,3.52287],[116.52555,3.52258],[116.52518,3.52219],[116.52461,3.52206],[116.52419,3.52196],[116.52308,3.52192],[116.52237,3.52206],[116.52173,3.52228],[116.5211,3.52247],[116.52098,3.52265],[116.51921,3.52347]]]]},"properties":{"kdprov":"65","kdkab":"01","kdkec":"110","kddesa":"009","kdsls":"0005","idsls":"65011100090005","nmprov":"KALIMANTAN UTARA","nmkab":"MALINAU","nmkec":"MENTARANG","nmdesa":"PULAU SAPI","nmsls":"RT 005"}},{"type":"Feature","geometry":{"type":"MultiPolygon","coordinates":[[[[116.51704,3.52076],[116.51778,3.52113],[116.51864,3.5216],[116.51927,3.52206],[116.51972,3.52225],[116.52027,3.52234],[116.5211,3.52247],[116.52173,3.52228],[116.52237,3.52206],[116.52308,3.52192],[116.52419,3.52196],[116.52461,3.52206],[116.52518,3.52219],[116.52555,3.52258],[116.52564,3.52287],[116.52598,3.52277],[116.52665,3.52258],[116.53144,3.5222],[116.53239,3.52209],[116.53534,3.52175],[116.53629,3.5216],[116.53724,3.52175],[116.53912,3.52229],[116.54034,3.52264],[116.54123,3.52288],[116.54187,3.52318],[116.54188,3.52318],[116.54191,3.52316],[116.54287,3.5224],[116.54363,3.52179],[116.54574,3.52012],[116.54861,3.5185],[116.55014,3.51663],[116.55317,3.51319],[116.55489,3.51129],[116.55489,3.51129],[116.55489,3.51129],[116.55467,3.50853],[116.55344,3.50535],[116.55278,3.50429],[116.55193,3.50309],[116.55014,3.50003],[116.55014,3.49696],[116.5514,3.4948],[116.55337,3.49318],[116.55642,3.49318],[116.55983,3.49318],[116.56198,3.49192],[116.56234,3.49113],[116.56288,3.48994],[116.56288,3.48994],[116.56189,3.48875],[116.55971,3.48716],[116.55765,3.48568],[116.55652,3.48444],[116.5558,3.48156],[116.55491,3.47795],[116.55353,3.47646],[116.55286,3.47572],[116.55276,3.47561],[116.54953,3.47453],[116.54699,3.47514],[116.54505,3.47561],[116.54309,3.47636],[116.54309,3.47636],[116.53895,3.47795],[116.5324,3.48002],[116.52809,3.4847],[116.52415,3.48848],[116.5211,3.49371],[116.51787,3.49947],[116.51571,3.50361],[116.51392,3.50578],[116.51158,3.50902],[116.50889,3.51154],[116.5072,3.51223],[116.5072,3.51361],[116.50797,3.51435],[116.5081,3.51447],[116.50875,3.5151],[116.50878,3.51513],[116.51099,3.51389],[116.51136,3.51381],[116.51197,3.51367],[116.51237,3.51358],[116.51387,3.5141],[116.51399,3.51414],[116.51427,3.51431],[116.51519,3.51519],[116.51583,3.51601],[116.51615,3.51663],[116.51625,3.51699],[116.51623,3.51746],[116.51625,3.51821],[116.51628,3.51897],[116.51635,3.51929],[116.51647,3.51963],[116.51703,3.52065],[116.51704,3.52076]]]]},"properties":{"kdprov":"65","kdkab":"01","kdkec":"110","kddesa":"008","kdsls":"1001","idsls":"65011100081001","nmprov":"KALIMANTAN UTARA","nmkab":"MALINAU","nmkec":"MENTARANG","nmdesa":"LIDUNG KEMENCI","nmsls":"LADANG"}},{"type":"Feature","geometry":{"type":"MultiPolygon","coordinates":[[[[116.51653,3.52528],[116.51636,3.52536],[116.5163,3.52525],[116.51638,3.52518],[116.51633,3.5251],[116.51621,3.52499],[116.51612,3.52493],[116.51606,3.52486],[116.51607,3.52481],[116.51601,3.52477],[116.51597,3.52472],[116.5159,3.52465],[116.51574,3.52459],[116.51559,3.5245],[116.51538,3.52427],[116.51521,3.52407],[116.5151,3.52402],[116.51485,3.52403],[116.51468,3.52398],[116.5145,3.52394],[116.51443,3.52387],[116.51433,3.52384],[116.51423,3.52401],[116.51419,3.52417],[116.51417,3.52432],[116.51412,3.52443],[116.51406,3.52452],[116.51379,3.52481],[116.51409,3.52524],[116.51456,3.52587],[116.5149,3.52636],[116.51501,3.52628],[116.51519,3.52658],[116.51537,3.52647],[116.51563,3.52629],[116.51589,3.52605],[116.51646,3.52568],[116.5165,3.52565],[116.5165,3.52563],[116.51666,3.52554],[116.51653,3.52528]]]]},"properties":{"kdprov":"65","kdkab":"01","kdkec":"110","kddesa":"009","kdsls":"0007","idsls":"65011100090007","nmprov":"KALIMANTAN UTARA","nmkab":"MALINAU","nmkec":"MENTARANG","nmdesa":"PULAU SAPI","nmsls":"RT 007"}},{"type":"Feature","geometry":{"type":"MultiPolygon","coordinates":[[[[116.50081,3.53134],[116.50031,3.5295],[116.50007,3.52867],[116.49923,3.52891],[116.49517,3.53058],[116.49554,3.53172],[116.49593,3.53226],[116.49742,3.53158],[116.49825,3.53143],[116.49951,3.53133],[116.50069,3.53137],[116.50081,3.53134]]]]},"properties":{"kdprov":"65","kdkab":"01","kdkec":"110","kddesa":"005","kdsls":"0002","idsls":"65011100050002","nmprov":"KALIMANTAN UTARA","nmkab":"MALINAU","nmkec":"MENTARANG","nmdesa":"LONG BISAI","nmsls":"RT 02"}},{"type":"Feature","geometry":{"type":"MultiPolygon","coordinates":[[[[116.50007,3.52867],[116.50031,3.5295],[116.50081,3.53134],[116.50197,3.53113],[116.50303,3.5309],[116.50497,3.53049],[116.50474,3.52953],[116.50432,3.52785],[116.50415,3.52785],[116.50409,3.52785],[116.504,3.52788],[116.50389,3.52791],[116.50381,3.52794],[116.50374,3.52798],[116.50328,3.52829],[116.50303,3.5285],[116.50285,3.52865],[116.50272,3.52876],[116.50243,3.52888],[116.5022,3.52812],[116.50113,3.52839],[116.50102,3.52842],[116.50088,3.52845],[116.5008,3.52848],[116.50007,3.52867]]]]},"properties":{"kdprov":"65","kdkab":"01","kdkec":"110","kddesa":"005","kdsls":"0001","idsls":"65011100050001","nmprov":"KALIMANTAN UTARA","nmkab":"MALINAU","nmkec":"MENTARANG","nmdesa":"LONG BISAI","nmsls":"RT 01"}},{"type":"Feature","geometry":{"type":"MultiPolygon","coordinates":[[[[116.50432,3.52785],[116.50474,3.52953],[116.50497,3.53049],[116.50704,3.53044],[116.5089,3.53027],[116.51073,3.53006],[116.51204,3.52987],[116.51289,3.52954],[116.51266,3.52911],[116.5124,3.52838],[116.51273,3.52804],[116.5129,3.52786],[116.51307,3.52778],[116.51317,3.52768],[116.51305,3.5273],[116.51301,3.52717],[116.51263,3.52719],[116.51196,3.52706],[116.51076,3.52714],[116.50906,3.52724],[116.50845,3.5273],[116.50798,3.5273],[116.50768,3.52717],[116.50741,3.52699],[116.50698,3.5269],[116.50426,3.52716],[116.50432,3.52784],[116.50432,3.52785]]]]},"properties":{"kdprov":"65","kdkab":"01","kdkec":"110","kddesa":"009","kdsls":"0009","idsls":"65011100090009","nmprov":"KALIMANTAN UTARA","nmkab":"MALINAU","nmkec":"MENTARANG","nmdesa":"PULAU SAPI","nmsls":"RT 009"}},{"type":"Feature","geometry":{"type":"MultiPolygon","coordinates":[[[[116.51321,3.51703],[116.51379,3.51658],[116.51428,3.5162],[116.51519,3.51519],[116.51427,3.51431],[116.51399,3.51414],[116.51387,3.5141],[116.51302,3.515],[116.51258,3.51549],[116.51202,3.51581],[116.51009,3.51691],[116.51012,3.51699],[116.5107,3.51817],[116.51098,3.51873],[116.51107,3.51878],[116.51186,3.51816],[116.51234,3.51776],[116.51303,3.51717],[116.51307,3.51714],[116.51321,3.51703]]]]},"properties":{"kdprov":"65","kdkab":"01","kdkec":"110","kddesa":"008","kdsls":"0003","idsls":"65011100080003","nmprov":"KALIMANTAN UTARA","nmkab":"MALINAU","nmkec":"MENTARANG","nmdesa":"LIDUNG KEMENCI","nmsls":"RT 003"}},{"type":"Feature","geometry":{"type":"MultiPolygon","coordinates":[[[[116.38569,3.50159],[116.38525,3.50112],[116.38509,3.50127],[116.3843,3.50051],[116.38428,3.50054],[116.3839,3.50018],[116.38352,3.50038],[116.38295,3.50069],[116.38308,3.50126],[116.38474,3.50254],[116.38505,3.50222],[116.38569,3.50159]]]]},"properties":{"kdprov":"65","kdkab":"01","kdkec":"110","kddesa":"002","kdsls":"0003","idsls":"65011100020003","nmprov":"KALIMANTAN UTARA","nmkab":"MALINAU","nmkec":"MENTARANG","nmdesa":"PAKING","nmsls":"RT 003"}},{"type":"Feature","geometry":{"type":"MultiPolygon","coordinates":[[[[116.51301,3.52717],[116.51305,3.5273],[116.51317,3.52768],[116.51325,3.52755],[116.5133,3.52748],[116.51338,3.52742],[116.51347,3.52739],[116.51356,3.52739],[116.51379,3.52729],[116.51381,3.52728],[116.5138,3.52725],[116.51395,3.52718],[116.51397,3.52721],[116.5141,3.52716],[116.51411,3.52716],[116.51412,3.52715],[116.51433,3.52703],[116.51432,3.52701],[116.51443,3.52698],[116.51444,3.52701],[116.51451,3.52697],[116.51454,3.52696],[116.51454,3.52698],[116.51464,3.52692],[116.51465,3.52687],[116.51477,3.52679],[116.51499,3.5267],[116.51509,3.52664],[116.51519,3.52658],[116.51501,3.52628],[116.5149,3.52636],[116.51456,3.52587],[116.51409,3.52524],[116.51292,3.52592],[116.51297,3.52604],[116.51328,3.52636],[116.51309,3.52641],[116.51282,3.52648],[116.5125,3.52657],[116.5123,3.5266],[116.51235,3.52676],[116.5125,3.52695],[116.51275,3.52707],[116.51301,3.52717]]]]},"properties":{"kdprov":"65","kdkab":"01","kdkec":"110","kddesa":"009","kdsls":"0008","idsls":"65011100090008","nmprov":"KALIMANTAN UTARA","nmkab":"MALINAU","nmkec":"MENTARANG","nmdesa":"PULAU SAPI","nmsls":"RT 008"}},{"type":"Feature","geometry":{"type":"MultiPolygon","coordinates":[[[[116.52522,3.52629],[116.52414,3.53046],[116.52647,3.53085],[116.52633,3.5304],[116.52627,3.53004],[116.52623,3.52954],[116.52625,3.5292],[116.52632,3.5289],[116.52638,3.52877],[116.52643,3.5287],[116.52652,3.52866],[116.52659,3.52863],[116.52665,3.52853],[116.52672,3.52828],[116.52679,3.52804],[116.52684,3.528],[116.52695,3.52754],[116.52708,3.52683],[116.52716,3.52682],[116.52724,3.52633],[116.52731,3.52634],[116.52759,3.526],[116.52769,3.52588],[116.52773,3.52584],[116.5278,3.5257],[116.5279,3.52548],[116.52784,3.5254],[116.52778,3.52532],[116.5277,3.52528],[116.52761,3.52529],[116.52748,3.52531],[116.52734,3.52536],[116.52723,3.52541],[116.52716,3.52545],[116.52705,3.52553],[116.52699,3.52556],[116.52693,3.52557],[116.52686,3.52557],[116.52682,3.52553],[116.52673,3.52553],[116.52665,3.52553],[116.52662,3.5256],[116.52657,3.52561],[116.52651,3.52562],[116.52648,3.52563],[116.52644,3.52567],[116.5264,3.52568],[116.52635,3.52568],[116.52631,3.52569],[116.52628,3.52574],[116.52621,3.52596],[116.52611,3.52632],[116.52576,3.52627],[116.52522,3.52629]]]]},"properties":{"kdprov":"65","kdkab":"01","kdkec":"110","kddesa":"004","kdsls":"0003","idsls":"65011100040003","nmprov":"KALIMANTAN UTARA","nmkab":"MALINAU","nmkec":"MENTARANG","nmdesa":"MENTARANG BARU","nmsls":"RT 003"}},{"type":"Feature","geometry":{"type":"MultiPolygon","coordinates":[[[[116.52414,3.53046],[116.52522,3.52629],[116.52414,3.5264],[116.52396,3.52588],[116.52294,3.52634],[116.52194,3.52535],[116.52088,3.52604],[116.51944,3.52677],[116.5181,3.52745],[116.51769,3.52762],[116.5161,3.52829],[116.51578,3.52842],[116.51492,3.52876],[116.51448,3.52893],[116.51429,3.52901],[116.51399,3.52913],[116.51291,3.52954],[116.51289,3.52954],[116.51204,3.52987],[116.51073,3.53006],[116.5089,3.53027],[116.50704,3.53044],[116.50497,3.53049],[116.50303,3.5309],[116.50197,3.53113],[116.50081,3.53134],[116.50069,3.53137],[116.49951,3.53133],[116.49825,3.53143],[116.49742,3.53158],[116.49593,3.53226],[116.49488,3.5329],[116.49378,3.5339],[116.49331,3.535],[116.49284,3.53633],[116.49307,3.5376],[116.49298,3.5388],[116.49288,3.53934],[116.49204,3.53967],[116.4911,3.54007],[116.4904,3.54024],[116.48887,3.54017],[116.48663,3.53974],[116.4837,3.539],[116.48034,3.53013],[116.48049,3.53019],[116.48065,3.52998],[116.48225,3.52517],[116.48523,3.52217],[116.48095,3.52038],[116.48,3.51972],[116.47645,3.51725],[116.47645,3.51725],[116.47092,3.51501],[116.46994,3.51461],[116.46544,3.51273],[116.46544,3.51273],[116.46191,3.51503],[116.46191,3.51503],[116.46001,3.51408],[116.45751,3.51229],[116.45525,3.51039],[116.45287,3.5092],[116.44894,3.50777],[116.4437,3.50567],[116.44294,3.505],[116.44215,3.5043],[116.44025,3.5023],[116.43778,3.50192],[116.43777,3.50192],[116.43599,3.50474],[116.43599,3.50474],[116.43387,3.50421],[116.4274,3.50392],[116.4274,3.50392],[116.42416,3.50306],[116.41976,3.50063],[116.41814,3.49925],[116.41762,3.49868],[116.41676,3.49635],[116.41666,3.4953],[116.41706,3.49407],[116.41095,3.49453],[116.41053,3.49456],[116.40272,3.50046],[116.40245,3.50189],[116.40196,3.50446],[116.39984,3.50883],[116.39873,3.51112],[116.39494,3.51642],[116.38731,3.52711],[116.37344,3.53244],[116.36246,3.53686],[116.3623,3.53677],[116.36218,3.53691],[116.35915,3.54149],[116.35784,3.5459],[116.35645,3.55059],[116.35497,3.55596],[116.35269,3.56195],[116.35056,3.56647],[116.3463,3.57763],[116.34407,3.58886],[116.34223,3.59563],[116.33651,3.60959],[116.33439,3.61652],[116.32925,3.62985],[116.3259,3.63765],[116.32484,3.63992],[116.32168,3.6434],[116.31709,3.64661],[116.31656,3.64693],[116.31686,3.64753],[116.31828,3.6486],[116.31959,3.64956],[116.3209,3.651],[116.3215,3.6522],[116.32221,3.65304],[116.3234,3.65495],[116.32412,3.65591],[116.32519,3.65782],[116.3253,3.6595],[116.3253,3.66142],[116.3253,3.66297],[116.32482,3.66405],[116.32399,3.66477],[116.32256,3.66572],[116.32137,3.66596],[116.32006,3.66692],[116.31827,3.66751],[116.31601,3.66763],[116.31482,3.66799],[116.3141,3.66859],[116.3135,3.66929],[116.31352,3.66958],[116.31311,3.67096],[116.31268,3.67242],[116.31226,3.67383],[116.31175,3.67534],[116.31121,3.67693],[116.31071,3.67842],[116.3098,3.67926],[116.30904,3.67996],[116.30793,3.68098],[116.30701,3.68184],[116.30701,3.68337],[116.30701,3.68444],[116.30701,3.68538],[116.3073,3.68561],[116.30794,3.68613],[116.30856,3.68663],[116.30848,3.68704],[116.3083,3.68794],[116.30803,3.68927],[116.30829,3.69068],[116.30845,3.6916],[116.30858,3.69199],[116.30891,3.693],[116.30921,3.69392],[116.30921,3.69392],[116.31015,3.69438],[116.31111,3.69486],[116.31135,3.69498],[116.31154,3.69508],[116.31189,3.69525],[116.3118,3.69568],[116.31147,3.69726],[116.31115,3.69883],[116.31116,3.69883],[116.31116,3.69883],[116.3113,3.69915],[116.3114,3.69937],[116.31174,3.7001],[116.31219,3.70111],[116.31253,3.70283],[116.31157,3.70353],[116.31051,3.70431],[116.31051,3.70501],[116.31051,3.70632],[116.31026,3.70771],[116.31006,3.70883],[116.31002,3.709],[116.30994,3.70947],[116.30979,3.71027],[116.30979,3.71151],[116.30979,3.7129],[116.30979,3.7129],[116.30992,3.71426],[116.31001,3.71524],[116.31099,3.71596],[116.31195,3.71668],[116.31196,3.71668],[116.31302,3.71712],[116.31374,3.71741],[116.3146,3.71771],[116.31546,3.71802],[116.31547,3.718],[116.31551,3.71797],[116.31552,3.71796],[116.31559,3.71789],[116.31563,3.71786],[116.31571,3.71779],[116.31619,3.71735],[116.31717,3.71646],[116.31722,3.71642],[116.31744,3.71608],[116.31744,3.71608],[116.31785,3.71545],[116.31958,3.71524],[116.32117,3.71387],[116.32253,3.71413],[116.3237,3.71402],[116.3243,3.71396],[116.32521,3.71316],[116.32521,3.71316],[116.32578,3.71279],[116.32624,3.71248],[116.32784,3.71214],[116.32834,3.71184],[116.32881,3.71156],[116.32936,3.7106],[116.32939,3.71055],[116.32944,3.71046],[116.32955,3.71025],[116.32958,3.7102],[116.33041,3.70882],[116.33098,3.70785],[116.33098,3.70784],[116.33123,3.70611],[116.3311,3.70443],[116.3311,3.70443],[116.33144,3.7034],[116.33224,3.70283],[116.33399,3.70254],[116.33595,3.70146],[116.33683,3.6996],[116.3379,3.6985],[116.33965,3.6967],[116.34178,3.69609],[116.34389,3.69558],[116.34532,3.69466],[116.34594,3.69369],[116.34617,3.69272],[116.34674,3.69124],[116.34731,3.69038],[116.34798,3.68879],[116.34817,3.68832],[116.34954,3.68849],[116.35103,3.68884],[116.35263,3.68826],[116.35348,3.68689],[116.3536,3.68564],[116.35365,3.68494],[116.35371,3.68415],[116.35502,3.6821],[116.35639,3.68044],[116.35742,3.67958],[116.35788,3.67816],[116.35798,3.67651],[116.35867,3.67532],[116.35942,3.67405],[116.36094,3.67166],[116.36094,3.67166],[116.36062,3.66959],[116.36062,3.66959],[116.36153,3.66776],[116.36206,3.66665],[116.36256,3.66559],[116.36526,3.66527],[116.36759,3.66616],[116.3717,3.66525],[116.37473,3.66545],[116.37615,3.66388],[116.37615,3.66388],[116.37593,3.66171],[116.3757,3.66011],[116.37547,3.65885],[116.37547,3.65885],[116.37558,3.65714],[116.37593,3.65543],[116.37672,3.65406],[116.37752,3.65246],[116.37763,3.65145],[116.37788,3.64891],[116.37931,3.64874],[116.38074,3.64806],[116.38165,3.64731],[116.38211,3.6464],[116.38222,3.64531],[116.38284,3.64414],[116.38302,3.6432],[116.38331,3.64235],[116.38433,3.6416],[116.3861,3.64052],[116.3861,3.64052],[116.38582,3.63893],[116.38502,3.63743],[116.38473,3.63658],[116.38473,3.63658],[116.38542,3.63544],[116.38653,3.63466],[116.3877,3.63389],[116.3878,3.63219],[116.38931,3.63106],[116.39067,3.63207],[116.39164,3.63218],[116.39324,3.63218],[116.39501,3.63212],[116.39604,3.63235],[116.39695,3.63367],[116.3985,3.63435],[116.39964,3.63452],[116.40175,3.63458],[116.40289,3.63538],[116.40426,3.63589],[116.40552,3.63646],[116.40729,3.63692],[116.40838,3.63612],[116.40906,3.63504],[116.40968,3.63361],[116.41117,3.63318],[116.41245,3.6328],[116.41397,3.63236],[116.41447,3.63105],[116.41443,3.6295],[116.41443,3.6295],[116.41449,3.62824],[116.41449,3.62824],[116.41506,3.62658],[116.41603,3.62573],[116.41803,3.62527],[116.41848,3.62419],[116.4186,3.62219],[116.41957,3.62036],[116.42043,3.61905],[116.42043,3.61905],[116.42037,3.61756],[116.41997,3.61608],[116.41962,3.61488],[116.41946,3.61431],[116.41946,3.61431],[116.4198,3.61322],[116.4198,3.61322],[116.4198,3.61214],[116.4198,3.61214],[116.42014,3.61111],[116.42117,3.60991],[116.42128,3.609],[116.42128,3.60899],[116.42077,3.6078],[116.42033,3.60678],[116.42033,3.60678],[116.42105,3.60563],[116.42277,3.60688],[116.42431,3.60751],[116.42619,3.607],[116.42734,3.60643],[116.42751,3.60534],[116.42751,3.60534],[116.42739,3.60437],[116.42739,3.60437],[116.42754,3.6029],[116.42814,3.60186],[116.42939,3.60094],[116.43019,3.6002],[116.43156,3.59991],[116.43288,3.6002],[116.43356,3.59969],[116.43447,3.59849],[116.43533,3.59769],[116.43687,3.59683],[116.43899,3.59769],[116.44053,3.59797],[116.44127,3.59889],[116.44156,3.60071],[116.44275,3.60146],[116.44367,3.60134],[116.44481,3.60043],[116.44664,3.59894],[116.44767,3.59958],[116.44938,3.6006],[116.45104,3.60031],[116.45292,3.59953],[116.45754,3.59949],[116.4608,3.60146],[116.46321,3.6017],[116.4649,3.60085],[116.46719,3.59748],[116.47093,3.5976],[116.4766,3.59917],[116.48111,3.59893],[116.48377,3.59904],[116.48682,3.59713],[116.49177,3.59529],[116.49308,3.59489],[116.49565,3.59386],[116.49668,3.59454],[116.49805,3.59563],[116.49948,3.597],[116.50118,3.59866],[116.50351,3.59884],[116.50394,3.59991],[116.50451,3.60065],[116.50576,3.59951],[116.5065,3.59786],[116.50736,3.59643],[116.50822,3.59523],[116.50953,3.59329],[116.51084,3.5922],[116.51334,3.59149],[116.51519,3.58992],[116.51661,3.58921],[116.51712,3.58896],[116.51881,3.58835],[116.5211,3.58775],[116.52332,3.58846],[116.5263,3.58647],[116.51669,3.57446],[116.51389,3.5684],[116.51355,3.56686],[116.51429,3.56453],[116.51616,3.56352],[116.52204,3.56059],[116.52672,3.55525],[116.52908,3.55088],[116.52926,3.54452],[116.52659,3.53951],[116.52414,3.53046]],[[116.45539,3.53108],[116.45641,3.53153],[116.46245,3.53356],[116.46275,3.53578],[116.46184,3.53589],[116.46088,3.53611],[116.45929,3.53641],[116.45799,3.53638],[116.45709,3.53605],[116.45637,3.53547],[116.45529,3.53453],[116.45469,3.53402],[116.45411,3.53374],[116.45469,3.53155],[116.45539,3.53108]]]]},"properties":{"kdprov":"65","kdkab":"01","kdkec":"110","kddesa":"009","kdsls":"2002","idsls":"65011100092002","nmprov":"KALIMANTAN UTARA","nmkab":"MALINAU","nmkec":"MENTARANG","nmdesa":"PULAU SAPI","nmsls":"HUTAN"}},{"type":"Feature","geometry":{"type":"MultiPolygon","coordinates":[[[[116.51355,3.52308],[116.51374,3.52292],[116.51377,3.52288],[116.51379,3.52278],[116.51408,3.52217],[116.51417,3.52205],[116.51444,3.5219],[116.51456,3.5218],[116.51455,3.52179],[116.51439,3.52166],[116.51107,3.51878],[116.51098,3.51873],[116.5107,3.51817],[116.51012,3.51699],[116.51009,3.51691],[116.50851,3.51689],[116.50843,3.51689],[116.50878,3.51765],[116.50743,3.51919],[116.50544,3.51992],[116.50472,3.52017],[116.50417,3.52036],[116.50373,3.52051],[116.50299,3.52034],[116.50273,3.52049],[116.50278,3.52057],[116.50281,3.52098],[116.50226,3.52172],[116.50212,3.5219],[116.5,3.5227],[116.49843,3.52329],[116.5009,3.52389],[116.50132,3.52399],[116.50289,3.52481],[116.50373,3.52525],[116.50411,3.52545],[116.50416,3.52606],[116.50423,3.52685],[116.50426,3.52716],[116.50698,3.5269],[116.50801,3.52624],[116.50892,3.52602],[116.50926,3.52562],[116.51129,3.52405],[116.51182,3.52389],[116.51237,3.52369],[116.51303,3.52332],[116.51355,3.52308]]]]},"properties":{"kdprov":"65","kdkab":"01","kdkec":"110","kddesa":"009","kdsls":"2001","idsls":"65011100092001","nmprov":"KALIMANTAN UTARA","nmkab":"MALINAU","nmkec":"MENTARANG","nmdesa":"PULAU SAPI","nmsls":"HUTAN"}},{"type":"Feature","geometry":{"type":"MultiPolygon","coordinates":[[[[116.38849,3.50171],[116.38793,3.50218],[116.38735,3.50268],[116.38711,3.50288],[116.38651,3.50234],[116.38569,3.50159],[116.38505,3.50222],[116.38474,3.50254],[116.38308,3.50126],[116.38295,3.50069],[116.38269,3.49959],[116.38261,3.49925],[116.38216,3.49915],[116.38058,3.49881],[116.38065,3.49837],[116.38069,3.49811],[116.38077,3.4976],[116.38084,3.49715],[116.38013,3.4964],[116.37963,3.49525],[116.37959,3.49507],[116.37919,3.49321],[116.37909,3.49255],[116.37902,3.49208],[116.37889,3.49119],[116.37806,3.49053],[116.37657,3.49083],[116.37574,3.49232],[116.37538,3.49416],[116.37574,3.49606],[116.37556,3.49779],[116.37383,3.49999],[116.37318,3.50207],[116.37348,3.50368],[116.37461,3.50594],[116.37508,3.50784],[116.37431,3.50945],[116.37276,3.51046],[116.3705,3.51052],[116.36818,3.51028],[116.36533,3.51022],[116.36237,3.51052],[116.36037,3.51001],[116.35885,3.50962],[116.35718,3.50848],[116.35608,3.50728],[116.35509,3.5062],[116.35414,3.50362],[116.35428,3.50336],[116.35428,3.50336],[116.35429,3.50336],[116.35557,3.50105],[116.35653,3.49883],[116.3573,3.49703],[116.35794,3.49556],[116.35773,3.49405],[116.35758,3.49292],[116.35675,3.4907],[116.35257,3.48638],[116.34947,3.48416],[116.34762,3.48332],[116.34321,3.48122],[116.33992,3.47888],[116.33992,3.47887],[116.33991,3.47887],[116.3371,3.47866],[116.33706,3.47865],[116.33168,3.47824],[116.32441,3.47833],[116.3193,3.47895],[116.31751,3.47917],[116.31271,3.4764],[116.3101,3.47359],[116.30646,3.4734],[116.30068,3.47152],[116.29943,3.47137],[116.29939,3.4719],[116.29773,3.47384],[116.29797,3.47539],[116.29813,3.47716],[116.2975,3.4787],[116.29634,3.47968],[116.29522,3.48064],[116.29522,3.48212],[116.29594,3.48338],[116.29693,3.48511],[116.29569,3.48782],[116.29526,3.48835],[116.29402,3.48989],[116.294,3.49151],[116.29387,3.49293],[116.2951,3.49412],[116.29522,3.49577],[116.29407,3.4972],[116.29323,3.4997],[116.29257,3.50235],[116.2915,3.50388],[116.29059,3.50451],[116.29025,3.50577],[116.29081,3.50844],[116.2911,3.51028],[116.29036,3.51216],[116.28928,3.5137],[116.28947,3.5158],[116.29023,3.51732],[116.28905,3.5195],[116.28829,3.5209],[116.28702,3.5219],[116.28547,3.52313],[116.28537,3.52557],[116.28395,3.52783],[116.28325,3.52823],[116.28195,3.52898],[116.2806,3.53047],[116.27885,3.53117],[116.2778,3.53218],[116.27747,3.5334],[116.27703,3.53503],[116.27632,3.53586],[116.27521,3.53715],[116.2752,3.53809],[116.27519,3.53936],[116.27464,3.54058],[116.27367,3.54185],[116.27371,3.54285],[116.27376,3.54404],[116.2734,3.54527],[116.273,3.54667],[116.27246,3.54773],[116.27186,3.54889],[116.27149,3.55008],[116.27091,3.55217],[116.27042,3.55407],[116.27012,3.55527],[116.26937,3.55598],[116.26847,3.55683],[116.2667,3.55693],[116.26652,3.55827],[116.2663,3.5599],[116.26658,3.56166],[116.2668,3.56306],[116.2666,3.56439],[116.26659,3.56444],[116.26636,3.56601],[116.26529,3.56748],[116.26509,3.56881],[116.26486,3.57041],[116.26477,3.5707],[116.26426,3.57241],[116.26512,3.57326],[116.26643,3.57454],[116.26625,3.577],[116.26648,3.57852],[116.26672,3.58011],[116.26646,3.582],[116.26552,3.58259],[116.26437,3.58276],[116.26493,3.5849],[116.26565,3.58699],[116.2658,3.58728],[116.26646,3.58855],[116.26475,3.59026],[116.26411,3.5918],[116.26323,3.59261],[116.26135,3.59291],[116.25964,3.59552],[116.25914,3.59613],[116.25807,3.59746],[116.25884,3.59993],[116.25739,3.60146],[116.25695,3.60329],[116.25549,3.60382],[116.25519,3.60416],[116.25452,3.60492],[116.25342,3.6062],[116.25175,3.60819],[116.25061,3.6093],[116.24913,3.61223],[116.24844,3.61287],[116.24734,3.6139],[116.24847,3.61538],[116.24936,3.61654],[116.24939,3.61745],[116.24943,3.61897],[116.25127,3.62037],[116.25162,3.62204],[116.25233,3.62389],[116.25236,3.62396],[116.25236,3.62397],[116.25365,3.62393],[116.25519,3.62297],[116.25724,3.62244],[116.25887,3.62221],[116.2604,3.62225],[116.2618,3.62087],[116.26432,3.62153],[116.26432,3.62153],[116.26538,3.62332],[116.2655,3.62482],[116.26557,3.62667],[116.26587,3.62714],[116.26685,3.62869],[116.2656,3.63101],[116.2656,3.63101],[116.26799,3.63202],[116.26799,3.63202],[116.2682,3.63403],[116.26835,3.63549],[116.26802,3.63656],[116.26797,3.63672],[116.26787,3.63705],[116.26775,3.63784],[116.26769,3.63826],[116.26769,3.6383],[116.26764,3.63863],[116.26758,3.639],[116.26972,3.63958],[116.27154,3.64006],[116.27367,3.63953],[116.2752,3.63953],[116.27748,3.63953],[116.27871,3.63999],[116.28026,3.64056],[116.28026,3.64056],[116.28026,3.64056],[116.28021,3.64158],[116.28019,3.64206],[116.28017,3.64242],[116.28016,3.64275],[116.28014,3.64305],[116.27986,3.6438],[116.27969,3.64426],[116.27923,3.64549],[116.27826,3.64669],[116.27664,3.64868],[116.27664,3.65072],[116.27664,3.6531],[116.27619,3.65523],[116.27619,3.65721],[116.2774,3.6595],[116.27817,3.66178],[116.27879,3.66338],[116.27964,3.66573],[116.28045,3.66818],[116.28273,3.66985],[116.28273,3.66985],[116.28379,3.66985],[116.28517,3.66985],[116.28517,3.66985],[116.28612,3.67123],[116.2868,3.67223],[116.28684,3.67228],[116.28685,3.67229],[116.288,3.6713],[116.28905,3.67038],[116.28992,3.66963],[116.28998,3.66879],[116.29005,3.66791],[116.29012,3.66697],[116.29162,3.66645],[116.29244,3.66565],[116.29305,3.66507],[116.29368,3.66514],[116.29482,3.66528],[116.29581,3.6654],[116.29662,3.66489],[116.29757,3.6643],[116.29899,3.66343],[116.30057,3.66245],[116.3021,3.66268],[116.30347,3.66288],[116.30347,3.66288],[116.30458,3.66366],[116.30541,3.66425],[116.30541,3.66425],[116.3066,3.66402],[116.30766,3.66381],[116.30895,3.66356],[116.30969,3.66397],[116.31107,3.66473],[116.31235,3.66544],[116.31329,3.66596],[116.31329,3.66596],[116.31335,3.66698],[116.31343,3.66824],[116.3135,3.66929],[116.3141,3.66859],[116.31482,3.66799],[116.31601,3.66763],[116.31827,3.66751],[116.32006,3.66692],[116.32137,3.66596],[116.32256,3.66572],[116.32399,3.66477],[116.32482,3.66405],[116.3253,3.66297],[116.3253,3.66142],[116.3253,3.6595],[116.32519,3.65782],[116.32412,3.65591],[116.3234,3.65495],[116.32221,3.65304],[116.3215,3.6522],[116.3209,3.651],[116.31959,3.64956],[116.31828,3.6486],[116.31686,3.64753],[116.31656,3.64693],[116.31709,3.64661],[116.32168,3.6434],[116.32484,3.63992],[116.3259,3.63765],[116.32925,3.62985],[116.33439,3.61652],[116.33651,3.60959],[116.34223,3.59563],[116.34407,3.58886],[116.3463,3.57763],[116.35056,3.56647],[116.35269,3.56195],[116.35497,3.55596],[116.35645,3.55059],[116.35784,3.5459],[116.35915,3.54149],[116.36218,3.53691],[116.3623,3.53677],[116.36246,3.53686],[116.37344,3.53244],[116.38731,3.52711],[116.39494,3.51642],[116.39873,3.51112],[116.39984,3.50883],[116.39776,3.50987],[116.39645,3.51035],[116.39527,3.51029],[116.39443,3.50952],[116.39348,3.50803],[116.39259,3.50636],[116.39164,3.50529],[116.39102,3.50476],[116.39057,3.50437],[116.38991,3.5038],[116.38849,3.50171]],[[116.35428,3.49337],[116.35312,3.49496],[116.3521,3.49714],[116.35033,3.49663],[116.35087,3.49521],[116.3514,3.49357],[116.35155,3.49283],[116.35163,3.49265],[116.35201,3.49164],[116.35221,3.49026],[116.35221,3.49024],[116.35411,3.49041],[116.35498,3.49149],[116.35428,3.49337]]]]},"properties":{"kdprov":"65","kdkab":"01","kdkec":"110","kddesa":"001","kdsls":"2001","idsls":"65011100012001","nmprov":"KALIMANTAN UTARA","nmkab":"MALINAU","nmkec":"MENTARANG","nmdesa":"HARAPAN MAJU","nmsls":"HUTAN"}},{"type":"Feature","geometry":{"type":"MultiPolygon","coordinates":[[[[116.54188,3.52318],[116.54187,3.52318],[116.54123,3.52288],[116.54034,3.52264],[116.53912,3.52229],[116.53724,3.52175],[116.53629,3.5216],[116.53534,3.52175],[116.53239,3.52209],[116.5323,3.52317],[116.53172,3.52526],[116.5307,3.52995],[116.53058,3.53297],[116.53006,3.53333],[116.52945,3.53334],[116.52888,3.532],[116.52791,3.53109],[116.52647,3.53085],[116.52414,3.53046],[116.52659,3.53951],[116.52926,3.54452],[116.52908,3.55088],[116.52672,3.55525],[116.52204,3.56059],[116.51616,3.56352],[116.51429,3.56453],[116.51355,3.56686],[116.51389,3.5684],[116.51669,3.57446],[116.5263,3.58647],[116.52799,3.58396],[116.52901,3.58243],[116.52932,3.58195],[116.5294,3.58184],[116.52942,3.5818],[116.53068,3.58001],[116.53336,3.57947],[116.53533,3.57927],[116.53538,3.57927],[116.53849,3.57912],[116.53854,3.57911],[116.54032,3.57858],[116.54041,3.57851],[116.5418,3.57744],[116.54186,3.57739],[116.54186,3.57739],[116.54165,3.57342],[116.54165,3.5734],[116.54164,3.57336],[116.54159,3.5729],[116.54159,3.57286],[116.54159,3.57283],[116.54137,3.57084],[116.54136,3.57071],[116.54111,3.56766],[116.54111,3.56759],[116.54102,3.5652],[116.54089,3.56135],[116.54076,3.55763],[116.54076,3.55748],[116.54071,3.55315],[116.5407,3.55289],[116.5407,3.54879],[116.54071,3.5448],[116.54062,3.54132],[116.54053,3.53741],[116.54028,3.53591],[116.53985,3.53337],[116.53942,3.53083],[116.5391,3.52894],[116.5391,3.52894],[116.54001,3.52685],[116.54025,3.52629],[116.54033,3.52609],[116.5404,3.52592],[116.54118,3.52412],[116.54119,3.52412],[116.54119,3.52411],[116.54122,3.52403],[116.5413,3.52386],[116.54143,3.52354],[116.54188,3.52319],[116.54188,3.52318]]]]},"properties":{"kdprov":"65","kdkab":"01","kdkec":"110","kddesa":"004","kdsls":"1001","idsls":"65011100041001","nmprov":"KALIMANTAN UTARA","nmkab":"MALINAU","nmkec":"MENTARANG","nmdesa":"MENTARANG BARU","nmsls":"LADANG"}},{"type":"Feature","geometry":{"type":"MultiPolygon","coordinates":[[[[116.51456,3.5218],[116.51467,3.52171],[116.51548,3.52144],[116.51704,3.52076],[116.51703,3.52065],[116.51647,3.51963],[116.51635,3.51929],[116.51628,3.51897],[116.51625,3.51821],[116.51623,3.51746],[116.51549,3.51754],[116.51534,3.51731],[116.51509,3.51746],[116.51478,3.51702],[116.51375,3.51773],[116.51321,3.51703],[116.51307,3.51714],[116.51303,3.51717],[116.51234,3.51776],[116.51186,3.51816],[116.51107,3.51878],[116.51439,3.52166],[116.51455,3.52179],[116.51456,3.5218]]]]},"properties":{"kdprov":"65","kdkab":"01","kdkec":"110","kddesa":"008","kdsls":"0001","idsls":"65011100080001","nmprov":"KALIMANTAN UTARA","nmkab":"MALINAU","nmkec":"MENTARANG","nmdesa":"LIDUNG KEMENCI","nmsls":"RT 001"}},{"type":"Feature","geometry":{"type":"MultiPolygon","coordinates":[[[[116.51509,3.52664],[116.51499,3.5267],[116.51477,3.52679],[116.51465,3.52687],[116.51464,3.52692],[116.51454,3.52698],[116.51454,3.52696],[116.51451,3.52697],[116.51444,3.52701],[116.51443,3.52698],[116.51432,3.52701],[116.51433,3.52703],[116.51412,3.52715],[116.51411,3.52716],[116.51416,3.52725],[116.51422,3.5274],[116.51428,3.52749],[116.51444,3.52782],[116.51456,3.52805],[116.51467,3.52827],[116.51492,3.52876],[116.51578,3.52842],[116.5161,3.52829],[116.51576,3.52771],[116.51564,3.52749],[116.51561,3.52742],[116.51562,3.52737],[116.51567,3.52734],[116.51562,3.52725],[116.51554,3.52716],[116.51549,3.52708],[116.51544,3.52697],[116.5154,3.52691],[116.51536,3.52686],[116.51533,3.52677],[116.51528,3.52668],[116.51515,3.52674],[116.51509,3.52664]]]]},"properties":{"kdprov":"65","kdkab":"01","kdkec":"110","kddesa":"009","kdsls":"0002","idsls":"65011100090002","nmprov":"KALIMANTAN UTARA","nmkab":"MALINAU","nmkec":"MENTARANG","nmdesa":"PULAU SAPI","nmsls":"RT 002"}},{"type":"Feature","geometry":{"type":"MultiPolygon","coordinates":[[[[116.51492,3.52876],[116.51467,3.52827],[116.51456,3.52805],[116.51444,3.52782],[116.51428,3.52749],[116.51422,3.5274],[116.51416,3.52725],[116.51411,3.52716],[116.5141,3.52716],[116.51397,3.52721],[116.51395,3.52718],[116.5138,3.52725],[116.51381,3.52728],[116.51379,3.52729],[116.51356,3.52739],[116.51347,3.52739],[116.51338,3.52742],[116.5133,3.52748],[116.51325,3.52755],[116.51317,3.52768],[116.51307,3.52778],[116.5129,3.52786],[116.51273,3.52804],[116.5124,3.52838],[116.51266,3.52911],[116.51289,3.52954],[116.51291,3.52954],[116.51399,3.52913],[116.51429,3.52901],[116.51448,3.52893],[116.51492,3.52876]]]]},"properties":{"kdprov":"65","kdkab":"01","kdkec":"110","kddesa":"009","kdsls":"0001","idsls":"65011100090001","nmprov":"KALIMANTAN UTARA","nmkab":"MALINAU","nmkec":"MENTARANG","nmdesa":"PULAU SAPI","nmsls":"RT 001"}},{"type":"Feature","geometry":{"type":"MultiPolygon","coordinates":[[[[116.51355,3.52308],[116.51303,3.52332],[116.51237,3.52369],[116.51182,3.52389],[116.51129,3.52405],[116.50926,3.52562],[116.50892,3.52602],[116.50801,3.52624],[116.50698,3.5269],[116.50741,3.52699],[116.50768,3.52717],[116.50798,3.5273],[116.50845,3.5273],[116.50906,3.52724],[116.51076,3.52714],[116.51196,3.52706],[116.51263,3.52719],[116.51301,3.52717],[116.51275,3.52707],[116.5125,3.52695],[116.51235,3.52676],[116.5123,3.5266],[116.5125,3.52657],[116.51282,3.52648],[116.51309,3.52641],[116.51328,3.52636],[116.51297,3.52604],[116.51292,3.52592],[116.51409,3.52524],[116.51379,3.52481],[116.51406,3.52452],[116.51412,3.52443],[116.51417,3.52432],[116.51419,3.52417],[116.51423,3.52401],[116.51433,3.52384],[116.51427,3.52375],[116.51393,3.52341],[116.51355,3.52308]]]]},"properties":{"kdprov":"65","kdkab":"01","kdkec":"110","kddesa":"009","kdsls":"0010","idsls":"65011100090010","nmprov":"KALIMANTAN UTARA","nmkab":"MALINAU","nmkec":"MENTARANG","nmdesa":"PULAU SAPI","nmsls":"RT 010"}},{"type":"Feature","geometry":{"type":"MultiPolygon","coordinates":[[[[116.52647,3.53085],[116.52791,3.53109],[116.52888,3.532],[116.52945,3.53334],[116.53006,3.53333],[116.53058,3.53297],[116.5307,3.52995],[116.52815,3.52789],[116.52785,3.52765],[116.5277,3.52757],[116.52768,3.52748],[116.52768,3.52741],[116.52775,3.52735],[116.52781,3.52731],[116.52787,3.52723],[116.52787,3.52716],[116.52778,3.52706],[116.52774,3.52702],[116.52773,3.52694],[116.52775,3.52689],[116.52782,3.52686],[116.52785,3.52682],[116.52787,3.52678],[116.52785,3.52673],[116.52783,3.52671],[116.5278,3.52669],[116.52778,3.5266],[116.52779,3.52656],[116.5278,3.52652],[116.52779,3.52649],[116.52766,3.52634],[116.52763,3.52628],[116.52766,3.52625],[116.52769,3.52618],[116.52773,3.52605],[116.52769,3.52588],[116.52759,3.526],[116.52731,3.52634],[116.52724,3.52633],[116.52716,3.52682],[116.52708,3.52683],[116.52695,3.52754],[116.52684,3.528],[116.52679,3.52804],[116.52672,3.52828],[116.52665,3.52853],[116.52659,3.52863],[116.52652,3.52866],[116.52643,3.5287],[116.52638,3.52877],[116.52632,3.5289],[116.52625,3.5292],[116.52623,3.52954],[116.52627,3.53004],[116.52633,3.5304],[116.52647,3.53085]]]]},"properties":{"kdprov":"65","kdkab":"01","kdkec":"110","kddesa":"004","kdsls":"0004","idsls":"65011100040004","nmprov":"KALIMANTAN UTARA","nmkab":"MALINAU","nmkec":"MENTARANG","nmdesa":"MENTARANG BARU","nmsls":"RT 004"}},{"type":"Feature","geometry":{"type":"MultiPolygon","coordinates":[[[[116.38065,3.49837],[116.38184,3.49854],[116.38215,3.4986],[116.38259,3.49868],[116.38309,3.49878],[116.38331,3.4988],[116.38331,3.49883],[116.3835,3.49893],[116.38403,3.49923],[116.38409,3.49928],[116.38506,3.4997],[116.38548,3.49949],[116.38611,3.49885],[116.38599,3.49876],[116.38587,3.49865],[116.38568,3.49851],[116.38553,3.49839],[116.38553,3.49838],[116.38538,3.49826],[116.38425,3.49766],[116.38271,3.49748],[116.38248,3.49744],[116.38084,3.49715],[116.38077,3.4976],[116.38069,3.49811],[116.38065,3.49837]]]]},"properties":{"kdprov":"65","kdkab":"01","kdkec":"110","kddesa":"001","kdsls":"0001","idsls":"65011100010001","nmprov":"KALIMANTAN UTARA","nmkab":"MALINAU","nmkec":"MENTARANG","nmdesa":"HARAPAN MAJU","nmsls":"RT 001"}},{"type":"Feature","geometry":{"type":"MultiPolygon","coordinates":[[[[116.29942,3.47137],[116.29943,3.47137],[116.30068,3.47152],[116.30646,3.4734],[116.3101,3.47359],[116.31271,3.4764],[116.31751,3.47917],[116.3193,3.47895],[116.32441,3.47833],[116.33168,3.47824],[116.33706,3.47865],[116.3371,3.47866],[116.33991,3.47887],[116.33992,3.47887],[116.33992,3.47888],[116.34321,3.48122],[116.34762,3.48332],[116.34947,3.48416],[116.35257,3.48638],[116.35675,3.4907],[116.35758,3.49292],[116.35773,3.49405],[116.35794,3.49556],[116.3573,3.49703],[116.35653,3.49883],[116.35557,3.50105],[116.35429,3.50336],[116.35428,3.50336],[116.35428,3.50336],[116.35414,3.50362],[116.35509,3.5062],[116.35608,3.50728],[116.35718,3.50848],[116.35885,3.50962],[116.36037,3.51001],[116.36237,3.51052],[116.36533,3.51022],[116.36818,3.51028],[116.3705,3.51052],[116.37276,3.51046],[116.37431,3.50945],[116.37508,3.50784],[116.37461,3.50594],[116.37348,3.50368],[116.37318,3.50207],[116.37383,3.49999],[116.37556,3.49779],[116.37574,3.49606],[116.37538,3.49416],[116.37574,3.49232],[116.37657,3.49083],[116.37806,3.49053],[116.37889,3.49119],[116.37902,3.49208],[116.37909,3.49255],[116.37919,3.49321],[116.37959,3.49507],[116.37963,3.49525],[116.38013,3.4964],[116.38084,3.49715],[116.38248,3.49744],[116.38271,3.49748],[116.38425,3.49766],[116.38538,3.49826],[116.38553,3.49838],[116.38553,3.49839],[116.38568,3.49851],[116.38587,3.49865],[116.38599,3.49876],[116.38611,3.49885],[116.38649,3.49916],[116.38683,3.49959],[116.38849,3.50171],[116.38991,3.5038],[116.39057,3.50437],[116.39102,3.50476],[116.39164,3.50529],[116.39259,3.50636],[116.39348,3.50803],[116.39443,3.50952],[116.39527,3.51029],[116.39645,3.51035],[116.39776,3.50987],[116.39984,3.50883],[116.40196,3.50446],[116.40245,3.50189],[116.40272,3.50046],[116.41053,3.49456],[116.41095,3.49453],[116.41706,3.49407],[116.41895,3.49317],[116.41981,3.49174],[116.42038,3.48984],[116.41981,3.48813],[116.41952,3.48584],[116.418,3.48451],[116.4179,3.48289],[116.41714,3.4808],[116.41524,3.48013],[116.41524,3.48013],[116.41343,3.48051],[116.4118,3.48023],[116.40957,3.47907],[116.40949,3.47686],[116.40981,3.47475],[116.40995,3.47389],[116.40995,3.47389],[116.40922,3.47194],[116.40844,3.46984],[116.40831,3.46949],[116.4075,3.46696],[116.4067,3.46445],[116.40727,3.46274],[116.40584,3.4614],[116.40584,3.4595],[116.40675,3.45835],[116.40736,3.45744],[116.40782,3.4566],[116.40939,3.45598],[116.41129,3.4535],[116.41236,3.45211],[116.4106,3.45038],[116.4098,3.44878],[116.40888,3.4481],[116.40888,3.4481],[116.40637,3.4481],[116.40637,3.4481],[116.405,3.44741],[116.4042,3.44604],[116.4042,3.44421],[116.40591,3.44227],[116.40694,3.44056],[116.40834,3.43894],[116.40834,3.43894],[116.41013,3.43456],[116.41196,3.43242],[116.41074,3.42923],[116.40998,3.42679],[116.40922,3.4242],[116.40739,3.42374],[116.40532,3.42153],[116.40532,3.42153],[116.40532,3.42153],[116.40523,3.42065],[116.40478,3.41632],[116.40478,3.41632],[116.40354,3.41291],[116.40354,3.41291],[116.4043,3.40993],[116.4047,3.40834],[116.40524,3.40187],[116.40506,3.39451],[116.40364,3.3911],[116.40114,3.38841],[116.39978,3.38654],[116.39721,3.38302],[116.39677,3.38206],[116.39525,3.37871],[116.39097,3.37476],[116.38775,3.37134],[116.38503,3.36845],[116.38142,3.36461],[116.38017,3.36066],[116.37856,3.35599],[116.37714,3.35258],[116.37464,3.3497],[116.37196,3.34827],[116.37035,3.34741],[116.36892,3.34665],[116.36535,3.34665],[116.36017,3.34646],[116.35499,3.34574],[116.3491,3.34448],[116.34499,3.34268],[116.34106,3.34035],[116.33767,3.33693],[116.33428,3.33173],[116.33268,3.32634],[116.33196,3.32347],[116.33116,3.31781],[116.33188,3.31171],[116.33278,3.30543],[116.33421,3.30004],[116.33582,3.2934],[116.33637,3.28712],[116.33744,3.28335],[116.33932,3.27698],[116.34022,3.2698],[116.34183,3.26405],[116.34219,3.25831],[116.34273,3.25292],[116.34398,3.2488],[116.34463,3.24703],[116.34523,3.24539],[116.34345,3.24179],[116.34077,3.23856],[116.33845,3.23712],[116.33193,3.23559],[116.32533,3.23362],[116.31997,3.23002],[116.31587,3.22661],[116.31265,3.22302],[116.31148,3.22103],[116.30562,3.22437],[116.30314,3.2306],[116.29658,3.2411],[116.28064,3.24963],[116.25701,3.24418],[116.24373,3.24399],[116.23487,3.24808],[116.22584,3.25039],[116.21592,3.25696],[116.20989,3.26621],[116.2067,3.27262],[116.2028,3.2776],[116.19465,3.27955],[116.18951,3.28186],[116.1849,3.28951],[116.18118,3.29698],[116.1693,3.31263],[116.16699,3.31904],[116.16653,3.3209],[116.16678,3.3224],[116.16734,3.32435],[116.16858,3.32723],[116.16983,3.32978],[116.17102,3.33215],[116.17273,3.33712],[116.17439,3.34386],[116.17717,3.35451],[116.17988,3.36117],[116.18124,3.36623],[116.178,3.37044],[116.17533,3.37738],[116.17343,3.3823],[116.17084,3.38382],[116.1697,3.38616],[116.16184,3.39126],[116.16036,3.39646],[116.16139,3.39976],[116.16451,3.40428],[116.16769,3.40693],[116.17141,3.41004],[116.17899,3.40971],[116.1844,3.41085],[116.18756,3.41229],[116.18915,3.41302],[116.18921,3.41298],[116.18974,3.41253],[116.19006,3.41228],[116.19017,3.41219],[116.19017,3.41219],[116.19058,3.41186],[116.19058,3.41186],[116.19102,3.41181],[116.19178,3.41171],[116.19238,3.41102],[116.19274,3.41068],[116.19274,3.41068],[116.1933,3.41022],[116.1933,3.41022],[116.19352,3.4098],[116.19379,3.40934],[116.19407,3.40896],[116.19445,3.4085],[116.19487,3.40813],[116.19573,3.40799],[116.19573,3.40799],[116.19617,3.40787],[116.19617,3.40787],[116.19691,3.40767],[116.19691,3.40767],[116.19787,3.40693],[116.19787,3.40693],[116.19835,3.40652],[116.19835,3.40652],[116.19884,3.40609],[116.19918,3.40598],[116.19918,3.40598],[116.20002,3.4057],[116.20002,3.4057],[116.20066,3.40595],[116.20121,3.40651],[116.20162,3.40692],[116.20227,3.40757],[116.2032,3.40767],[116.20352,3.40741],[116.20352,3.40741],[116.20395,3.40707],[116.20395,3.40707],[116.20438,3.40672],[116.20438,3.40672],[116.20503,3.40608],[116.20538,3.40574],[116.20631,3.40527],[116.20759,3.40513],[116.2087,3.40535],[116.20985,3.40512],[116.20985,3.40512],[116.21068,3.40481],[116.21068,3.40481],[116.21137,3.40443],[116.21137,3.40443],[116.21199,3.40409],[116.21199,3.40409],[116.21284,3.40409],[116.21347,3.40388],[116.21347,3.40388],[116.21445,3.40384],[116.2152,3.40352],[116.2152,3.40352],[116.21572,3.40275],[116.21602,3.40236],[116.21642,3.40183],[116.21721,3.40112],[116.21821,3.40058],[116.21821,3.40058],[116.2192,3.39993],[116.2192,3.39993],[116.22047,3.39906],[116.22047,3.39906],[116.22167,3.39789],[116.22221,3.39714],[116.22318,3.39649],[116.22318,3.39649],[116.22468,3.39624],[116.22575,3.39631],[116.22638,3.39649],[116.22694,3.39668],[116.22769,3.39697],[116.22878,3.39736],[116.22968,3.39746],[116.22968,3.39746],[116.23011,3.39642],[116.23061,3.39595],[116.23121,3.39535],[116.23193,3.39474],[116.23282,3.39432],[116.23282,3.39432],[116.23372,3.39391],[116.23372,3.39391],[116.23447,3.39438],[116.23507,3.39521],[116.23557,3.39557],[116.23675,3.39536],[116.23799,3.39526],[116.23865,3.39539],[116.23928,3.39572],[116.24065,3.39627],[116.24153,3.39642],[116.24281,3.39663],[116.24382,3.39712],[116.24482,3.39755],[116.24582,3.39773],[116.24725,3.39751],[116.24725,3.39751],[116.2481,3.39659],[116.24872,3.39604],[116.24872,3.39604],[116.24972,3.3959],[116.25047,3.39612],[116.25147,3.39561],[116.25147,3.39561],[116.25247,3.39544],[116.25341,3.39579],[116.25388,3.39605],[116.25547,3.39583],[116.2559,3.39605],[116.25662,3.39605],[116.25711,3.39706],[116.2576,3.39744],[116.25838,3.39817],[116.25947,3.3994],[116.25972,3.40025],[116.26054,3.40094],[116.26251,3.40137],[116.26344,3.40171],[116.26496,3.40315],[116.26706,3.40479],[116.26953,3.40671],[116.27166,3.4076],[116.27263,3.40832],[116.27454,3.40977],[116.27518,3.4103],[116.27593,3.41063],[116.27659,3.41136],[116.27753,3.41199],[116.27883,3.41271],[116.27977,3.41314],[116.28056,3.41366],[116.28112,3.41428],[116.28193,3.41514],[116.28249,3.41533],[116.28345,3.41576],[116.28376,3.41644],[116.28393,3.41704],[116.28431,3.41744],[116.28465,3.41818],[116.28512,3.41897],[116.28581,3.41979],[116.28657,3.42058],[116.28765,3.42138],[116.28843,3.42237],[116.29159,3.4273],[116.29276,3.42904],[116.29321,3.42992],[116.29367,3.43083],[116.29411,3.43141],[116.29469,3.43234],[116.29525,3.43356],[116.29605,3.43486],[116.2972,3.43644],[116.29727,3.43745],[116.29741,3.43836],[116.29797,3.43914],[116.29875,3.43983],[116.29938,3.4403],[116.29964,3.4407],[116.29993,3.4417],[116.30014,3.44231],[116.30108,3.44351],[116.30159,3.44452],[116.30224,3.44543],[116.30271,3.4462],[116.30281,3.4469],[116.30274,3.44801],[116.30318,3.44999],[116.30269,3.45085],[116.30207,3.45128],[116.30107,3.4518],[116.30088,3.45261],[116.30078,3.45351],[116.30055,3.45475],[116.29983,3.45751],[116.30002,3.4598],[116.29955,3.46194],[116.29936,3.46346],[116.29945,3.46498],[116.29959,3.46627],[116.29945,3.46817],[116.29955,3.4687],[116.29956,3.46977],[116.29942,3.47137]],[[116.37949,3.46354],[116.3795,3.46354],[116.38085,3.46162],[116.3819,3.46151],[116.38299,3.4624],[116.38313,3.46317],[116.38326,3.46383],[116.38324,3.46427],[116.38321,3.46548],[116.38146,3.46592],[116.37946,3.46623],[116.37946,3.46623],[116.37947,3.46524],[116.37948,3.46435],[116.37949,3.46354]]]]},"properties":{"kdprov":"65","kdkab":"01","kdkec":"110","kddesa":"002","kdsls":"2001","idsls":"65011100022001","nmprov":"KALIMANTAN UTARA","nmkab":"MALINAU","nmkec":"MENTARANG","nmdesa":"PAKING","nmsls":"HUTAN"}},{"type":"Feature","geometry":{"type":"MultiPolygon","coordinates":[[[[116.51944,3.52677],[116.51908,3.52607],[116.51885,3.52562],[116.51876,3.52544],[116.51872,3.52538],[116.51865,3.52527],[116.51856,3.52513],[116.51821,3.5253],[116.51817,3.5252],[116.5181,3.52508],[116.51731,3.5255],[116.51711,3.52497],[116.51653,3.52528],[116.51666,3.52554],[116.51684,3.52596],[116.51696,3.52622],[116.51701,3.5262],[116.51713,3.52645],[116.51727,3.52675],[116.51734,3.52691],[116.51769,3.52762],[116.5181,3.52745],[116.51944,3.52677]]]]},"properties":{"kdprov":"65","kdkab":"01","kdkec":"110","kddesa":"009","kdsls":"0004","idsls":"65011100090004","nmprov":"KALIMANTAN UTARA","nmkab":"MALINAU","nmkec":"MENTARANG","nmdesa":"PULAU SAPI","nmsls":"RT 004"}},{"type":"Feature","geometry":{"type":"MultiPolygon","coordinates":[[[[116.53172,3.52526],[116.5323,3.52317],[116.53239,3.52209],[116.53144,3.5222],[116.52665,3.52258],[116.52598,3.52277],[116.52623,3.52384],[116.52616,3.52466],[116.52602,3.52507],[116.52593,3.52506],[116.5259,3.52517],[116.52582,3.52516],[116.52576,3.52531],[116.52585,3.52535],[116.52571,3.52579],[116.52593,3.52586],[116.52592,3.52588],[116.52576,3.52627],[116.52611,3.52632],[116.52621,3.52596],[116.52628,3.52574],[116.52631,3.52569],[116.52635,3.52568],[116.5264,3.52568],[116.52644,3.52567],[116.52648,3.52563],[116.52651,3.52562],[116.52657,3.52561],[116.52662,3.5256],[116.52665,3.52553],[116.52673,3.52553],[116.52682,3.52553],[116.52686,3.52557],[116.52693,3.52557],[116.52699,3.52556],[116.52705,3.52553],[116.52716,3.52545],[116.52723,3.52541],[116.52734,3.52536],[116.52748,3.52531],[116.52761,3.52529],[116.5277,3.52528],[116.52778,3.52532],[116.52784,3.5254],[116.5279,3.52548],[116.52797,3.52549],[116.52812,3.52542],[116.52835,3.52528],[116.52851,3.52514],[116.5288,3.52485],[116.52899,3.52454],[116.52931,3.52455],[116.53019,3.52469],[116.53088,3.52493],[116.53172,3.52526]]]]},"properties":{"kdprov":"65","kdkab":"01","kdkec":"110","kddesa":"004","kdsls":"0002","idsls":"65011100040002","nmprov":"KALIMANTAN UTARA","nmkab":"MALINAU","nmkec":"MENTARANG","nmdesa":"MENTARANG BARU","nmsls":"RT 002"}},{"type":"Feature","geometry":{"type":"MultiPolygon","coordinates":[[[[116.52522,3.52629],[116.52576,3.52627],[116.52592,3.52588],[116.52593,3.52586],[116.52571,3.52579],[116.52585,3.52535],[116.52576,3.52531],[116.52582,3.52516],[116.5259,3.52517],[116.52593,3.52506],[116.52602,3.52507],[116.52616,3.52466],[116.52623,3.52384],[116.52598,3.52277],[116.52564,3.52287],[116.52438,3.52374],[116.52387,3.52408],[116.52302,3.52463],[116.52194,3.52535],[116.52294,3.52634],[116.52396,3.52588],[116.52414,3.5264],[116.52522,3.52629]]]]},"properties":{"kdprov":"65","kdkab":"01","kdkec":"110","kddesa":"004","kdsls":"0001","idsls":"65011100040001","nmprov":"KALIMANTAN UTARA","nmkab":"MALINAU","nmkec":"MENTARANG","nmdesa":"MENTARANG BARU","nmsls":"RT 001"}},{"type":"Feature","geometry":{"type":"MultiPolygon","coordinates":[[[[116.49593,3.53226],[116.49554,3.53172],[116.49517,3.53058],[116.49465,3.52941],[116.49405,3.52962],[116.49366,3.52975],[116.48945,3.53119],[116.48661,3.53131],[116.482,3.53083],[116.48049,3.53019],[116.48034,3.53013],[116.4837,3.539],[116.48663,3.53974],[116.48887,3.54017],[116.4904,3.54024],[116.4911,3.54007],[116.49204,3.53967],[116.49288,3.53934],[116.49298,3.5388],[116.49307,3.5376],[116.49284,3.53633],[116.49331,3.535],[116.49378,3.5339],[116.49488,3.5329],[116.49593,3.53226]]]]},"properties":{"kdprov":"65","kdkab":"01","kdkec":"110","kddesa":"005","kdsls":"1001","idsls":"65011100051001","nmprov":"KALIMANTAN UTARA","nmkab":"MALINAU","nmkec":"MENTARANG","nmdesa":"LONG BISAI","nmsls":"LADANG"}},{"type":"Feature","geometry":{"type":"MultiPolygon","coordinates":[[[[116.51769,3.52762],[116.51734,3.52691],[116.51727,3.52675],[116.51713,3.52645],[116.51701,3.5262],[116.51696,3.52622],[116.51684,3.52596],[116.51666,3.52554],[116.5165,3.52563],[116.5165,3.52565],[116.51646,3.52568],[116.51589,3.52605],[116.51563,3.52629],[116.51537,3.52647],[116.51519,3.52658],[116.51509,3.52664],[116.51515,3.52674],[116.51528,3.52668],[116.51533,3.52677],[116.51536,3.52686],[116.5154,3.52691],[116.51544,3.52697],[116.51549,3.52708],[116.51554,3.52716],[116.51562,3.52725],[116.51567,3.52734],[116.51562,3.52737],[116.51561,3.52742],[116.51564,3.52749],[116.51576,3.52771],[116.5161,3.52829],[116.51769,3.52762]]]]},"properties":{"kdprov":"65","kdkab":"01","kdkec":"110","kddesa":"009","kdsls":"0003","idsls":"65011100090003","nmprov":"KALIMANTAN UTARA","nmkab":"MALINAU","nmkec":"MENTARANG","nmdesa":"PULAU SAPI","nmsls":"RT 003"}},{"type":"Feature","geometry":{"type":"MultiPolygon","coordinates":[[[[116.5279,3.52548],[116.5278,3.5257],[116.52773,3.52584],[116.52769,3.52588],[116.52773,3.52605],[116.52769,3.52618],[116.52766,3.52625],[116.52763,3.52628],[116.52766,3.52634],[116.52779,3.52649],[116.5278,3.52652],[116.52779,3.52656],[116.52778,3.5266],[116.5278,3.52669],[116.52783,3.52671],[116.52785,3.52673],[116.52787,3.52678],[116.52785,3.52682],[116.52782,3.52686],[116.52775,3.52689],[116.52773,3.52694],[116.52774,3.52702],[116.52778,3.52706],[116.52787,3.52716],[116.52787,3.52723],[116.52781,3.52731],[116.52775,3.52735],[116.52768,3.52741],[116.52768,3.52748],[116.5277,3.52757],[116.52785,3.52765],[116.52815,3.52789],[116.5307,3.52995],[116.53172,3.52526],[116.53088,3.52493],[116.53019,3.52469],[116.52931,3.52455],[116.52899,3.52454],[116.5288,3.52485],[116.52851,3.52514],[116.52835,3.52528],[116.52812,3.52542],[116.52797,3.52549],[116.5279,3.52548]]]]},"properties":{"kdprov":"65","kdkab":"01","kdkec":"110","kddesa":"004","kdsls":"0005","idsls":"65011100040005","nmprov":"KALIMANTAN UTARA","nmkab":"MALINAU","nmkec":"MENTARANG","nmdesa":"MENTARANG BARU","nmsls":"RT 005"}},{"type":"Feature","geometry":{"type":"MultiPolygon","coordinates":[[[[116.35428,3.49337],[116.35498,3.49149],[116.35411,3.49041],[116.35221,3.49024],[116.35221,3.49026],[116.35201,3.49164],[116.35163,3.49265],[116.35155,3.49283],[116.3514,3.49357],[116.35087,3.49521],[116.35033,3.49663],[116.3521,3.49714],[116.35312,3.49496],[116.35428,3.49337]]]]},"properties":{"kdprov":"65","kdkab":"01","kdkec":"110","kddesa":"001","kdsls":"0005","idsls":"65011100010005","nmprov":"KALIMANTAN UTARA","nmkab":"MALINAU","nmkec":"MENTARANG","nmdesa":"HARAPAN MAJU","nmsls":"RT 005"}},{"type":"Feature","geometry":{"type":"MultiPolygon","coordinates":[[[[116.37949,3.46354],[116.37948,3.46435],[116.37947,3.46524],[116.37946,3.46623],[116.37946,3.46623],[116.38146,3.46592],[116.38321,3.46548],[116.38324,3.46427],[116.38326,3.46383],[116.38313,3.46317],[116.38299,3.4624],[116.3819,3.46151],[116.38085,3.46162],[116.3795,3.46354],[116.37949,3.46354]]]]},"properties":{"kdprov":"65","kdkab":"01","kdkec":"110","kddesa":"002","kdsls":"0004","idsls":"65011100020004","nmprov":"KALIMANTAN UTARA","nmkab":"MALINAU","nmkec":"MENTARANG","nmdesa":"PAKING","nmsls":"RT 004"}},{"type":"Feature","geometry":{"type":"MultiPolygon","coordinates":[[[[116.45539,3.53108],[116.45469,3.53155],[116.45411,3.53374],[116.45469,3.53402],[116.45529,3.53453],[116.45637,3.53547],[116.45709,3.53605],[116.45799,3.53638],[116.45929,3.53641],[116.46088,3.53611],[116.46184,3.53589],[116.46275,3.53578],[116.46245,3.53356],[116.45641,3.53153],[116.45539,3.53108]]]]},"properties":{"kdprov":"65","kdkab":"01","kdkec":"110","kddesa":"005","kdsls":"4002","idsls":"65011100054002","nmprov":"KALIMANTAN UTARA","nmkab":"MALINAU","nmkec":"MENTARANG","nmdesa":"LONG BISAI","nmsls":"TERBANGUN PEMUKIMAN"}}]}