{"type":"FeatureCollection","features":[{"type":"Feature","geometry":{"type":"MultiPolygon","coordinates":[[[[116.17546,3.78252],[116.17919,3.78236],[116.1803,3.78248],[116.1807,3.78177],[116.18129,3.78076],[116.18157,3.78048],[116.18173,3.78004],[116.18184,3.77941],[116.18204,3.77848],[116.18227,3.77784],[116.18142,3.77701],[116.17971,3.77678],[116.17814,3.77727],[116.17768,3.77797],[116.17672,3.77864],[116.17623,3.7792],[116.17594,3.77989],[116.1753,3.78069],[116.17505,3.78192],[116.17546,3.78252]]]]},"properties":{"kdprov":"65","kdkab":"01","kdkec":"120","kddesa":"010","kdsls":"4002","idsls":"65011200104002","nmprov":"KALIMANTAN UTARA","nmkab":"MALINAU","nmkec":"MENTARANG HULU","nmdesa":"TEMALANG","nmsls":"PEMUKIMAN"}},{"type":"Feature","geometry":{"type":"MultiPolygon","coordinates":[[[[116.17744,3.88105],[116.1772,3.8821],[116.1773,3.88248],[116.17781,3.88334],[116.17977,3.88277],[116.17915,3.88087],[116.17744,3.88105]]]]},"properties":{"kdprov":"65","kdkab":"01","kdkec":"120","kddesa":"002","kdsls":"0005","idsls":"65011200020005","nmprov":"KALIMANTAN UTARA","nmkab":"MALINAU","nmkec":"MENTARANG HULU","nmdesa":"LUNG BARANG","nmsls":"RT 05 DUSUN LUNG BILANG"}},{"type":"Feature","geometry":{"type":"MultiPolygon","coordinates":[[[[116.12679,3.91839],[116.12694,3.91861],[116.12712,3.91877],[116.12726,3.91903],[116.12738,3.91936],[116.1275,3.91969],[116.1276,3.92017],[116.12774,3.92068],[116.12791,3.92084],[116.12812,3.92084],[116.12849,3.92075],[116.12886,3.92059],[116.12929,3.92038],[116.12969,3.92006],[116.12819,3.9178],[116.12768,3.91775],[116.12679,3.91839]]]]},"properties":{"kdprov":"65","kdkab":"01","kdkec":"120","kddesa":"002","kdsls":"0004","idsls":"65011200020004","nmprov":"KALIMANTAN UTARA","nmkab":"MALINAU","nmkec":"MENTARANG HULU","nmdesa":"LUNG BARANG","nmsls":"RT 04 DUSUN BANG BIAU"}},{"type":"Feature","geometry":{"type":"MultiPolygon","coordinates":[[[[116.11005,3.76227],[116.10724,3.76259],[116.10711,3.7653],[116.10868,3.7656],[116.11001,3.76556],[116.11031,3.76517],[116.11042,3.76462],[116.11043,3.76417],[116.11029,3.76367],[116.11022,3.76333],[116.11005,3.76227]]]]},"properties":{"kdprov":"65","kdkab":"01","kdkec":"120","kddesa":"007","kdsls":"0001","idsls":"65011200070001","nmprov":"KALIMANTAN UTARA","nmkab":"MALINAU","nmkec":"MENTARANG HULU","nmdesa":"LUNG SULIT","nmsls":"RT 01"}},{"type":"Feature","geometry":{"type":"MultiPolygon","coordinates":[[[[116.50878,3.51513],[116.50875,3.5151],[116.5081,3.51447],[116.50797,3.51435],[116.5072,3.51361],[116.5072,3.51223],[116.50405,3.51352],[116.50274,3.51463],[116.50064,3.5164],[116.50009,3.51696],[116.50139,3.5187],[116.50147,3.51882],[116.50281,3.51825],[116.50301,3.51818],[116.50358,3.51797],[116.50463,3.51758],[116.50604,3.51698],[116.50737,3.51607],[116.50878,3.51513]]]]},"properties":{"kdprov":"65","kdkab":"01","kdkec":"120","kddesa":"009","kdsls":"2001","idsls":"65011200092001","nmprov":"KALIMANTAN UTARA","nmkab":"MALINAU","nmkec":"MENTARANG HULU","nmdesa":"LONG LIKU","nmsls":"HUTAN"}},{"type":"Feature","geometry":{"type":"MultiPolygon","coordinates":[[[[116.12929,3.85089],[116.12791,3.85242],[116.13119,3.85456],[116.13242,3.8535],[116.13214,3.85276],[116.13166,3.85203],[116.13085,3.85158],[116.12929,3.85089]]]]},"properties":{"kdprov":"65","kdkab":"01","kdkec":"120","kddesa":"002","kdsls":"0003","idsls":"65011200020003","nmprov":"KALIMANTAN UTARA","nmkab":"MALINAU","nmkec":"MENTARANG HULU","nmdesa":"LUNG BARANG","nmsls":"RT 03 DUSUN NANSARANG"}},{"type":"Feature","geometry":{"type":"MultiPolygon","coordinates":[[[[116.13166,3.85203],[116.13214,3.85276],[116.13242,3.8535],[116.13119,3.85456],[116.12791,3.85242],[116.12929,3.85089],[116.12902,3.85077],[116.12705,3.85051],[116.12479,3.85098],[116.12399,3.85126],[116.12363,3.85139],[116.12263,3.85212],[116.1222,3.853],[116.12158,3.85364],[116.12047,3.85467],[116.12047,3.85467],[116.11995,3.85502],[116.12104,3.85666],[116.12359,3.86048],[116.13262,3.86499],[116.13743,3.8692],[116.1394,3.87092],[116.13985,3.87132],[116.14073,3.87278],[116.1413,3.87373],[116.14126,3.8752],[116.14162,3.87639],[116.14234,3.87687],[116.14257,3.878],[116.1421,3.87937],[116.14073,3.87972],[116.14013,3.88008],[116.13996,3.88044],[116.13996,3.88163],[116.13996,3.88228],[116.13912,3.88311],[116.1393,3.88365],[116.13978,3.88377],[116.14079,3.88407],[116.14097,3.88526],[116.14031,3.88579],[116.13865,3.8865],[116.13752,3.8874],[116.13657,3.88888],[116.13651,3.8896],[116.13716,3.89037],[116.13906,3.8915],[116.13859,3.89263],[116.13752,3.8934],[116.13793,3.89412],[116.13793,3.89471],[116.1374,3.89572],[116.13758,3.89626],[116.13853,3.89727],[116.13811,3.89816],[116.13746,3.89852],[116.13543,3.89781],[116.1349,3.8984],[116.13621,3.89935],[116.13627,3.90126],[116.13633,3.90179],[116.1346,3.90399],[116.13359,3.90566],[116.1346,3.90727],[116.13454,3.90822],[116.13222,3.91018],[116.13038,3.91143],[116.12633,3.91506],[116.1236,3.9172],[116.12245,3.91901],[116.12281,3.9205],[116.12418,3.92234],[116.12719,3.92319],[116.12824,3.9238],[116.12867,3.92391],[116.13085,3.92446],[116.13228,3.92553],[116.13288,3.92672],[116.13311,3.92773],[116.13359,3.9288],[116.13389,3.92939],[116.13478,3.92981],[116.1352,3.92993],[116.13657,3.92993],[116.13835,3.92999],[116.13984,3.93007],[116.14196,3.93189],[116.14258,3.93257],[116.14295,3.93299],[116.14343,3.93351],[116.14484,3.93507],[116.14785,3.93733],[116.14787,3.93734],[116.14872,3.93593],[116.1489,3.93562],[116.14926,3.93502],[116.14984,3.93406],[116.14984,3.93405],[116.1507,3.93451],[116.15078,3.93456],[116.15193,3.93519],[116.15217,3.93532],[116.15505,3.93689],[116.15511,3.93731],[116.15624,3.94613],[116.17069,3.95134],[116.1747,3.95506],[116.17547,3.95577],[116.17579,3.95606],[116.17647,3.9567],[116.17708,3.95726],[116.17835,3.95783],[116.17862,3.95795],[116.17873,3.958],[116.18009,3.95862],[116.18181,3.95939],[116.18182,3.95939],[116.18204,3.9593],[116.18229,3.9592],[116.18241,3.95916],[116.18442,3.95836],[116.18559,3.9579],[116.18578,3.95782],[116.192,3.95536],[116.19662,3.95352],[116.19722,3.95328],[116.19761,3.95312],[116.19801,3.95296],[116.2001,3.95213],[116.20621,3.94968],[116.20881,3.94518],[116.21237,3.93879],[116.21237,3.93814],[116.21237,3.93705],[116.21237,3.93526],[116.21237,3.93215],[116.2121,3.91857],[116.21321,3.91525],[116.21328,3.91501],[116.21487,3.9129],[116.21495,3.91279],[116.21553,3.91202],[116.21595,3.91146],[116.21506,3.90673],[116.2133,3.90299],[116.21269,3.90169],[116.21054,3.90107],[116.21028,3.90099],[116.2097,3.90082],[116.20559,3.89962],[116.20736,3.89518],[116.20819,3.89477],[116.2083,3.89471],[116.20868,3.89452],[116.21328,3.89222],[116.2174,3.8897],[116.2178,3.88946],[116.21819,3.88922],[116.21861,3.88896],[116.22749,3.88867],[116.23169,3.88867],[116.23287,3.88867],[116.23321,3.88867],[116.23389,3.88867],[116.23428,3.88867],[116.2343,3.88867],[116.23659,3.88698],[116.2366,3.88698],[116.23993,3.88452],[116.24186,3.88223],[116.24186,3.88223],[116.24466,3.8789],[116.24601,3.87715],[116.24601,3.87715],[116.24876,3.87357],[116.24876,3.87357],[116.24794,3.87302],[116.24779,3.87224],[116.24778,3.87224],[116.24763,3.87146],[116.24753,3.87099],[116.24623,3.86458],[116.24681,3.86428],[116.24747,3.86395],[116.24765,3.86386],[116.25539,3.85992],[116.25546,3.8598],[116.25842,3.85463],[116.25855,3.8544],[116.25866,3.85421],[116.25906,3.85351],[116.25957,3.84943],[116.25957,3.84943],[116.25981,3.84747],[116.25994,3.84644],[116.25972,3.84547],[116.25972,3.84547],[116.25863,3.84071],[116.25863,3.84071],[116.25863,3.84071],[116.2586,3.84067],[116.25598,3.83769],[116.2515,3.83259],[116.25101,3.83257],[116.25012,3.83219],[116.24983,3.83173],[116.24965,3.83106],[116.24955,3.83077],[116.2483,3.83011],[116.24788,3.82973],[116.24757,3.8291],[116.24743,3.82859],[116.24708,3.82853],[116.24688,3.82849],[116.24568,3.82963],[116.24488,3.82997],[116.24517,3.83122],[116.24357,3.83208],[116.24106,3.8314],[116.24021,3.82986],[116.23958,3.82872],[116.23963,3.82673],[116.23764,3.82479],[116.23798,3.82274],[116.23758,3.81853],[116.23661,3.81808],[116.2361,3.81722],[116.23479,3.81756],[116.23131,3.81546],[116.23211,3.81307],[116.23153,3.80988],[116.23083,3.80818],[116.22525,3.80689],[116.22525,3.79474],[116.22648,3.79218],[116.23133,3.78205],[116.2363,3.77045],[116.24292,3.76217],[116.24899,3.7561],[116.25175,3.73954],[116.24844,3.73015],[116.24789,3.71966],[116.24955,3.71469],[116.25341,3.70752],[116.2639,3.69592],[116.265,3.6904],[116.265,3.68378],[116.26441,3.67963],[116.2639,3.67605],[116.26059,3.67108],[116.25917,3.66543],[116.25838,3.66225],[116.26003,3.65341],[116.26445,3.64789],[116.26596,3.64085],[116.26611,3.64016],[116.26658,3.6396],[116.26768,3.6383],[116.26758,3.639],[116.26758,3.639],[116.26764,3.63863],[116.26769,3.6383],[116.26769,3.63826],[116.26775,3.63784],[116.26787,3.63705],[116.26797,3.63672],[116.26802,3.63656],[116.26835,3.63549],[116.2682,3.63403],[116.26799,3.63202],[116.26799,3.63202],[116.2656,3.63101],[116.2656,3.63101],[116.26685,3.62869],[116.26587,3.62714],[116.26557,3.62667],[116.2655,3.62482],[116.26538,3.62332],[116.26432,3.62153],[116.26432,3.62153],[116.2618,3.62087],[116.2604,3.62225],[116.25887,3.62221],[116.25724,3.62244],[116.25519,3.62297],[116.25365,3.62393],[116.25236,3.62397],[116.25236,3.62396],[116.25233,3.62389],[116.25162,3.62204],[116.25127,3.62037],[116.24943,3.61897],[116.24939,3.61745],[116.24936,3.61654],[116.24847,3.61538],[116.24734,3.6139],[116.24844,3.61287],[116.24913,3.61223],[116.25061,3.6093],[116.25175,3.60819],[116.25342,3.6062],[116.25452,3.60492],[116.25519,3.60416],[116.25549,3.60382],[116.25695,3.60329],[116.25739,3.60146],[116.25884,3.59993],[116.25807,3.59746],[116.25914,3.59613],[116.25964,3.59552],[116.26135,3.59291],[116.26323,3.59261],[116.26411,3.5918],[116.26475,3.59026],[116.26646,3.58855],[116.2658,3.58728],[116.26565,3.58699],[116.26493,3.5849],[116.26437,3.58276],[116.26552,3.58259],[116.26646,3.582],[116.26672,3.58011],[116.26648,3.57852],[116.26625,3.577],[116.26643,3.57454],[116.26512,3.57326],[116.26426,3.57241],[116.26477,3.5707],[116.26486,3.57041],[116.26509,3.56881],[116.26529,3.56748],[116.26636,3.56601],[116.26659,3.56444],[116.2666,3.56439],[116.2668,3.56306],[116.26658,3.56166],[116.2663,3.5599],[116.26652,3.55827],[116.2667,3.55693],[116.26847,3.55683],[116.26937,3.55598],[116.27012,3.55527],[116.27042,3.55407],[116.27091,3.55217],[116.27149,3.55008],[116.27186,3.54889],[116.27246,3.54773],[116.273,3.54667],[116.2734,3.54527],[116.27376,3.54404],[116.27371,3.54285],[116.27367,3.54185],[116.27464,3.54058],[116.27519,3.53936],[116.2752,3.53809],[116.27521,3.53715],[116.27632,3.53586],[116.27703,3.53503],[116.27747,3.5334],[116.2778,3.53218],[116.27885,3.53117],[116.2806,3.53047],[116.28195,3.52898],[116.28325,3.52823],[116.28395,3.52783],[116.28537,3.52557],[116.28547,3.52313],[116.28702,3.5219],[116.28829,3.5209],[116.28905,3.5195],[116.29023,3.51732],[116.28947,3.5158],[116.28928,3.5137],[116.29036,3.51216],[116.2911,3.51028],[116.29081,3.50844],[116.29025,3.50577],[116.29059,3.50451],[116.2915,3.50388],[116.29257,3.50235],[116.29323,3.4997],[116.29407,3.4972],[116.29522,3.49577],[116.2951,3.49412],[116.29387,3.49293],[116.294,3.49151],[116.29402,3.48989],[116.29526,3.48835],[116.29569,3.48782],[116.29693,3.48511],[116.29594,3.48338],[116.29522,3.48212],[116.29522,3.48064],[116.29634,3.47968],[116.2975,3.4787],[116.29813,3.47716],[116.29797,3.47539],[116.29773,3.47384],[116.29939,3.4719],[116.29943,3.47137],[116.29942,3.47137],[116.29658,3.47105],[116.28912,3.47039],[116.28455,3.47141],[116.27821,3.47347],[116.27486,3.47394],[116.2701,3.47693],[116.26497,3.48133],[116.26357,3.48395],[116.26272,3.48676],[116.2595,3.49149],[116.2554,3.49477],[116.25091,3.50601],[116.24867,3.51256],[116.24652,3.51696],[116.24484,3.51893],[116.24111,3.51996],[116.23804,3.51996],[116.23533,3.52108],[116.23188,3.52613],[116.22637,3.53059],[116.22577,3.53095],[116.22505,3.53155],[116.22339,3.53227],[116.22327,3.53358],[116.22196,3.53478],[116.22124,3.53573],[116.22041,3.53621],[116.21969,3.53585],[116.21933,3.53498],[116.21933,3.53498],[116.21654,3.53682],[116.21246,3.54322],[116.20819,3.55013],[116.20303,3.55827],[116.2002,3.56652],[116.19881,3.5729],[116.19839,3.57589],[116.19797,3.58078],[116.19605,3.59131],[116.19445,3.59647],[116.1909,3.60055],[116.18561,3.60496],[116.17836,3.60728],[116.17548,3.60749],[116.16913,3.61036],[116.16677,3.61693],[116.16449,3.62042],[116.15847,3.6278],[116.15686,3.63107],[116.15436,3.63413],[116.15132,3.63781],[116.14699,3.64266],[116.14237,3.64584],[116.13776,3.65217],[116.13416,3.65708],[116.1305,3.65958],[116.12883,3.66336],[116.12876,3.66534],[116.12872,3.66663],[116.1309,3.6705],[116.13203,3.67194],[116.13314,3.67336],[116.13529,3.68057],[116.13614,3.68344],[116.13667,3.68752],[116.13737,3.69089],[116.13759,3.69161],[116.13778,3.69878],[116.1395,3.70295],[116.14351,3.70783],[116.14693,3.71249],[116.14881,3.71553],[116.15136,3.7242],[116.15092,3.73103],[116.15231,3.73537],[116.15113,3.73709],[116.15013,3.74104],[116.15011,3.74113],[116.14853,3.74546],[116.14489,3.74826],[116.13707,3.75124],[116.12895,3.75182],[116.1276,3.75266],[116.1255,3.75397],[116.12269,3.75571],[116.12121,3.75663],[116.12117,3.75674],[116.12032,3.75878],[116.12077,3.76269],[116.12051,3.76713],[116.11761,3.76659],[116.11572,3.76915],[116.11498,3.77401],[116.11478,3.77527],[116.11419,3.77802],[116.1136,3.78073],[116.11,3.78667],[116.11226,3.79355],[116.10501,3.79592],[116.10287,3.80031],[116.10371,3.80327],[116.10845,3.80527],[116.1094,3.80692],[116.1107,3.8077],[116.11356,3.80571],[116.1146,3.80761],[116.1139,3.80986],[116.11408,3.8115],[116.11269,3.81289],[116.11312,3.81401],[116.11408,3.81444],[116.1139,3.81583],[116.11641,3.81591],[116.11883,3.81462],[116.12013,3.81548],[116.12126,3.81669],[116.12234,3.81682],[116.12502,3.81899],[116.12649,3.8208],[116.12779,3.82123],[116.12952,3.82452],[116.13021,3.82643],[116.13116,3.8266],[116.13116,3.82746],[116.12969,3.82876],[116.129,3.83127],[116.13038,3.83179],[116.13298,3.8304],[116.13471,3.83066],[116.13618,3.8317],[116.13661,3.83231],[116.13652,3.83231],[116.13739,3.83421],[116.13834,3.83542],[116.13903,3.83914],[116.14163,3.83828],[116.14223,3.83828],[116.14223,3.8394],[116.14037,3.84057],[116.14037,3.84057],[116.13813,3.84334],[116.13951,3.84446],[116.1396,3.84645],[116.13951,3.84749],[116.13811,3.84915],[116.13769,3.84965],[116.13696,3.85098],[116.13649,3.85165],[116.13532,3.85245],[116.13485,3.85248],[116.13425,3.85214],[116.13375,3.85184],[116.13314,3.85186],[116.13216,3.85207],[116.13166,3.85203]],[[116.17744,3.88105],[116.17915,3.88087],[116.17977,3.88277],[116.17781,3.88334],[116.1773,3.88248],[116.1772,3.8821],[116.17744,3.88105]],[[116.12679,3.91839],[116.12768,3.91775],[116.12819,3.9178],[116.12969,3.92006],[116.12929,3.92038],[116.12886,3.92059],[116.12849,3.92075],[116.12812,3.92084],[116.12791,3.92084],[116.12774,3.92068],[116.1276,3.92017],[116.1275,3.91969],[116.12738,3.91936],[116.12726,3.91903],[116.12712,3.91877],[116.12694,3.91861],[116.12679,3.91839]],[[116.17546,3.78252],[116.17505,3.78192],[116.1753,3.78069],[116.17594,3.77989],[116.17623,3.7792],[116.17672,3.77864],[116.17768,3.77797],[116.17814,3.77727],[116.17971,3.77678],[116.18142,3.77701],[116.18227,3.77784],[116.18204,3.77848],[116.18184,3.77941],[116.18173,3.78004],[116.18157,3.78048],[116.18129,3.78076],[116.1807,3.78177],[116.1803,3.78248],[116.17919,3.78236],[116.17546,3.78252]],[[116.18793,3.8218],[116.18782,3.82437],[116.18737,3.82441],[116.187,3.82429],[116.18675,3.82415],[116.1865,3.8239],[116.18633,3.82367],[116.18612,3.82298],[116.18422,3.81999],[116.18687,3.81208],[116.1878,3.81035],[116.18843,3.81032],[116.18883,3.81064],[116.18894,3.81123],[116.18921,3.81189],[116.18931,3.81278],[116.18943,3.81338],[116.18952,3.81412],[116.18919,3.81485],[116.18883,3.81547],[116.18838,3.81694],[116.18838,3.81798],[116.1885,3.81888],[116.18886,3.81967],[116.18874,3.82033],[116.18847,3.82104],[116.18793,3.8218]]]]},"properties":{"kdprov":"65","kdkab":"01","kdkec":"120","kddesa":"002","kdsls":"2001","idsls":"65011200022001","nmprov":"KALIMANTAN UTARA","nmkab":"MALINAU","nmkec":"MENTARANG HULU","nmdesa":"LUNG BARANG","nmsls":"KAWASAN HUTAN"}},{"type":"Feature","geometry":{"type":"MultiPolygon","coordinates":[[[[116.5008,3.52848],[116.50088,3.52845],[116.50102,3.52842],[116.50113,3.52839],[116.5022,3.52812],[116.50226,3.52811],[116.50208,3.52757],[116.50174,3.52623],[116.50159,3.52571],[116.50129,3.52584],[116.50102,3.52592],[116.50085,3.52594],[116.50059,3.52593],[116.50039,3.52589],[116.5001,3.52588],[116.49987,3.52586],[116.49954,3.52585],[116.49936,3.52584],[116.49993,3.52625],[116.50035,3.52671],[116.50053,3.5274],[116.50068,3.52802],[116.5008,3.52848]]]]},"properties":{"kdprov":"65","kdkab":"01","kdkec":"120","kddesa":"008","kdsls":"0001","idsls":"65011200080001","nmprov":"KALIMANTAN UTARA","nmkab":"MALINAU","nmkec":"MENTARANG HULU","nmdesa":"LONG GAFID","nmsls":"RT 01"}},{"type":"Feature","geometry":{"type":"MultiPolygon","coordinates":[[[[116.50737,3.51607],[116.50604,3.51698],[116.50463,3.51758],[116.50358,3.51797],[116.50301,3.51818],[116.50281,3.51825],[116.50147,3.51882],[116.50139,3.5187],[116.50009,3.51696],[116.49885,3.5182],[116.49681,3.51948],[116.4951,3.52055],[116.49454,3.5209],[116.49161,3.52104],[116.48897,3.52256],[116.48897,3.52256],[116.48897,3.52256],[116.48523,3.52217],[116.48225,3.52517],[116.49039,3.52354],[116.49704,3.52295],[116.49843,3.52329],[116.5,3.5227],[116.50212,3.5219],[116.50226,3.52172],[116.50281,3.52098],[116.50278,3.52057],[116.50273,3.52049],[116.50299,3.52034],[116.50373,3.52051],[116.50417,3.52036],[116.50472,3.52017],[116.50544,3.51992],[116.50743,3.51919],[116.50878,3.51765],[116.50843,3.51689],[116.50812,3.51623],[116.50737,3.51607]]]]},"properties":{"kdprov":"65","kdkab":"01","kdkec":"120","kddesa":"010","kdsls":"2001","idsls":"65011200102001","nmprov":"KALIMANTAN UTARA","nmkab":"MALINAU","nmkec":"MENTARANG HULU","nmdesa":"TEMALANG","nmsls":"HUTAN"}},{"type":"Feature","geometry":{"type":"MultiPolygon","coordinates":[[[[116.24688,3.82849],[116.24708,3.82853],[116.24743,3.82859],[116.24757,3.8291],[116.24788,3.82973],[116.2483,3.83011],[116.24955,3.83077],[116.24965,3.83106],[116.24983,3.83173],[116.25012,3.83219],[116.25101,3.83257],[116.2515,3.83259],[116.25158,3.83244],[116.25135,3.83201],[116.25112,3.83173],[116.25099,3.83133],[116.25082,3.83089],[116.25059,3.8304],[116.25024,3.82988],[116.25,3.82958],[116.24973,3.8294],[116.24935,3.82926],[116.249,3.82908],[116.24877,3.82876],[116.24871,3.82849],[116.24871,3.82822],[116.24879,3.828],[116.24944,3.82755],[116.24942,3.82694],[116.24946,3.82664],[116.24953,3.82639],[116.24948,3.82606],[116.24922,3.82576],[116.24875,3.82563],[116.2483,3.82558],[116.24797,3.82555],[116.24769,3.82551],[116.24763,3.82659],[116.24783,3.82755],[116.24757,3.82784],[116.24727,3.8281],[116.24688,3.82849]]]]},"properties":{"kdprov":"65","kdkab":"01","kdkec":"120","kddesa":"003","kdsls":"0001","idsls":"65011200030001","nmprov":"KALIMANTAN UTARA","nmkab":"MALINAU","nmkec":"MENTARANG HULU","nmdesa":"LUNG SIMAU","nmsls":"RT 01"}},{"type":"Feature","geometry":{"type":"MultiPolygon","coordinates":[[[[116.23348,3.99773],[116.23535,3.99668],[116.23566,3.99444],[116.23497,3.99403],[116.23476,3.99403],[116.23446,3.994],[116.23421,3.99372],[116.23382,3.99312],[116.23354,3.993],[116.23333,3.99326],[116.23323,3.99372],[116.23332,3.99428],[116.23341,3.99493],[116.23343,3.99542],[116.2333,3.99582],[116.23309,3.99655],[116.23322,3.99713],[116.23348,3.99773]]]]},"properties":{"kdprov":"65","kdkab":"01","kdkec":"120","kddesa":"008","kdsls":"4002","idsls":"65011200084002","nmprov":"KALIMANTAN UTARA","nmkab":"MALINAU","nmkec":"MENTARANG HULU","nmdesa":"LONG GAFID","nmsls":"PEMUKIMAN"}},{"type":"Feature","geometry":{"type":"MultiPolygon","coordinates":[[[[116.16408,4.10817],[116.16634,4.10786],[116.16917,4.10709],[116.17204,4.10634],[116.17457,4.1047],[116.1746,4.10468],[116.1755,4.10302],[116.17445,4.09895],[116.17219,4.09262],[116.17049,4.08986],[116.16954,4.08783],[116.16912,4.08605],[116.169,4.08504],[116.16948,4.08421],[116.17103,4.08367],[116.17412,4.08313],[116.1762,4.08248],[116.17799,4.07974],[116.17852,4.07778],[116.17935,4.0751],[116.18019,4.07302],[116.18189,4.07082],[116.18486,4.0688],[116.18849,4.06689],[116.19325,4.06618],[116.19855,4.06559],[116.20384,4.06576],[116.20884,4.06654],[116.21264,4.06785],[116.21508,4.06832],[116.21661,4.06813],[116.21699,4.06808],[116.22192,4.06743],[116.22508,4.06642],[116.22633,4.0644],[116.22793,4.06267],[116.23091,4.06059],[116.23323,4.05892],[116.23582,4.05708],[116.2387,4.05321],[116.24063,4.05068],[116.24123,4.04905],[116.24465,4.04682],[116.24643,4.04563],[116.2474,4.04367],[116.24706,4.04027],[116.24728,4.0372],[116.2477,4.03549],[116.2482,4.03413],[116.24849,4.03256],[116.24885,4.03156],[116.25077,4.03085],[116.25284,4.03127],[116.25591,4.03342],[116.25963,4.03656],[116.2617,4.0392],[116.26284,4.04105],[116.26321,4.04192],[116.26641,4.04085],[116.26877,4.04007],[116.26936,4.04015],[116.27257,4.03896],[116.27453,4.03914],[116.27554,4.04063],[116.27644,4.04235],[116.27633,4.04354],[116.27738,4.04565],[116.27789,4.05046],[116.27953,4.05211],[116.28042,4.05342],[116.28026,4.05435],[116.28389,4.05797],[116.28518,4.05797],[116.2855,4.05797],[116.28854,4.05797],[116.29063,4.05565],[116.29122,4.05489],[116.29357,4.05187],[116.29621,4.04995],[116.29704,4.04934],[116.29755,4.04925],[116.30063,4.04867],[116.30443,4.04997],[116.30807,4.05123],[116.31203,4.0589],[116.31203,4.0589],[116.31399,4.06001],[116.319,4.06285],[116.32061,4.06191],[116.32262,4.06073],[116.32295,4.06053],[116.32459,4.05983],[116.32978,4.0576],[116.33054,4.05728],[116.33109,4.05704],[116.33364,4.05364],[116.33598,4.05053],[116.33659,4.04724],[116.33714,4.04425],[116.34082,4.04174],[116.34225,4.04076],[116.34461,4.03977],[116.35109,4.03704],[116.35113,4.03701],[116.35481,4.03379],[116.35381,4.02923],[116.3535,4.02783],[116.35224,4.0257],[116.35202,4.02363],[116.35159,4.02049],[116.35195,4.01728],[116.35266,4.01557],[116.35393,4.01407],[116.35462,4.01025],[116.35498,4.00831],[116.36344,4.00085],[116.36356,4.00074],[116.36434,4.00005],[116.36434,4.00005],[116.3677,3.9959],[116.36971,3.99342],[116.37355,3.99453],[116.37533,3.99329],[116.37739,3.99232],[116.38001,3.99244],[116.38298,3.99301],[116.38464,3.99324],[116.38572,3.99307],[116.3871,3.99331],[116.38881,3.99187],[116.38978,3.99164],[116.39035,3.99084],[116.39136,3.99094],[116.39205,3.99015],[116.394,3.98998],[116.39639,3.98998],[116.39803,3.99019],[116.39902,3.99032],[116.39971,3.9897],[116.39936,3.98941],[116.39669,3.9865],[116.39407,3.98293],[116.39407,3.97995],[116.39455,3.97531],[116.39598,3.97008],[116.3974,3.96627],[116.39897,3.96256],[116.39902,3.95932],[116.39926,3.95728],[116.39793,3.95537],[116.39731,3.95399],[116.39559,3.95261],[116.39492,3.9503],[116.39206,3.94517],[116.39191,3.94185],[116.39342,3.93643],[116.39577,3.92554],[116.39578,3.92554],[116.39893,3.91949],[116.39922,3.91892],[116.40101,3.91605],[116.40101,3.91372],[116.40101,3.9121],[116.4028,3.91121],[116.40513,3.906],[116.40692,3.90098],[116.4074,3.89821],[116.40781,3.89586],[116.40752,3.89521],[116.40645,3.89247],[116.4058,3.89106],[116.40549,3.8904],[116.405,3.88935],[116.405,3.88935],[116.405,3.88935],[116.40352,3.88905],[116.40272,3.88889],[116.40272,3.88889],[116.40197,3.88734],[116.40113,3.88558],[116.40081,3.88493],[116.40001,3.88401],[116.39883,3.88265],[116.39883,3.88264],[116.39734,3.88268],[116.39621,3.8827],[116.39548,3.88272],[116.39548,3.88272],[116.39498,3.88197],[116.39417,3.88071],[116.39365,3.8799],[116.39331,3.87918],[116.39297,3.87846],[116.39221,3.87818],[116.39107,3.87777],[116.39107,3.87777],[116.38897,3.87804],[116.38756,3.87823],[116.38661,3.87841],[116.38513,3.87869],[116.38513,3.87869],[116.38458,3.87804],[116.38396,3.87731],[116.38364,3.877],[116.38303,3.87646],[116.38251,3.876],[116.382,3.87556],[116.38175,3.87461],[116.38151,3.87371],[116.3814,3.87328],[116.38154,3.87217],[116.38169,3.87098],[116.38178,3.87031],[116.38132,3.86968],[116.38071,3.86886],[116.38003,3.86827],[116.37935,3.86768],[116.37888,3.86726],[116.37804,3.86691],[116.37729,3.8666],[116.37614,3.86612],[116.3753,3.86452],[116.37501,3.86309],[116.37475,3.86179],[116.37454,3.86064],[116.37388,3.86005],[116.3731,3.85935],[116.3731,3.85935],[116.37105,3.85935],[116.36893,3.85935],[116.36749,3.85935],[116.36617,3.85935],[116.36617,3.85935],[116.3652,3.8587],[116.3648,3.85843],[116.3648,3.85843],[116.36401,3.85884],[116.36317,3.85927],[116.36259,3.85957],[116.36196,3.86028],[116.3613,3.86101],[116.36068,3.86171],[116.3595,3.86201],[116.35851,3.86226],[116.35802,3.86239],[116.35747,3.86267],[116.35658,3.86313],[116.35561,3.86362],[116.35459,3.86414],[116.35341,3.86461],[116.35231,3.86505],[116.35155,3.86536],[116.35087,3.86598],[116.35033,3.86649],[116.34957,3.86719],[116.34828,3.86681],[116.34778,3.86584],[116.34729,3.8649],[116.34738,3.86422],[116.34752,3.86331],[116.34732,3.86261],[116.34703,3.86156],[116.3466,3.86003],[116.34684,3.85907],[116.34713,3.85791],[116.34744,3.85668],[116.34754,3.85567],[116.34759,3.85508],[116.34784,3.85407],[116.3482,3.85257],[116.34796,3.85149],[116.34774,3.85051],[116.34839,3.84981],[116.34897,3.84918],[116.3495,3.84861],[116.34984,3.84772],[116.35023,3.84673],[116.35071,3.84549],[116.34991,3.84408],[116.34918,3.84278],[116.34843,3.84145],[116.3482,3.84031],[116.34797,3.83917],[116.34797,3.83917],[116.34797,3.83917],[116.34701,3.83799],[116.34625,3.83706],[116.34599,3.83673],[116.3459,3.83525],[116.34577,3.83362],[116.34561,3.83224],[116.34546,3.83087],[116.34352,3.83033],[116.34188,3.82988],[116.34061,3.82954],[116.34061,3.82954],[116.3396,3.82927],[116.33959,3.82927],[116.3388,3.82999],[116.33807,3.83064],[116.33717,3.83083],[116.33586,3.8311],[116.33484,3.83099],[116.33368,3.83086],[116.33229,3.83072],[116.33228,3.83072],[116.3316,3.8297],[116.33095,3.82874],[116.33038,3.8279],[116.33057,3.82692],[116.33075,3.82603],[116.32889,3.82722],[116.32785,3.82767],[116.32627,3.82758],[116.3195,3.8272],[116.31726,3.82708],[116.31275,3.82616],[116.30794,3.82288],[116.30535,3.82112],[116.30313,3.81852],[116.29542,3.82058],[116.28594,3.82387],[116.27739,3.82746],[116.27151,3.82864],[116.27059,3.82882],[116.26345,3.83025],[116.26116,3.82979],[116.25887,3.83101],[116.25688,3.83048],[116.2565,3.83132],[116.25658,3.83166],[116.25863,3.84071],[116.25863,3.84071],[116.25972,3.84547],[116.25972,3.84547],[116.25994,3.84644],[116.25981,3.84747],[116.25957,3.84943],[116.25957,3.84943],[116.25906,3.85351],[116.25866,3.85421],[116.25855,3.8544],[116.25842,3.85463],[116.25546,3.8598],[116.25539,3.85992],[116.24765,3.86386],[116.24747,3.86395],[116.24681,3.86428],[116.24623,3.86458],[116.24753,3.87099],[116.24763,3.87146],[116.24778,3.87224],[116.24779,3.87224],[116.24794,3.87302],[116.24876,3.87357],[116.24876,3.87357],[116.2523,3.87592],[116.25596,3.8776],[116.25917,3.88096],[116.2636,3.88333],[116.27071,3.88822],[116.2788,3.88929],[116.28285,3.88921],[116.28442,3.89208],[116.28365,3.90025],[116.28938,3.90292],[116.2966,3.91213],[116.30004,3.91786],[116.30325,3.92213],[116.30913,3.92389],[116.31547,3.92114],[116.32265,3.92198],[116.32906,3.92748],[116.3236,3.94662],[116.3207,3.94478],[116.31176,3.94463],[116.30451,3.94845],[116.2906,3.94845],[116.26994,3.95842],[116.26803,3.96315],[116.25436,3.96392],[116.24894,3.96201],[116.23935,3.9677],[116.23248,3.97587],[116.23714,3.98397],[116.23427,3.99317],[116.23421,3.99372],[116.23446,3.994],[116.23476,3.99403],[116.23497,3.99403],[116.23566,3.99444],[116.23535,3.99668],[116.23348,3.99773],[116.2337,3.99817],[116.23343,4.0005],[116.22858,4.00604],[116.22247,4.01139],[116.21445,4.01307],[116.2088,4.022],[116.20786,4.02299],[116.20698,4.02543],[116.20563,4.02596],[116.20456,4.02699],[116.20356,4.02717],[116.20149,4.02841],[116.20092,4.02795],[116.20064,4.02383],[116.19989,4.02319],[116.19925,4.02297],[116.19893,4.02305],[116.19742,4.02345],[116.19467,4.02417],[116.19326,4.02454],[116.19189,4.02415],[116.1912,4.02395],[116.18937,4.02448],[116.18914,4.02755],[116.18726,4.02807],[116.18742,4.02938],[116.18791,4.03319],[116.18598,4.03305],[116.18582,4.03304],[116.18572,4.03357],[116.18558,4.03398],[116.18561,4.03416],[116.18566,4.03455],[116.18576,4.03483],[116.18586,4.03516],[116.18581,4.03544],[116.18574,4.03584],[116.18526,4.03615],[116.18499,4.03617],[116.18485,4.03605],[116.18437,4.03567],[116.18416,4.03557],[116.18397,4.03547],[116.18363,4.03546],[116.1834,4.03568],[116.18306,4.03683],[116.18275,4.03708],[116.18196,4.03712],[116.18123,4.03746],[116.18056,4.03756],[116.18004,4.03738],[116.17926,4.03611],[116.17895,4.0362],[116.17868,4.03777],[116.17851,4.03806],[116.17743,4.03825],[116.17695,4.03735],[116.17641,4.03731],[116.17618,4.03791],[116.17632,4.03869],[116.1767,4.0407],[116.17334,4.04059],[116.17224,4.03949],[116.17066,4.03791],[116.17013,4.03828],[116.16969,4.03859],[116.16972,4.0405],[116.16974,4.04224],[116.16828,4.04258],[116.16711,4.04285],[116.16632,4.04303],[116.16638,4.04541],[116.16644,4.0481],[116.16096,4.04758],[116.15918,4.04387],[116.15691,4.04377],[116.15548,4.04315],[116.154,4.0436],[116.15343,4.04269],[116.15058,4.04303],[116.15075,4.0411],[116.15024,4.04047],[116.14949,4.04064],[116.14852,4.04002],[116.14786,4.03868],[116.14687,4.03672],[116.1447,4.03751],[116.14527,4.03933],[116.14293,4.03939],[116.14045,4.04311],[116.13928,4.04485],[116.1387,4.04268],[116.13853,4.04205],[116.13803,4.04019],[116.13636,4.04073],[116.13338,4.0417],[116.13064,4.0426],[116.13119,4.04445],[116.12915,4.04516],[116.1268,4.04511],[116.12642,4.04332],[116.12606,4.04368],[116.12592,4.04382],[116.12531,4.04443],[116.12491,4.04478],[116.1244,4.04457],[116.12413,4.04447],[116.12367,4.04399],[116.12279,4.04406],[116.12058,4.04423],[116.12084,4.04335],[116.1197,4.04305],[116.11809,4.04373],[116.11733,4.04335],[116.1145,4.0432],[116.1142,4.04458],[116.11382,4.04564],[116.11305,4.04542],[116.11328,4.04335],[116.11198,4.04373],[116.11107,4.04343],[116.11069,4.04221],[116.10885,4.04351],[116.10908,4.04496],[116.10839,4.04626],[116.10786,4.0448],[116.10763,4.04396],[116.10526,4.04519],[116.10435,4.04648],[116.10312,4.04732],[116.10175,4.0448],[116.10083,4.04511],[116.10007,4.04679],[116.099,4.04732],[116.09839,4.04534],[116.09541,4.04526],[116.09342,4.0461],[116.09159,4.04603],[116.09006,4.04671],[116.08907,4.04771],[116.08689,4.04729],[116.08643,4.04591],[116.08544,4.04515],[116.08391,4.04507],[116.08391,4.04416],[116.08353,4.04324],[116.08231,4.04255],[116.08101,4.04309],[116.07994,4.04446],[116.07887,4.04446],[116.07757,4.04278],[116.0762,4.04301],[116.07612,4.04423],[116.07566,4.04484],[116.07421,4.04492],[116.07284,4.04354],[116.07093,4.04354],[116.0707,4.0453],[116.06925,4.04645],[116.06841,4.04614],[116.06696,4.0466],[116.06635,4.04744],[116.0626,4.04614],[116.05993,4.04629],[116.05833,4.04912],[116.0568,4.04912],[116.05412,4.04828],[116.05283,4.04935],[116.05336,4.05019],[116.05099,4.05095],[116.05004,4.04916],[116.04828,4.0487],[116.04767,4.04763],[116.04711,4.04793],[116.047,4.04821],[116.04548,4.05373],[116.04605,4.05659],[116.04661,4.05793],[116.04667,4.05806],[116.04891,4.06344],[116.04853,4.06572],[116.04502,4.07198],[116.0432,4.07524],[116.04263,4.08038],[116.04129,4.08171],[116.03869,4.08391],[116.03841,4.08622],[116.03936,4.08851],[116.03993,4.09136],[116.03841,4.09365],[116.03727,4.09593],[116.03765,4.0986],[116.03898,4.10126],[116.04333,4.10562],[116.04333,4.10562],[116.04333,4.10562],[116.04351,4.10582],[116.04385,4.10619],[116.04393,4.10627],[116.04415,4.10652],[116.04458,4.10694],[116.04514,4.10744],[116.04562,4.10785],[116.04599,4.10818],[116.04634,4.10843],[116.0468,4.10871],[116.04722,4.1089],[116.04771,4.10909],[116.04822,4.10926],[116.04866,4.10928],[116.04913,4.10922],[116.04974,4.10909],[116.05028,4.10896],[116.05084,4.1088],[116.05134,4.10862],[116.05183,4.10844],[116.05237,4.10821],[116.05288,4.10794],[116.05345,4.10764],[116.05402,4.10728],[116.05408,4.10724],[116.05463,4.10686],[116.05533,4.10634],[116.05584,4.10595],[116.05635,4.1056],[116.05699,4.10517],[116.05747,4.10488],[116.05761,4.1048],[116.05797,4.10461],[116.0585,4.10432],[116.05904,4.10406],[116.05966,4.10382],[116.06015,4.10366],[116.06072,4.10354],[116.06133,4.10344],[116.06191,4.10336],[116.06242,4.1033],[116.06297,4.10326],[116.06341,4.10321],[116.06386,4.10317],[116.06453,4.10312],[116.06499,4.10311],[116.06571,4.10311],[116.06639,4.10308],[116.06712,4.10298],[116.06759,4.10293],[116.0681,4.10287],[116.069,4.10281],[116.06949,4.1028],[116.07019,4.10281],[116.07093,4.10285],[116.07141,4.10288],[116.07229,4.10296],[116.07254,4.10298],[116.07314,4.10327],[116.07567,4.10356],[116.07872,4.10365],[116.0809,4.10375],[116.08167,4.10327],[116.08395,4.10337],[116.08662,4.10594],[116.09033,4.10984],[116.09366,4.11298],[116.09657,4.11598],[116.10064,4.11794],[116.10361,4.11928],[116.10748,4.12032],[116.11164,4.11987],[116.11715,4.11883],[116.11979,4.11795],[116.12173,4.1173],[116.13035,4.11441],[116.13963,4.11251],[116.14657,4.11112],[116.14865,4.1107],[116.1551,4.10941],[116.162,4.10846],[116.16408,4.10817]]]]},"properties":{"kdprov":"65","kdkab":"01","kdkec":"120","kddesa":"006","kdsls":"2001","idsls":"65011200062001","nmprov":"KALIMANTAN UTARA","nmkab":"MALINAU","nmkec":"MENTARANG HULU","nmdesa":"LUNG KEBINU","nmsls":"KAWASAN HUTAN ( BUKAN PERTANIAN )"}},{"type":"Feature","geometry":{"type":"MultiPolygon","coordinates":[[[[116.19189,4.02415],[116.19326,4.02454],[116.19467,4.02417],[116.19505,4.02383],[116.1955,4.02346],[116.19579,4.02311],[116.1958,4.02264],[116.1958,4.02192],[116.19555,4.0216],[116.19515,4.02126],[116.19504,4.02101],[116.19511,4.02082],[116.1944,4.02037],[116.19393,4.02112],[116.19222,4.02308],[116.19189,4.02415]]]]},"properties":{"kdprov":"65","kdkab":"01","kdkec":"120","kddesa":"005","kdsls":"0001","idsls":"65011200050001","nmprov":"KALIMANTAN UTARA","nmkab":"MALINAU","nmkec":"MENTARANG HULU","nmdesa":"LUNG MEKATIP","nmsls":"RT 01"}},{"type":"Feature","geometry":{"type":"MultiPolygon","coordinates":[[[[116.12642,4.04332],[116.1268,4.04511],[116.12915,4.04516],[116.13119,4.04445],[116.13064,4.0426],[116.12966,4.04281],[116.12939,4.04275],[116.129,4.04267],[116.129,4.04267],[116.12829,4.04249],[116.12778,4.04244],[116.12747,4.04244],[116.12714,4.04261],[116.12669,4.04306],[116.12668,4.04306],[116.12642,4.04332]]]]},"properties":{"kdprov":"65","kdkab":"01","kdkec":"120","kddesa":"004","kdsls":"0001","idsls":"65011200040001","nmprov":"KALIMANTAN UTARA","nmkab":"MALINAU","nmkec":"MENTARANG HULU","nmdesa":"LUNG FALA","nmsls":"RT 01"}},{"type":"Feature","geometry":{"type":"MultiPolygon","coordinates":[[[[116.50432,3.52785],[116.50432,3.52784],[116.50426,3.52716],[116.50423,3.52685],[116.50416,3.52606],[116.50411,3.52545],[116.50373,3.52525],[116.50289,3.52481],[116.50286,3.52482],[116.50274,3.52484],[116.50265,3.52487],[116.50255,3.52492],[116.50244,3.52499],[116.50229,3.52512],[116.50213,3.52527],[116.50198,3.52541],[116.50184,3.52555],[116.50171,3.52564],[116.50159,3.52571],[116.50174,3.52623],[116.50208,3.52757],[116.50226,3.52811],[116.5022,3.52812],[116.50243,3.52888],[116.50272,3.52876],[116.50285,3.52865],[116.50303,3.5285],[116.50328,3.52829],[116.50374,3.52798],[116.50381,3.52794],[116.50389,3.52791],[116.504,3.52788],[116.50409,3.52785],[116.50415,3.52785],[116.50432,3.52785]]]]},"properties":{"kdprov":"65","kdkab":"01","kdkec":"120","kddesa":"008","kdsls":"0002","idsls":"65011200080002","nmprov":"KALIMANTAN UTARA","nmkab":"MALINAU","nmkec":"MENTARANG HULU","nmdesa":"LONG GAFID","nmsls":"RT 02"}},{"type":"Feature","geometry":{"type":"MultiPolygon","coordinates":[[[[116.18422,3.81999],[116.18445,3.81989],[116.18477,3.81967],[116.1851,3.81941],[116.18551,3.81907],[116.18584,3.81887],[116.18607,3.81879],[116.18635,3.81884],[116.18654,3.81897],[116.18679,3.81935],[116.18695,3.81986],[116.18708,3.82063],[116.18717,3.82111],[116.18732,3.82142],[116.18764,3.82166],[116.18793,3.8218],[116.18847,3.82104],[116.18874,3.82033],[116.18886,3.81967],[116.1885,3.81888],[116.18838,3.81798],[116.18838,3.81694],[116.18883,3.81547],[116.18919,3.81485],[116.18952,3.81412],[116.18943,3.81338],[116.18931,3.81278],[116.18921,3.81189],[116.18894,3.81123],[116.18883,3.81064],[116.18843,3.81032],[116.1878,3.81035],[116.18687,3.81208],[116.18422,3.81999]]]]},"properties":{"kdprov":"65","kdkab":"01","kdkec":"120","kddesa":"002","kdsls":"0001","idsls":"65011200020001","nmprov":"KALIMANTAN UTARA","nmkab":"MALINAU","nmkec":"MENTARANG HULU","nmdesa":"LUNG BARANG","nmsls":"RT 01 DUSUN"}},{"type":"Feature","geometry":{"type":"MultiPolygon","coordinates":[[[[116.18793,3.8218],[116.18764,3.82166],[116.18732,3.82142],[116.18717,3.82111],[116.18708,3.82063],[116.18695,3.81986],[116.18679,3.81935],[116.18654,3.81897],[116.18635,3.81884],[116.18607,3.81879],[116.18584,3.81887],[116.18551,3.81907],[116.1851,3.81941],[116.18477,3.81967],[116.18445,3.81989],[116.18422,3.81999],[116.18612,3.82298],[116.18633,3.82367],[116.1865,3.8239],[116.18675,3.82415],[116.187,3.82429],[116.18737,3.82441],[116.18782,3.82437],[116.18793,3.8218]]]]},"properties":{"kdprov":"65","kdkab":"01","kdkec":"120","kddesa":"002","kdsls":"0002","idsls":"65011200020002","nmprov":"KALIMANTAN UTARA","nmkab":"MALINAU","nmkec":"MENTARANG HULU","nmdesa":"LUNG BARANG","nmsls":"RT 02 DUSUN"}},{"type":"Feature","geometry":{"type":"MultiPolygon","coordinates":[[[[116.2515,3.83259],[116.25598,3.83769],[116.2586,3.84067],[116.25863,3.84071],[116.25863,3.84071],[116.25658,3.83166],[116.2565,3.83132],[116.25688,3.83048],[116.25887,3.83101],[116.26116,3.82979],[116.26345,3.83025],[116.27059,3.82882],[116.27151,3.82864],[116.27739,3.82746],[116.28594,3.82387],[116.29542,3.82058],[116.30313,3.81852],[116.30535,3.82112],[116.30794,3.82288],[116.31275,3.82616],[116.31726,3.82708],[116.3195,3.8272],[116.32627,3.82758],[116.32785,3.82767],[116.32889,3.82722],[116.33075,3.82603],[116.33076,3.82596],[116.33099,3.82478],[116.33071,3.82385],[116.33046,3.82303],[116.33055,3.82228],[116.33062,3.82157],[116.33065,3.82048],[116.33068,3.81945],[116.33113,3.81883],[116.33175,3.81797],[116.33227,3.81724],[116.33295,3.81631],[116.33355,3.81531],[116.33428,3.81412],[116.3349,3.81309],[116.33525,3.81252],[116.33483,3.81196],[116.33428,3.81123],[116.33346,3.81015],[116.33289,3.8094],[116.33302,3.80826],[116.33313,3.80736],[116.33327,3.80612],[116.33291,3.80553],[116.33244,3.80475],[116.3325,3.80369],[116.33254,3.80291],[116.33259,3.80216],[116.33199,3.80146],[116.33129,3.80064],[116.33079,3.7996],[116.33041,3.79881],[116.33008,3.79813],[116.33049,3.79739],[116.33107,3.79638],[116.33097,3.79538],[116.33091,3.79485],[116.33095,3.79379],[116.33099,3.79264],[116.33114,3.79244],[116.33164,3.79175],[116.33221,3.79097],[116.33311,3.7903],[116.33396,3.78967],[116.334,3.78886],[116.33403,3.78808],[116.33304,3.78686],[116.33223,3.78618],[116.33114,3.78526],[116.33078,3.78442],[116.33023,3.78313],[116.32903,3.78277],[116.32768,3.78236],[116.32768,3.78236],[116.326,3.78224],[116.32536,3.78099],[116.325,3.77987],[116.3246,3.77859],[116.3256,3.77783],[116.32611,3.77748],[116.32705,3.77688],[116.32817,3.77615],[116.32758,3.7752],[116.32673,3.77383],[116.32631,3.77246],[116.32578,3.77082],[116.32585,3.76907],[116.32589,3.768],[116.32635,3.76671],[116.32679,3.76578],[116.32718,3.76496],[116.32776,3.76408],[116.32856,3.76287],[116.3284,3.7618],[116.32792,3.76093],[116.32741,3.76001],[116.32741,3.76001],[116.32608,3.75993],[116.32467,3.75983],[116.32335,3.75971],[116.32299,3.75968],[116.32246,3.75963],[116.32246,3.75963],[116.32222,3.75913],[116.32222,3.75913],[116.32187,3.75841],[116.32128,3.75719],[116.32068,3.756],[116.32018,3.75498],[116.31866,3.75419],[116.31751,3.75354],[116.31629,3.75278],[116.31587,3.75087],[116.31507,3.74999],[116.31462,3.7495],[116.31383,3.74843],[116.31289,3.74781],[116.31188,3.74718],[116.3115,3.74615],[116.31111,3.74547],[116.311,3.74528],[116.3108,3.74454],[116.31058,3.74375],[116.31098,3.74284],[116.31108,3.74261],[116.31118,3.74191],[116.31127,3.74132],[116.31156,3.74052],[116.31184,3.73975],[116.31216,3.73926],[116.3126,3.73857],[116.31315,3.73805],[116.3137,3.73751],[116.31371,3.73751],[116.3144,3.73705],[116.31515,3.73656],[116.31565,3.73616],[116.31619,3.73572],[116.31671,3.7353],[116.31682,3.73495],[116.31694,3.73454],[116.31725,3.73347],[116.31721,3.7326],[116.31682,3.73176],[116.31649,3.73104],[116.31625,3.73011],[116.31611,3.72955],[116.31663,3.7284],[116.31705,3.72747],[116.3174,3.7267],[116.3171,3.72594],[116.31687,3.72536],[116.3165,3.72398],[116.31626,3.72304],[116.31635,3.72178],[116.31636,3.72159],[116.31637,3.72155],[116.31637,3.72149],[116.31641,3.72088],[116.31641,3.72088],[116.31643,3.72068],[116.31643,3.72068],[116.31644,3.72045],[116.31617,3.71977],[116.31576,3.71878],[116.31576,3.71878],[116.3157,3.71861],[116.31553,3.7182],[116.3155,3.71813],[116.31547,3.71805],[116.31547,3.71805],[116.31546,3.71802],[116.31546,3.71802],[116.3146,3.71771],[116.31374,3.71741],[116.31302,3.71712],[116.31196,3.71668],[116.31195,3.71668],[116.31099,3.71596],[116.31001,3.71524],[116.30992,3.71426],[116.30979,3.7129],[116.30979,3.7129],[116.30979,3.71151],[116.30979,3.71027],[116.30994,3.70947],[116.31002,3.709],[116.31006,3.70883],[116.31026,3.70771],[116.31051,3.70632],[116.31051,3.70501],[116.31051,3.70431],[116.31157,3.70353],[116.31253,3.70283],[116.31219,3.70111],[116.31174,3.7001],[116.3114,3.69937],[116.3113,3.69915],[116.31116,3.69883],[116.31116,3.69883],[116.31115,3.69883],[116.31147,3.69726],[116.3118,3.69568],[116.31189,3.69525],[116.31154,3.69508],[116.31135,3.69498],[116.31111,3.69486],[116.31015,3.69438],[116.30921,3.69392],[116.30921,3.69392],[116.30891,3.693],[116.30858,3.69199],[116.30845,3.6916],[116.30829,3.69068],[116.30803,3.68927],[116.3083,3.68794],[116.30848,3.68704],[116.30856,3.68663],[116.30794,3.68613],[116.3073,3.68561],[116.30701,3.68538],[116.30701,3.68444],[116.30701,3.68337],[116.30701,3.68184],[116.30793,3.68098],[116.30904,3.67996],[116.3098,3.67926],[116.31071,3.67842],[116.31121,3.67693],[116.31175,3.67534],[116.31226,3.67383],[116.31268,3.67242],[116.31311,3.67096],[116.31352,3.66958],[116.3135,3.66929],[116.31343,3.66824],[116.31335,3.66698],[116.31329,3.66596],[116.31329,3.66596],[116.31235,3.66544],[116.31107,3.66473],[116.30969,3.66397],[116.30895,3.66356],[116.30766,3.66381],[116.3066,3.66402],[116.30541,3.66425],[116.30541,3.66425],[116.30458,3.66366],[116.30347,3.66288],[116.30347,3.66288],[116.3021,3.66268],[116.30057,3.66245],[116.29899,3.66343],[116.29757,3.6643],[116.29662,3.66489],[116.29581,3.6654],[116.29482,3.66528],[116.29368,3.66514],[116.29305,3.66507],[116.29244,3.66565],[116.29162,3.66645],[116.29012,3.66697],[116.29005,3.66791],[116.28998,3.66879],[116.28992,3.66963],[116.28905,3.67038],[116.288,3.6713],[116.28685,3.67229],[116.28684,3.67228],[116.2868,3.67223],[116.28612,3.67123],[116.28517,3.66985],[116.28517,3.66985],[116.28379,3.66985],[116.28273,3.66985],[116.28273,3.66985],[116.28045,3.66818],[116.27964,3.66573],[116.27879,3.66338],[116.27817,3.66178],[116.2774,3.6595],[116.27619,3.65721],[116.27619,3.65523],[116.27664,3.6531],[116.27664,3.65072],[116.27664,3.64868],[116.27826,3.64669],[116.27923,3.64549],[116.27969,3.64426],[116.27986,3.6438],[116.28014,3.64305],[116.28016,3.64275],[116.28017,3.64242],[116.28019,3.64206],[116.28021,3.64158],[116.28026,3.64056],[116.28026,3.64056],[116.28026,3.64056],[116.27871,3.63999],[116.27748,3.63953],[116.2752,3.63953],[116.27367,3.63953],[116.27154,3.64006],[116.26972,3.63958],[116.26758,3.639],[116.26758,3.639],[116.26768,3.6383],[116.26658,3.6396],[116.26611,3.64016],[116.26596,3.64085],[116.26445,3.64789],[116.26003,3.65341],[116.25838,3.66225],[116.25917,3.66543],[116.26059,3.67108],[116.2639,3.67605],[116.26441,3.67963],[116.265,3.68378],[116.265,3.6904],[116.2639,3.69592],[116.25341,3.70752],[116.24955,3.71469],[116.24789,3.71966],[116.24844,3.73015],[116.25175,3.73954],[116.24899,3.7561],[116.24292,3.76217],[116.2363,3.77045],[116.23133,3.78205],[116.22648,3.79218],[116.22525,3.79474],[116.22525,3.80689],[116.23083,3.80818],[116.23153,3.80988],[116.23211,3.81307],[116.23131,3.81546],[116.23479,3.81756],[116.2361,3.81722],[116.23661,3.81808],[116.23758,3.81853],[116.23798,3.82274],[116.23764,3.82479],[116.23963,3.82673],[116.23958,3.82872],[116.24021,3.82986],[116.24106,3.8314],[116.24357,3.83208],[116.24517,3.83122],[116.24488,3.82997],[116.24568,3.82963],[116.24688,3.82849],[116.24727,3.8281],[116.24757,3.82784],[116.24783,3.82755],[116.24763,3.82659],[116.24769,3.82551],[116.24797,3.82555],[116.2483,3.82558],[116.24875,3.82563],[116.24922,3.82576],[116.24948,3.82606],[116.24953,3.82639],[116.24946,3.82664],[116.24942,3.82694],[116.24944,3.82755],[116.24879,3.828],[116.24871,3.82822],[116.24871,3.82849],[116.24877,3.82876],[116.249,3.82908],[116.24935,3.82926],[116.24973,3.8294],[116.25,3.82958],[116.25024,3.82988],[116.25059,3.8304],[116.25082,3.83089],[116.25099,3.83133],[116.25112,3.83173],[116.25135,3.83201],[116.25158,3.83244],[116.2515,3.83259]]]]},"properties":{"kdprov":"65","kdkab":"01","kdkec":"120","kddesa":"003","kdsls":"2001","idsls":"65011200032001","nmprov":"KALIMANTAN UTARA","nmkab":"MALINAU","nmkec":"MENTARANG HULU","nmdesa":"LUNG SIMAU","nmsls":"KAWASAN HUTAN"}},{"type":"Feature","geometry":{"type":"MultiPolygon","coordinates":[[[[116.50878,3.51513],[116.50737,3.51607],[116.50812,3.51623],[116.50911,3.51572],[116.51026,3.51515],[116.51176,3.51455],[116.51194,3.51451],[116.5124,3.51462],[116.51269,3.51468],[116.51279,3.51478],[116.51293,3.51492],[116.51302,3.515],[116.51387,3.5141],[116.51237,3.51358],[116.51197,3.51367],[116.51136,3.51381],[116.51099,3.51389],[116.50878,3.51513]]]]},"properties":{"kdprov":"65","kdkab":"01","kdkec":"120","kddesa":"009","kdsls":"0001","idsls":"65011200090001","nmprov":"KALIMANTAN UTARA","nmkab":"MALINAU","nmkec":"MENTARANG HULU","nmdesa":"LONG LIKU","nmsls":"RT 001"}},{"type":"Feature","geometry":{"type":"MultiPolygon","coordinates":[[[[116.1834,4.03568],[116.18363,4.03546],[116.18397,4.03547],[116.18416,4.03557],[116.18437,4.03567],[116.18485,4.03605],[116.18499,4.03617],[116.18526,4.03615],[116.18574,4.03584],[116.18581,4.03544],[116.18586,4.03516],[116.18576,4.03483],[116.18566,4.03455],[116.18561,4.03416],[116.18558,4.03398],[116.18502,4.03347],[116.18247,4.035],[116.1834,4.03568]]]]},"properties":{"kdprov":"65","kdkab":"01","kdkec":"120","kddesa":"006","kdsls":"0001","idsls":"65011200060001","nmprov":"KALIMANTAN UTARA","nmkab":"MALINAU","nmkec":"MENTARANG HULU","nmdesa":"LUNG KEBINU","nmsls":"RT 01"}},{"type":"Feature","geometry":{"type":"MultiPolygon","coordinates":[[[[116.49662,3.52521],[116.49719,3.52484],[116.4975,3.52473],[116.49762,3.52506],[116.49842,3.5252],[116.49936,3.52532],[116.49937,3.52535],[116.49936,3.52584],[116.49954,3.52585],[116.49987,3.52586],[116.5001,3.52588],[116.50039,3.52589],[116.50059,3.52593],[116.50085,3.52594],[116.50102,3.52592],[116.50129,3.52584],[116.50159,3.52571],[116.50171,3.52564],[116.50184,3.52555],[116.50198,3.52541],[116.50213,3.52527],[116.50229,3.52512],[116.50244,3.52499],[116.50255,3.52492],[116.50265,3.52487],[116.50274,3.52484],[116.50286,3.52482],[116.50289,3.52481],[116.50132,3.52399],[116.5009,3.52389],[116.49843,3.52329],[116.49704,3.52295],[116.49039,3.52354],[116.48225,3.52517],[116.48065,3.52998],[116.48049,3.53019],[116.482,3.53083],[116.48661,3.53131],[116.48945,3.53119],[116.49366,3.52975],[116.49405,3.52962],[116.49465,3.52941],[116.49706,3.52662],[116.49687,3.52645],[116.49656,3.52632],[116.49635,3.52607],[116.49597,3.52554],[116.49531,3.52495],[116.49475,3.52441],[116.49521,3.52405],[116.49554,3.52425],[116.49587,3.52449],[116.49612,3.52469],[116.4963,3.52485],[116.49641,3.52497],[116.49662,3.52521]]]]},"properties":{"kdprov":"65","kdkab":"01","kdkec":"120","kddesa":"008","kdsls":"1001","idsls":"65011200081001","nmprov":"KALIMANTAN UTARA","nmkab":"MALINAU","nmkec":"MENTARANG HULU","nmdesa":"LONG GAFID","nmsls":"LADANG"}},{"type":"Feature","geometry":{"type":"MultiPolygon","coordinates":[[[[116.50812,3.51623],[116.50843,3.51689],[116.50851,3.51689],[116.51009,3.51691],[116.51202,3.51581],[116.51258,3.51549],[116.51302,3.515],[116.51293,3.51492],[116.51279,3.51478],[116.51269,3.51468],[116.5124,3.51462],[116.51194,3.51451],[116.51176,3.51455],[116.51026,3.51515],[116.50911,3.51572],[116.50812,3.51623]]]]},"properties":{"kdprov":"65","kdkab":"01","kdkec":"120","kddesa":"010","kdsls":"0001","idsls":"65011200100001","nmprov":"KALIMANTAN UTARA","nmkab":"MALINAU","nmkec":"MENTARANG HULU","nmdesa":"TEMALANG","nmsls":"RT 01"}},{"type":"Feature","geometry":{"type":"MultiPolygon","coordinates":[[[[116.05486,3.89281],[116.05478,3.89269],[116.05503,3.89053],[116.05633,3.89035],[116.05668,3.88932],[116.05633,3.88759],[116.05616,3.88637],[116.05754,3.88456],[116.05746,3.88361],[116.05702,3.88222],[116.05711,3.88196],[116.05789,3.88144],[116.05867,3.87989],[116.0591,3.8798],[116.06057,3.87911],[116.06061,3.87785],[116.06174,3.87733],[116.06321,3.87699],[116.0639,3.87586],[116.06433,3.87439],[116.06546,3.87413],[116.06589,3.87422],[116.06779,3.87396],[116.06866,3.87223],[116.0697,3.87232],[116.07065,3.87292],[116.07177,3.87188],[116.07264,3.87223],[116.07203,3.87361],[116.07324,3.8737],[116.07359,3.87275],[116.0748,3.87223],[116.07619,3.87266],[116.07636,3.87214],[116.0774,3.87119],[116.07852,3.8718],[116.07904,3.87007],[116.07869,3.86877],[116.07991,3.86825],[116.07982,3.86661],[116.08103,3.86531],[116.08458,3.86453],[116.08631,3.86505],[116.08683,3.86635],[116.09037,3.86462],[116.09102,3.86492],[116.09137,3.86648],[116.09275,3.86639],[116.09552,3.867],[116.0969,3.86527],[116.0969,3.86432],[116.09751,3.86414],[116.09863,3.86432],[116.09881,3.86284],[116.10002,3.86172],[116.0995,3.86025],[116.1008,3.85999],[116.10158,3.85921],[116.10331,3.85921],[116.10426,3.85938],[116.1053,3.85947],[116.1059,3.86008],[116.10607,3.86103],[116.10512,3.86406],[116.10521,3.86587],[116.10616,3.86778],[116.10737,3.86821],[116.10841,3.86838],[116.10936,3.86838],[116.11057,3.86786],[116.11282,3.8657],[116.11308,3.8644],[116.11386,3.86345],[116.11429,3.86137],[116.11524,3.86103],[116.11507,3.86042],[116.11546,3.85908],[116.11728,3.85778],[116.11935,3.85744],[116.11918,3.85553],[116.11995,3.85502],[116.11995,3.85502],[116.12047,3.85467],[116.12047,3.85467],[116.12158,3.85364],[116.1222,3.853],[116.12263,3.85212],[116.12363,3.85139],[116.12399,3.85126],[116.12479,3.85098],[116.12705,3.85051],[116.12902,3.85077],[116.12929,3.85089],[116.13085,3.85158],[116.13166,3.85203],[116.13216,3.85207],[116.13314,3.85186],[116.13375,3.85184],[116.13425,3.85214],[116.13485,3.85248],[116.13532,3.85245],[116.13649,3.85165],[116.13696,3.85098],[116.13769,3.84965],[116.13811,3.84915],[116.13951,3.84749],[116.1396,3.84645],[116.13951,3.84446],[116.13813,3.84334],[116.14037,3.84057],[116.14037,3.84057],[116.14223,3.8394],[116.14223,3.83828],[116.14163,3.83828],[116.13903,3.83914],[116.13834,3.83542],[116.13739,3.83421],[116.13652,3.83231],[116.13661,3.83231],[116.13618,3.8317],[116.13471,3.83066],[116.13298,3.8304],[116.13038,3.83179],[116.129,3.83127],[116.12969,3.82876],[116.13116,3.82746],[116.13116,3.8266],[116.13021,3.82643],[116.12952,3.82452],[116.12779,3.82123],[116.12649,3.8208],[116.12502,3.81899],[116.12234,3.81682],[116.12126,3.81669],[116.12013,3.81548],[116.11883,3.81462],[116.11641,3.81591],[116.1139,3.81583],[116.11408,3.81444],[116.11312,3.81401],[116.11269,3.81289],[116.11408,3.8115],[116.1139,3.80986],[116.1146,3.80761],[116.11356,3.80571],[116.1107,3.8077],[116.1094,3.80692],[116.10845,3.80527],[116.10371,3.80327],[116.10287,3.80031],[116.10501,3.79592],[116.11226,3.79355],[116.11,3.78667],[116.1136,3.78073],[116.11419,3.77802],[116.11478,3.77527],[116.11498,3.77401],[116.11572,3.76915],[116.11761,3.76659],[116.12051,3.76713],[116.12077,3.76269],[116.12032,3.75878],[116.12117,3.75674],[116.12121,3.75663],[116.12269,3.75571],[116.12094,3.75323],[116.11915,3.7505],[116.11428,3.75157],[116.10965,3.75299],[116.10703,3.75098],[116.10489,3.74861],[116.10394,3.74588],[116.09943,3.7454],[116.09455,3.746],[116.09218,3.74979],[116.08956,3.75359],[116.08338,3.75121],[116.07958,3.74766],[116.07352,3.74778],[116.07281,3.75394],[116.07209,3.75869],[116.0658,3.75857],[116.05985,3.7562],[116.05451,3.75975],[116.0513,3.76585],[116.0483,3.76876],[116.04615,3.76928],[116.04255,3.76876],[116.04154,3.76822],[116.0392,3.76696],[116.03757,3.76524],[116.03465,3.76421],[116.03353,3.76413],[116.03198,3.76421],[116.02889,3.76516],[116.02477,3.76851],[116.02065,3.77289],[116.01859,3.77804],[116.01747,3.78353],[116.01661,3.7898],[116.01378,3.79684],[116.01224,3.79695],[116.00741,3.80043],[116.00205,3.80687],[115.99869,3.81251],[115.99869,3.81788],[116.00084,3.82284],[116.00475,3.83276],[116.0077,3.84357],[116.00377,3.85143],[115.99951,3.85569],[115.9946,3.86125],[115.9887,3.86257],[115.98117,3.86551],[115.9776,3.8683],[115.97069,3.8737],[115.96538,3.87792],[115.96985,3.88202],[115.97845,3.8888],[115.98647,3.89501],[115.98737,3.89562],[115.98979,3.89803],[115.99371,3.90029],[115.99567,3.90346],[115.99989,3.90542],[116.002,3.90542],[116.00532,3.90632],[116.00728,3.90783],[116.00999,3.90753],[116.01512,3.91009],[116.01979,3.91145],[116.02401,3.9125],[116.02808,3.91341],[116.0326,3.91084],[116.03471,3.90873],[116.03788,3.90828],[116.0424,3.90783],[116.04632,3.90316],[116.04949,3.89878],[116.05145,3.89456],[116.05446,3.8929],[116.05486,3.89281]],[[116.11005,3.76227],[116.11022,3.76333],[116.11029,3.76367],[116.11043,3.76417],[116.11042,3.76462],[116.11031,3.76517],[116.11001,3.76556],[116.10868,3.7656],[116.10711,3.7653],[116.10724,3.76259],[116.11005,3.76227]]]]},"properties":{"kdprov":"65","kdkab":"01","kdkec":"120","kddesa":"007","kdsls":"2001","idsls":"65011200072001","nmprov":"KALIMANTAN UTARA","nmkab":"MALINAU","nmkec":"MENTARANG HULU","nmdesa":"LUNG SULIT","nmsls":"KAWASAN HUTAN"}},{"type":"Feature","geometry":{"type":"MultiPolygon","coordinates":[[[[116.23348,3.99773],[116.23322,3.99713],[116.23309,3.99655],[116.2333,3.99582],[116.23343,3.99542],[116.23341,3.99493],[116.23332,3.99428],[116.23323,3.99372],[116.23333,3.99326],[116.23354,3.993],[116.23382,3.99312],[116.23421,3.99372],[116.23427,3.99317],[116.23714,3.98397],[116.23248,3.97587],[116.23935,3.9677],[116.24894,3.96201],[116.25436,3.96392],[116.26803,3.96315],[116.26994,3.95842],[116.2906,3.94845],[116.30451,3.94845],[116.31176,3.94463],[116.3207,3.94478],[116.3236,3.94662],[116.32906,3.92748],[116.32265,3.92198],[116.31547,3.92114],[116.30913,3.92389],[116.30325,3.92213],[116.30004,3.91786],[116.2966,3.91213],[116.28938,3.90292],[116.28365,3.90025],[116.28442,3.89208],[116.28285,3.88921],[116.2788,3.88929],[116.27071,3.88822],[116.2636,3.88333],[116.25917,3.88096],[116.25596,3.8776],[116.2523,3.87592],[116.24876,3.87357],[116.24601,3.87715],[116.24601,3.87715],[116.24466,3.8789],[116.24186,3.88223],[116.24186,3.88223],[116.23993,3.88452],[116.2366,3.88698],[116.23659,3.88698],[116.2343,3.88867],[116.23428,3.88867],[116.23389,3.88867],[116.23321,3.88867],[116.23287,3.88867],[116.23169,3.88867],[116.22749,3.88867],[116.21861,3.88896],[116.21819,3.88922],[116.2178,3.88946],[116.2174,3.8897],[116.21328,3.89222],[116.20868,3.89452],[116.2083,3.89471],[116.20819,3.89477],[116.20736,3.89518],[116.20559,3.89962],[116.2097,3.90082],[116.21028,3.90099],[116.21054,3.90107],[116.21269,3.90169],[116.2133,3.90299],[116.21506,3.90673],[116.21595,3.91146],[116.21553,3.91202],[116.21495,3.91279],[116.21487,3.9129],[116.21328,3.91501],[116.21321,3.91525],[116.2121,3.91857],[116.21237,3.93215],[116.21237,3.93526],[116.21237,3.93705],[116.21237,3.93814],[116.21237,3.93879],[116.20881,3.94518],[116.20621,3.94968],[116.2001,3.95213],[116.19801,3.95296],[116.19761,3.95312],[116.19722,3.95328],[116.19662,3.95352],[116.192,3.95536],[116.18578,3.95782],[116.18559,3.9579],[116.18442,3.95836],[116.18241,3.95916],[116.18229,3.9592],[116.18204,3.9593],[116.18182,3.95939],[116.18181,3.95939],[116.18009,3.95862],[116.17873,3.958],[116.17862,3.95795],[116.17835,3.95783],[116.17708,3.95726],[116.18009,3.95862],[116.17553,3.95985],[116.16988,3.96562],[116.16964,3.97378],[116.16604,3.98063],[116.16358,3.98754],[116.16142,3.9879],[116.1607,3.98946],[116.1595,3.99066],[116.15805,3.99126],[116.15133,3.9915],[116.15001,3.99222],[116.14857,3.99318],[116.14785,3.99558],[116.14616,3.99715],[116.14604,3.99979],[116.14556,4.00171],[116.14376,4.00387],[116.144,4.00615],[116.1422,4.00855],[116.14124,4.01156],[116.14124,4.01372],[116.1418,4.01408],[116.14181,4.01409],[116.14292,4.0148],[116.14556,4.01782],[116.14898,4.01652],[116.14989,4.0172],[116.15172,4.01726],[116.16649,4.01942],[116.16929,4.02221],[116.17397,4.02226],[116.17876,4.02539],[116.18372,4.02892],[116.18742,4.02938],[116.18726,4.02807],[116.18914,4.02755],[116.18937,4.02448],[116.1912,4.02395],[116.19189,4.02415],[116.19222,4.02308],[116.19393,4.02112],[116.1944,4.02037],[116.19511,4.02082],[116.19504,4.02101],[116.19515,4.02126],[116.19555,4.0216],[116.1958,4.02192],[116.1958,4.02264],[116.19579,4.02311],[116.1955,4.02346],[116.19505,4.02383],[116.19467,4.02417],[116.19742,4.02345],[116.19893,4.02305],[116.19925,4.02297],[116.19989,4.02319],[116.20064,4.02383],[116.20092,4.02795],[116.20149,4.02841],[116.20356,4.02717],[116.20456,4.02699],[116.20563,4.02596],[116.20698,4.02543],[116.20786,4.02299],[116.2088,4.022],[116.21445,4.01307],[116.22247,4.01139],[116.22858,4.00604],[116.23343,4.0005],[116.2337,3.99817],[116.23348,3.99773]]]]},"properties":{"kdprov":"65","kdkab":"01","kdkec":"120","kddesa":"005","kdsls":"2001","idsls":"65011200052001","nmprov":"KALIMANTAN UTARA","nmkab":"MALINAU","nmkec":"MENTARANG HULU","nmdesa":"LUNG MEKATIP","nmsls":"KAWASAN HUTAN ( BUKAN PERTANIAN )"}},{"type":"Feature","geometry":{"type":"MultiPolygon","coordinates":[[[[116.12642,4.04332],[116.12668,4.04306],[116.12669,4.04306],[116.12714,4.04261],[116.12747,4.04244],[116.12778,4.04244],[116.12829,4.04249],[116.129,4.04267],[116.129,4.04267],[116.12939,4.04275],[116.12966,4.04281],[116.13064,4.0426],[116.13338,4.0417],[116.13636,4.04073],[116.13803,4.04019],[116.13853,4.04205],[116.1387,4.04268],[116.13928,4.04485],[116.14045,4.04311],[116.14293,4.03939],[116.14527,4.03933],[116.1447,4.03751],[116.14687,4.03672],[116.14786,4.03868],[116.14852,4.04002],[116.14949,4.04064],[116.15024,4.04047],[116.15075,4.0411],[116.15058,4.04303],[116.15343,4.04269],[116.154,4.0436],[116.15548,4.04315],[116.15691,4.04377],[116.15918,4.04387],[116.16096,4.04758],[116.16644,4.0481],[116.16638,4.04541],[116.16632,4.04303],[116.16711,4.04285],[116.16828,4.04258],[116.16974,4.04224],[116.16972,4.0405],[116.16969,4.03859],[116.17013,4.03828],[116.17066,4.03791],[116.17224,4.03949],[116.17334,4.04059],[116.1767,4.0407],[116.17632,4.03869],[116.17618,4.03791],[116.17641,4.03731],[116.17695,4.03735],[116.17743,4.03825],[116.17851,4.03806],[116.17868,4.03777],[116.17895,4.0362],[116.17926,4.03611],[116.18004,4.03738],[116.18056,4.03756],[116.18123,4.03746],[116.18196,4.03712],[116.18275,4.03708],[116.18306,4.03683],[116.1834,4.03568],[116.18247,4.035],[116.18502,4.03347],[116.18558,4.03398],[116.18572,4.03357],[116.18582,4.03304],[116.18598,4.03305],[116.18791,4.03319],[116.18742,4.02938],[116.18372,4.02892],[116.17876,4.02539],[116.17397,4.02226],[116.16929,4.02221],[116.16649,4.01942],[116.15172,4.01726],[116.14989,4.0172],[116.14898,4.01652],[116.14556,4.01782],[116.14292,4.0148],[116.14181,4.01409],[116.1418,4.01408],[116.14124,4.01372],[116.14124,4.01156],[116.1422,4.00855],[116.144,4.00615],[116.14376,4.00387],[116.14556,4.00171],[116.14604,3.99979],[116.14616,3.99715],[116.14785,3.99558],[116.14857,3.99318],[116.15001,3.99222],[116.15133,3.9915],[116.15805,3.99126],[116.1595,3.99066],[116.1607,3.98946],[116.16142,3.9879],[116.16358,3.98754],[116.16604,3.98063],[116.16964,3.97378],[116.16988,3.96562],[116.17553,3.95985],[116.18009,3.95862],[116.17708,3.95726],[116.17647,3.9567],[116.17579,3.95606],[116.17547,3.95577],[116.1747,3.95506],[116.17069,3.95134],[116.15624,3.94613],[116.15511,3.93731],[116.15505,3.93689],[116.15217,3.93532],[116.15193,3.93519],[116.15078,3.93456],[116.1507,3.93451],[116.14984,3.93405],[116.14984,3.93406],[116.14926,3.93502],[116.1489,3.93562],[116.14872,3.93593],[116.14787,3.93734],[116.14785,3.93733],[116.14484,3.93507],[116.14343,3.93351],[116.14295,3.93299],[116.14258,3.93257],[116.14196,3.93189],[116.13984,3.93007],[116.13835,3.92999],[116.13657,3.92993],[116.1352,3.92993],[116.13478,3.92981],[116.13389,3.92939],[116.13359,3.9288],[116.13311,3.92773],[116.13288,3.92672],[116.13228,3.92553],[116.13085,3.92446],[116.12867,3.92391],[116.12824,3.9238],[116.12719,3.92319],[116.12418,3.92234],[116.12281,3.9205],[116.12245,3.91901],[116.1236,3.9172],[116.12633,3.91506],[116.13038,3.91143],[116.13222,3.91018],[116.13454,3.90822],[116.1346,3.90727],[116.13359,3.90566],[116.1346,3.90399],[116.13633,3.90179],[116.13627,3.90126],[116.13621,3.89935],[116.1349,3.8984],[116.13543,3.89781],[116.13746,3.89852],[116.13811,3.89816],[116.13853,3.89727],[116.13758,3.89626],[116.1374,3.89572],[116.13793,3.89471],[116.13793,3.89412],[116.13752,3.8934],[116.13859,3.89263],[116.13906,3.8915],[116.13716,3.89037],[116.13651,3.8896],[116.13657,3.88888],[116.13752,3.8874],[116.13865,3.8865],[116.14031,3.88579],[116.14097,3.88526],[116.14079,3.88407],[116.13978,3.88377],[116.1393,3.88365],[116.13912,3.88311],[116.13996,3.88228],[116.13996,3.88163],[116.13996,3.88044],[116.14013,3.88008],[116.14073,3.87972],[116.1421,3.87937],[116.14257,3.878],[116.14234,3.87687],[116.14162,3.87639],[116.14126,3.8752],[116.1413,3.87373],[116.14073,3.87278],[116.13985,3.87132],[116.1394,3.87092],[116.13743,3.8692],[116.13262,3.86499],[116.12359,3.86048],[116.12104,3.85666],[116.11995,3.85502],[116.11995,3.85502],[116.11918,3.85553],[116.11935,3.85744],[116.11728,3.85778],[116.11546,3.85908],[116.11507,3.86042],[116.11524,3.86103],[116.11429,3.86137],[116.11386,3.86345],[116.11308,3.8644],[116.11282,3.8657],[116.11057,3.86786],[116.10936,3.86838],[116.10841,3.86838],[116.10737,3.86821],[116.10616,3.86778],[116.10521,3.86587],[116.10512,3.86406],[116.10607,3.86103],[116.1059,3.86008],[116.1053,3.85947],[116.10426,3.85938],[116.10331,3.85921],[116.10158,3.85921],[116.1008,3.85999],[116.0995,3.86025],[116.10002,3.86172],[116.09881,3.86284],[116.09863,3.86432],[116.09751,3.86414],[116.0969,3.86432],[116.0969,3.86527],[116.09552,3.867],[116.09275,3.86639],[116.09137,3.86648],[116.09102,3.86492],[116.09037,3.86462],[116.08683,3.86635],[116.08631,3.86505],[116.08458,3.86453],[116.08103,3.86531],[116.07982,3.86661],[116.07991,3.86825],[116.07869,3.86877],[116.07904,3.87007],[116.07852,3.8718],[116.0774,3.87119],[116.07636,3.87214],[116.07619,3.87266],[116.0748,3.87223],[116.07359,3.87275],[116.07324,3.8737],[116.07203,3.87361],[116.07264,3.87223],[116.07177,3.87188],[116.07065,3.87292],[116.0697,3.87232],[116.06866,3.87223],[116.06779,3.87396],[116.06589,3.87422],[116.06546,3.87413],[116.06433,3.87439],[116.0639,3.87586],[116.06321,3.87699],[116.06174,3.87733],[116.06061,3.87785],[116.06057,3.87911],[116.0591,3.8798],[116.05867,3.87989],[116.05789,3.88144],[116.05711,3.88196],[116.05702,3.88222],[116.05746,3.88361],[116.05754,3.88456],[116.05616,3.88637],[116.05633,3.88759],[116.05668,3.88932],[116.05633,3.89035],[116.05503,3.89053],[116.05478,3.89269],[116.05486,3.89281],[116.05703,3.8923],[116.06306,3.8917],[116.06592,3.89094],[116.06743,3.89019],[116.06894,3.89125],[116.06894,3.8929],[116.06954,3.89592],[116.06999,3.89788],[116.06939,3.90044],[116.06818,3.90436],[116.06788,3.90919],[116.06849,3.91552],[116.06894,3.9223],[116.06969,3.93255],[116.07045,3.93934],[116.06924,3.94235],[116.06472,3.95034],[116.06215,3.95637],[116.06019,3.96331],[116.05929,3.96919],[116.05793,3.97989],[116.05808,3.98261],[116.05914,3.98577],[116.06155,3.98894],[116.06261,3.99165],[116.06261,3.99422],[116.06034,3.99919],[116.05944,4.00371],[116.05869,4.00718],[116.05778,4.00794],[116.05492,4.00869],[116.051,4.0102],[116.04843,4.01306],[116.04904,4.0203],[116.04783,4.02422],[116.04624,4.02803],[116.04758,4.03584],[116.04853,4.04402],[116.04711,4.04793],[116.04767,4.04763],[116.04828,4.0487],[116.05004,4.04916],[116.05099,4.05095],[116.05336,4.05019],[116.05283,4.04935],[116.05412,4.04828],[116.0568,4.04912],[116.05833,4.04912],[116.05993,4.04629],[116.0626,4.04614],[116.06635,4.04744],[116.06696,4.0466],[116.06841,4.04614],[116.06925,4.04645],[116.0707,4.0453],[116.07093,4.04354],[116.07284,4.04354],[116.07421,4.04492],[116.07566,4.04484],[116.07612,4.04423],[116.0762,4.04301],[116.07757,4.04278],[116.07887,4.04446],[116.07994,4.04446],[116.08101,4.04309],[116.08231,4.04255],[116.08353,4.04324],[116.08391,4.04416],[116.08391,4.04507],[116.08544,4.04515],[116.08643,4.04591],[116.08689,4.04729],[116.08907,4.04771],[116.09006,4.04671],[116.09159,4.04603],[116.09342,4.0461],[116.09541,4.04526],[116.09839,4.04534],[116.099,4.04732],[116.10007,4.04679],[116.10083,4.04511],[116.10175,4.0448],[116.10312,4.04732],[116.10435,4.04648],[116.10526,4.04519],[116.10763,4.04396],[116.10786,4.0448],[116.10839,4.04626],[116.10908,4.04496],[116.10885,4.04351],[116.11069,4.04221],[116.11107,4.04343],[116.11198,4.04373],[116.11328,4.04335],[116.11305,4.04542],[116.11382,4.04564],[116.1142,4.04458],[116.1145,4.0432],[116.11733,4.04335],[116.11809,4.04373],[116.1197,4.04305],[116.12084,4.04335],[116.12058,4.04423],[116.12279,4.04406],[116.12367,4.04399],[116.12413,4.04447],[116.1244,4.04457],[116.12491,4.04478],[116.12531,4.04443],[116.12592,4.04382],[116.12606,4.04368],[116.12642,4.04332]]]]},"properties":{"kdprov":"65","kdkab":"01","kdkec":"120","kddesa":"004","kdsls":"2001","idsls":"65011200042001","nmprov":"KALIMANTAN UTARA","nmkab":"MALINAU","nmkec":"MENTARANG HULU","nmdesa":"LUNG FALA","nmsls":"KAWASAN HUTAN ( BUKAN PERTANIAN )"}},{"type":"Feature","geometry":{"type":"MultiPolygon","coordinates":[[[[116.088,3.70012],[116.08826,3.70005],[116.08878,3.70014],[116.08931,3.70032],[116.08973,3.70059],[116.09015,3.70076],[116.09096,3.70089],[116.09168,3.70085],[116.09203,3.70076],[116.09236,3.7005],[116.09266,3.70024],[116.09276,3.6999],[116.09256,3.69958],[116.09208,3.69916],[116.09164,3.69893],[116.09124,3.69868],[116.0908,3.69805],[116.09046,3.69738],[116.09035,3.69694],[116.08157,3.69893],[116.08221,3.70234],[116.08241,3.70193],[116.08266,3.70177],[116.08315,3.70167],[116.08371,3.70158],[116.08434,3.70156],[116.08492,3.70166],[116.0853,3.70184],[116.08588,3.70194],[116.08632,3.7019],[116.08669,3.70174],[116.087,3.70152],[116.08737,3.70088],[116.088,3.70012]]]]},"properties":{"kdprov":"65","kdkab":"01","kdkec":"120","kddesa":"001","kdsls":"0001","idsls":"65011200010001","nmprov":"KALIMANTAN UTARA","nmkab":"MALINAU","nmkec":"MENTARANG HULU","nmdesa":"LUNG SEMAMU","nmsls":"RT 01"}},{"type":"Feature","geometry":{"type":"MultiPolygon","coordinates":[[[[116.12269,3.75571],[116.1255,3.75397],[116.1276,3.75266],[116.12895,3.75182],[116.13707,3.75124],[116.14489,3.74826],[116.14853,3.74546],[116.15011,3.74113],[116.15013,3.74104],[116.15113,3.73709],[116.15231,3.73537],[116.15092,3.73103],[116.15136,3.7242],[116.14881,3.71553],[116.14693,3.71249],[116.14351,3.70783],[116.1395,3.70295],[116.13778,3.69878],[116.13759,3.69161],[116.13737,3.69089],[116.13667,3.68752],[116.13614,3.68344],[116.13529,3.68057],[116.13314,3.67336],[116.13203,3.67194],[116.1309,3.6705],[116.12872,3.66663],[116.12876,3.66534],[116.12883,3.66336],[116.1305,3.65958],[116.13416,3.65708],[116.13776,3.65217],[116.14237,3.64584],[116.14699,3.64266],[116.15132,3.63781],[116.15436,3.63413],[116.15686,3.63107],[116.15847,3.6278],[116.16449,3.62042],[116.16677,3.61693],[116.16913,3.61036],[116.17548,3.60749],[116.17836,3.60728],[116.18561,3.60496],[116.1909,3.60055],[116.19445,3.59647],[116.19605,3.59131],[116.19797,3.58078],[116.19839,3.57589],[116.19881,3.5729],[116.2002,3.56652],[116.20303,3.55827],[116.20819,3.55013],[116.21246,3.54322],[116.21654,3.53682],[116.21933,3.53498],[116.21933,3.53498],[116.21969,3.53585],[116.22041,3.53621],[116.22124,3.53573],[116.22196,3.53478],[116.22327,3.53358],[116.22339,3.53227],[116.22505,3.53155],[116.22577,3.53095],[116.22637,3.53059],[116.23188,3.52613],[116.23533,3.52108],[116.23804,3.51996],[116.24111,3.51996],[116.24484,3.51893],[116.24652,3.51696],[116.24867,3.51256],[116.25091,3.50601],[116.2554,3.49477],[116.2595,3.49149],[116.26272,3.48676],[116.26357,3.48395],[116.26497,3.48133],[116.2701,3.47693],[116.27486,3.47394],[116.27821,3.47347],[116.28455,3.47141],[116.28912,3.47039],[116.29658,3.47105],[116.29942,3.47137],[116.29956,3.46977],[116.29955,3.4687],[116.29945,3.46817],[116.29959,3.46627],[116.29945,3.46498],[116.29936,3.46346],[116.29955,3.46194],[116.30002,3.4598],[116.29983,3.45751],[116.30055,3.45475],[116.30078,3.45351],[116.30088,3.45261],[116.30107,3.4518],[116.30207,3.45128],[116.30269,3.45085],[116.30318,3.44999],[116.30274,3.44801],[116.30281,3.4469],[116.30271,3.4462],[116.30224,3.44543],[116.30159,3.44452],[116.30108,3.44351],[116.30014,3.44231],[116.29993,3.4417],[116.29964,3.4407],[116.29938,3.4403],[116.29875,3.43983],[116.29797,3.43914],[116.29741,3.43836],[116.29727,3.43745],[116.2972,3.43644],[116.29605,3.43486],[116.29525,3.43356],[116.29469,3.43234],[116.29411,3.43141],[116.29367,3.43083],[116.29321,3.42992],[116.29276,3.42904],[116.29159,3.4273],[116.28843,3.42237],[116.28765,3.42138],[116.28657,3.42058],[116.28581,3.41979],[116.28512,3.41897],[116.28465,3.41818],[116.28431,3.41744],[116.28393,3.41704],[116.28376,3.41644],[116.28345,3.41576],[116.28249,3.41533],[116.28193,3.41514],[116.28112,3.41428],[116.28056,3.41366],[116.27977,3.41314],[116.27883,3.41271],[116.27753,3.41199],[116.27659,3.41136],[116.27593,3.41063],[116.27518,3.4103],[116.27454,3.40977],[116.27263,3.40832],[116.27166,3.4076],[116.26953,3.40671],[116.26706,3.40479],[116.26496,3.40315],[116.26344,3.40171],[116.26251,3.40137],[116.26054,3.40094],[116.25972,3.40025],[116.25947,3.3994],[116.25838,3.39817],[116.2576,3.39744],[116.25711,3.39706],[116.25662,3.39605],[116.2559,3.39605],[116.25547,3.39583],[116.25388,3.39605],[116.25341,3.39579],[116.25247,3.39544],[116.25147,3.39561],[116.25147,3.39561],[116.25047,3.39612],[116.24972,3.3959],[116.24872,3.39604],[116.24872,3.39604],[116.2481,3.39659],[116.24725,3.39751],[116.24725,3.39751],[116.24582,3.39773],[116.24482,3.39755],[116.24382,3.39712],[116.24281,3.39663],[116.24153,3.39642],[116.24065,3.39627],[116.23928,3.39572],[116.23865,3.39539],[116.23799,3.39526],[116.23675,3.39536],[116.23557,3.39557],[116.23507,3.39521],[116.23447,3.39438],[116.23372,3.39391],[116.23372,3.39391],[116.23282,3.39432],[116.23282,3.39432],[116.23193,3.39474],[116.23121,3.39535],[116.23061,3.39595],[116.23011,3.39642],[116.22968,3.39746],[116.22968,3.39746],[116.22878,3.39736],[116.22769,3.39697],[116.22694,3.39668],[116.22638,3.39649],[116.22575,3.39631],[116.22468,3.39624],[116.22318,3.39649],[116.22318,3.39649],[116.22221,3.39714],[116.22167,3.39789],[116.22047,3.39906],[116.22047,3.39906],[116.2192,3.39993],[116.2192,3.39993],[116.21821,3.40058],[116.21821,3.40058],[116.21721,3.40112],[116.21642,3.40183],[116.21602,3.40236],[116.21572,3.40275],[116.2152,3.40352],[116.2152,3.40352],[116.21445,3.40384],[116.21347,3.40388],[116.21347,3.40388],[116.21284,3.40409],[116.21199,3.40409],[116.21199,3.40409],[116.21137,3.40443],[116.21137,3.40443],[116.21068,3.40481],[116.21068,3.40481],[116.20985,3.40512],[116.20985,3.40512],[116.2087,3.40535],[116.20759,3.40513],[116.20631,3.40527],[116.20538,3.40574],[116.20503,3.40608],[116.20438,3.40672],[116.20438,3.40672],[116.20395,3.40707],[116.20395,3.40707],[116.20352,3.40741],[116.20352,3.40741],[116.2032,3.40767],[116.20227,3.40757],[116.20162,3.40692],[116.20121,3.40651],[116.20066,3.40595],[116.20002,3.4057],[116.20002,3.4057],[116.19918,3.40598],[116.19918,3.40598],[116.19884,3.40609],[116.19835,3.40652],[116.19835,3.40652],[116.19787,3.40693],[116.19787,3.40693],[116.19691,3.40767],[116.19691,3.40767],[116.19617,3.40787],[116.19617,3.40787],[116.19573,3.40799],[116.19573,3.40799],[116.19487,3.40813],[116.19445,3.4085],[116.19407,3.40896],[116.19379,3.40934],[116.19352,3.4098],[116.1933,3.41022],[116.1933,3.41022],[116.19274,3.41068],[116.19274,3.41068],[116.19238,3.41102],[116.19178,3.41171],[116.19102,3.41181],[116.19058,3.41186],[116.19058,3.41186],[116.19017,3.41219],[116.19017,3.41219],[116.19006,3.41228],[116.18974,3.41253],[116.18921,3.41298],[116.18915,3.41302],[116.1889,3.41323],[116.18861,3.41358],[116.18832,3.41393],[116.18814,3.41423],[116.18807,3.41436],[116.18768,3.41517],[116.18701,3.41588],[116.18601,3.41542],[116.18518,3.4152],[116.18408,3.41552],[116.1832,3.41602],[116.18236,3.41657],[116.18172,3.41701],[116.18143,3.41721],[116.18056,3.41768],[116.17977,3.4182],[116.17895,3.41876],[116.17831,3.41921],[116.17746,3.41999],[116.17672,3.42044],[116.17637,3.42088],[116.17611,3.4212],[116.17551,3.42199],[116.17523,3.42238],[116.17437,3.42217],[116.17306,3.42193],[116.17166,3.42229],[116.1709,3.42302],[116.17027,3.42361],[116.16969,3.42414],[116.16889,3.42406],[116.16776,3.42396],[116.16671,3.42423],[116.16591,3.42467],[116.16501,3.42533],[116.16414,3.42601],[116.16316,3.42685],[116.16227,3.42745],[116.16138,3.42822],[116.16064,3.42886],[116.16029,3.42924],[116.1598,3.42979],[116.15887,3.42958],[116.15787,3.42937],[116.15714,3.42982],[116.15647,3.43023],[116.15558,3.43002],[116.15461,3.42979],[116.15391,3.42963],[116.15315,3.42988],[116.15272,3.43002],[116.1521,3.43047],[116.15168,3.43074],[116.15099,3.43112],[116.15039,3.43112],[116.1495,3.43136],[116.14939,3.43175],[116.14899,3.4325],[116.14849,3.43205],[116.14789,3.43199],[116.14782,3.43258],[116.14773,3.43337],[116.14815,3.43396],[116.14854,3.4345],[116.14803,3.43521],[116.14717,3.43561],[116.1469,3.43603],[116.14675,3.43698],[116.14717,3.43746],[116.14755,3.43794],[116.14752,3.43838],[116.14749,3.43869],[116.14719,3.43938],[116.14692,3.43992],[116.14695,3.44043],[116.14725,3.44102],[116.14771,3.44166],[116.148,3.44205],[116.14827,3.44243],[116.14859,3.44297],[116.14899,3.44337],[116.14912,3.44351],[116.1496,3.44369],[116.15026,3.4436],[116.15094,3.4436],[116.15116,3.44402],[116.15106,3.44474],[116.15089,3.44518],[116.15064,3.44572],[116.15042,3.44628],[116.15031,3.44662],[116.15025,3.44734],[116.15016,3.44794],[116.15022,3.44875],[116.15037,3.44955],[116.15054,3.45023],[116.15064,3.4506],[116.15082,3.45102],[116.15106,3.45154],[116.15134,3.45215],[116.15166,3.45284],[116.15189,3.45339],[116.15208,3.45393],[116.15218,3.45435],[116.15224,3.45488],[116.15186,3.45538],[116.15155,3.45587],[116.15141,3.45608],[116.15087,3.4562],[116.15034,3.45602],[116.14992,3.45587],[116.14962,3.45587],[116.14911,3.45616],[116.1489,3.45661],[116.1489,3.45727],[116.14932,3.45763],[116.14941,3.45787],[116.14926,3.45835],[116.14881,3.45868],[116.14843,3.4588],[116.14807,3.4593],[116.14762,3.45975],[116.14713,3.46012],[116.14669,3.46062],[116.14625,3.46142],[116.14627,3.4618],[116.14628,3.46196],[116.1466,3.46229],[116.14698,3.46254],[116.14742,3.46279],[116.14793,3.46311],[116.14837,3.46343],[116.14872,3.46385],[116.14883,3.46451],[116.14874,3.46496],[116.14864,3.46565],[116.14838,3.46612],[116.14822,3.4666],[116.14809,3.46696],[116.14764,3.46735],[116.14705,3.4675],[116.14669,3.46771],[116.14669,3.46789],[116.1466,3.46815],[116.1466,3.46863],[116.14652,3.46917],[116.14646,3.46945],[116.14603,3.46979],[116.1452,3.47016],[116.14487,3.47052],[116.14457,3.47061],[116.14435,3.47036],[116.14418,3.47019],[116.14417,3.46965],[116.14416,3.46932],[116.14402,3.46906],[116.14386,3.46875],[116.14363,3.46821],[116.14353,3.46798],[116.14326,3.46757],[116.14304,3.46725],[116.14279,3.46678],[116.1427,3.46643],[116.14241,3.4661],[116.14204,3.46559],[116.14163,3.46504],[116.14141,3.46447],[116.14098,3.46394],[116.14033,3.4638],[116.13968,3.46403],[116.13931,3.46454],[116.13927,3.46499],[116.13931,3.46557],[116.13955,3.466],[116.13965,3.46633],[116.13984,3.46657],[116.13992,3.46688],[116.14003,3.46729],[116.14022,3.46774],[116.14041,3.46811],[116.14052,3.46873],[116.14038,3.46911],[116.14031,3.4693],[116.13998,3.46935],[116.13967,3.46917],[116.13962,3.46883],[116.13956,3.46849],[116.13947,3.46818],[116.13918,3.46833],[116.13871,3.46875],[116.13826,3.46901],[116.13796,3.46925],[116.13765,3.46971],[116.13737,3.4702],[116.13714,3.4707],[116.13704,3.47097],[116.13689,3.47135],[116.13683,3.47182],[116.13678,3.4722],[116.13667,3.47273],[116.13658,3.47318],[116.1365,3.47351],[116.13641,3.47392],[116.13623,3.47419],[116.13608,3.47464],[116.13599,3.475],[116.13579,3.47528],[116.13552,3.47568],[116.13501,3.47577],[116.13474,3.47565],[116.13439,3.47549],[116.13416,3.47526],[116.13403,3.47512],[116.13379,3.47467],[116.13373,3.47396],[116.1336,3.47329],[116.13346,3.47278],[116.13308,3.47233],[116.13273,3.47214],[116.13236,3.47194],[116.13199,3.47169],[116.13174,3.47152],[116.13125,3.47144],[116.13074,3.47133],[116.13049,3.47128],[116.12986,3.47095],[116.12943,3.47069],[116.12912,3.4705],[116.12864,3.47038],[116.12802,3.47041],[116.12739,3.47083],[116.1268,3.47125],[116.12665,3.47155],[116.12629,3.47191],[116.12603,3.47184],[116.12532,3.47197],[116.125,3.47219],[116.12444,3.47274],[116.12418,3.47301],[116.12379,3.4734],[116.12336,3.47403],[116.12295,3.47457],[116.12254,3.47501],[116.12215,3.47543],[116.1217,3.47558],[116.12117,3.47546],[116.12066,3.47555],[116.12018,3.47546],[116.11927,3.47546],[116.1189,3.47533],[116.11831,3.47501],[116.1178,3.47516],[116.11724,3.4751],[116.11688,3.47486],[116.11643,3.47498],[116.1163,3.47519],[116.11607,3.47579],[116.11613,3.47623],[116.11634,3.47674],[116.11653,3.47713],[116.11646,3.47767],[116.11615,3.47799],[116.11601,3.47814],[116.11566,3.47827],[116.11521,3.47827],[116.11464,3.47821],[116.11443,3.47788],[116.11392,3.4781],[116.11375,3.47845],[116.11347,3.47876],[116.11309,3.47895],[116.11266,3.47876],[116.1125,3.47868],[116.11205,3.47829],[116.11143,3.47826],[116.11108,3.47851],[116.11077,3.47886],[116.11075,3.47934],[116.11086,3.47991],[116.11106,3.48006],[116.1114,3.48033],[116.11176,3.48049],[116.11208,3.48063],[116.11218,3.48107],[116.11196,3.48168],[116.1116,3.48188],[116.11107,3.48205],[116.1102,3.48254],[116.1099,3.48299],[116.10964,3.48341],[116.10952,3.48386],[116.10961,3.48434],[116.10981,3.48484],[116.1102,3.48541],[116.11057,3.48569],[116.11106,3.48607],[116.11154,3.48645],[116.11176,3.4867],[116.11192,3.48688],[116.11213,3.48739],[116.11201,3.48778],[116.11151,3.48844],[116.11118,3.48885],[116.11084,3.48954],[116.1107,3.4899],[116.11067,3.49035],[116.11061,3.49087],[116.11058,3.49115],[116.1106,3.49161],[116.11061,3.49218],[116.11062,3.4927],[116.11063,3.49313],[116.11064,3.49343],[116.1104,3.49385],[116.11015,3.4942],[116.10991,3.49462],[116.10977,3.49496],[116.10979,3.49527],[116.1098,3.49553],[116.10999,3.49594],[116.11019,3.4963],[116.11034,3.49672],[116.11055,3.49714],[116.11064,3.49774],[116.11069,3.49822],[116.11049,3.49873],[116.11019,3.49887],[116.10983,3.49906],[116.10954,3.499],[116.10932,3.49897],[116.10894,3.49865],[116.10867,3.4984],[116.10819,3.49798],[116.10804,3.49786],[116.10733,3.49764],[116.10687,3.49761],[116.10636,3.4977],[116.10611,3.49777],[116.10563,3.49812],[116.10535,3.49845],[116.10516,3.49866],[116.10489,3.49875],[116.10426,3.49875],[116.10396,3.4989],[116.10376,3.4992],[116.10374,3.49951],[116.10373,3.49971],[116.10364,3.50019],[116.10337,3.50049],[116.10286,3.5006],[116.10239,3.50049],[116.10212,3.50042],[116.10166,3.50021],[116.10144,3.50012],[116.10111,3.49998],[116.10057,3.49991],[116.10027,3.49994],[116.09977,3.50024],[116.09935,3.50051],[116.09878,3.50069],[116.09862,3.50055],[116.09846,3.50039],[116.09813,3.49988],[116.09789,3.49958],[116.09766,3.49919],[116.09732,3.49878],[116.09704,3.49845],[116.09669,3.4981],[116.0964,3.498],[116.09581,3.49799],[116.09518,3.49847],[116.09466,3.49898],[116.09426,3.49931],[116.09353,3.49935],[116.09289,3.49922],[116.09239,3.4992],[116.09214,3.49919],[116.09164,3.49925],[116.09125,3.49976],[116.09113,3.5002],[116.09107,3.50086],[116.09125,3.50134],[116.0914,3.50155],[116.09173,3.50194],[116.09199,3.50242],[116.09181,3.50287],[116.09152,3.50314],[116.09085,3.50324],[116.0902,3.50312],[116.08999,3.50293],[116.08976,3.50263],[116.08964,3.50242],[116.08931,3.50189],[116.08913,3.50167],[116.08875,3.50194],[116.08854,3.50245],[116.08855,3.50273],[116.08856,3.50312],[116.08854,3.5035],[116.08851,3.50398],[116.08848,3.50445],[116.08829,3.50479],[116.08819,3.50496],[116.0878,3.50534],[116.08743,3.50559],[116.0869,3.50567],[116.08652,3.5055],[116.08603,3.50549],[116.0858,3.50585],[116.08556,3.50628],[116.08547,3.50645],[116.08544,3.50668],[116.08544,3.50715],[116.08551,3.50771],[116.08553,3.50801],[116.08535,3.50843],[116.0849,3.50866],[116.08451,3.50872],[116.08428,3.50875],[116.08388,3.50896],[116.08344,3.50926],[116.08311,3.50971],[116.08258,3.50998],[116.0821,3.51033],[116.08183,3.51056],[116.08133,3.51096],[116.08077,3.51109],[116.08034,3.51117],[116.07981,3.51123],[116.0796,3.51144],[116.07927,3.51153],[116.07891,3.51156],[116.07841,3.51183],[116.07802,3.51207],[116.07771,3.51209],[116.07751,3.5121],[116.07704,3.51201],[116.07644,3.5118],[116.07614,3.51175],[116.07585,3.51171],[116.07543,3.51183],[116.07519,3.51198],[116.07512,3.51227],[116.07501,3.51269],[116.0751,3.51296],[116.07522,3.51311],[116.07546,3.51359],[116.0754,3.51392],[116.07522,3.51437],[116.07482,3.51468],[116.07459,3.51479],[116.07427,3.51479],[116.07409,3.51461],[116.074,3.5141],[116.07401,3.51392],[116.07403,3.51362],[116.07394,3.51347],[116.07397,3.51296],[116.07394,3.51266],[116.07376,3.51243],[116.07364,3.51227],[116.07322,3.51215],[116.07287,3.51203],[116.07245,3.51215],[116.07218,3.51241],[116.07195,3.51263],[116.07147,3.51278],[116.07096,3.51323],[116.07063,3.51377],[116.07045,3.51412],[116.07028,3.51455],[116.07022,3.5149],[116.07034,3.51517],[116.07044,3.51567],[116.07044,3.51621],[116.07042,3.51667],[116.07037,3.5171],[116.0703,3.51747],[116.07026,3.51795],[116.07026,3.5184],[116.07048,3.51871],[116.07062,3.5189],[116.0707,3.51947],[116.07073,3.51998],[116.07062,3.52063],[116.07026,3.52106],[116.0698,3.52117],[116.0694,3.52127],[116.06904,3.52114],[116.06858,3.52088],[116.06833,3.52052],[116.06822,3.52017],[116.0681,3.51965],[116.06797,3.51937],[116.06772,3.51913],[116.06744,3.51887],[116.06712,3.51854],[116.06687,3.5184],[116.06626,3.5185],[116.06566,3.5188],[116.06505,3.51908],[116.06465,3.51947],[116.06401,3.51951],[116.06338,3.51903],[116.06322,3.5189],[116.06243,3.51855],[116.0619,3.51836],[116.06137,3.51814],[116.06094,3.51803],[116.06055,3.51841],[116.06037,3.51864],[116.06028,3.51912],[116.06011,3.51986],[116.05993,3.52051],[116.05965,3.52094],[116.05933,3.52148],[116.05874,3.52197],[116.05793,3.52209],[116.05722,3.52212],[116.05675,3.52212],[116.05632,3.52189],[116.05586,3.52155],[116.05561,3.52129],[116.05522,3.52093],[116.05483,3.52058],[116.05425,3.5205],[116.05386,3.52072],[116.05368,3.5209],[116.0534,3.52147],[116.05331,3.52198],[116.05322,3.52242],[116.05314,3.52273],[116.05279,3.52316],[116.05224,3.523],[116.05211,3.52294],[116.05169,3.52337],[116.05132,3.52366],[116.05096,3.5238],[116.05053,3.52416],[116.05003,3.52412],[116.04946,3.52416],[116.04882,3.52405],[116.04846,3.52412],[116.04807,3.52427],[116.04808,3.52468],[116.04809,3.52509],[116.0481,3.52563],[116.04825,3.52582],[116.04871,3.52642],[116.04875,3.52692],[116.04847,3.52754],[116.04821,3.52811],[116.04817,3.52875],[116.04768,3.52896],[116.04739,3.52908],[116.04683,3.52875],[116.04655,3.52834],[116.04639,3.528],[116.04603,3.52735],[116.04618,3.52695],[116.04637,3.52647],[116.04651,3.52592],[116.04664,3.52538],[116.04628,3.52506],[116.04594,3.52477],[116.04545,3.52436],[116.04472,3.52456],[116.04415,3.52472],[116.04385,3.52481],[116.04327,3.52527],[116.04274,3.52569],[116.04249,3.5259],[116.04177,3.52627],[116.04121,3.52657],[116.04056,3.52691],[116.04023,3.52709],[116.03948,3.52697],[116.03868,3.52685],[116.03814,3.52648],[116.03759,3.52609],[116.03669,3.52541],[116.03615,3.52497],[116.0358,3.52468],[116.03511,3.52411],[116.03441,3.52386],[116.03389,3.52368],[116.03323,3.52344],[116.03262,3.52322],[116.03178,3.52292],[116.0312,3.52265],[116.03063,3.52239],[116.0298,3.52201],[116.02912,3.5217],[116.02848,3.5214],[116.02778,3.52108],[116.02671,3.52122],[116.02586,3.52134],[116.02485,3.52147],[116.02405,3.52158],[116.0235,3.52152],[116.02286,3.52146],[116.02235,3.52141],[116.02155,3.52134],[116.021,3.52112],[116.02037,3.52086],[116.01986,3.52065],[116.01909,3.52034],[116.01812,3.52021],[116.01713,3.52009],[116.01604,3.52005],[116.01511,3.52002],[116.01377,3.52001],[116.01315,3.51999],[116.01193,3.5199],[116.01088,3.51987],[116.00962,3.5198],[116.00909,3.51977],[116.00827,3.5198],[116.00764,3.51983],[116.00701,3.51986],[116.00638,3.51989],[116.00581,3.51991],[116.00513,3.51985],[116.00439,3.51978],[116.00337,3.51968],[116.00271,3.52008],[116.00206,3.52048],[116.00157,3.52078],[116.00122,3.52099],[116.00089,3.52163],[116.00053,3.52231],[116.00015,3.52305],[115.99949,3.52323],[115.99884,3.52341],[115.99793,3.52329],[115.99723,3.52321],[115.99669,3.52314],[115.99646,3.52378],[115.99621,3.52434],[115.99585,3.52514],[115.99551,3.52591],[115.99471,3.52605],[115.9942,3.52615],[115.99366,3.52665],[115.9931,3.52718],[115.99257,3.52768],[115.99218,3.52805],[115.99201,3.52859],[115.99176,3.52945],[115.99136,3.53053],[115.9911,3.53108],[115.99087,3.5315],[115.99027,3.53209],[115.99001,3.53251],[115.98968,3.53302],[115.98944,3.5334],[115.98873,3.534],[115.98847,3.53471],[115.98825,3.53531],[115.98812,3.53619],[115.98801,3.53697],[115.9878,3.53784],[115.98762,3.53841],[115.98749,3.53883],[115.98737,3.53922],[115.9873,3.53943],[115.98718,3.53983],[115.98692,3.54047],[115.98664,3.54112],[115.98635,3.54185],[115.98652,3.54267],[115.98658,3.54342],[115.98663,3.54423],[115.98665,3.54486],[115.98663,3.54546],[115.98661,3.54592],[115.98658,3.54673],[115.98603,3.5472],[115.98521,3.54819],[115.98438,3.54943],[115.9835,3.55114],[115.98325,3.55167],[115.98301,3.5522],[115.98311,3.55305],[115.9832,3.55381],[115.98329,3.55457],[115.98336,3.55515],[115.98344,3.55582],[115.98327,3.55659],[115.9831,3.55734],[115.98307,3.55748],[115.98306,3.55755],[115.98269,3.55896],[115.98266,3.55906],[115.98261,3.55925],[115.98256,3.55942],[115.98239,3.56008],[115.98222,3.56069],[115.9817,3.5615],[115.98136,3.56204],[115.98113,3.5624],[115.98088,3.56279],[115.98065,3.56315],[115.98047,3.56343],[115.97978,3.5633],[115.97902,3.56316],[115.9781,3.56299],[115.97721,3.56282],[115.97595,3.56259],[115.97518,3.56244],[115.9744,3.5623],[115.97372,3.56217],[115.97226,3.56188],[115.97227,3.56191],[115.97277,3.56351],[115.97015,3.5659],[115.96949,3.5665],[115.96878,3.5669],[115.96651,3.56816],[115.96627,3.5682],[115.96436,3.57081],[115.9625,3.57341],[115.95894,3.57839],[115.95843,3.58026],[115.95678,3.58633],[115.95245,3.59643],[115.95218,3.60062],[115.95211,3.60178],[115.95194,3.6045],[115.95194,3.6045],[115.95172,3.60798],[115.95172,3.60798],[115.95284,3.61078],[115.95316,3.61157],[115.95461,3.6152],[115.95497,3.61644],[115.95582,3.61944],[115.95605,3.62025],[115.95557,3.62074],[115.95499,3.62131],[115.95028,3.62603],[115.94234,3.6318],[115.93691,3.63638],[115.93686,3.63641],[115.93559,3.63748],[115.93548,3.63758],[115.93448,3.63991],[115.93332,3.64263],[115.93342,3.64521],[115.93342,3.64523],[115.93368,3.65165],[115.93246,3.65342],[115.93173,3.65449],[115.92971,3.65743],[115.92502,3.66464],[115.92255,3.67034],[115.92255,3.67035],[115.92033,3.67547],[115.91678,3.67902],[115.91419,3.68161],[115.91347,3.68436],[115.91202,3.68991],[115.91246,3.69136],[115.9132,3.69383],[115.91353,3.69494],[115.91419,3.69713],[115.91506,3.69962],[115.91506,3.69963],[115.91744,3.70651],[115.92055,3.71272],[115.92141,3.71445],[115.9216,3.71514],[115.92277,3.71945],[115.92466,3.72636],[115.92591,3.73669],[115.9261,3.73827],[115.9261,3.73827],[115.92621,3.73913],[115.92633,3.74008],[115.9274,3.74866],[115.9279,3.7527],[115.9296,3.75414],[115.9326,3.75667],[115.93801,3.75776],[115.93801,3.75776],[115.94378,3.76028],[115.94415,3.76786],[115.94775,3.77255],[115.94828,3.77483],[115.94884,3.77725],[115.94789,3.78308],[115.94759,3.78488],[115.94676,3.78571],[115.94038,3.7921],[115.93372,3.79509],[115.93369,3.7951],[115.92682,3.79818],[115.9237,3.803],[115.92362,3.80313],[115.92357,3.80321],[115.92285,3.80431],[115.92285,3.8081],[115.92285,3.80891],[115.92285,3.81039],[115.92285,3.81225],[115.92285,3.82092],[115.9241,3.82341],[115.92574,3.82669],[115.92431,3.83242],[115.92357,3.83535],[115.91636,3.8368],[115.91636,3.8368],[115.91009,3.84024],[115.90914,3.84077],[115.90925,3.8431],[115.90926,3.84337],[115.90928,3.84378],[115.90932,3.84465],[115.91121,3.84493],[115.91302,3.84418],[115.91452,3.84327],[115.91588,3.84312],[115.91844,3.84418],[115.92372,3.84644],[115.9287,3.84915],[115.93111,3.85066],[115.93141,3.85202],[115.93307,3.85322],[115.93533,3.85307],[115.93759,3.85277],[115.94015,3.85563],[115.94588,3.86121],[115.95327,3.8686],[115.96443,3.87704],[115.96538,3.87792],[115.97069,3.8737],[115.9776,3.8683],[115.98117,3.86551],[115.9887,3.86257],[115.9946,3.86125],[115.99951,3.85569],[116.00377,3.85143],[116.0077,3.84357],[116.00475,3.83276],[116.00084,3.82284],[115.99869,3.81788],[115.99869,3.81251],[116.00205,3.80687],[116.00741,3.80043],[116.01224,3.79695],[116.01378,3.79684],[116.01661,3.7898],[116.01747,3.78353],[116.01859,3.77804],[116.02065,3.77289],[116.02477,3.76851],[116.02889,3.76516],[116.03198,3.76421],[116.03353,3.76413],[116.03465,3.76421],[116.03757,3.76524],[116.0392,3.76696],[116.04154,3.76822],[116.04255,3.76876],[116.04615,3.76928],[116.0483,3.76876],[116.0513,3.76585],[116.05451,3.75975],[116.05985,3.7562],[116.0658,3.75857],[116.07209,3.75869],[116.07281,3.75394],[116.07352,3.74778],[116.07958,3.74766],[116.08338,3.75121],[116.08956,3.75359],[116.09218,3.74979],[116.09455,3.746],[116.09943,3.7454],[116.10394,3.74588],[116.10489,3.74861],[116.10703,3.75098],[116.10965,3.75299],[116.11428,3.75157],[116.11915,3.7505],[116.12094,3.75323],[116.12269,3.75571]],[[116.088,3.70012],[116.08737,3.70088],[116.087,3.70152],[116.08669,3.70174],[116.08632,3.7019],[116.08588,3.70194],[116.0853,3.70184],[116.08492,3.70166],[116.08434,3.70156],[116.08371,3.70158],[116.08315,3.70167],[116.08266,3.70177],[116.08241,3.70193],[116.08221,3.70234],[116.08157,3.69893],[116.09035,3.69694],[116.09046,3.69738],[116.0908,3.69805],[116.09124,3.69868],[116.09164,3.69893],[116.09208,3.69916],[116.09256,3.69958],[116.09276,3.6999],[116.09266,3.70024],[116.09236,3.7005],[116.09203,3.70076],[116.09168,3.70085],[116.09096,3.70089],[116.09015,3.70076],[116.08973,3.70059],[116.08931,3.70032],[116.08878,3.70014],[116.08826,3.70005],[116.088,3.70012]]]]},"properties":{"kdprov":"65","kdkab":"01","kdkec":"120","kddesa":"001","kdsls":"2001","idsls":"65011200012001","nmprov":"KALIMANTAN UTARA","nmkab":"MALINAU","nmkec":"MENTARANG HULU","nmdesa":"LUNG SEMAMU","nmsls":"KAWASAN HUTAN ( BUKAN PERTANIAN )"}}]}