{"type":"FeatureCollection","features":[{"type":"Feature","geometry":{"type":"MultiPolygon","coordinates":[[[[116.60875,3.53896],[116.60879,3.53886],[116.609,3.53825],[116.60875,3.5381],[116.60845,3.53801],[116.60847,3.53794],[116.60852,3.53775],[116.60855,3.53764],[116.60865,3.53751],[116.60892,3.53723],[116.60899,3.53713],[116.60901,3.53701],[116.60907,3.53684],[116.60923,3.53666],[116.60944,3.53646],[116.60987,3.5359],[116.60988,3.53584],[116.60986,3.53586],[116.60955,3.53567],[116.60946,3.53576],[116.60896,3.53557],[116.60809,3.53591],[116.6079,3.53627],[116.60771,3.5368],[116.60729,3.53687],[116.60698,3.53666],[116.60673,3.53672],[116.60674,3.53695],[116.60681,3.53721],[116.60683,3.53734],[116.6069,3.53748],[116.6068,3.53776],[116.60669,3.53845],[116.60788,3.53861],[116.60802,3.53863],[116.60827,3.53874],[116.60875,3.53896]]]]},"properties":{"kdprov":"65","kdkab":"01","kdkec":"140","kddesa":"004","kdsls":"0002","idsls":"65011400040002","nmprov":"KALIMANTAN UTARA","nmkab":"MALINAU","nmkec":"MALINAU BARAT","nmdesa":"KUALA LAPANG","nmsls":"RT 02"}},{"type":"Feature","geometry":{"type":"MultiPolygon","coordinates":[[[[116.58863,3.53329],[116.59149,3.5327],[116.59148,3.53252],[116.5915,3.53218],[116.59145,3.53194],[116.59132,3.53166],[116.5911,3.53126],[116.59088,3.53099],[116.59081,3.53075],[116.59079,3.53059],[116.59086,3.5303],[116.59094,3.52996],[116.59096,3.52957],[116.59093,3.52914],[116.59079,3.52848],[116.59075,3.52833],[116.59064,3.52823],[116.5901,3.52792],[116.5898,3.52778],[116.5894,3.52776],[116.58892,3.52786],[116.5885,3.528],[116.58813,3.52848],[116.58783,3.52886],[116.58757,3.52926],[116.58777,3.53003],[116.58825,3.53177],[116.58863,3.53274],[116.58865,3.53317],[116.58863,3.53329]]]]},"properties":{"kdprov":"65","kdkab":"01","kdkec":"140","kddesa":"005","kdsls":"0012","idsls":"65011400050012","nmprov":"KALIMANTAN UTARA","nmkab":"MALINAU","nmkec":"MALINAU BARAT","nmdesa":"TANJUNG LAPANG","nmsls":"RT 12"}},{"type":"Feature","geometry":{"type":"MultiPolygon","coordinates":[[[[116.5973,3.5446],[116.5966,3.54467],[116.59539,3.54459],[116.59439,3.54423],[116.59346,3.54385],[116.59239,3.54315],[116.59129,3.54229],[116.5908,3.54171],[116.58953,3.54046],[116.58852,3.53938],[116.58738,3.53794],[116.5867,3.53713],[116.58533,3.53555],[116.58493,3.53503],[116.58454,3.53451],[116.58398,3.53403],[116.58329,3.53342],[116.58151,3.53182],[116.57999,3.53039],[116.57867,3.52953],[116.57745,3.52883],[116.57505,3.52777],[116.57271,3.52697],[116.57069,3.52649],[116.56795,3.52603],[116.56501,3.52585],[116.56333,3.52581],[116.56199,3.52555],[116.56102,3.52521],[116.56331,3.5563],[116.56367,3.55604],[116.56438,3.55578],[116.56545,3.55549],[116.5661,3.55544],[116.5661,3.55544],[116.56667,3.55551],[116.56667,3.55551],[116.56766,3.5554],[116.56913,3.55481],[116.56936,3.55471],[116.56999,3.55423],[116.57042,3.55304],[116.57069,3.55262],[116.57109,3.55193],[116.57134,3.55126],[116.57165,3.55056],[116.57172,3.55007],[116.57174,3.5496],[116.57177,3.54925],[116.57198,3.5492],[116.57343,3.5515],[116.57539,3.55365],[116.57788,3.55392],[116.57914,3.55405],[116.58136,3.55431],[116.58468,3.55707],[116.58748,3.55707],[116.59048,3.55786],[116.59152,3.55759],[116.59296,3.5555],[116.59387,3.55314],[116.59475,3.55172],[116.59557,3.55039],[116.59739,3.54813],[116.59778,3.54764],[116.6,3.54607],[116.60488,3.54613],[116.60969,3.54597],[116.60971,3.54597],[116.60971,3.54597],[116.60971,3.54597],[116.60971,3.54596],[116.61003,3.54329],[116.61009,3.54102],[116.61005,3.54053],[116.61004,3.5405],[116.60994,3.53951],[116.6099,3.53949],[116.60965,3.53938],[116.60921,3.53917],[116.60827,3.53874],[116.60802,3.53863],[116.60788,3.53861],[116.60669,3.53845],[116.60661,3.53844],[116.60556,3.53887],[116.60455,3.53855],[116.60427,3.53865],[116.60307,3.53957],[116.60169,3.54074],[116.60089,3.54161],[116.60036,3.54271],[116.59921,3.54383],[116.59836,3.54425],[116.598,3.54451],[116.5973,3.5446]]]]},"properties":{"kdprov":"65","kdkab":"01","kdkec":"140","kddesa":"005","kdsls":"2001","idsls":"65011400052001","nmprov":"KALIMANTAN UTARA","nmkab":"MALINAU","nmkec":"MALINAU BARAT","nmdesa":"TANJUNG LAPANG","nmsls":"HUTAN"}},{"type":"Feature","geometry":{"type":"MultiPolygon","coordinates":[[[[116.5908,3.54171],[116.59129,3.54229],[116.59239,3.54315],[116.59346,3.54385],[116.59439,3.54423],[116.59539,3.54459],[116.5966,3.54467],[116.5973,3.5446],[116.59691,3.54355],[116.59683,3.54337],[116.59679,3.54311],[116.59674,3.54282],[116.59659,3.54228],[116.59643,3.542],[116.59624,3.54175],[116.59595,3.54152],[116.59562,3.54138],[116.59554,3.5413],[116.59502,3.541],[116.59466,3.54062],[116.59415,3.54004],[116.59393,3.53979],[116.59362,3.53949],[116.59336,3.53917],[116.59281,3.53961],[116.59233,3.54002],[116.59229,3.54004],[116.59192,3.5405],[116.59155,3.54092],[116.5908,3.54171]]]]},"properties":{"kdprov":"65","kdkab":"01","kdkec":"140","kddesa":"005","kdsls":"0009","idsls":"65011400050009","nmprov":"KALIMANTAN UTARA","nmkab":"MALINAU","nmkec":"MALINAU BARAT","nmdesa":"TANJUNG LAPANG","nmsls":"RT 09"}},{"type":"Feature","geometry":{"type":"MultiPolygon","coordinates":[[[[116.58953,3.54046],[116.5908,3.54171],[116.59155,3.54092],[116.59192,3.5405],[116.59229,3.54004],[116.59233,3.54002],[116.59281,3.53961],[116.59336,3.53917],[116.59303,3.53879],[116.5928,3.53847],[116.59263,3.5382],[116.59246,3.53798],[116.5921,3.53804],[116.59175,3.53807],[116.5915,3.53804],[116.59146,3.53801],[116.59139,3.53833],[116.59131,3.53845],[116.59114,3.53869],[116.59101,3.53888],[116.59092,3.53896],[116.59089,3.53904],[116.59074,3.53927],[116.59056,3.53949],[116.59044,3.5396],[116.59027,3.53977],[116.58953,3.54046]]]]},"properties":{"kdprov":"65","kdkab":"01","kdkec":"140","kddesa":"005","kdsls":"0008","idsls":"65011400050008","nmprov":"KALIMANTAN UTARA","nmkab":"MALINAU","nmkec":"MALINAU BARAT","nmdesa":"TANJUNG LAPANG","nmsls":"RT 08"}},{"type":"Feature","geometry":{"type":"MultiPolygon","coordinates":[[[[116.59146,3.53801],[116.5915,3.53804],[116.59175,3.53807],[116.5921,3.53804],[116.59246,3.53798],[116.59239,3.53787],[116.59228,3.53773],[116.59218,3.53754],[116.59214,3.53737],[116.59213,3.53718],[116.59217,3.53685],[116.59218,3.53646],[116.59219,3.53621],[116.59224,3.53597],[116.59231,3.53569],[116.59233,3.53553],[116.59234,3.5352],[116.59232,3.53502],[116.59227,3.5348],[116.59218,3.53453],[116.59216,3.53453],[116.59112,3.53513],[116.59088,3.53517],[116.5908,3.53512],[116.59069,3.53505],[116.59055,3.53494],[116.59047,3.53484],[116.59033,3.53481],[116.59017,3.53471],[116.59006,3.53455],[116.58997,3.5343],[116.58989,3.53421],[116.5896,3.53416],[116.58956,3.53435],[116.58952,3.53462],[116.58951,3.53481],[116.58946,3.53514],[116.58947,3.53519],[116.58968,3.53521],[116.58987,3.53526],[116.59003,3.53534],[116.59009,3.5355],[116.59018,3.53592],[116.5903,3.53634],[116.59031,3.53637],[116.59007,3.53648],[116.59017,3.53664],[116.59033,3.53686],[116.59052,3.53703],[116.59066,3.53718],[116.59107,3.53754],[116.59132,3.53777],[116.59147,3.53791],[116.59148,3.53793],[116.59146,3.53801],[116.59146,3.53801]]]]},"properties":{"kdprov":"65","kdkab":"01","kdkec":"140","kddesa":"005","kdsls":"0011","idsls":"65011400050011","nmprov":"KALIMANTAN UTARA","nmkab":"MALINAU","nmkec":"MALINAU BARAT","nmdesa":"TANJUNG LAPANG","nmsls":"RT 11"}},{"type":"Feature","geometry":{"type":"MultiPolygon","coordinates":[[[[116.58533,3.53555],[116.5867,3.53713],[116.58747,3.53628],[116.58787,3.53589],[116.58796,3.53581],[116.58796,3.53581],[116.58877,3.5351],[116.58877,3.53505],[116.58881,3.53497],[116.58897,3.53457],[116.58893,3.53436],[116.58858,3.53443],[116.58817,3.53419],[116.58768,3.53386],[116.58739,3.53376],[116.58698,3.53415],[116.58669,3.53444],[116.58664,3.5345],[116.58648,3.53463],[116.58622,3.53482],[116.58533,3.53555]]]]},"properties":{"kdprov":"65","kdkab":"01","kdkec":"140","kddesa":"005","kdsls":"0004","idsls":"65011400050004","nmprov":"KALIMANTAN UTARA","nmkab":"MALINAU","nmkec":"MALINAU BARAT","nmdesa":"TANJUNG LAPANG","nmsls":"RT 04"}},{"type":"Feature","geometry":{"type":"MultiPolygon","coordinates":[[[[116.5867,3.53713],[116.58738,3.53794],[116.58822,3.53736],[116.58843,3.53718],[116.58863,3.53695],[116.5888,3.53679],[116.58884,3.53675],[116.58836,3.53623],[116.58796,3.53581],[116.58796,3.53581],[116.58787,3.53589],[116.58747,3.53628],[116.5867,3.53713]]]]},"properties":{"kdprov":"65","kdkab":"01","kdkec":"140","kddesa":"005","kdsls":"0005","idsls":"65011400050005","nmprov":"KALIMANTAN UTARA","nmkab":"MALINAU","nmkec":"MALINAU BARAT","nmdesa":"TANJUNG LAPANG","nmsls":"RT 05"}},{"type":"Feature","geometry":{"type":"MultiPolygon","coordinates":[[[[116.58738,3.53794],[116.58852,3.53938],[116.58907,3.5389],[116.58954,3.53839],[116.58989,3.53796],[116.58997,3.53796],[116.59066,3.53718],[116.59052,3.53703],[116.59033,3.53686],[116.59017,3.53664],[116.59007,3.53648],[116.5899,3.53656],[116.58962,3.5367],[116.58922,3.53685],[116.58903,3.53689],[116.58894,3.53684],[116.58884,3.53675],[116.5888,3.53679],[116.58863,3.53695],[116.58843,3.53718],[116.58822,3.53736],[116.58738,3.53794]]]]},"properties":{"kdprov":"65","kdkab":"01","kdkec":"140","kddesa":"005","kdsls":"0006","idsls":"65011400050006","nmprov":"KALIMANTAN UTARA","nmkab":"MALINAU","nmkec":"MALINAU BARAT","nmdesa":"TANJUNG LAPANG","nmsls":"RT 06"}},{"type":"Feature","geometry":{"type":"MultiPolygon","coordinates":[[[[116.64763,3.51043],[116.64724,3.51202],[116.64719,3.5122],[116.64719,3.51221],[116.64769,3.51228],[116.64789,3.51231],[116.64951,3.51256],[116.64984,3.51125],[116.65001,3.51061],[116.6505,3.50867],[116.64821,3.50827],[116.64809,3.50851],[116.64763,3.51043]]]]},"properties":{"kdprov":"65","kdkab":"01","kdkec":"140","kddesa":"002","kdsls":"0003","idsls":"65011400020003","nmprov":"KALIMANTAN UTARA","nmkab":"MALINAU","nmkec":"MALINAU BARAT","nmdesa":"SESUA","nmsls":"RT 03 DUSUN BENGALUN"}},{"type":"Feature","geometry":{"type":"MultiPolygon","coordinates":[[[[116.50009,3.51696],[116.50064,3.5164],[116.50274,3.51463],[116.50405,3.51352],[116.5072,3.51223],[116.50889,3.51154],[116.51158,3.50902],[116.51392,3.50578],[116.51571,3.50361],[116.51787,3.49947],[116.5211,3.49371],[116.52415,3.48848],[116.52809,3.4847],[116.5324,3.48002],[116.53895,3.47795],[116.54309,3.47636],[116.54309,3.47636],[116.54505,3.47561],[116.54699,3.47514],[116.54953,3.47453],[116.55276,3.47561],[116.55286,3.47572],[116.55324,3.4751],[116.5531,3.47394],[116.55312,3.47392],[116.55382,3.4735],[116.55528,3.47218],[116.55658,3.47219],[116.55763,3.47096],[116.55833,3.47014],[116.55993,3.46897],[116.56225,3.4681],[116.56341,3.46825],[116.56487,3.46737],[116.5653,3.46591],[116.56748,3.46562],[116.5685,3.46635],[116.56966,3.46635],[116.57083,3.4665],[116.57141,3.46737],[116.57126,3.46825],[116.57184,3.46913],[116.57155,3.46986],[116.57155,3.47132],[116.57228,3.47161],[116.57228,3.47234],[116.57198,3.47409],[116.57213,3.47526],[116.57227,3.47628],[116.57402,3.47833],[116.57409,3.47852],[116.5762,3.47964],[116.57765,3.47891],[116.58055,3.47964],[116.58288,3.47833],[116.58404,3.47994],[116.58549,3.47891],[116.58564,3.47804],[116.58753,3.47716],[116.59089,3.47717],[116.59065,3.47645],[116.5896,3.47363],[116.5889,3.46727],[116.58961,3.46198],[116.58961,3.45951],[116.59136,3.45633],[116.59137,3.45316],[116.59066,3.44998],[116.58821,3.4468],[116.58399,3.44503],[116.58224,3.44468],[116.58048,3.44468],[116.57943,3.44468],[116.57802,3.44221],[116.57522,3.43903],[116.571,3.44185],[116.56889,3.44362],[116.56414,3.44552],[116.56362,3.44573],[116.56081,3.44608],[116.55765,3.44608],[116.55484,3.44467],[116.55252,3.44362],[116.55194,3.44337],[116.55132,3.44318],[116.55084,3.44313],[116.55037,3.44302],[116.5499,3.4429],[116.54944,3.44273],[116.54906,3.44251],[116.54837,3.44211],[116.54764,3.44195],[116.5472,3.44181],[116.54684,3.44159],[116.54649,3.44148],[116.54609,3.44152],[116.54563,3.44155],[116.5449,3.44147],[116.54454,3.4413],[116.54408,3.44109],[116.54379,3.44113],[116.54335,3.44121],[116.54315,3.44139],[116.54311,3.44142],[116.54209,3.44083],[116.53999,3.44055],[116.53961,3.44272],[116.53607,3.44343],[116.53343,3.44421],[116.53209,3.44626],[116.52945,3.44719],[116.52813,3.4483],[116.52657,3.45064],[116.52629,3.45283],[116.52562,3.45482],[116.52489,3.45731],[116.52298,3.45932],[116.52149,3.46091],[116.52056,3.46281],[116.51942,3.46514],[116.51637,3.46712],[116.51278,3.46856],[116.5092,3.47072],[116.50615,3.47108],[116.50131,3.47162],[116.50107,3.47163],[116.50085,3.47164],[116.49921,3.4717],[116.49904,3.47171],[116.49682,3.4718],[116.49365,3.47114],[116.49211,3.47076],[116.49015,3.47028],[116.48732,3.46945],[116.48732,3.46945],[116.48319,3.46801],[116.48248,3.46548],[116.48268,3.46319],[116.48284,3.46134],[116.48259,3.45827],[116.48248,3.45701],[116.48205,3.45636],[116.48113,3.45498],[116.47997,3.45323],[116.47903,3.45133],[116.47818,3.44962],[116.47711,3.44692],[116.47556,3.44606],[116.47556,3.44606],[116.47388,3.44512],[116.47388,3.44512],[116.46994,3.44493],[116.46617,3.44493],[116.46368,3.44185],[116.46299,3.43922],[116.46299,3.43922],[116.46125,3.43882],[116.46109,3.43541],[116.46109,3.43541],[116.4564,3.43366],[116.45396,3.4334],[116.44905,3.43366],[116.44608,3.43425],[116.44466,3.43484],[116.44279,3.43521],[116.44109,3.43694],[116.44055,3.43799],[116.43845,3.43854],[116.4368,3.43932],[116.43529,3.4411],[116.4342,3.44169],[116.43228,3.44224],[116.43059,3.44192],[116.42876,3.44188],[116.42707,3.44284],[116.42643,3.4437],[116.42483,3.44407],[116.42483,3.44407],[116.4236,3.44357],[116.4236,3.44357],[116.42246,3.44306],[116.42176,3.44356],[116.42133,3.44396],[116.42107,3.44467],[116.42067,3.44573],[116.41956,3.4469],[116.41873,3.4475],[116.41825,3.44787],[116.4177,3.4483],[116.41691,3.44884],[116.41631,3.44921],[116.41616,3.44924],[116.41609,3.44926],[116.41528,3.44947],[116.41456,3.44952],[116.41376,3.44964],[116.41351,3.45038],[116.41348,3.45101],[116.41319,3.45152],[116.41277,3.45192],[116.41236,3.45211],[116.41236,3.45211],[116.41129,3.4535],[116.40939,3.45598],[116.40782,3.4566],[116.40736,3.45744],[116.40675,3.45835],[116.40584,3.4595],[116.40584,3.4614],[116.40727,3.46274],[116.4067,3.46445],[116.4075,3.46696],[116.40831,3.46949],[116.40844,3.46984],[116.40922,3.47194],[116.40995,3.47389],[116.40995,3.47389],[116.40981,3.47475],[116.40949,3.47686],[116.40957,3.47907],[116.4118,3.48023],[116.41343,3.48051],[116.41524,3.48013],[116.41524,3.48013],[116.41714,3.4808],[116.4179,3.48289],[116.418,3.48451],[116.41952,3.48584],[116.41981,3.48813],[116.42038,3.48984],[116.41981,3.49174],[116.41895,3.49317],[116.41706,3.49407],[116.41666,3.4953],[116.41676,3.49635],[116.41762,3.49868],[116.41814,3.49925],[116.41976,3.50063],[116.42416,3.50306],[116.4274,3.50392],[116.4274,3.50392],[116.43387,3.50421],[116.43599,3.50474],[116.43599,3.50474],[116.43777,3.50192],[116.43778,3.50192],[116.44025,3.5023],[116.44215,3.5043],[116.44294,3.505],[116.4437,3.50567],[116.44894,3.50777],[116.45287,3.5092],[116.45525,3.51039],[116.45751,3.51229],[116.46001,3.51408],[116.46191,3.51503],[116.46191,3.51503],[116.46544,3.51273],[116.46544,3.51273],[116.46994,3.51461],[116.47092,3.51501],[116.47645,3.51725],[116.47645,3.51725],[116.48,3.51972],[116.48095,3.52038],[116.48523,3.52217],[116.48897,3.52256],[116.48897,3.52256],[116.48897,3.52256],[116.49161,3.52104],[116.49454,3.5209],[116.4951,3.52055],[116.49681,3.51948],[116.49885,3.5182],[116.50009,3.51696]],[[116.49211,3.49611],[116.4921,3.49642],[116.49201,3.49997],[116.49047,3.49966],[116.49017,3.4996],[116.48917,3.49951],[116.48856,3.49946],[116.48856,3.49945],[116.48856,3.49933],[116.48855,3.49921],[116.48853,3.49906],[116.48849,3.49883],[116.48846,3.49869],[116.48844,3.49858],[116.48843,3.49847],[116.48841,3.49826],[116.48842,3.49798],[116.48844,3.49775],[116.48845,3.4976],[116.48846,3.49742],[116.48846,3.49715],[116.48846,3.49692],[116.48845,3.49672],[116.48843,3.49658],[116.48839,3.49638],[116.48835,3.49617],[116.48834,3.49602],[116.48831,3.49578],[116.48829,3.49555],[116.48827,3.49545],[116.48821,3.49524],[116.48811,3.49497],[116.48804,3.49475],[116.48868,3.49435],[116.48925,3.49431],[116.48951,3.49473],[116.48977,3.49457],[116.48982,3.49385],[116.49022,3.49371],[116.49055,3.49369],[116.4907,3.49368],[116.49096,3.49367],[116.49219,3.49315],[116.49211,3.49611]],[[116.49255,3.48968],[116.4924,3.49141],[116.49236,3.49181],[116.49183,3.49182],[116.49051,3.49199],[116.48801,3.49259],[116.48812,3.48987],[116.48815,3.48921],[116.48849,3.48836],[116.48895,3.48717],[116.49214,3.48616],[116.49225,3.48662],[116.49233,3.48697],[116.49267,3.48838],[116.49255,3.48968]],[[116.4815,3.48037],[116.48138,3.4802],[116.47995,3.47719],[116.48195,3.47624],[116.48232,3.47607],[116.4846,3.47499],[116.48585,3.47781],[116.48679,3.47993],[116.48795,3.4827],[116.48538,3.48378],[116.48535,3.48378],[116.48392,3.48382],[116.4815,3.48037]]]]},"properties":{"kdprov":"65","kdkab":"01","kdkec":"140","kddesa":"008","kdsls":"2001","idsls":"65011400082001","nmprov":"KALIMANTAN UTARA","nmkab":"MALINAU","nmkec":"MALINAU BARAT","nmdesa":"SENTABAN","nmsls":"HUTAN"}},{"type":"Feature","geometry":{"type":"MultiPolygon","coordinates":[[[[116.48585,3.47781],[116.48493,3.47824],[116.48419,3.47859],[116.48424,3.47873],[116.48339,3.47914],[116.48278,3.47959],[116.48257,3.47977],[116.48151,3.48036],[116.4815,3.48037],[116.48392,3.48382],[116.48535,3.48378],[116.48538,3.48378],[116.48795,3.4827],[116.48679,3.47993],[116.48585,3.47781]]]]},"properties":{"kdprov":"65","kdkab":"01","kdkec":"140","kddesa":"009","kdsls":"0001","idsls":"65011400090001","nmprov":"KALIMANTAN UTARA","nmkab":"MALINAU","nmkec":"MALINAU BARAT","nmdesa":"LONG BILA","nmsls":"RT 01"}},{"type":"Feature","geometry":{"type":"MultiPolygon","coordinates":[[[[116.48845,3.4976],[116.48844,3.49775],[116.48842,3.49798],[116.48841,3.49826],[116.48843,3.49847],[116.48844,3.49858],[116.48846,3.49869],[116.48849,3.49883],[116.48853,3.49906],[116.48855,3.49921],[116.48856,3.49933],[116.48856,3.49945],[116.48856,3.49946],[116.48917,3.49951],[116.49017,3.4996],[116.49047,3.49966],[116.49201,3.49997],[116.4921,3.49642],[116.49211,3.49611],[116.49063,3.4961],[116.49059,3.49638],[116.48985,3.49637],[116.48984,3.49625],[116.48891,3.49619],[116.48882,3.49618],[116.48888,3.49687],[116.48927,3.49691],[116.48927,3.49713],[116.48927,3.49733],[116.48925,3.49765],[116.4885,3.49761],[116.48845,3.4976]]]]},"properties":{"kdprov":"65","kdkab":"01","kdkec":"140","kddesa":"007","kdsls":"0001","idsls":"65011400070001","nmprov":"KALIMANTAN UTARA","nmkab":"MALINAU","nmkec":"MALINAU BARAT","nmdesa":"LONG KENIPE","nmsls":"RT 01"}},{"type":"Feature","geometry":{"type":"MultiPolygon","coordinates":[[[[116.62316,3.53496],[116.62327,3.53148],[116.62327,3.52886],[116.62405,3.5269],[116.62456,3.52662],[116.62561,3.52603],[116.62683,3.52591],[116.62715,3.5254],[116.62757,3.52496],[116.62794,3.52462],[116.6281,3.52422],[116.62821,3.52362],[116.62832,3.52323],[116.6287,3.52283],[116.6293,3.52259],[116.62972,3.52245],[116.62998,3.5222],[116.63047,3.52184],[116.63102,3.52146],[116.63161,3.5206],[116.6338,3.51951],[116.63467,3.51775],[116.63599,3.51709],[116.63774,3.51577],[116.63795,3.51424],[116.63839,3.51336],[116.63839,3.51248],[116.63828,3.51165],[116.63764,3.51097],[116.63702,3.51125],[116.63661,3.51117],[116.63626,3.51076],[116.63597,3.51056],[116.6358,3.5103],[116.63549,3.51033],[116.63511,3.51],[116.63493,3.50941],[116.63467,3.50895],[116.63393,3.50877],[116.6335,3.50831],[116.63357,3.5075],[116.63319,3.50688],[116.63232,3.50658],[116.63127,3.50668],[116.63056,3.50647],[116.63022,3.50637],[116.62989,3.50645],[116.62923,3.50727],[116.62849,3.50734],[116.62754,3.50742],[116.62664,3.50778],[116.62631,3.50785],[116.62613,3.50847],[116.62543,3.511],[116.61917,3.52241],[116.61857,3.52314],[116.6184,3.52371],[116.61841,3.52456],[116.6184,3.52501],[116.61831,3.52551],[116.61825,3.5261],[116.61822,3.52738],[116.61816,3.52801],[116.61808,3.52828],[116.61684,3.53136],[116.61654,3.53205],[116.61635,3.53225],[116.61602,3.53242],[116.6154,3.53259],[116.61518,3.53265],[116.61487,3.53278],[116.61456,3.53298],[116.61423,3.53326],[116.61405,3.53353],[116.61359,3.53429],[116.61322,3.5349],[116.61307,3.53515],[116.61298,3.53547],[116.61283,3.53617],[116.61265,3.53628],[116.61235,3.53655],[116.61214,3.53668],[116.61231,3.53694],[116.6125,3.53722],[116.61271,3.53744],[116.61293,3.53779],[116.61313,3.53814],[116.61321,3.5384],[116.61324,3.5386],[116.61411,3.53846],[116.61477,3.53782],[116.61624,3.53778],[116.61694,3.53757],[116.61806,3.53629],[116.62008,3.53589],[116.62316,3.53496]]]]},"properties":{"kdprov":"65","kdkab":"01","kdkec":"140","kddesa":"004","kdsls":"0006","idsls":"65011400040006","nmprov":"KALIMANTAN UTARA","nmkab":"MALINAU","nmkec":"MALINAU BARAT","nmdesa":"KUALA LAPANG","nmsls":"RT 06"}},{"type":"Feature","geometry":{"type":"MultiPolygon","coordinates":[[[[116.61214,3.53668],[116.61235,3.53655],[116.61265,3.53628],[116.61283,3.53617],[116.61298,3.53547],[116.61307,3.53515],[116.61322,3.5349],[116.61278,3.53475],[116.61237,3.53465],[116.61208,3.53459],[116.61186,3.53442],[116.61109,3.53428],[116.61063,3.53429],[116.61075,3.53459],[116.61064,3.53489],[116.61027,3.5354],[116.61086,3.5357],[116.6114,3.53604],[116.61177,3.5363],[116.61195,3.53647],[116.61214,3.53668]]]]},"properties":{"kdprov":"65","kdkab":"01","kdkec":"140","kddesa":"004","kdsls":"0003","idsls":"65011400040003","nmprov":"KALIMANTAN UTARA","nmkab":"MALINAU","nmkec":"MALINAU BARAT","nmdesa":"KUALA LAPANG","nmsls":"RT 03"}},{"type":"Feature","geometry":{"type":"MultiPolygon","coordinates":[[[[116.64724,3.51202],[116.64763,3.51043],[116.64712,3.51035],[116.64708,3.51047],[116.64633,3.51023],[116.64635,3.5102],[116.6459,3.50995],[116.64578,3.51008],[116.6457,3.51001],[116.64568,3.50998],[116.64567,3.50992],[116.6448,3.51077],[116.64474,3.51093],[116.64474,3.51159],[116.6458,3.51172],[116.64665,3.51187],[116.64673,3.51194],[116.64724,3.51202]]]]},"properties":{"kdprov":"65","kdkab":"01","kdkec":"140","kddesa":"003","kdsls":"0002","idsls":"65011400030002","nmprov":"KALIMANTAN UTARA","nmkab":"MALINAU","nmkec":"MALINAU BARAT","nmdesa":"SEMPAYANG","nmsls":"RT 002"}},{"type":"Feature","geometry":{"type":"MultiPolygon","coordinates":[[[[116.64719,3.51221],[116.64719,3.5122],[116.64724,3.51202],[116.64673,3.51194],[116.64665,3.51187],[116.6458,3.51172],[116.64474,3.51159],[116.64474,3.51093],[116.6448,3.51077],[116.64567,3.50992],[116.6451,3.50957],[116.64646,3.5078],[116.64818,3.50827],[116.64851,3.50721],[116.64875,3.50613],[116.64894,3.50517],[116.64917,3.50451],[116.64938,3.50384],[116.6499,3.50346],[116.65062,3.50289],[116.65089,3.50224],[116.65089,3.50199],[116.65045,3.50223],[116.65023,3.50234],[116.64979,3.50257],[116.64888,3.50274],[116.64856,3.50268],[116.64854,3.50267],[116.64828,3.50251],[116.64823,3.50235],[116.64823,3.50077],[116.64744,3.49942],[116.64767,3.49818],[116.64666,3.49683],[116.64666,3.49661],[116.64677,3.49642],[116.6454,3.49688],[116.64404,3.49703],[116.64368,3.49672],[116.63879,3.49764],[116.63511,3.50374],[116.63296,3.50501],[116.63056,3.50647],[116.63127,3.50668],[116.63232,3.50658],[116.63319,3.50688],[116.63357,3.5075],[116.6335,3.50831],[116.63393,3.50877],[116.63467,3.50895],[116.63493,3.50941],[116.63511,3.51],[116.63549,3.51033],[116.6358,3.5103],[116.63597,3.51056],[116.63626,3.51076],[116.63661,3.51117],[116.63702,3.51125],[116.63764,3.51097],[116.63828,3.51165],[116.63839,3.51248],[116.63839,3.51336],[116.63795,3.51424],[116.63774,3.51577],[116.63599,3.51709],[116.63467,3.51775],[116.6338,3.51951],[116.63161,3.5206],[116.63102,3.52146],[116.63047,3.52184],[116.62998,3.5222],[116.63256,3.52276],[116.63731,3.523],[116.63789,3.52308],[116.63904,3.52284],[116.63919,3.5228],[116.64223,3.52173],[116.64595,3.52203],[116.64581,3.52065],[116.64563,3.5197],[116.64504,3.51851],[116.64498,3.51744],[116.64478,3.51537],[116.64492,3.51458],[116.64528,3.51423],[116.64585,3.51451],[116.6466,3.5148],[116.64717,3.51483],[116.64746,3.51433],[116.64721,3.51362],[116.64696,3.51298],[116.64719,3.51221]]]]},"properties":{"kdprov":"65","kdkab":"01","kdkec":"140","kddesa":"003","kdsls":"0003","idsls":"65011400030003","nmprov":"KALIMANTAN UTARA","nmkab":"MALINAU","nmkec":"MALINAU BARAT","nmdesa":"SEMPAYANG","nmsls":"RT 003"}},{"type":"Feature","geometry":{"type":"MultiPolygon","coordinates":[[[[116.58454,3.53451],[116.58493,3.53503],[116.58533,3.53555],[116.58622,3.53482],[116.58648,3.53463],[116.58664,3.5345],[116.58669,3.53444],[116.58698,3.53415],[116.58739,3.53376],[116.58768,3.53386],[116.58817,3.53419],[116.58858,3.53443],[116.58893,3.53436],[116.58876,3.53437],[116.58859,3.5343],[116.58853,3.53407],[116.58857,3.53364],[116.58865,3.53317],[116.58863,3.53274],[116.58825,3.53177],[116.58777,3.53003],[116.58757,3.52926],[116.58745,3.52944],[116.58726,3.52963],[116.58717,3.52967],[116.58717,3.52967],[116.58698,3.53022],[116.58679,3.5306],[116.58658,3.53098],[116.58656,3.53112],[116.58657,3.53124],[116.58663,3.5314],[116.58685,3.53182],[116.58698,3.53207],[116.58699,3.53217],[116.58696,3.5323],[116.58667,3.53257],[116.5864,3.53282],[116.58469,3.53439],[116.58454,3.53451]]]]},"properties":{"kdprov":"65","kdkab":"01","kdkec":"140","kddesa":"005","kdsls":"0003","idsls":"65011400050003","nmprov":"KALIMANTAN UTARA","nmkab":"MALINAU","nmkec":"MALINAU BARAT","nmdesa":"TANJUNG LAPANG","nmsls":"RT 03"}},{"type":"Feature","geometry":{"type":"MultiPolygon","coordinates":[[[[116.48812,3.48987],[116.48801,3.49259],[116.49051,3.49199],[116.49183,3.49182],[116.49236,3.49181],[116.4924,3.49141],[116.49255,3.48968],[116.4916,3.4897],[116.49134,3.48974],[116.49049,3.4898],[116.48915,3.48979],[116.48812,3.48987]]]]},"properties":{"kdprov":"65","kdkab":"01","kdkec":"140","kddesa":"008","kdsls":"0001","idsls":"65011400080001","nmprov":"KALIMANTAN UTARA","nmkab":"MALINAU","nmkec":"MALINAU BARAT","nmdesa":"SENTABAN","nmsls":"RT 01"}},{"type":"Feature","geometry":{"type":"MultiPolygon","coordinates":[[[[116.58329,3.53342],[116.58398,3.53403],[116.58454,3.53451],[116.58469,3.53439],[116.5864,3.53282],[116.58667,3.53257],[116.58696,3.5323],[116.58699,3.53217],[116.58698,3.53207],[116.58685,3.53182],[116.58663,3.5314],[116.58657,3.53124],[116.58656,3.53112],[116.58658,3.53098],[116.58679,3.5306],[116.58698,3.53022],[116.58717,3.52967],[116.58717,3.52967],[116.58726,3.52963],[116.58745,3.52944],[116.58757,3.52926],[116.58783,3.52886],[116.58813,3.52848],[116.5885,3.528],[116.58892,3.52786],[116.5894,3.52776],[116.5898,3.52778],[116.5901,3.52792],[116.59064,3.52823],[116.59039,3.52725],[116.59043,3.52549],[116.59059,3.52386],[116.59167,3.52298],[116.59263,3.5217],[116.59283,3.52034],[116.59224,3.51907],[116.59119,3.51847],[116.59011,3.51691],[116.58967,3.51519],[116.58851,3.51391],[116.5863,3.51354],[116.58539,3.51372],[116.58375,3.5138],[116.58172,3.5129],[116.58063,3.51232],[116.57919,3.51184],[116.57795,3.51216],[116.57707,3.51228],[116.57535,3.51144],[116.57343,3.5098],[116.57303,3.5092],[116.57223,3.50928],[116.57167,3.5098],[116.57099,3.51076],[116.57022,3.5114],[116.56342,3.51129],[116.56257,3.51329],[116.56153,3.51563],[116.56101,3.51738],[116.56036,3.51933],[116.56071,3.52111],[116.56077,3.52109],[116.56092,3.52103],[116.56113,3.52094],[116.56131,3.52087],[116.56144,3.52084],[116.56161,3.52084],[116.56184,3.52089],[116.56208,3.52093],[116.56226,3.52094],[116.56245,3.52094],[116.56262,3.52098],[116.56277,3.52105],[116.56288,3.52108],[116.56298,3.52108],[116.56316,3.52103],[116.56353,3.52092],[116.56372,3.52088],[116.56384,3.52086],[116.56395,3.52087],[116.56411,3.52087],[116.5643,3.52086],[116.56453,3.52079],[116.56476,3.52071],[116.56493,3.52059],[116.5651,3.52036],[116.56523,3.52023],[116.56532,3.52017],[116.56541,3.52015],[116.56562,3.52017],[116.56582,3.52019],[116.56597,3.52023],[116.56623,3.52033],[116.56641,3.52046],[116.56661,3.52061],[116.56675,3.52068],[116.5669,3.52075],[116.56705,3.52079],[116.56719,3.5208],[116.56741,3.52077],[116.56761,3.52073],[116.56777,3.5207],[116.56789,3.5207],[116.56799,3.52072],[116.56808,3.52077],[116.56824,3.52086],[116.56836,3.5209],[116.56846,3.52092],[116.56858,3.5209],[116.56901,3.5207],[116.5693,3.5206],[116.56948,3.52057],[116.56971,3.52056],[116.5699,3.52059],[116.57005,3.52053],[116.57017,3.52042],[116.57034,3.52036],[116.57111,3.52024],[116.57122,3.52024],[116.57144,3.52033],[116.57171,3.52058],[116.57216,3.52097],[116.57235,3.52117],[116.57263,3.52136],[116.57282,3.52145],[116.57315,3.52154],[116.57343,3.52167],[116.57364,3.52185],[116.57386,3.52211],[116.57399,3.52236],[116.5741,3.52263],[116.57429,3.52307],[116.57449,3.52351],[116.57471,3.52401],[116.57485,3.52441],[116.57508,3.5248],[116.57537,3.52511],[116.57582,3.52535],[116.57621,3.52558],[116.57655,3.52575],[116.57696,3.52588],[116.57737,3.52598],[116.57774,3.5261],[116.57801,3.52624],[116.57837,3.52624],[116.5786,3.52632],[116.57886,3.52635],[116.57922,3.52635],[116.57939,3.5264],[116.57991,3.52664],[116.58005,3.52669],[116.58068,3.52678],[116.58124,3.52683],[116.58165,3.52689],[116.58205,3.52692],[116.58255,3.52692],[116.58287,3.52691],[116.58317,3.52696],[116.58328,3.52703],[116.58343,3.52717],[116.58357,3.52736],[116.58377,3.52773],[116.58392,3.52808],[116.58399,3.52822],[116.5843,3.52878],[116.58444,3.52898],[116.58458,3.52927],[116.5846,3.5294],[116.5846,3.52991],[116.5846,3.53034],[116.58459,3.53071],[116.58449,3.5311],[116.58442,3.53147],[116.58434,3.53184],[116.58433,3.53187],[116.58454,3.53212],[116.58385,3.53294],[116.58329,3.53342]]]]},"properties":{"kdprov":"65","kdkab":"01","kdkec":"140","kddesa":"005","kdsls":"0002","idsls":"65011400050002","nmprov":"KALIMANTAN UTARA","nmkab":"MALINAU","nmkec":"MALINAU BARAT","nmdesa":"TANJUNG LAPANG","nmsls":"RT 02"}},{"type":"Feature","geometry":{"type":"MultiPolygon","coordinates":[[[[116.4815,3.48037],[116.48151,3.48036],[116.48257,3.47977],[116.48278,3.47959],[116.48339,3.47914],[116.48424,3.47873],[116.48419,3.47859],[116.48493,3.47824],[116.48585,3.47781],[116.4846,3.47499],[116.48232,3.47607],[116.48195,3.47624],[116.47995,3.47719],[116.48138,3.4802],[116.4815,3.48037]]]]},"properties":{"kdprov":"65","kdkab":"01","kdkec":"140","kddesa":"009","kdsls":"0002","idsls":"65011400090002","nmprov":"KALIMANTAN UTARA","nmkab":"MALINAU","nmkec":"MALINAU BARAT","nmdesa":"LONG BILA","nmsls":"RT 02"}},{"type":"Feature","geometry":{"type":"MultiPolygon","coordinates":[[[[116.61324,3.5386],[116.612,3.5386],[116.61163,3.53857],[116.61084,3.53851],[116.61069,3.53898],[116.6099,3.53949],[116.60994,3.53951],[116.61004,3.5405],[116.61005,3.54053],[116.61009,3.54102],[116.61003,3.54329],[116.61026,3.54331],[116.61117,3.54338],[116.61227,3.54347],[116.61253,3.54274],[116.61289,3.54109],[116.61308,3.53999],[116.61321,3.53911],[116.61324,3.5386]]]]},"properties":{"kdprov":"65","kdkab":"01","kdkec":"140","kddesa":"004","kdsls":"0007","idsls":"65011400040007","nmprov":"KALIMANTAN UTARA","nmkab":"MALINAU","nmkec":"MALINAU BARAT","nmdesa":"KUALA LAPANG","nmsls":"RT 07"}},{"type":"Feature","geometry":{"type":"MultiPolygon","coordinates":[[[[116.55855,3.52329],[116.55889,3.52286],[116.55884,3.52173],[116.55871,3.5203],[116.55809,3.51983],[116.55726,3.51986],[116.55641,3.51976],[116.5556,3.51987],[116.5544,3.51998],[116.55285,3.52033],[116.55305,3.52099],[116.55297,3.52101],[116.55307,3.52129],[116.55308,3.52132],[116.55351,3.52118],[116.55348,3.52109],[116.55391,3.52096],[116.55397,3.52109],[116.55411,3.52135],[116.55436,3.52131],[116.55441,3.52124],[116.55448,3.52122],[116.55456,3.52157],[116.55456,3.52161],[116.55462,3.52162],[116.55468,3.5216],[116.55477,3.52155],[116.55485,3.52149],[116.55522,3.52177],[116.55535,3.52241],[116.55588,3.52233],[116.55639,3.52233],[116.55687,3.52239],[116.55737,3.52258],[116.55772,3.5228],[116.55819,3.52309],[116.55855,3.52329]]]]},"properties":{"kdprov":"65","kdkab":"01","kdkec":"140","kddesa":"006","kdsls":"0003","idsls":"65011400060003","nmprov":"KALIMANTAN UTARA","nmkab":"MALINAU","nmkec":"MALINAU BARAT","nmdesa":"TARAS","nmsls":"RT 003"}},{"type":"Feature","geometry":{"type":"MultiPolygon","coordinates":[[[[116.59149,3.5327],[116.58863,3.53329],[116.58857,3.53364],[116.58853,3.53407],[116.58859,3.5343],[116.58876,3.53437],[116.58893,3.53436],[116.58897,3.53457],[116.58952,3.53462],[116.58956,3.53435],[116.5896,3.53416],[116.58989,3.53421],[116.58997,3.5343],[116.59006,3.53455],[116.59017,3.53471],[116.59033,3.53481],[116.59047,3.53484],[116.59055,3.53494],[116.59069,3.53505],[116.5908,3.53512],[116.59088,3.53517],[116.59112,3.53513],[116.59216,3.53453],[116.59218,3.53453],[116.59206,3.53429],[116.59185,3.53383],[116.59169,3.53342],[116.59159,3.53309],[116.59149,3.53272],[116.59149,3.5327]]]]},"properties":{"kdprov":"65","kdkab":"01","kdkec":"140","kddesa":"005","kdsls":"0012","idsls":"65011400050012","nmprov":"KALIMANTAN UTARA","nmkab":"MALINAU","nmkec":"MALINAU BARAT","nmdesa":"TANJUNG LAPANG","nmsls":"RT 12"}},{"type":"Feature","geometry":{"type":"MultiPolygon","coordinates":[[[[116.5685,3.49019],[116.56798,3.4901],[116.56705,3.48963],[116.56793,3.48803],[116.56758,3.48673],[116.5668,3.48426],[116.56654,3.48251],[116.56635,3.48134],[116.5657,3.47965],[116.56296,3.47452],[116.56212,3.4716],[116.56147,3.46991],[116.5614,3.46913],[116.56225,3.4681],[116.55993,3.46897],[116.55833,3.47014],[116.55763,3.47096],[116.55658,3.47219],[116.55528,3.47218],[116.55382,3.4735],[116.55312,3.47392],[116.5531,3.47394],[116.55324,3.4751],[116.55286,3.47572],[116.55353,3.47646],[116.55491,3.47795],[116.5558,3.48156],[116.55652,3.48444],[116.55765,3.48568],[116.55971,3.48716],[116.56189,3.48875],[116.56288,3.48994],[116.56288,3.48994],[116.56234,3.49113],[116.56198,3.49192],[116.55983,3.49318],[116.55642,3.49318],[116.55337,3.49318],[116.5514,3.4948],[116.55014,3.49696],[116.55014,3.50003],[116.55193,3.50309],[116.55278,3.50429],[116.55344,3.50535],[116.55467,3.50853],[116.55489,3.51129],[116.55489,3.51129],[116.55489,3.51129],[116.55317,3.51319],[116.55014,3.51663],[116.54861,3.5185],[116.54574,3.52012],[116.54363,3.52179],[116.54287,3.5224],[116.54191,3.52316],[116.54298,3.52343],[116.54398,3.52371],[116.54512,3.52381],[116.5463,3.5239],[116.54752,3.5239],[116.5491,3.52384],[116.55058,3.52384],[116.55003,3.52196],[116.55085,3.52082],[116.55285,3.52033],[116.5544,3.51998],[116.5556,3.51987],[116.55641,3.51976],[116.55726,3.51986],[116.55809,3.51983],[116.55871,3.5203],[116.55884,3.52173],[116.55889,3.52286],[116.55855,3.52329],[116.55923,3.52475],[116.56018,3.52498],[116.56102,3.52521],[116.56072,3.52115],[116.56071,3.52111],[116.56036,3.51933],[116.56101,3.51738],[116.56153,3.51563],[116.56257,3.51329],[116.56342,3.51129],[116.56362,3.51082],[116.56511,3.50692],[116.56667,3.50322],[116.56875,3.49478],[116.56875,3.49115],[116.5685,3.49019]]]]},"properties":{"kdprov":"65","kdkab":"01","kdkec":"140","kddesa":"006","kdsls":"2002","idsls":"65011400062002","nmprov":"KALIMANTAN UTARA","nmkab":"MALINAU","nmkec":"MALINAU BARAT","nmdesa":"TARAS","nmsls":"HUTAN"}},{"type":"Feature","geometry":{"type":"MultiPolygon","coordinates":[[[[116.56071,3.52111],[116.56072,3.52115],[116.56102,3.52521],[116.56199,3.52555],[116.56333,3.52581],[116.56501,3.52585],[116.56795,3.52603],[116.57069,3.52649],[116.57271,3.52697],[116.57505,3.52777],[116.57745,3.52883],[116.57867,3.52953],[116.57999,3.53039],[116.58151,3.53182],[116.58329,3.53342],[116.58385,3.53294],[116.58454,3.53212],[116.58433,3.53187],[116.58434,3.53184],[116.58442,3.53147],[116.58449,3.5311],[116.58459,3.53071],[116.5846,3.53034],[116.5846,3.52991],[116.5846,3.5294],[116.58458,3.52927],[116.58444,3.52898],[116.5843,3.52878],[116.58399,3.52822],[116.58392,3.52808],[116.58377,3.52773],[116.58357,3.52736],[116.58343,3.52717],[116.58328,3.52703],[116.58317,3.52696],[116.58287,3.52691],[116.58255,3.52692],[116.58205,3.52692],[116.58165,3.52689],[116.58124,3.52683],[116.58068,3.52678],[116.58005,3.52669],[116.57991,3.52664],[116.57939,3.5264],[116.57922,3.52635],[116.57886,3.52635],[116.5786,3.52632],[116.57837,3.52624],[116.57801,3.52624],[116.57774,3.5261],[116.57737,3.52598],[116.57696,3.52588],[116.57655,3.52575],[116.57621,3.52558],[116.57582,3.52535],[116.57537,3.52511],[116.57508,3.5248],[116.57485,3.52441],[116.57471,3.52401],[116.57449,3.52351],[116.57429,3.52307],[116.5741,3.52263],[116.57399,3.52236],[116.57386,3.52211],[116.57364,3.52185],[116.57343,3.52167],[116.57315,3.52154],[116.57282,3.52145],[116.57263,3.52136],[116.57235,3.52117],[116.57216,3.52097],[116.57171,3.52058],[116.57144,3.52033],[116.57122,3.52024],[116.57111,3.52024],[116.57034,3.52036],[116.57017,3.52042],[116.57005,3.52053],[116.5699,3.52059],[116.56971,3.52056],[116.56948,3.52057],[116.5693,3.5206],[116.56901,3.5207],[116.56858,3.5209],[116.56846,3.52092],[116.56836,3.5209],[116.56824,3.52086],[116.56808,3.52077],[116.56799,3.52072],[116.56789,3.5207],[116.56777,3.5207],[116.56761,3.52073],[116.56741,3.52077],[116.56719,3.5208],[116.56705,3.52079],[116.5669,3.52075],[116.56675,3.52068],[116.56661,3.52061],[116.56641,3.52046],[116.56623,3.52033],[116.56597,3.52023],[116.56582,3.52019],[116.56562,3.52017],[116.56541,3.52015],[116.56532,3.52017],[116.56523,3.52023],[116.5651,3.52036],[116.56493,3.52059],[116.56476,3.52071],[116.56453,3.52079],[116.5643,3.52086],[116.56411,3.52087],[116.56395,3.52087],[116.56384,3.52086],[116.56372,3.52088],[116.56353,3.52092],[116.56316,3.52103],[116.56298,3.52108],[116.56288,3.52108],[116.56277,3.52105],[116.56262,3.52098],[116.56245,3.52094],[116.56226,3.52094],[116.56208,3.52093],[116.56184,3.52089],[116.56161,3.52084],[116.56144,3.52084],[116.56131,3.52087],[116.56113,3.52094],[116.56092,3.52103],[116.56077,3.52109],[116.56071,3.52111]]]]},"properties":{"kdprov":"65","kdkab":"01","kdkec":"140","kddesa":"005","kdsls":"0001","idsls":"65011400050001","nmprov":"KALIMANTAN UTARA","nmkab":"MALINAU","nmkec":"MALINAU BARAT","nmdesa":"TANJUNG LAPANG","nmsls":"RT 01"}},{"type":"Feature","geometry":{"type":"MultiPolygon","coordinates":[[[[116.60427,3.53865],[116.60406,3.53716],[116.60325,3.53638],[116.60363,3.53046],[116.60356,3.53001],[116.60347,3.52934],[116.60308,3.52662],[116.60293,3.52551],[116.60287,3.52498],[116.60282,3.52459],[116.60268,3.52328],[116.60262,3.52273],[116.60244,3.52278],[116.60117,3.52299],[116.60088,3.52457],[116.60075,3.52475],[116.60042,3.52528],[116.60019,3.52568],[116.6,3.52633],[116.59967,3.52742],[116.59954,3.52793],[116.59934,3.5286],[116.59918,3.52911],[116.59883,3.53017],[116.59871,3.53095],[116.59855,3.53235],[116.59832,3.5338],[116.59833,3.53416],[116.59838,3.53462],[116.59848,3.53525],[116.59856,3.53606],[116.59862,3.53616],[116.59846,3.5367],[116.59846,3.53706],[116.59846,3.53796],[116.59855,3.53911],[116.59852,3.53971],[116.59855,3.5408],[116.59843,3.54204],[116.59842,3.54261],[116.59841,3.54333],[116.59836,3.54425],[116.59921,3.54383],[116.60036,3.54271],[116.60089,3.54161],[116.60169,3.54074],[116.60307,3.53957],[116.60427,3.53865]]]]},"properties":{"kdprov":"65","kdkab":"01","kdkec":"140","kddesa":"005","kdsls":"0014","idsls":"65011400050014","nmprov":"KALIMANTAN UTARA","nmkab":"MALINAU","nmkec":"MALINAU BARAT","nmdesa":"TANJUNG LAPANG","nmsls":"RT 14"}},{"type":"Feature","geometry":{"type":"MultiPolygon","coordinates":[[[[116.67441,3.5169],[116.67456,3.51476],[116.67646,3.51339],[116.67971,3.51108],[116.6809,3.50929],[116.68265,3.50667],[116.68406,3.50448],[116.68486,3.50323],[116.68487,3.50316],[116.68518,3.50151],[116.68559,3.49931],[116.68633,3.49735],[116.68682,3.4922],[116.6878,3.48901],[116.68794,3.48799],[116.6903,3.48207],[116.69145,3.47755],[116.69295,3.47407],[116.69306,3.47383],[116.69306,3.47383],[116.69311,3.4737],[116.69327,3.47351],[116.69341,3.47333],[116.69485,3.47158],[116.69522,3.47116],[116.69536,3.471],[116.69546,3.47088],[116.69657,3.46962],[116.69839,3.46928],[116.69878,3.46921],[116.70157,3.46884],[116.70493,3.46895],[116.70631,3.46693],[116.71004,3.46686],[116.70738,3.46038],[116.70515,3.45447],[116.70478,3.4535],[116.70466,3.45317],[116.70456,3.45292],[116.70397,3.45135],[116.70206,3.44631],[116.69893,3.4335],[116.69973,3.43019],[116.70165,3.42908],[116.70347,3.43115],[116.70388,3.43161],[116.70461,3.43244],[116.70524,3.4322],[116.70675,3.43163],[116.7103,3.43026],[116.71303,3.43144],[116.71464,3.43214],[116.71512,3.43098],[116.71551,3.43017],[116.71507,3.42912],[116.71452,3.42867],[116.71418,3.42824],[116.71138,3.42687],[116.71053,3.4268],[116.71003,3.42663],[116.70863,3.42733],[116.70787,3.42597],[116.70753,3.42535],[116.70771,3.42521],[116.71076,3.42365],[116.71024,3.42294],[116.70909,3.42134],[116.70839,3.42081],[116.70766,3.42026],[116.70715,3.41989],[116.7067,3.41801],[116.70496,3.41711],[116.70426,3.41653],[116.70407,3.41634],[116.70343,3.41363],[116.7029,3.41297],[116.70254,3.41222],[116.70201,3.41077],[116.70193,3.41019],[116.70181,3.4102],[116.70021,3.411],[116.69869,3.41176],[116.69606,3.41308],[116.69247,3.41411],[116.69031,3.41473],[116.68662,3.41555],[116.68457,3.41599],[116.68087,3.41679],[116.67677,3.41761],[116.67471,3.41885],[116.67307,3.41761],[116.67102,3.41555],[116.66815,3.41513],[116.66651,3.41513],[116.66404,3.41678],[116.66199,3.41967],[116.66322,3.42132],[116.65952,3.42338],[116.66035,3.41967],[116.66199,3.41555],[116.65912,3.41348],[116.65674,3.41258],[116.65662,3.41254],[116.65654,3.41251],[116.65654,3.41251],[116.65593,3.41228],[116.65586,3.41225],[116.65583,3.41224],[116.65526,3.41261],[116.65377,3.41356],[116.65132,3.41513],[116.64762,3.41554],[116.64188,3.40646],[116.64681,3.40193],[116.64647,3.39752],[116.64599,3.3912],[116.65297,3.38791],[116.65462,3.37512],[116.65667,3.35945],[116.66365,3.35244],[116.66571,3.34873],[116.66612,3.34708],[116.66571,3.34419],[116.66407,3.33924],[116.65792,3.33222],[116.65299,3.32397],[116.65176,3.3215],[116.65012,3.31861],[116.64561,3.31077],[116.64438,3.3083],[116.64685,3.29963],[116.64603,3.29592],[116.64274,3.29468],[116.63946,3.29221],[116.63413,3.28891],[116.62756,3.28808],[116.61566,3.28972],[116.61224,3.28828],[116.61164,3.28802],[116.60786,3.28642],[116.60171,3.28271],[116.60055,3.28155],[116.5972,3.27817],[116.59417,3.27641],[116.59417,3.27641],[116.59346,3.27832],[116.59332,3.27966],[116.59322,3.28058],[116.59322,3.28331],[116.59328,3.28453],[116.59334,3.28581],[116.5931,3.28772],[116.59191,3.28986],[116.59053,3.29063],[116.58977,3.29105],[116.5862,3.29272],[116.58357,3.2938],[116.58163,3.29459],[116.58162,3.29459],[116.58158,3.29461],[116.58156,3.29462],[116.58147,3.29465],[116.58136,3.2947],[116.58136,3.2947],[116.57969,3.29519],[116.57968,3.29529],[116.57966,3.29536],[116.57963,3.29555],[116.57963,3.29556],[116.5793,3.29747],[116.57835,3.29937],[116.57764,3.30116],[116.57752,3.30354],[116.57728,3.30723],[116.57811,3.30925],[116.57942,3.31103],[116.58002,3.31425],[116.58037,3.3171],[116.58049,3.32067],[116.58014,3.32364],[116.58014,3.32638],[116.57978,3.32936],[116.57966,3.33173],[116.58037,3.33316],[116.58061,3.33554],[116.58037,3.33816],[116.57954,3.34042],[116.57918,3.34339],[116.5793,3.34542],[116.58002,3.34708],[116.58061,3.34899],[116.58047,3.3502],[116.58039,3.3509],[116.58418,3.35244],[116.58525,3.3541],[116.58549,3.35636],[116.58501,3.36136],[116.58501,3.36552],[116.58396,3.36798],[116.58365,3.36985],[116.58364,3.36986],[116.58231,3.36976],[116.58189,3.36973],[116.58173,3.37046],[116.58171,3.37077],[116.58173,3.37132],[116.58178,3.37167],[116.58169,3.37205],[116.5816,3.37239],[116.58138,3.3727],[116.58103,3.37286],[116.58068,3.37308],[116.5803,3.37348],[116.57977,3.37406],[116.57948,3.37452],[116.57922,3.37496],[116.57893,3.37527],[116.57866,3.3757],[116.57852,3.37594],[116.57805,3.37651],[116.57721,3.37732],[116.57687,3.37764],[116.5764,3.37821],[116.576,3.37879],[116.57589,3.37896],[116.57568,3.37939],[116.57543,3.37986],[116.57513,3.38044],[116.57489,3.38089],[116.57478,3.38109],[116.57482,3.38128],[116.5746,3.38502],[116.57657,3.38897],[116.58479,3.39059],[116.58498,3.39063],[116.58892,3.39063],[116.59154,3.39173],[116.6005,3.39678],[116.60356,3.39942],[116.6075,3.40404],[116.6099,3.40777],[116.60946,3.41327],[116.60771,3.4181],[116.60749,3.42271],[116.60683,3.42689],[116.60486,3.43304],[116.60399,3.43655],[116.60508,3.43853],[116.60704,3.44095],[116.60989,3.44359],[116.61622,3.44776],[116.61754,3.4493],[116.62081,3.45326],[116.62278,3.45721],[116.62256,3.46293],[116.62299,3.46886],[116.62518,3.47567],[116.62867,3.48095],[116.63086,3.48336],[116.63648,3.48738],[116.63872,3.48839],[116.64107,3.48885],[116.64431,3.49143],[116.64586,3.49347],[116.64341,3.47466],[116.64885,3.47376],[116.65672,3.4724],[116.65923,3.47205],[116.66086,3.47254],[116.66281,3.47241],[116.6647,3.47166],[116.66877,3.47146],[116.67026,3.47133],[116.67309,3.47052],[116.67452,3.47059],[116.67735,3.47143],[116.67872,3.47231],[116.67865,3.47448],[116.67826,3.47614],[116.67504,3.47543],[116.67316,3.47504],[116.66964,3.47552],[116.66607,3.47604],[116.66217,3.47677],[116.66269,3.47832],[116.66286,3.4788],[116.66327,3.47887],[116.66382,3.47846],[116.66453,3.47763],[116.66477,3.47751],[116.66511,3.4776],[116.66525,3.47816],[116.66506,3.47941],[116.66377,3.48005],[116.66265,3.48032],[116.66099,3.48048],[116.66071,3.48043],[116.6604,3.48072],[116.6605,3.48117],[116.66116,3.48157],[116.66422,3.48381],[116.66438,3.48417],[116.66428,3.4844],[116.66386,3.48475],[116.66334,3.48471],[116.66276,3.48459],[116.66229,3.48471],[116.66188,3.48478],[116.66152,3.48508],[116.66157,3.4854],[116.66171,3.4857],[116.66194,3.48623],[116.66195,3.48675],[116.66186,3.48705],[116.6615,3.48728],[116.66099,3.48725],[116.66032,3.48684],[116.66004,3.48695],[116.65977,3.48718],[116.65978,3.4874],[116.66006,3.48775],[116.66086,3.48864],[116.66164,3.48942],[116.6618,3.4898],[116.66175,3.4902],[116.66138,3.49038],[116.66041,3.49054],[116.66,3.49054],[116.65966,3.49033],[116.6593,3.48992],[116.65924,3.48954],[116.6591,3.48927],[116.6585,3.48838],[116.65816,3.48806],[116.65788,3.48789],[116.65679,3.48789],[116.65645,3.4878],[116.65609,3.48755],[116.65537,3.48679],[116.65515,3.48662],[116.65488,3.48661],[116.65454,3.48685],[116.65428,3.48725],[116.65428,3.48759],[116.65455,3.48787],[116.65562,3.48817],[116.65592,3.48842],[116.65602,3.48888],[116.65561,3.49013],[116.65561,3.49044],[116.65604,3.49143],[116.65612,3.49178],[116.65603,3.49204],[116.65567,3.49259],[116.65549,3.49276],[116.65559,3.49312],[116.65614,3.49342],[116.65708,3.4936],[116.65718,3.49381],[116.65707,3.49424],[116.65562,3.49584],[116.65422,3.49696],[116.65402,3.49744],[116.65413,3.49783],[116.65449,3.49807],[116.65513,3.49814],[116.65591,3.49799],[116.65674,3.49756],[116.65734,3.49732],[116.65764,3.49739],[116.65781,3.49763],[116.65805,3.49837],[116.65801,3.49901],[116.65776,3.49953],[116.65691,3.49984],[116.65641,3.50022],[116.65614,3.50061],[116.65615,3.5008],[116.65371,3.50122],[116.65215,3.50134],[116.65132,3.50177],[116.65089,3.50199],[116.65089,3.50224],[116.65062,3.50289],[116.6499,3.50346],[116.64938,3.50384],[116.64917,3.50451],[116.64894,3.50517],[116.64875,3.50613],[116.64851,3.50721],[116.64818,3.50827],[116.64821,3.50827],[116.6505,3.50867],[116.65001,3.51061],[116.64984,3.51125],[116.64951,3.51256],[116.64789,3.51231],[116.64769,3.51228],[116.64719,3.51221],[116.64696,3.51298],[116.64721,3.51362],[116.64746,3.51433],[116.64717,3.51483],[116.6466,3.5148],[116.64585,3.51451],[116.64528,3.51423],[116.64492,3.51458],[116.64478,3.51537],[116.64498,3.51744],[116.64504,3.51851],[116.64563,3.5197],[116.64581,3.52065],[116.64595,3.52203],[116.64624,3.52205],[116.6465,3.52207],[116.64669,3.52209],[116.64686,3.52208],[116.647,3.52207],[116.64922,3.52194],[116.65083,3.52185],[116.65295,3.52173],[116.65762,3.52095],[116.66192,3.52095],[116.66635,3.52095],[116.66824,3.52107],[116.67028,3.5212],[116.67052,3.52122],[116.67274,3.51965],[116.67441,3.5169]]]]},"properties":{"kdprov":"65","kdkab":"01","kdkec":"140","kddesa":"002","kdsls":"2001","idsls":"65011400022001","nmprov":"KALIMANTAN UTARA","nmkab":"MALINAU","nmkec":"MALINAU BARAT","nmdesa":"SESUA","nmsls":"HUTAN"}},{"type":"Feature","geometry":{"type":"MultiPolygon","coordinates":[[[[116.61027,3.5354],[116.61064,3.53489],[116.61075,3.53459],[116.61063,3.53429],[116.61034,3.53358],[116.60933,3.53067],[116.60925,3.52928],[116.60967,3.52856],[116.60927,3.5284],[116.60906,3.52825],[116.60866,3.52803],[116.60841,3.52788],[116.60808,3.52778],[116.60777,3.5277],[116.60729,3.52759],[116.60701,3.52758],[116.6068,3.52759],[116.60635,3.52776],[116.60567,3.52799],[116.60545,3.5281],[116.60521,3.52829],[116.60484,3.5286],[116.60446,3.52893],[116.60415,3.52917],[116.60386,3.52928],[116.60359,3.52933],[116.60347,3.52934],[116.60356,3.53001],[116.60363,3.53046],[116.60325,3.53638],[116.60406,3.53716],[116.60427,3.53865],[116.60455,3.53855],[116.60556,3.53887],[116.60661,3.53844],[116.60669,3.53845],[116.6068,3.53776],[116.6069,3.53748],[116.60683,3.53734],[116.60681,3.53721],[116.60674,3.53695],[116.60673,3.53672],[116.60698,3.53666],[116.60729,3.53687],[116.60771,3.5368],[116.6079,3.53627],[116.60809,3.53591],[116.60896,3.53557],[116.60946,3.53576],[116.60955,3.53567],[116.60986,3.53586],[116.61019,3.53543],[116.61027,3.5354]]]]},"properties":{"kdprov":"65","kdkab":"01","kdkec":"140","kddesa":"004","kdsls":"0001","idsls":"65011400040001","nmprov":"KALIMANTAN UTARA","nmkab":"MALINAU","nmkec":"MALINAU BARAT","nmdesa":"KUALA LAPANG","nmsls":"RT 01"}},{"type":"Feature","geometry":{"type":"MultiPolygon","coordinates":[[[[116.55351,3.52118],[116.55308,3.52132],[116.55307,3.52129],[116.55297,3.52101],[116.55305,3.52099],[116.55285,3.52033],[116.55085,3.52082],[116.55003,3.52196],[116.55058,3.52384],[116.55119,3.52312],[116.55167,3.52295],[116.5523,3.52274],[116.55259,3.52266],[116.55287,3.5227],[116.55323,3.52273],[116.55372,3.52259],[116.55359,3.52198],[116.55354,3.52197],[116.5535,3.52179],[116.55369,3.52174],[116.55351,3.52118]]]]},"properties":{"kdprov":"65","kdkab":"01","kdkec":"140","kddesa":"006","kdsls":"0001","idsls":"65011400060001","nmprov":"KALIMANTAN UTARA","nmkab":"MALINAU","nmkec":"MALINAU BARAT","nmdesa":"TARAS","nmsls":"RT 001"}},{"type":"Feature","geometry":{"type":"MultiPolygon","coordinates":[[[[116.66092,3.47642],[116.66069,3.47642],[116.66041,3.4763],[116.66011,3.47608],[116.65986,3.47583],[116.65958,3.47556],[116.65939,3.47544],[116.65907,3.47543],[116.65876,3.47548],[116.65854,3.47556],[116.65828,3.47556],[116.65799,3.47543],[116.65775,3.47521],[116.65762,3.47501],[116.65755,3.47464],[116.65702,3.47485],[116.65688,3.47489],[116.65669,3.47497],[116.65646,3.47512],[116.6562,3.47531],[116.65624,3.47571],[116.65623,3.47586],[116.65652,3.47577],[116.65688,3.47583],[116.65784,3.47622],[116.65965,3.47691],[116.65971,3.47698],[116.65983,3.47714],[116.66025,3.47736],[116.66026,3.47734],[116.66046,3.47695],[116.66056,3.47685],[116.66063,3.47683],[116.66092,3.47642]]]]},"properties":{"kdprov":"65","kdkab":"01","kdkec":"140","kddesa":"002","kdsls":"0001","idsls":"65011400020001","nmprov":"KALIMANTAN UTARA","nmkab":"MALINAU","nmkec":"MALINAU BARAT","nmdesa":"SESUA","nmsls":"RT 01 DUSUN"}},{"type":"Feature","geometry":{"type":"MultiPolygon","coordinates":[[[[116.65755,3.47464],[116.65762,3.47501],[116.65775,3.47521],[116.65799,3.47543],[116.65828,3.47556],[116.65854,3.47556],[116.65876,3.47548],[116.65907,3.47543],[116.65939,3.47544],[116.65958,3.47556],[116.65986,3.47583],[116.66011,3.47608],[116.66041,3.4763],[116.66069,3.47642],[116.66092,3.47642],[116.66105,3.47639],[116.66126,3.47643],[116.66159,3.47648],[116.66195,3.47662],[116.66217,3.47677],[116.66607,3.47604],[116.66964,3.47552],[116.67316,3.47504],[116.67504,3.47543],[116.67826,3.47614],[116.67865,3.47448],[116.67872,3.47231],[116.67735,3.47143],[116.67452,3.47059],[116.67309,3.47052],[116.67026,3.47133],[116.66877,3.47146],[116.6647,3.47166],[116.66281,3.47241],[116.66086,3.47254],[116.65923,3.47205],[116.65672,3.4724],[116.65697,3.47287],[116.65716,3.47333],[116.65731,3.47368],[116.65744,3.47403],[116.65751,3.47438],[116.65755,3.47464]]]]},"properties":{"kdprov":"65","kdkab":"01","kdkec":"140","kddesa":"002","kdsls":"0006","idsls":"65011400020006","nmprov":"KALIMANTAN UTARA","nmkab":"MALINAU","nmkec":"MALINAU BARAT","nmdesa":"SESUA","nmsls":"RT 06 DUSUN BENGALUN"}},{"type":"Feature","geometry":{"type":"MultiPolygon","coordinates":[[[[116.59007,3.53648],[116.59031,3.53637],[116.5903,3.53634],[116.59018,3.53592],[116.59009,3.5355],[116.59003,3.53534],[116.58987,3.53526],[116.58968,3.53521],[116.58947,3.53519],[116.58946,3.53514],[116.58951,3.53481],[116.58952,3.53462],[116.58897,3.53457],[116.58881,3.53497],[116.58877,3.53505],[116.58877,3.5351],[116.58796,3.53581],[116.58836,3.53623],[116.58884,3.53675],[116.58894,3.53684],[116.58903,3.53689],[116.58922,3.53685],[116.58962,3.5367],[116.5899,3.53656],[116.59007,3.53648]]]]},"properties":{"kdprov":"65","kdkab":"01","kdkec":"140","kddesa":"005","kdsls":"0010","idsls":"65011400050010","nmprov":"KALIMANTAN UTARA","nmkab":"MALINAU","nmkec":"MALINAU BARAT","nmdesa":"TANJUNG LAPANG","nmsls":"RT 10"}},{"type":"Feature","geometry":{"type":"MultiPolygon","coordinates":[[[[116.70193,3.41019],[116.70176,3.40901],[116.70127,3.40773],[116.70109,3.40688],[116.701,3.40591],[116.7008,3.40516],[116.70083,3.40407],[116.70098,3.40379],[116.70063,3.40331],[116.70057,3.40214],[116.69911,3.40222],[116.69833,3.40214],[116.69795,3.40113],[116.69779,3.40069],[116.69742,3.39942],[116.69655,3.3988],[116.69643,3.39864],[116.6963,3.39845],[116.6959,3.39798],[116.69537,3.39784],[116.69568,3.3968],[116.69603,3.39653],[116.69646,3.39639],[116.69682,3.39639],[116.69709,3.3964],[116.69791,3.39649],[116.6983,3.39591],[116.69856,3.39466],[116.69843,3.39349],[116.69812,3.39277],[116.6979,3.3916],[116.69789,3.391],[116.69799,3.39057],[116.69824,3.39019],[116.69866,3.38987],[116.69953,3.38953],[116.70029,3.38934],[116.69996,3.38814],[116.6995,3.38685],[116.69968,3.38593],[116.69997,3.3856],[116.7005,3.3844],[116.70112,3.38301],[116.70122,3.38277],[116.7014,3.38234],[116.70198,3.38222],[116.703,3.382],[116.70362,3.38137],[116.70368,3.38073],[116.7036,3.37975],[116.70374,3.37872],[116.7037,3.37827],[116.70281,3.37725],[116.70325,3.37709],[116.70357,3.37676],[116.70443,3.37604],[116.70501,3.37559],[116.70549,3.37548],[116.70712,3.37124],[116.70715,3.36859],[116.70717,3.36676],[116.70753,3.36528],[116.70809,3.36307],[116.70811,3.36],[116.70861,3.35778],[116.70965,3.35647],[116.70972,3.35637],[116.70985,3.35504],[116.70999,3.35457],[116.71006,3.3545],[116.71049,3.35438],[116.71134,3.35318],[116.71156,3.35305],[116.71187,3.35272],[116.71206,3.35252],[116.71226,3.3526],[116.71248,3.35268],[116.71269,3.35303],[116.71279,3.35333],[116.71291,3.35365],[116.71304,3.35421],[116.71323,3.35426],[116.71332,3.35428],[116.71367,3.35434],[116.71371,3.35434],[116.71396,3.35438],[116.71431,3.3546],[116.71424,3.35473],[116.71431,3.35535],[116.71431,3.35535],[116.71437,3.35544],[116.71438,3.35545],[116.71455,3.3557],[116.71456,3.35572],[116.71456,3.35573],[116.71473,3.35598],[116.71473,3.35598],[116.71473,3.35598],[116.71537,3.35649],[116.71607,3.35644],[116.71678,3.35579],[116.71721,3.35519],[116.71756,3.3552],[116.71824,3.35504],[116.71858,3.35496],[116.71882,3.35456],[116.71925,3.35431],[116.71953,3.35438],[116.71988,3.35481],[116.72023,3.35448],[116.72058,3.35354],[116.72087,3.3528],[116.72129,3.35199],[116.72192,3.35161],[116.72234,3.35162],[116.72325,3.35166],[116.72329,3.35162],[116.72332,3.35159],[116.72334,3.35157],[116.72343,3.35147],[116.72396,3.35094],[116.72439,3.35051],[116.72514,3.34976],[116.72514,3.34976],[116.72519,3.34933],[116.72512,3.34865],[116.72469,3.34758],[116.72418,3.34646],[116.72404,3.34625],[116.7244,3.34605],[116.72727,3.34448],[116.72835,3.34225],[116.72944,3.3417],[116.72944,3.3417],[116.72961,3.34048],[116.7301,3.33989],[116.7301,3.33989],[116.7301,3.33989],[116.73031,3.33898],[116.73031,3.33898],[116.73047,3.33883],[116.73052,3.33874],[116.73098,3.33819],[116.73099,3.33819],[116.73109,3.33804],[116.7311,3.33795],[116.7311,3.33789],[116.73111,3.33777],[116.73119,3.33753],[116.73119,3.33753],[116.73119,3.33753],[116.73139,3.33722],[116.73169,3.33675],[116.73169,3.33675],[116.73192,3.3363],[116.73219,3.33576],[116.7322,3.33576],[116.73245,3.33462],[116.73238,3.33404],[116.73233,3.33366],[116.73233,3.33364],[116.73233,3.33364],[116.7324,3.33318],[116.7331,3.33234],[116.7331,3.33234],[116.73311,3.33234],[116.73416,3.33417],[116.73416,3.33417],[116.73416,3.33417],[116.73523,3.33434],[116.73868,3.33965],[116.74082,3.34119],[116.74217,3.3412],[116.74265,3.33949],[116.74333,3.33775],[116.7448,3.33689],[116.74963,3.33551],[116.75,3.3354],[116.75111,3.33497],[116.75208,3.33129],[116.75441,3.32803],[116.7543,3.32586],[116.75428,3.32535],[116.75414,3.32239],[116.7538,3.31887],[116.75414,3.31645],[116.75712,3.31495],[116.75854,3.31409],[116.75996,3.31013],[116.76079,3.3089],[116.76091,3.30807],[116.76104,3.30712],[116.76079,3.30477],[116.76493,3.30221],[116.76656,3.30024],[116.76897,3.29594],[116.77221,3.29511],[116.77334,3.29482],[116.77707,3.2946],[116.77824,3.29365],[116.78079,3.2923],[116.78239,3.29126],[116.78234,3.28913],[116.78239,3.28508],[116.78306,3.28174],[116.78163,3.27824],[116.78026,3.27701],[116.7799,3.27458],[116.78004,3.27326],[116.78074,3.27239],[116.7814,3.2711],[116.78161,3.27068],[116.78229,3.26655],[116.7828,3.26668],[116.78317,3.26725],[116.78504,3.26746],[116.78655,3.2667],[116.78691,3.2652],[116.78717,3.2641],[116.78723,3.26383],[116.78815,3.2621],[116.78918,3.2608],[116.78789,3.25967],[116.78728,3.25816],[116.78728,3.25515],[116.78655,3.25359],[116.7861,3.25085],[116.78634,3.25],[116.78769,3.24528],[116.78788,3.24382],[116.7917,3.24216],[116.79194,3.23952],[116.79233,3.23869],[116.7935,3.23619],[116.79394,3.23364],[116.79401,3.23062],[116.79159,3.22963],[116.79064,3.23153],[116.78771,3.23396],[116.78391,3.23179],[116.78111,3.22832],[116.78008,3.22625],[116.78095,3.22264],[116.78095,3.22141],[116.78142,3.22001],[116.78026,3.21771],[116.77931,3.21683],[116.77819,3.21531],[116.77654,3.21301],[116.7763,3.21012],[116.77554,3.20592],[116.77455,3.19917],[116.77434,3.19768],[116.77491,3.1964],[116.77491,3.19543],[116.77446,3.19479],[116.77352,3.19207],[116.7727,3.19118],[116.77237,3.19043],[116.77254,3.18969],[116.77257,3.18889],[116.77255,3.18807],[116.7729,3.1868],[116.77347,3.18379],[116.77299,3.18183],[116.77193,3.18076],[116.77306,3.17887],[116.7738,3.17759],[116.77458,3.17736],[116.77458,3.17671],[116.77,3.17216],[116.76992,3.17081],[116.7697,3.16756],[116.76906,3.16713],[116.76878,3.16644],[116.76826,3.16513],[116.76778,3.16407],[116.76722,3.16465],[116.7672,3.16467],[116.76653,3.16538],[116.76563,3.16644],[116.76533,3.1668],[116.76414,3.16728],[116.7627,3.16822],[116.76119,3.16824],[116.76073,3.16836],[116.75887,3.16882],[116.7571,3.16883],[116.75581,3.169],[116.7549,3.16943],[116.75357,3.17033],[116.75242,3.17009],[116.75135,3.16983],[116.75007,3.17001],[116.74976,3.16991],[116.74914,3.16971],[116.74791,3.17005],[116.74719,3.17043],[116.74681,3.17063],[116.74592,3.17093],[116.74451,3.17106],[116.74412,3.1711],[116.74254,3.17098],[116.74252,3.17098],[116.7409,3.17066],[116.74066,3.17044],[116.74099,3.1687],[116.74129,3.16773],[116.74148,3.1671],[116.74163,3.16662],[116.74193,3.16644],[116.74229,3.16621],[116.74275,3.16592],[116.74277,3.16587],[116.74318,3.16464],[116.74351,3.16364],[116.7443,3.16292],[116.74527,3.16202],[116.74495,3.16165],[116.74357,3.16066],[116.7429,3.16019],[116.742,3.15877],[116.74183,3.15816],[116.74178,3.15799],[116.74248,3.1571],[116.74301,3.15631],[116.74319,3.15605],[116.74356,3.15521],[116.74374,3.15479],[116.74392,3.15393],[116.74314,3.15376],[116.74261,3.15375],[116.74233,3.15356],[116.74207,3.15338],[116.74158,3.15223],[116.7414,3.1519],[116.74124,3.15161],[116.74135,3.15067],[116.74135,3.15066],[116.7411,3.14899],[116.74107,3.14875],[116.74099,3.14868],[116.73986,3.14762],[116.73946,3.14672],[116.73914,3.14614],[116.73866,3.14466],[116.73864,3.14426],[116.73892,3.14325],[116.73865,3.1424],[116.73815,3.14134],[116.73756,3.14],[116.7375,3.13985],[116.73737,3.13951],[116.7373,3.13932],[116.73729,3.13931],[116.73681,3.1385],[116.73647,3.13794],[116.73643,3.13786],[116.73643,3.13662],[116.73643,3.13631],[116.73645,3.13601],[116.73649,3.13544],[116.7366,3.13393],[116.73662,3.13354],[116.73458,3.13465],[116.73401,3.13543],[116.73332,3.13638],[116.73053,3.13818],[116.72886,3.13925],[116.726,3.14087],[116.724,3.14298],[116.72361,3.14455],[116.72209,3.146],[116.71942,3.14722],[116.71653,3.14836],[116.7137,3.15018],[116.71135,3.15194],[116.71094,3.15446],[116.71059,3.15669],[116.71036,3.15818],[116.70912,3.15994],[116.70747,3.1607],[116.70724,3.1626],[116.70655,3.16443],[116.70541,3.1658],[116.70677,3.16866],[116.70609,3.17101],[116.70686,3.17212],[116.70731,3.17471],[116.70709,3.17752],[116.70587,3.17867],[116.70488,3.18011],[116.70313,3.18323],[116.70236,3.18491],[116.70016,3.18666],[116.6983,3.18808],[116.69813,3.18867],[116.69764,3.19031],[116.69764,3.19032],[116.6942,3.1913],[116.68649,3.19526],[116.68558,3.20075],[116.68482,3.20394],[116.68299,3.20653],[116.68299,3.20653],[116.68154,3.20663],[116.68136,3.20665],[116.68087,3.20668],[116.68087,3.20668],[116.68006,3.20674],[116.67678,3.20697],[116.67684,3.20794],[116.67686,3.20839],[116.67704,3.21158],[116.67293,3.21607],[116.66928,3.22009],[116.66776,3.2213],[116.66578,3.22298],[116.66106,3.22526],[116.66106,3.22526],[116.65314,3.22556],[116.65314,3.22556],[116.64994,3.22998],[116.64827,3.23196],[116.64538,3.2344],[116.64065,3.2376],[116.63639,3.23943],[116.63197,3.24125],[116.63197,3.24125],[116.62953,3.23983],[116.6284,3.23975],[116.62751,3.23969],[116.62703,3.23965],[116.62702,3.23966],[116.6247,3.24262],[116.6247,3.24263],[116.62377,3.24288],[116.62252,3.24322],[116.62053,3.24377],[116.61881,3.24424],[116.61442,3.24395],[116.61224,3.24417],[116.61224,3.24417],[116.60863,3.24595],[116.60863,3.24595],[116.60845,3.24604],[116.60823,3.24614],[116.60317,3.24883],[116.59847,3.25086],[116.59502,3.25192],[116.59502,3.25192],[116.5928,3.25494],[116.59241,3.25695],[116.59312,3.26145],[116.59312,3.26145],[116.59312,3.26145],[116.59317,3.26375],[116.59329,3.26848],[116.5931,3.26987],[116.59453,3.27189],[116.59465,3.27392],[116.59417,3.27641],[116.59417,3.27641],[116.5972,3.27817],[116.60055,3.28155],[116.60171,3.28271],[116.60786,3.28642],[116.61164,3.28802],[116.61224,3.28828],[116.61566,3.28972],[116.62756,3.28808],[116.63413,3.28891],[116.63946,3.29221],[116.64274,3.29468],[116.64603,3.29592],[116.64685,3.29963],[116.64438,3.3083],[116.64561,3.31077],[116.65012,3.31861],[116.65176,3.3215],[116.65299,3.32397],[116.65792,3.33222],[116.66407,3.33924],[116.66571,3.34419],[116.66612,3.34708],[116.66571,3.34873],[116.66365,3.35244],[116.65667,3.35945],[116.65462,3.37512],[116.65297,3.38791],[116.64599,3.3912],[116.64647,3.39752],[116.64681,3.40193],[116.64188,3.40646],[116.64762,3.41554],[116.65132,3.41513],[116.65377,3.41356],[116.65526,3.41261],[116.65583,3.41224],[116.65586,3.41225],[116.65593,3.41228],[116.65654,3.41251],[116.65654,3.41251],[116.65662,3.41254],[116.65674,3.41258],[116.65912,3.41348],[116.66199,3.41555],[116.66035,3.41967],[116.65952,3.42338],[116.66322,3.42132],[116.66199,3.41967],[116.66404,3.41678],[116.66651,3.41513],[116.66815,3.41513],[116.67102,3.41555],[116.67307,3.41761],[116.67471,3.41885],[116.67677,3.41761],[116.68087,3.41679],[116.68457,3.41599],[116.68662,3.41555],[116.69031,3.41473],[116.69247,3.41411],[116.69606,3.41308],[116.69869,3.41176],[116.70021,3.411],[116.70181,3.4102],[116.70193,3.41019]],[[116.65557,3.40868],[116.6536,3.40808],[116.65447,3.40617],[116.65492,3.40609],[116.65499,3.40623],[116.65539,3.40627],[116.65557,3.40629],[116.65593,3.40634],[116.65658,3.40648],[116.65668,3.40648],[116.65862,3.40631],[116.65841,3.40667],[116.65756,3.40814],[116.65755,3.40814],[116.65698,3.40912],[116.65688,3.40909],[116.65557,3.40868]]]]},"properties":{"kdprov":"65","kdkab":"01","kdkec":"140","kddesa":"001","kdsls":"2001","idsls":"65011400012001","nmprov":"KALIMANTAN UTARA","nmkab":"MALINAU","nmkec":"MALINAU BARAT","nmdesa":"PUNAN BENGALUN","nmsls":"HUTAN"}},{"type":"Feature","geometry":{"type":"MultiPolygon","coordinates":[[[[116.65557,3.40868],[116.65688,3.40909],[116.65698,3.40912],[116.65755,3.40814],[116.65756,3.40814],[116.65841,3.40667],[116.65862,3.40631],[116.65668,3.40648],[116.65661,3.4069],[116.65557,3.40868]]]]},"properties":{"kdprov":"65","kdkab":"01","kdkec":"140","kddesa":"001","kdsls":"0002","idsls":"65011400010002","nmprov":"KALIMANTAN UTARA","nmkab":"MALINAU","nmkec":"MALINAU BARAT","nmdesa":"PUNAN BENGALUN","nmsls":"RT 002"}},{"type":"Feature","geometry":{"type":"MultiPolygon","coordinates":[[[[116.63056,3.50647],[116.63296,3.50501],[116.63511,3.50374],[116.63879,3.49764],[116.64368,3.49672],[116.64404,3.49703],[116.6454,3.49688],[116.64677,3.49642],[116.64733,3.49548],[116.6461,3.4938],[116.64586,3.49347],[116.64431,3.49143],[116.64107,3.48885],[116.63872,3.48839],[116.63648,3.48738],[116.63086,3.48336],[116.62867,3.48095],[116.62518,3.47567],[116.62299,3.46886],[116.62256,3.46293],[116.62278,3.45721],[116.62081,3.45326],[116.61754,3.4493],[116.61622,3.44776],[116.60989,3.44359],[116.60704,3.44095],[116.60508,3.43853],[116.60399,3.43655],[116.60486,3.43304],[116.60683,3.42689],[116.60749,3.42271],[116.60771,3.4181],[116.60946,3.41327],[116.6099,3.40777],[116.6075,3.40404],[116.60356,3.39942],[116.6005,3.39678],[116.59154,3.39173],[116.58892,3.39063],[116.58498,3.39063],[116.58479,3.39059],[116.57657,3.38897],[116.5746,3.38502],[116.57482,3.38128],[116.57478,3.38109],[116.5747,3.38124],[116.5744,3.38193],[116.57392,3.38158],[116.57322,3.38108],[116.57279,3.38076],[116.57246,3.38039],[116.57206,3.38006],[116.5716,3.37975],[116.57121,3.37956],[116.57063,3.37945],[116.57017,3.37945],[116.56966,3.37937],[116.56947,3.37929],[116.56907,3.37933],[116.56848,3.37945],[116.56823,3.37948],[116.56785,3.37948],[116.56747,3.3797],[116.56728,3.37983],[116.56695,3.37991],[116.56648,3.37985],[116.56602,3.37982],[116.56533,3.37987],[116.56485,3.37991],[116.5643,3.38021],[116.56396,3.38048],[116.56367,3.38077],[116.56337,3.38109],[116.5631,3.38139],[116.56296,3.38154],[116.56279,3.38159],[116.56269,3.3817],[116.56267,3.38187],[116.56258,3.38205],[116.56238,3.3822],[116.562,3.38234],[116.56169,3.38251],[116.56118,3.38308],[116.56085,3.38337],[116.56051,3.38348],[116.5601,3.3836],[116.55982,3.38364],[116.55925,3.38387],[116.55901,3.38413],[116.55882,3.38444],[116.55854,3.38468],[116.55797,3.38499],[116.55755,3.38525],[116.55735,3.38526],[116.55693,3.38527],[116.55672,3.38532],[116.55638,3.38541],[116.55614,3.38536],[116.55597,3.38527],[116.55568,3.38518],[116.55544,3.38511],[116.55507,3.385],[116.55473,3.38493],[116.55473,3.38529],[116.55463,3.38568],[116.55453,3.38609],[116.55441,3.3865],[116.55426,3.38688],[116.55414,3.38719],[116.55408,3.38758],[116.55401,3.38804],[116.55375,3.38852],[116.55342,3.38909],[116.55342,3.38967],[116.55342,3.38988],[116.55377,3.3905],[116.55421,3.39126],[116.55414,3.39185],[116.55368,3.39231],[116.55372,3.3927],[116.55377,3.39326],[116.55377,3.39437],[116.55375,3.39532],[116.55414,3.39631],[116.55479,3.39677],[116.55511,3.39766],[116.55531,3.39821],[116.55528,3.39898],[116.55512,3.39965],[116.55479,3.40018],[116.55471,3.40121],[116.55466,3.40195],[116.55498,3.40261],[116.55518,3.40326],[116.5559,3.40392],[116.55635,3.40471],[116.55625,3.40591],[116.55622,3.40628],[116.55603,3.40694],[116.55583,3.40786],[116.55524,3.40838],[116.55479,3.4089],[116.55492,3.40949],[116.55511,3.41002],[116.55563,3.41061],[116.556,3.41125],[116.55642,3.41199],[116.55648,3.41258],[116.55648,3.41337],[116.55644,3.41385],[116.55642,3.41412],[116.55644,3.41438],[116.55646,3.4147],[116.55648,3.41514],[116.55671,3.41549],[116.55687,3.41573],[116.55701,3.4162],[116.55707,3.41638],[116.55731,3.41682],[116.55755,3.41726],[116.55778,3.4177],[116.55765,3.41816],[116.55726,3.41816],[116.55691,3.41798],[116.55635,3.4177],[116.55596,3.41776],[116.55576,3.41789],[116.55568,3.41824],[116.5556,3.41857],[116.55555,3.41911],[116.5555,3.4196],[116.5554,3.42032],[116.55537,3.42052],[116.55525,3.42094],[116.55511,3.42143],[116.55464,3.42187],[116.55422,3.42227],[116.554,3.42248],[116.5538,3.42314],[116.55385,3.42375],[116.55386,3.42452],[116.55386,3.42523],[116.55386,3.4255],[116.55399,3.42609],[116.55442,3.4266],[116.55464,3.42686],[116.55501,3.42737],[116.55523,3.42767],[116.55563,3.42796],[116.55595,3.42819],[116.55625,3.42865],[116.55647,3.42898],[116.55647,3.4295],[116.55634,3.43036],[116.55591,3.43108],[116.55536,3.432],[116.5553,3.43298],[116.55562,3.4337],[116.55569,3.43429],[116.55549,3.4351],[116.55529,3.43589],[116.55516,3.43639],[116.55468,3.43743],[116.55418,3.43854],[116.55367,3.43931],[116.55339,3.43972],[116.55307,3.4402],[116.55268,3.44118],[116.55268,3.44174],[116.55268,3.44223],[116.55248,3.44315],[116.55252,3.44362],[116.55484,3.44467],[116.55765,3.44608],[116.56081,3.44608],[116.56362,3.44573],[116.56414,3.44552],[116.56889,3.44362],[116.571,3.44185],[116.57522,3.43903],[116.57802,3.44221],[116.57943,3.44468],[116.58048,3.44468],[116.58224,3.44468],[116.58399,3.44503],[116.58821,3.4468],[116.59066,3.44998],[116.59137,3.45316],[116.59136,3.45633],[116.58961,3.45951],[116.58961,3.46198],[116.5889,3.46727],[116.5896,3.47363],[116.59065,3.47645],[116.59089,3.47717],[116.59206,3.48069],[116.59451,3.48316],[116.59767,3.48528],[116.60083,3.4881],[116.60189,3.49128],[116.60189,3.49445],[116.60083,3.49692],[116.60048,3.49975],[116.60118,3.50293],[116.60399,3.50575],[116.60328,3.50963],[116.60328,3.51563],[116.60398,3.51916],[116.60258,3.52234],[116.60259,3.52243],[116.60262,3.52273],[116.60268,3.52328],[116.60282,3.52459],[116.60287,3.52498],[116.60293,3.52551],[116.60308,3.52662],[116.60347,3.52934],[116.60359,3.52933],[116.60386,3.52928],[116.60415,3.52917],[116.60446,3.52893],[116.60484,3.5286],[116.60521,3.52829],[116.60545,3.5281],[116.60567,3.52799],[116.60635,3.52776],[116.6068,3.52759],[116.60701,3.52758],[116.60729,3.52759],[116.60777,3.5277],[116.60808,3.52778],[116.60841,3.52788],[116.60866,3.52803],[116.60906,3.52825],[116.60927,3.5284],[116.60967,3.52856],[116.60925,3.52928],[116.60933,3.53067],[116.61034,3.53358],[116.61063,3.53429],[116.61109,3.53428],[116.61186,3.53442],[116.61208,3.53459],[116.61237,3.53465],[116.61278,3.53475],[116.61322,3.5349],[116.61359,3.53429],[116.61405,3.53353],[116.61423,3.53326],[116.61456,3.53298],[116.61487,3.53278],[116.61518,3.53265],[116.6154,3.53259],[116.61602,3.53242],[116.61635,3.53225],[116.61654,3.53205],[116.61684,3.53136],[116.61808,3.52828],[116.61816,3.52801],[116.61822,3.52738],[116.61825,3.5261],[116.61831,3.52551],[116.6184,3.52501],[116.61841,3.52456],[116.6184,3.52371],[116.61857,3.52314],[116.61917,3.52241],[116.62543,3.511],[116.62613,3.50847],[116.62631,3.50785],[116.62664,3.50778],[116.62754,3.50742],[116.62849,3.50734],[116.62923,3.50727],[116.62989,3.50645],[116.63022,3.50637],[116.63056,3.50647]]]]},"properties":{"kdprov":"65","kdkab":"01","kdkec":"140","kddesa":"004","kdsls":"0004","idsls":"65011400040004","nmprov":"KALIMANTAN UTARA","nmkab":"MALINAU","nmkec":"MALINAU BARAT","nmdesa":"KUALA LAPANG","nmsls":"RT 04"}},{"type":"Feature","geometry":{"type":"MultiPolygon","coordinates":[[[[116.48812,3.48987],[116.48915,3.48979],[116.49049,3.4898],[116.49134,3.48974],[116.4916,3.4897],[116.49255,3.48968],[116.49267,3.48838],[116.49233,3.48697],[116.49225,3.48662],[116.49214,3.48616],[116.48895,3.48717],[116.48849,3.48836],[116.48815,3.48921],[116.48812,3.48987]]]]},"properties":{"kdprov":"65","kdkab":"01","kdkec":"140","kddesa":"008","kdsls":"0002","idsls":"65011400080002","nmprov":"KALIMANTAN UTARA","nmkab":"MALINAU","nmkec":"MALINAU BARAT","nmdesa":"SENTABAN","nmsls":"RT 02"}},{"type":"Feature","geometry":{"type":"MultiPolygon","coordinates":[[[[116.59146,3.53801],[116.59146,3.53801],[116.59148,3.53793],[116.59147,3.53791],[116.59132,3.53777],[116.59107,3.53754],[116.59066,3.53718],[116.58997,3.53796],[116.58989,3.53796],[116.58954,3.53839],[116.58907,3.5389],[116.58852,3.53938],[116.58953,3.54046],[116.59027,3.53977],[116.59044,3.5396],[116.59056,3.53949],[116.59074,3.53927],[116.59089,3.53904],[116.59092,3.53896],[116.59101,3.53888],[116.59114,3.53869],[116.59131,3.53845],[116.59139,3.53833],[116.59146,3.53801]]]]},"properties":{"kdprov":"65","kdkab":"01","kdkec":"140","kddesa":"005","kdsls":"0007","idsls":"65011400050007","nmprov":"KALIMANTAN UTARA","nmkab":"MALINAU","nmkec":"MALINAU BARAT","nmdesa":"TANJUNG LAPANG","nmsls":"RT 07"}},{"type":"Feature","geometry":{"type":"MultiPolygon","coordinates":[[[[116.56539,3.56734],[116.56543,3.56699],[116.56549,3.5668],[116.56557,3.56655],[116.56558,3.56632],[116.56545,3.56599],[116.56533,3.5657],[116.56497,3.56533],[116.56463,3.56515],[116.56432,3.565],[116.5641,3.56477],[116.5639,3.56456],[116.56374,3.56419],[116.56356,3.56375],[116.56337,3.5632],[116.56341,3.56276],[116.56335,3.56227],[116.56337,3.56184],[116.5634,3.56145],[116.56343,3.56111],[116.56345,3.5608],[116.56345,3.56047],[116.56345,3.56047],[116.56343,3.55995],[116.56342,3.55938],[116.56342,3.55938],[116.56341,3.55843],[116.5634,3.55794],[116.56338,3.55693],[116.56333,3.55645],[116.56331,3.5563],[116.56102,3.52521],[116.56018,3.52498],[116.55923,3.52475],[116.55855,3.52329],[116.55819,3.52309],[116.55772,3.5228],[116.55737,3.52258],[116.55687,3.52239],[116.55639,3.52233],[116.55588,3.52233],[116.55535,3.52241],[116.55474,3.52246],[116.55426,3.52251],[116.55372,3.52259],[116.55323,3.52273],[116.55287,3.5227],[116.55259,3.52266],[116.5523,3.52274],[116.55167,3.52295],[116.55119,3.52312],[116.55058,3.52384],[116.5491,3.52384],[116.54752,3.5239],[116.5463,3.5239],[116.54512,3.52381],[116.54398,3.52371],[116.54298,3.52343],[116.54191,3.52316],[116.54188,3.52318],[116.54188,3.52319],[116.54143,3.52354],[116.5413,3.52386],[116.54122,3.52403],[116.54119,3.52411],[116.54119,3.52412],[116.54118,3.52412],[116.5404,3.52592],[116.54033,3.52609],[116.54025,3.52629],[116.54001,3.52685],[116.5391,3.52894],[116.5391,3.52894],[116.53942,3.53083],[116.53985,3.53337],[116.54028,3.53591],[116.54053,3.53741],[116.54062,3.54132],[116.54071,3.5448],[116.5407,3.54879],[116.5407,3.55289],[116.54071,3.55315],[116.54076,3.55748],[116.54076,3.55763],[116.54089,3.56135],[116.54102,3.5652],[116.54111,3.56759],[116.54111,3.56766],[116.54136,3.57071],[116.54137,3.57084],[116.54159,3.57283],[116.54159,3.57286],[116.54159,3.5729],[116.54164,3.57336],[116.54165,3.5734],[116.54165,3.57342],[116.54186,3.57739],[116.54186,3.57739],[116.54413,3.57627],[116.54505,3.57595],[116.54532,3.57585],[116.54605,3.57558],[116.54701,3.57512],[116.54793,3.57489],[116.54963,3.57492],[116.55113,3.57522],[116.55246,3.57517],[116.55374,3.57513],[116.55447,3.57419],[116.55502,3.5735],[116.55537,3.57276],[116.55586,3.57214],[116.55588,3.57187],[116.5561,3.57119],[116.55658,3.57089],[116.55703,3.57094],[116.55749,3.57074],[116.55765,3.57051],[116.5579,3.57014],[116.55832,3.5697],[116.55859,3.56966],[116.55894,3.56907],[116.55933,3.56858],[116.5595,3.56813],[116.55988,3.56753],[116.56014,3.56728],[116.56052,3.56674],[116.56116,3.56625],[116.56319,3.56677],[116.56539,3.56734]]]]},"properties":{"kdprov":"65","kdkab":"01","kdkec":"140","kddesa":"006","kdsls":"1001","idsls":"65011400061001","nmprov":"KALIMANTAN UTARA","nmkab":"MALINAU","nmkec":"MALINAU BARAT","nmdesa":"TARAS","nmsls":"LADANG"}},{"type":"Feature","geometry":{"type":"MultiPolygon","coordinates":[[[[116.65668,3.40648],[116.65658,3.40648],[116.65593,3.40634],[116.65557,3.40629],[116.65539,3.40627],[116.65499,3.40623],[116.65492,3.40609],[116.65447,3.40617],[116.6536,3.40808],[116.65557,3.40868],[116.65661,3.4069],[116.65668,3.40648]]]]},"properties":{"kdprov":"65","kdkab":"01","kdkec":"140","kddesa":"001","kdsls":"0001","idsls":"65011400010001","nmprov":"KALIMANTAN UTARA","nmkab":"MALINAU","nmkec":"MALINAU BARAT","nmdesa":"PUNAN BENGALUN","nmsls":"RT 001"}},{"type":"Feature","geometry":{"type":"MultiPolygon","coordinates":[[[[116.61324,3.5386],[116.61321,3.5384],[116.61313,3.53814],[116.61293,3.53779],[116.61271,3.53744],[116.6125,3.53722],[116.61231,3.53694],[116.61214,3.53668],[116.61168,3.53722],[116.61139,3.53757],[116.61076,3.53776],[116.6101,3.53792],[116.60962,3.53833],[116.60921,3.53917],[116.60965,3.53938],[116.6099,3.53949],[116.61069,3.53898],[116.61084,3.53851],[116.61163,3.53857],[116.612,3.5386],[116.61324,3.5386]]]]},"properties":{"kdprov":"65","kdkab":"01","kdkec":"140","kddesa":"004","kdsls":"0005","idsls":"65011400040005","nmprov":"KALIMANTAN UTARA","nmkab":"MALINAU","nmkec":"MALINAU BARAT","nmdesa":"KUALA LAPANG","nmsls":"RT 05"}},{"type":"Feature","geometry":{"type":"MultiPolygon","coordinates":[[[[116.64586,3.49347],[116.6461,3.4938],[116.64733,3.49548],[116.64677,3.49642],[116.64666,3.49661],[116.64666,3.49683],[116.64767,3.49818],[116.64744,3.49942],[116.64823,3.50077],[116.64823,3.50235],[116.64828,3.50251],[116.64854,3.50267],[116.64856,3.50268],[116.64888,3.50274],[116.64979,3.50257],[116.65023,3.50234],[116.65045,3.50223],[116.65056,3.50186],[116.65078,3.50108],[116.65102,3.50043],[116.65129,3.49971],[116.65168,3.49942],[116.65201,3.49915],[116.6525,3.49862],[116.65267,3.49838],[116.65316,3.49807],[116.65353,3.49767],[116.65374,3.49695],[116.65409,3.4963],[116.6547,3.496],[116.65525,3.49522],[116.65539,3.49458],[116.65557,3.49373],[116.65561,3.49344],[116.65541,3.49323],[116.65531,3.49287],[116.65537,3.49217],[116.65506,3.49089],[116.65472,3.49045],[116.65457,3.49011],[116.65446,3.48956],[116.65443,3.48902],[116.65405,3.48807],[116.65379,3.48732],[116.65354,3.48635],[116.65337,3.48587],[116.6529,3.48456],[116.65226,3.48259],[116.6521,3.4817],[116.65196,3.48081],[116.65186,3.48013],[116.65191,3.47945],[116.65173,3.4788],[116.65129,3.47808],[116.65057,3.47724],[116.65012,3.47657],[116.6498,3.47596],[116.6498,3.47595],[116.64961,3.47519],[116.64943,3.47467],[116.64922,3.47427],[116.64885,3.47376],[116.64341,3.47466],[116.64586,3.49347]]]]},"properties":{"kdprov":"65","kdkab":"01","kdkec":"140","kddesa":"002","kdsls":"0007","idsls":"65011400020007","nmprov":"KALIMANTAN UTARA","nmkab":"MALINAU","nmkec":"MALINAU BARAT","nmdesa":"SESUA","nmsls":"RT 07 DUSUN"}},{"type":"Feature","geometry":{"type":"MultiPolygon","coordinates":[[[[116.55372,3.52259],[116.55426,3.52251],[116.55474,3.52246],[116.55535,3.52241],[116.55522,3.52177],[116.55485,3.52149],[116.55477,3.52155],[116.55468,3.5216],[116.55462,3.52162],[116.55456,3.52161],[116.55456,3.52157],[116.55448,3.52122],[116.55441,3.52124],[116.55436,3.52131],[116.55411,3.52135],[116.55397,3.52109],[116.55391,3.52096],[116.55348,3.52109],[116.55351,3.52118],[116.55369,3.52174],[116.5535,3.52179],[116.55354,3.52197],[116.55359,3.52198],[116.55372,3.52259]]]]},"properties":{"kdprov":"65","kdkab":"01","kdkec":"140","kddesa":"006","kdsls":"0002","idsls":"65011400060002","nmprov":"KALIMANTAN UTARA","nmkab":"MALINAU","nmkec":"MALINAU BARAT","nmdesa":"TARAS","nmsls":"RT 002"}},{"type":"Feature","geometry":{"type":"MultiPolygon","coordinates":[[[[116.56705,3.48963],[116.56798,3.4901],[116.5685,3.49019],[116.56875,3.49115],[116.56875,3.49478],[116.56667,3.50322],[116.56511,3.50692],[116.56362,3.51082],[116.56342,3.51129],[116.57022,3.5114],[116.57099,3.51076],[116.57167,3.5098],[116.57223,3.50928],[116.57303,3.5092],[116.57343,3.5098],[116.57535,3.51144],[116.57707,3.51228],[116.57795,3.51216],[116.57919,3.51184],[116.58063,3.51232],[116.58172,3.5129],[116.58375,3.5138],[116.58539,3.51372],[116.5863,3.51354],[116.58851,3.51391],[116.58967,3.51519],[116.59011,3.51691],[116.59119,3.51847],[116.59224,3.51907],[116.59283,3.52034],[116.59263,3.5217],[116.59167,3.52298],[116.59059,3.52386],[116.59043,3.52549],[116.59039,3.52725],[116.59064,3.52823],[116.59075,3.52833],[116.59079,3.52848],[116.59093,3.52914],[116.59096,3.52957],[116.59094,3.52996],[116.59086,3.5303],[116.59079,3.53059],[116.59081,3.53075],[116.59088,3.53099],[116.5911,3.53126],[116.59132,3.53166],[116.59145,3.53194],[116.5915,3.53218],[116.59148,3.53252],[116.59149,3.53272],[116.59159,3.53309],[116.59169,3.53342],[116.59185,3.53383],[116.59206,3.53429],[116.59218,3.53453],[116.59227,3.5348],[116.59232,3.53502],[116.59234,3.5352],[116.59233,3.53553],[116.59231,3.53569],[116.59224,3.53597],[116.59219,3.53621],[116.59218,3.53646],[116.59217,3.53685],[116.59213,3.53718],[116.59214,3.53737],[116.59218,3.53754],[116.59228,3.53773],[116.59239,3.53787],[116.59246,3.53798],[116.59263,3.5382],[116.5928,3.53847],[116.59303,3.53879],[116.59336,3.53917],[116.59362,3.53949],[116.59393,3.53979],[116.59415,3.54004],[116.59466,3.54062],[116.59502,3.541],[116.59554,3.5413],[116.59562,3.54138],[116.59595,3.54152],[116.59624,3.54175],[116.59643,3.542],[116.59659,3.54228],[116.59674,3.54282],[116.59679,3.54311],[116.59683,3.54337],[116.59691,3.54355],[116.5973,3.5446],[116.598,3.54451],[116.59836,3.54425],[116.59841,3.54333],[116.59842,3.54261],[116.59843,3.54204],[116.59855,3.5408],[116.59852,3.53971],[116.59855,3.53911],[116.59846,3.53796],[116.59846,3.53706],[116.59846,3.5367],[116.59862,3.53616],[116.59856,3.53606],[116.59848,3.53525],[116.59838,3.53462],[116.59833,3.53416],[116.59832,3.5338],[116.59855,3.53235],[116.59871,3.53095],[116.59883,3.53017],[116.59918,3.52911],[116.59934,3.5286],[116.59954,3.52793],[116.59967,3.52742],[116.6,3.52633],[116.60019,3.52568],[116.60042,3.52528],[116.60075,3.52475],[116.60088,3.52457],[116.60117,3.52299],[116.60244,3.52278],[116.60262,3.52273],[116.60259,3.52243],[116.60258,3.52234],[116.60398,3.51916],[116.60328,3.51563],[116.60328,3.50963],[116.60399,3.50575],[116.60118,3.50293],[116.60048,3.49975],[116.60083,3.49692],[116.60189,3.49445],[116.60189,3.49128],[116.60083,3.4881],[116.59767,3.48528],[116.59451,3.48316],[116.59206,3.48069],[116.59089,3.47717],[116.58753,3.47716],[116.58564,3.47804],[116.58549,3.47891],[116.58404,3.47994],[116.58288,3.47833],[116.58055,3.47964],[116.57765,3.47891],[116.5762,3.47964],[116.57409,3.47852],[116.57402,3.47833],[116.57227,3.47628],[116.57213,3.47526],[116.57198,3.47409],[116.57228,3.47234],[116.57228,3.47161],[116.57155,3.47132],[116.57155,3.46986],[116.57184,3.46913],[116.57126,3.46825],[116.57141,3.46737],[116.57083,3.4665],[116.56966,3.46635],[116.5685,3.46635],[116.56748,3.46562],[116.5653,3.46591],[116.56487,3.46737],[116.56341,3.46825],[116.56225,3.4681],[116.5614,3.46913],[116.56147,3.46991],[116.56212,3.4716],[116.56296,3.47452],[116.5657,3.47965],[116.56635,3.48134],[116.56654,3.48251],[116.5668,3.48426],[116.56758,3.48673],[116.56793,3.48803],[116.56705,3.48963]]]]},"properties":{"kdprov":"65","kdkab":"01","kdkec":"140","kddesa":"005","kdsls":"0013","idsls":"65011400050013","nmprov":"KALIMANTAN UTARA","nmkab":"MALINAU","nmkec":"MALINAU BARAT","nmdesa":"TANJUNG LAPANG","nmsls":"RT 13"}},{"type":"Feature","geometry":{"type":"MultiPolygon","coordinates":[[[[116.61324,3.5386],[116.61321,3.53911],[116.61308,3.53999],[116.61289,3.54109],[116.61253,3.54274],[116.61227,3.54347],[116.61209,3.54391],[116.61198,3.54417],[116.61196,3.54432],[116.61196,3.54442],[116.61197,3.5446],[116.61208,3.54506],[116.61272,3.54496],[116.61301,3.54491],[116.61323,3.54485],[116.61342,3.54472],[116.61375,3.54447],[116.61394,3.54436],[116.61409,3.54427],[116.61431,3.54424],[116.6147,3.54428],[116.61519,3.54435],[116.61551,3.5444],[116.61577,3.54443],[116.61601,3.54438],[116.61706,3.54397],[116.61734,3.54442],[116.61801,3.54481],[116.61946,3.5452],[116.61995,3.54539],[116.6202,3.54549],[116.62034,3.54576],[116.62073,3.54655],[116.62094,3.54695],[116.62261,3.53999],[116.62269,3.53935],[116.62292,3.53755],[116.62305,3.53652],[116.62314,3.5358],[116.62316,3.53496],[116.62008,3.53589],[116.61806,3.53629],[116.61694,3.53757],[116.61624,3.53778],[116.61477,3.53782],[116.61411,3.53846],[116.61324,3.5386]]]]},"properties":{"kdprov":"65","kdkab":"01","kdkec":"140","kddesa":"004","kdsls":"0008","idsls":"65011400040008","nmprov":"KALIMANTAN UTARA","nmkab":"MALINAU","nmkec":"MALINAU BARAT","nmdesa":"KUALA LAPANG","nmsls":"RT 08"}},{"type":"Feature","geometry":{"type":"MultiPolygon","coordinates":[[[[116.64763,3.51043],[116.64809,3.50851],[116.64821,3.50827],[116.64818,3.50827],[116.64646,3.5078],[116.6451,3.50957],[116.64567,3.50992],[116.64568,3.50998],[116.6457,3.51001],[116.64578,3.51008],[116.6459,3.50995],[116.64635,3.5102],[116.64633,3.51023],[116.64708,3.51047],[116.64712,3.51035],[116.64763,3.51043]]]]},"properties":{"kdprov":"65","kdkab":"01","kdkec":"140","kddesa":"003","kdsls":"0001","idsls":"65011400030001","nmprov":"KALIMANTAN UTARA","nmkab":"MALINAU","nmkec":"MALINAU BARAT","nmdesa":"SEMPAYANG","nmsls":"RT 001"}},{"type":"Feature","geometry":{"type":"MultiPolygon","coordinates":[[[[116.66217,3.47677],[116.66195,3.47662],[116.66159,3.47648],[116.66126,3.47643],[116.66105,3.47639],[116.66092,3.47642],[116.66063,3.47683],[116.66056,3.47685],[116.66046,3.47695],[116.66026,3.47734],[116.66025,3.47736],[116.65917,3.47883],[116.6576,3.48097],[116.65565,3.48357],[116.65389,3.4852],[116.65354,3.48635],[116.65379,3.48732],[116.65405,3.48807],[116.65443,3.48902],[116.65446,3.48956],[116.65457,3.49011],[116.65472,3.49045],[116.65506,3.49089],[116.65537,3.49217],[116.65531,3.49287],[116.65541,3.49323],[116.65561,3.49344],[116.65557,3.49373],[116.65539,3.49458],[116.65525,3.49522],[116.6547,3.496],[116.65409,3.4963],[116.65374,3.49695],[116.65353,3.49767],[116.65316,3.49807],[116.65267,3.49838],[116.6525,3.49862],[116.65201,3.49915],[116.65168,3.49942],[116.65129,3.49971],[116.65102,3.50043],[116.65078,3.50108],[116.65056,3.50186],[116.65045,3.50223],[116.65089,3.50199],[116.65132,3.50177],[116.65215,3.50134],[116.65371,3.50122],[116.65615,3.5008],[116.65614,3.50061],[116.65641,3.50022],[116.65691,3.49984],[116.65776,3.49953],[116.65801,3.49901],[116.65805,3.49837],[116.65781,3.49763],[116.65764,3.49739],[116.65734,3.49732],[116.65674,3.49756],[116.65591,3.49799],[116.65513,3.49814],[116.65449,3.49807],[116.65413,3.49783],[116.65402,3.49744],[116.65422,3.49696],[116.65562,3.49584],[116.65707,3.49424],[116.65718,3.49381],[116.65708,3.4936],[116.65614,3.49342],[116.65559,3.49312],[116.65549,3.49276],[116.65567,3.49259],[116.65603,3.49204],[116.65612,3.49178],[116.65604,3.49143],[116.65561,3.49044],[116.65561,3.49013],[116.65602,3.48888],[116.65592,3.48842],[116.65562,3.48817],[116.65455,3.48787],[116.65428,3.48759],[116.65428,3.48725],[116.65454,3.48685],[116.65488,3.48661],[116.65515,3.48662],[116.65537,3.48679],[116.65609,3.48755],[116.65645,3.4878],[116.65679,3.48789],[116.65788,3.48789],[116.65816,3.48806],[116.6585,3.48838],[116.6591,3.48927],[116.65924,3.48954],[116.6593,3.48992],[116.65966,3.49033],[116.66,3.49054],[116.66041,3.49054],[116.66138,3.49038],[116.66175,3.4902],[116.6618,3.4898],[116.66164,3.48942],[116.66086,3.48864],[116.66006,3.48775],[116.65978,3.4874],[116.65977,3.48718],[116.66004,3.48695],[116.66032,3.48684],[116.66099,3.48725],[116.6615,3.48728],[116.66186,3.48705],[116.66195,3.48675],[116.66194,3.48623],[116.66171,3.4857],[116.66157,3.4854],[116.66152,3.48508],[116.66188,3.48478],[116.66229,3.48471],[116.66276,3.48459],[116.66334,3.48471],[116.66386,3.48475],[116.66428,3.4844],[116.66438,3.48417],[116.66422,3.48381],[116.66116,3.48157],[116.6605,3.48117],[116.6604,3.48072],[116.66071,3.48043],[116.66099,3.48048],[116.66265,3.48032],[116.66377,3.48005],[116.66506,3.47941],[116.66525,3.47816],[116.66511,3.4776],[116.66477,3.47751],[116.66453,3.47763],[116.66382,3.47846],[116.66327,3.47887],[116.66286,3.4788],[116.66269,3.47832],[116.66217,3.47677]]]]},"properties":{"kdprov":"65","kdkab":"01","kdkec":"140","kddesa":"002","kdsls":"0002","idsls":"65011400020002","nmprov":"KALIMANTAN UTARA","nmkab":"MALINAU","nmkec":"MALINAU BARAT","nmdesa":"SESUA","nmsls":"RT 02 DUSUN BENGALUN"}},{"type":"Feature","geometry":{"type":"MultiPolygon","coordinates":[[[[116.65623,3.47586],[116.65624,3.47571],[116.6562,3.47531],[116.65646,3.47512],[116.65669,3.47497],[116.65688,3.47489],[116.65702,3.47485],[116.65755,3.47464],[116.65751,3.47438],[116.65744,3.47403],[116.65731,3.47368],[116.65716,3.47333],[116.65697,3.47287],[116.65672,3.4724],[116.64885,3.47376],[116.64922,3.47427],[116.64943,3.47467],[116.64961,3.47519],[116.6498,3.47595],[116.65041,3.47582],[116.65225,3.47613],[116.6526,3.47608],[116.65395,3.47665],[116.65454,3.47699],[116.65467,3.4768],[116.65486,3.4768],[116.65555,3.47664],[116.65597,3.47636],[116.65615,3.47621],[116.65622,3.47595],[116.65623,3.47586]]]]},"properties":{"kdprov":"65","kdkab":"01","kdkec":"140","kddesa":"002","kdsls":"0004","idsls":"65011400020004","nmprov":"KALIMANTAN UTARA","nmkab":"MALINAU","nmkec":"MALINAU BARAT","nmdesa":"SESUA","nmsls":"RT 04 DUSUN"}},{"type":"Feature","geometry":{"type":"MultiPolygon","coordinates":[[[[116.60988,3.53584],[116.60987,3.5359],[116.60944,3.53646],[116.60923,3.53666],[116.60907,3.53684],[116.60901,3.53701],[116.60899,3.53713],[116.60892,3.53723],[116.60865,3.53751],[116.60855,3.53764],[116.60852,3.53775],[116.60847,3.53794],[116.60845,3.53801],[116.60875,3.5381],[116.609,3.53825],[116.60879,3.53886],[116.60875,3.53896],[116.60921,3.53917],[116.60962,3.53833],[116.6101,3.53792],[116.61076,3.53776],[116.61139,3.53757],[116.61168,3.53722],[116.61214,3.53668],[116.61195,3.53647],[116.61177,3.5363],[116.6114,3.53604],[116.61086,3.5357],[116.61027,3.5354],[116.61019,3.53543],[116.60988,3.53584]]]]},"properties":{"kdprov":"65","kdkab":"01","kdkec":"140","kddesa":"004","kdsls":"0002","idsls":"65011400040002","nmprov":"KALIMANTAN UTARA","nmkab":"MALINAU","nmkec":"MALINAU BARAT","nmdesa":"KUALA LAPANG","nmsls":"RT 02"}},{"type":"Feature","geometry":{"type":"MultiPolygon","coordinates":[[[[116.65623,3.47586],[116.65622,3.47595],[116.65615,3.47621],[116.65597,3.47636],[116.65555,3.47664],[116.65486,3.4768],[116.65467,3.4768],[116.65454,3.47699],[116.65395,3.47665],[116.6526,3.47608],[116.65225,3.47613],[116.65041,3.47582],[116.6498,3.47595],[116.6498,3.47596],[116.65012,3.47657],[116.65057,3.47724],[116.65129,3.47808],[116.65173,3.4788],[116.65191,3.47945],[116.65186,3.48013],[116.65196,3.48081],[116.6521,3.4817],[116.65226,3.48259],[116.6529,3.48456],[116.65337,3.48587],[116.65354,3.48635],[116.65389,3.4852],[116.65565,3.48357],[116.6576,3.48097],[116.65917,3.47883],[116.66025,3.47736],[116.65983,3.47714],[116.65971,3.47698],[116.65965,3.47691],[116.65784,3.47622],[116.65688,3.47583],[116.65652,3.47577],[116.65623,3.47586]]]]},"properties":{"kdprov":"65","kdkab":"01","kdkec":"140","kddesa":"002","kdsls":"0005","idsls":"65011400020005","nmprov":"KALIMANTAN UTARA","nmkab":"MALINAU","nmkec":"MALINAU BARAT","nmdesa":"SESUA","nmsls":"RT 05 DUSUN"}},{"type":"Feature","geometry":{"type":"MultiPolygon","coordinates":[[[[116.48845,3.4976],[116.4885,3.49761],[116.48925,3.49765],[116.48927,3.49733],[116.48927,3.49713],[116.48927,3.49691],[116.48888,3.49687],[116.48882,3.49618],[116.48891,3.49619],[116.48984,3.49625],[116.48985,3.49637],[116.49059,3.49638],[116.49063,3.4961],[116.49211,3.49611],[116.49219,3.49315],[116.49096,3.49367],[116.4907,3.49368],[116.49055,3.49369],[116.49022,3.49371],[116.48982,3.49385],[116.48977,3.49457],[116.48951,3.49473],[116.48925,3.49431],[116.48868,3.49435],[116.48804,3.49475],[116.48811,3.49497],[116.48821,3.49524],[116.48827,3.49545],[116.48829,3.49555],[116.48831,3.49578],[116.48834,3.49602],[116.48835,3.49617],[116.48839,3.49638],[116.48843,3.49658],[116.48845,3.49672],[116.48846,3.49692],[116.48846,3.49715],[116.48846,3.49742],[116.48845,3.4976]]]]},"properties":{"kdprov":"65","kdkab":"01","kdkec":"140","kddesa":"007","kdsls":"0002","idsls":"65011400070002","nmprov":"KALIMANTAN UTARA","nmkab":"MALINAU","nmkec":"MALINAU BARAT","nmdesa":"LONG KENIPE","nmsls":"RT 02"}}]}