{"type":"FeatureCollection","features":[{"type":"Feature","geometry":{"type":"MultiPolygon","coordinates":[[[[116.6508,3.58438],[116.65018,3.58473],[116.64827,3.58486],[116.64668,3.5853],[116.64666,3.58509],[116.6457,3.58518],[116.64592,3.58666],[116.64679,3.5866],[116.64704,3.58821],[116.64811,3.58797],[116.65205,3.58822],[116.65205,3.58822],[116.65143,3.58566],[116.6508,3.58438]]]]},"properties":{"kdprov":"65","kdkab":"01","kdkec":"150","kddesa":"004","kdsls":"0020","idsls":"65011500040020","nmprov":"KALIMANTAN UTARA","nmkab":"MALINAU","nmkec":"MALINAU KOTA","nmdesa":"MALINAU KOTA","nmsls":"RT 020"}},{"type":"Feature","geometry":{"type":"MultiPolygon","coordinates":[[[[116.62307,3.58656],[116.62263,3.58611],[116.62234,3.5858],[116.62159,3.58644],[116.62164,3.5865],[116.62184,3.58672],[116.62155,3.587],[116.62125,3.58727],[116.62105,3.58746],[116.62082,3.58769],[116.62081,3.58775],[116.62055,3.58802],[116.62032,3.58833],[116.61986,3.58883],[116.61906,3.58974],[116.61947,3.59009],[116.61972,3.59029],[116.62041,3.58948],[116.62101,3.58879],[116.62116,3.58872],[116.62144,3.58844],[116.62146,3.58837],[116.62166,3.58814],[116.62183,3.58795],[116.62211,3.58766],[116.6223,3.58745],[116.62268,3.58701],[116.6229,3.58675],[116.62301,3.58663],[116.62307,3.58656]]]]},"properties":{"kdprov":"65","kdkab":"01","kdkec":"150","kddesa":"004","kdsls":"0009","idsls":"65011500040009","nmprov":"KALIMANTAN UTARA","nmkab":"MALINAU","nmkec":"MALINAU KOTA","nmdesa":"MALINAU KOTA","nmsls":"RT 009"}},{"type":"Feature","geometry":{"type":"MultiPolygon","coordinates":[[[[116.62234,3.5858],[116.62263,3.58611],[116.62307,3.58656],[116.62311,3.58652],[116.62317,3.58643],[116.62328,3.58634],[116.62334,3.58629],[116.62336,3.58627],[116.62347,3.58618],[116.62372,3.58596],[116.62388,3.58579],[116.62413,3.58555],[116.62464,3.58505],[116.62517,3.58455],[116.62476,3.58417],[116.62387,3.58448],[116.62261,3.58556],[116.62234,3.5858]]]]},"properties":{"kdprov":"65","kdkab":"01","kdkec":"150","kddesa":"004","kdsls":"0009","idsls":"65011500040009","nmprov":"KALIMANTAN UTARA","nmkab":"MALINAU","nmkec":"MALINAU KOTA","nmdesa":"MALINAU KOTA","nmsls":"RT 009"}},{"type":"Feature","geometry":{"type":"MultiPolygon","coordinates":[[[[116.61969,3.5865],[116.61987,3.5867],[116.62022,3.58714],[116.62077,3.58779],[116.62081,3.58775],[116.62082,3.58769],[116.62105,3.58746],[116.62125,3.58727],[116.62155,3.587],[116.62184,3.58672],[116.62164,3.5865],[116.62159,3.58644],[116.62387,3.58448],[116.62476,3.58417],[116.62444,3.58385],[116.62412,3.58352],[116.62371,3.5831],[116.62365,3.58316],[116.62153,3.58474],[116.62069,3.58563],[116.62052,3.58579],[116.62057,3.58584],[116.62009,3.58632],[116.61981,3.58656],[116.61974,3.58646],[116.61969,3.5865]]]]},"properties":{"kdprov":"65","kdkab":"01","kdkec":"150","kddesa":"004","kdsls":"0010","idsls":"65011500040010","nmprov":"KALIMANTAN UTARA","nmkab":"MALINAU","nmkec":"MALINAU KOTA","nmdesa":"MALINAU KOTA","nmsls":"RT 010"}},{"type":"Feature","geometry":{"type":"MultiPolygon","coordinates":[[[[116.62417,3.58822],[116.62476,3.5877],[116.62578,3.58648],[116.62647,3.5857],[116.62704,3.58622],[116.62748,3.58662],[116.6279,3.58699],[116.62831,3.58728],[116.62898,3.58756],[116.62901,3.58752],[116.62907,3.58745],[116.62939,3.58718],[116.62978,3.58686],[116.63063,3.5862],[116.63204,3.58507],[116.63298,3.58434],[116.63357,3.58385],[116.63419,3.58341],[116.63509,3.58272],[116.635,3.58263],[116.63446,3.58218],[116.63397,3.58184],[116.6333,3.58143],[116.63258,3.58098],[116.63194,3.58059],[116.63148,3.58028],[116.63115,3.58061],[116.63081,3.58093],[116.63043,3.58128],[116.63004,3.58157],[116.62967,3.58178],[116.62937,3.58198],[116.62902,3.58223],[116.62838,3.5827],[116.62775,3.58321],[116.62679,3.58403],[116.62606,3.58466],[116.62569,3.58503],[116.62514,3.58574],[116.62466,3.58635],[116.62416,3.58697],[116.62383,3.58738],[116.62399,3.58756],[116.62404,3.58764],[116.62407,3.58776],[116.62414,3.5881],[116.62417,3.58822]]]]},"properties":{"kdprov":"65","kdkab":"01","kdkec":"150","kddesa":"004","kdsls":"0014","idsls":"65011500040014","nmprov":"KALIMANTAN UTARA","nmkab":"MALINAU","nmkec":"MALINAU KOTA","nmdesa":"MALINAU KOTA","nmsls":"RT 014"}},{"type":"Feature","geometry":{"type":"MultiPolygon","coordinates":[[[[116.62792,3.58814],[116.62797,3.58874],[116.62817,3.58887],[116.62802,3.58943],[116.62778,3.59029],[116.6278,3.5903],[116.628,3.59042],[116.62813,3.59051],[116.62829,3.59059],[116.62846,3.59066],[116.62859,3.59074],[116.62875,3.59084],[116.62886,3.59092],[116.62894,3.59087],[116.62913,3.59062],[116.62944,3.59029],[116.62914,3.59002],[116.62927,3.58985],[116.62962,3.58919],[116.63048,3.58826],[116.63013,3.58813],[116.62985,3.58804],[116.62952,3.58785],[116.62927,3.58768],[116.62901,3.58752],[116.62889,3.58767],[116.62869,3.58782],[116.62809,3.58807],[116.62792,3.58814]]]]},"properties":{"kdprov":"65","kdkab":"01","kdkec":"150","kddesa":"004","kdsls":"0015","idsls":"65011500040015","nmprov":"KALIMANTAN UTARA","nmkab":"MALINAU","nmkec":"MALINAU KOTA","nmdesa":"MALINAU KOTA","nmsls":"RT 015"}},{"type":"Feature","geometry":{"type":"MultiPolygon","coordinates":[[[[116.63456,3.5901],[116.63538,3.59077],[116.63658,3.59174],[116.63656,3.59181],[116.63596,3.59276],[116.63562,3.59329],[116.63534,3.59369],[116.63526,3.59387],[116.63521,3.59398],[116.6352,3.59409],[116.63512,3.59435],[116.63494,3.59498],[116.63491,3.59498],[116.63298,3.59414],[116.63275,3.59458],[116.63252,3.5951],[116.63293,3.59525],[116.63264,3.59598],[116.63237,3.59663],[116.6331,3.59681],[116.63396,3.59703],[116.6347,3.59722],[116.63486,3.5973],[116.6351,3.59664],[116.63532,3.59604],[116.63557,3.59522],[116.63551,3.59519],[116.63565,3.59485],[116.63577,3.59456],[116.63614,3.59469],[116.6365,3.5948],[116.63659,3.59464],[116.63665,3.59441],[116.63672,3.59407],[116.63682,3.59369],[116.63697,3.59328],[116.63729,3.59244],[116.63742,3.59258],[116.63828,3.59118],[116.64027,3.58964],[116.64081,3.58914],[116.64012,3.58797],[116.64,3.5878],[116.63967,3.58745],[116.63914,3.5869],[116.63561,3.58969],[116.63514,3.58943],[116.63456,3.5901]]]]},"properties":{"kdprov":"65","kdkab":"01","kdkec":"150","kddesa":"004","kdsls":"0018","idsls":"65011500040018","nmprov":"KALIMANTAN UTARA","nmkab":"MALINAU","nmkec":"MALINAU KOTA","nmdesa":"MALINAU KOTA","nmsls":"RT 018"}},{"type":"Feature","geometry":{"type":"MultiPolygon","coordinates":[[[[116.64315,3.5964],[116.64304,3.59633],[116.64272,3.59563],[116.64223,3.59419],[116.64215,3.59344],[116.64164,3.5928],[116.64054,3.59226],[116.64035,3.59353],[116.64029,3.59353],[116.63885,3.59316],[116.63813,3.59294],[116.63746,3.59252],[116.63742,3.59258],[116.63729,3.59244],[116.63697,3.59328],[116.63682,3.59369],[116.63672,3.59407],[116.63665,3.59441],[116.63659,3.59464],[116.6365,3.5948],[116.63614,3.59469],[116.63577,3.59456],[116.63565,3.59485],[116.63551,3.59519],[116.63557,3.59522],[116.63532,3.59604],[116.6351,3.59664],[116.63486,3.5973],[116.63517,3.59744],[116.63566,3.59766],[116.63631,3.59804],[116.6369,3.59838],[116.63739,3.59868],[116.6378,3.59897],[116.63829,3.59931],[116.63909,3.59987],[116.63973,3.6003],[116.64021,3.60061],[116.64082,3.60101],[116.6412,3.60127],[116.64167,3.60009],[116.6421,3.59902],[116.64315,3.5964]]]]},"properties":{"kdprov":"65","kdkab":"01","kdkec":"150","kddesa":"004","kdsls":"0019","idsls":"65011500040019","nmprov":"KALIMANTAN UTARA","nmkab":"MALINAU","nmkec":"MALINAU KOTA","nmdesa":"MALINAU KOTA","nmsls":"RT 019"}},{"type":"Feature","geometry":{"type":"MultiPolygon","coordinates":[[[[116.61196,3.54432],[116.61194,3.54437],[116.61194,3.54466],[116.61206,3.54516],[116.61215,3.54572],[116.61231,3.54628],[116.61236,3.54717],[116.6124,3.54849],[116.61225,3.549],[116.61638,3.54874],[116.61677,3.54871],[116.61849,3.54865],[116.61908,3.54813],[116.61942,3.54793],[116.62012,3.54761],[116.62055,3.54727],[116.62094,3.54695],[116.62073,3.54655],[116.62034,3.54576],[116.6202,3.54549],[116.61995,3.54539],[116.61946,3.5452],[116.61801,3.54481],[116.61734,3.54442],[116.61706,3.54397],[116.61601,3.54438],[116.61577,3.54443],[116.61551,3.5444],[116.61519,3.54435],[116.6147,3.54428],[116.61431,3.54424],[116.61409,3.54427],[116.61394,3.54436],[116.61375,3.54447],[116.61342,3.54472],[116.61323,3.54485],[116.61301,3.54491],[116.61272,3.54496],[116.61208,3.54506],[116.61197,3.5446],[116.61196,3.54442],[116.61196,3.54432],[116.61196,3.54432]]]]},"properties":{"kdprov":"65","kdkab":"01","kdkec":"150","kddesa":"006","kdsls":"0001","idsls":"65011500060001","nmprov":"KALIMANTAN UTARA","nmkab":"MALINAU","nmkec":"MALINAU KOTA","nmdesa":"MALINAU HULU","nmsls":"RT 001"}},{"type":"Feature","geometry":{"type":"MultiPolygon","coordinates":[[[[116.61362,3.55375],[116.61353,3.55316],[116.61343,3.55262],[116.61331,3.55215],[116.61332,3.55188],[116.61332,3.55118],[116.6123,3.55142],[116.61187,3.55123],[116.61105,3.55083],[116.61136,3.55022],[116.61171,3.54961],[116.61223,3.549],[116.61211,3.54901],[116.61173,3.54895],[116.61156,3.54914],[116.61054,3.54895],[116.60936,3.54885],[116.60771,3.54808],[116.60717,3.54794],[116.60658,3.54812],[116.60614,3.54821],[116.60582,3.54781],[116.60537,3.54749],[116.6047,3.54763],[116.60389,3.5479],[116.60303,3.54817],[116.60204,3.54799],[116.60146,3.54758],[116.60087,3.54709],[116.6,3.54607],[116.59778,3.54764],[116.59739,3.54813],[116.59557,3.55039],[116.59475,3.55172],[116.59516,3.55177],[116.59568,3.55199],[116.59622,3.55219],[116.59658,3.55235],[116.59689,3.55228],[116.5973,3.55204],[116.5975,3.55172],[116.59788,3.5515],[116.59835,3.5512],[116.59856,3.55091],[116.5988,3.55071],[116.59923,3.55037],[116.59997,3.5503],[116.60053,3.55012],[116.60125,3.55024],[116.60191,3.55046],[116.60245,3.55019],[116.60308,3.54963],[116.60368,3.54918],[116.60407,3.54913],[116.60445,3.54961],[116.60472,3.54997],[116.60506,3.54999],[116.60578,3.54967],[116.60647,3.55035],[116.60692,3.55069],[116.60738,3.55094],[116.60852,3.5519],[116.60854,3.55201],[116.60846,3.55219],[116.60846,3.55231],[116.60855,3.5524],[116.60868,3.55253],[116.60882,3.55248],[116.60904,3.55239],[116.60916,3.55239],[116.60937,3.55248],[116.60982,3.55276],[116.60998,3.55255],[116.6109,3.5531],[116.61171,3.55319],[116.612,3.55325],[116.61238,3.55341],[116.61296,3.55386],[116.61307,3.55388],[116.61323,3.55387],[116.61345,3.55381],[116.61357,3.55377],[116.61362,3.55375]]]]},"properties":{"kdprov":"65","kdkab":"01","kdkec":"150","kddesa":"006","kdsls":"0002","idsls":"65011500060002","nmprov":"KALIMANTAN UTARA","nmkab":"MALINAU","nmkec":"MALINAU KOTA","nmdesa":"MALINAU HULU","nmsls":"RT 002"}},{"type":"Feature","geometry":{"type":"MultiPolygon","coordinates":[[[[116.61024,3.56704],[116.60997,3.56678],[116.60972,3.56649],[116.6094,3.56618],[116.60919,3.566],[116.60894,3.56579],[116.60866,3.56553],[116.60787,3.56646],[116.60785,3.56649],[116.60709,3.56737],[116.60704,3.56744],[116.6069,3.56768],[116.60686,3.56774],[116.60667,3.56787],[116.60623,3.56819],[116.60587,3.56844],[116.60571,3.56854],[116.60566,3.56847],[116.60543,3.5686],[116.60545,3.56864],[116.60522,3.5688],[116.60502,3.56886],[116.60492,3.56888],[116.60482,3.56892],[116.60452,3.56896],[116.60439,3.56902],[116.60249,3.56927],[116.60269,3.57053],[116.60457,3.57017],[116.6047,3.5702],[116.6052,3.56995],[116.60569,3.56973],[116.60607,3.56954],[116.60654,3.56932],[116.60713,3.56903],[116.60759,3.56879],[116.60795,3.56862],[116.60876,3.5681],[116.6093,3.56771],[116.60945,3.56761],[116.60997,3.56724],[116.61024,3.56704]]]]},"properties":{"kdprov":"65","kdkab":"01","kdkec":"150","kddesa":"006","kdsls":"0009","idsls":"65011500060009","nmprov":"KALIMANTAN UTARA","nmkab":"MALINAU","nmkec":"MALINAU KOTA","nmdesa":"MALINAU HULU","nmsls":"RT 009"}},{"type":"Feature","geometry":{"type":"MultiPolygon","coordinates":[[[[116.60866,3.56553],[116.60894,3.56579],[116.60919,3.566],[116.6094,3.56618],[116.60972,3.56649],[116.60997,3.56678],[116.61024,3.56704],[116.6103,3.567],[116.61048,3.56688],[116.61097,3.56645],[116.61314,3.56436],[116.61585,3.56179],[116.61741,3.56032],[116.62056,3.55735],[116.62161,3.55635],[116.62334,3.55477],[116.62503,3.55312],[116.62591,3.55237],[116.62609,3.55231],[116.62708,3.55133],[116.62832,3.55015],[116.6295,3.54901],[116.63076,3.5478],[116.63137,3.54725],[116.63191,3.54676],[116.63253,3.54615],[116.63197,3.54541],[116.6309,3.54352],[116.63074,3.5416],[116.62925,3.53903],[116.62808,3.53613],[116.62777,3.53386],[116.6277,3.53205],[116.62738,3.53001],[116.6266,3.52891],[116.62702,3.5275],[116.62715,3.52703],[116.62755,3.52584],[116.62802,3.52539],[116.62897,3.52426],[116.63,3.52272],[116.62998,3.5222],[116.62972,3.52245],[116.6293,3.52259],[116.6287,3.52283],[116.62832,3.52323],[116.62821,3.52362],[116.6281,3.52422],[116.62794,3.52462],[116.62757,3.52496],[116.62715,3.5254],[116.62683,3.52591],[116.62561,3.52603],[116.62456,3.52662],[116.62405,3.5269],[116.62327,3.52886],[116.62327,3.53148],[116.62316,3.53496],[116.62314,3.5358],[116.62305,3.53652],[116.62292,3.53755],[116.62269,3.53935],[116.62261,3.53999],[116.62094,3.54695],[116.62128,3.54782],[116.62153,3.54853],[116.62165,3.54897],[116.62173,3.54931],[116.62172,3.54959],[116.62167,3.54979],[116.62155,3.54985],[116.62146,3.54984],[116.62135,3.54983],[116.62127,3.54991],[116.62112,3.55008],[116.62102,3.5502],[116.62029,3.55122],[116.6202,3.55138],[116.62045,3.55167],[116.6203,3.55184],[116.6165,3.55632],[116.61368,3.55963],[116.60866,3.56553]]]]},"properties":{"kdprov":"65","kdkab":"01","kdkec":"150","kddesa":"006","kdsls":"0009","idsls":"65011500060009","nmprov":"KALIMANTAN UTARA","nmkab":"MALINAU","nmkec":"MALINAU KOTA","nmdesa":"MALINAU HULU","nmsls":"RT 009"}},{"type":"Feature","geometry":{"type":"MultiPolygon","coordinates":[[[[116.61107,3.57001],[116.6108,3.56979],[116.61038,3.56961],[116.61018,3.56957],[116.60989,3.56942],[116.60932,3.56896],[116.609,3.5687],[116.6086,3.56837],[116.60853,3.56825],[116.60795,3.56862],[116.60759,3.56879],[116.60713,3.56903],[116.60654,3.56932],[116.60607,3.56954],[116.60569,3.56973],[116.6052,3.56995],[116.6047,3.5702],[116.60457,3.57017],[116.60269,3.57053],[116.60313,3.57341],[116.60523,3.5727],[116.60521,3.57261],[116.60632,3.57229],[116.60712,3.57136],[116.60752,3.57105],[116.60805,3.57062],[116.60877,3.57122],[116.60895,3.571],[116.60904,3.57088],[116.60914,3.57075],[116.60932,3.57057],[116.60963,3.57047],[116.61107,3.57001]]]]},"properties":{"kdprov":"65","kdkab":"01","kdkec":"150","kddesa":"006","kdsls":"0010","idsls":"65011500060010","nmprov":"KALIMANTAN UTARA","nmkab":"MALINAU","nmkec":"MALINAU KOTA","nmdesa":"MALINAU HULU","nmsls":"RT 010"}},{"type":"Feature","geometry":{"type":"MultiPolygon","coordinates":[[[[116.64289,3.56531],[116.64251,3.56582],[116.64085,3.56794],[116.63991,3.56921],[116.63861,3.57088],[116.63772,3.57205],[116.63644,3.57374],[116.63537,3.57517],[116.63453,3.5763],[116.63372,3.57735],[116.63283,3.57849],[116.6323,3.5792],[116.63177,3.57988],[116.63148,3.58028],[116.63134,3.58027],[116.63034,3.57955],[116.62743,3.577],[116.6274,3.57703],[116.62626,3.57823],[116.62738,3.5792],[116.62634,3.58047],[116.62371,3.5831],[116.62412,3.58352],[116.62444,3.58385],[116.62476,3.58417],[116.62517,3.58455],[116.62569,3.58503],[116.62606,3.58466],[116.62679,3.58403],[116.62775,3.58321],[116.62838,3.5827],[116.62902,3.58223],[116.62937,3.58198],[116.62967,3.58178],[116.63004,3.58157],[116.63043,3.58128],[116.63081,3.58093],[116.63115,3.58061],[116.63148,3.58028],[116.63194,3.58059],[116.63258,3.58098],[116.6333,3.58143],[116.63397,3.58184],[116.63446,3.58218],[116.635,3.58263],[116.63509,3.58272],[116.63525,3.58285],[116.63586,3.58178],[116.63608,3.58139],[116.63644,3.5811],[116.64201,3.5764],[116.64208,3.57581],[116.64209,3.5758],[116.64211,3.57559],[116.64259,3.57428],[116.64277,3.57422],[116.64312,3.57415],[116.64406,3.57428],[116.64432,3.57417],[116.64521,3.57315],[116.64685,3.57129],[116.64848,3.57023],[116.6485,3.57021],[116.64876,3.56998],[116.64904,3.56958],[116.64908,3.56951],[116.64932,3.56917],[116.64954,3.56888],[116.64993,3.56825],[116.65012,3.56795],[116.65024,3.56769],[116.6503,3.56742],[116.65035,3.56722],[116.64979,3.56733],[116.64905,3.56778],[116.64883,3.56788],[116.64837,3.56807],[116.64752,3.56756],[116.64677,3.56708],[116.64644,3.56687],[116.64572,3.56637],[116.64553,3.56624],[116.64469,3.56589],[116.64416,3.56567],[116.64289,3.56531]]]]},"properties":{"kdprov":"65","kdkab":"01","kdkec":"150","kddesa":"004","kdsls":"0013","idsls":"65011500040013","nmprov":"KALIMANTAN UTARA","nmkab":"MALINAU","nmkec":"MALINAU KOTA","nmdesa":"MALINAU KOTA","nmsls":"RT 013"}},{"type":"Feature","geometry":{"type":"MultiPolygon","coordinates":[[[[116.64242,3.59062],[116.64306,3.59018],[116.64391,3.58956],[116.64452,3.5891],[116.64525,3.58862],[116.64534,3.58855],[116.64533,3.58856],[116.64506,3.58802],[116.64484,3.58759],[116.64448,3.587],[116.64355,3.58651],[116.64312,3.58673],[116.64112,3.58856],[116.64219,3.59021],[116.64235,3.59058],[116.64242,3.59061],[116.64242,3.59062]]]]},"properties":{"kdprov":"65","kdkab":"01","kdkec":"150","kddesa":"004","kdsls":"0020","idsls":"65011500040020","nmprov":"KALIMANTAN UTARA","nmkab":"MALINAU","nmkec":"MALINAU KOTA","nmdesa":"MALINAU KOTA","nmsls":"RT 020"}},{"type":"Feature","geometry":{"type":"MultiPolygon","coordinates":[[[[116.64534,3.58855],[116.64525,3.58862],[116.64452,3.5891],[116.64391,3.58956],[116.64306,3.59018],[116.64242,3.59062],[116.64402,3.59303],[116.64518,3.59553],[116.64318,3.59635],[116.6421,3.59902],[116.64167,3.60009],[116.6412,3.60127],[116.64145,3.60144],[116.64182,3.60171],[116.64247,3.60219],[116.64299,3.60256],[116.64365,3.603],[116.64399,3.60322],[116.64444,3.60353],[116.64484,3.6038],[116.64523,3.60406],[116.6459,3.6045],[116.64655,3.6049],[116.64707,3.60522],[116.64756,3.60554],[116.64807,3.60588],[116.64854,3.6062],[116.64893,3.60644],[116.64943,3.60669],[116.65021,3.60709],[116.65091,3.60745],[116.65139,3.6077],[116.65189,3.60796],[116.65222,3.60809],[116.65233,3.60814],[116.65282,3.60832],[116.65325,3.60847],[116.65362,3.6086],[116.65385,3.60868],[116.65434,3.60885],[116.65473,3.60899],[116.6552,3.60903],[116.65564,3.60907],[116.65608,3.6091],[116.65662,3.60915],[116.65744,3.60922],[116.65797,3.60924],[116.65844,3.60925],[116.65909,3.60927],[116.65974,3.60929],[116.66015,3.6093],[116.66051,3.60929],[116.66095,3.60929],[116.66143,3.60929],[116.66178,3.60928],[116.66228,3.60928],[116.66277,3.60928],[116.66348,3.6093],[116.66385,3.60945],[116.66422,3.6096],[116.6646,3.60976],[116.66505,3.60995],[116.66574,3.60915],[116.6681,3.60898],[116.67035,3.60882],[116.67386,3.60761],[116.67562,3.60397],[116.67814,3.5989],[116.6788,3.59515],[116.67858,3.59499],[116.67562,3.59278],[116.67452,3.59196],[116.67136,3.58898],[116.67066,3.58832],[116.67031,3.58799],[116.66868,3.58814],[116.66761,3.58808],[116.66635,3.58791],[116.66476,3.58819],[116.66387,3.58831],[116.66341,3.58837],[116.66062,3.58996],[116.66036,3.5901],[116.65979,3.59036],[116.65948,3.59048],[116.65648,3.59164],[116.65241,3.59097],[116.65224,3.58963],[116.65218,3.58919],[116.65206,3.58823],[116.65205,3.58822],[116.64811,3.58797],[116.64707,3.58821],[116.64704,3.58821],[116.64704,3.58821],[116.64625,3.58836],[116.64585,3.58842],[116.64534,3.58855]]]]},"properties":{"kdprov":"65","kdkab":"01","kdkec":"150","kddesa":"004","kdsls":"0020","idsls":"65011500040020","nmprov":"KALIMANTAN UTARA","nmkab":"MALINAU","nmkec":"MALINAU KOTA","nmdesa":"MALINAU KOTA","nmsls":"RT 020"}},{"type":"Feature","geometry":{"type":"MultiPolygon","coordinates":[[[[116.62363,3.59038],[116.62307,3.58992],[116.62153,3.59173],[116.62176,3.5919],[116.6225,3.59241],[116.62306,3.59165],[116.62325,3.59161],[116.62334,3.5914],[116.6234,3.59121],[116.62339,3.59103],[116.62343,3.59068],[116.62358,3.59047],[116.62363,3.59038]]]]},"properties":{"kdprov":"65","kdkab":"01","kdkec":"150","kddesa":"004","kdsls":"0006","idsls":"65011500040006","nmprov":"KALIMANTAN UTARA","nmkab":"MALINAU","nmkec":"MALINAU KOTA","nmdesa":"MALINAU KOTA","nmsls":"RT 006"}},{"type":"Feature","geometry":{"type":"MultiPolygon","coordinates":[[[[116.61872,3.57854],[116.61901,3.57841],[116.61921,3.57849],[116.6198,3.57808],[116.62043,3.57773],[116.62236,3.57642],[116.62316,3.57577],[116.62627,3.57822],[116.6274,3.57703],[116.62746,3.57697],[116.63869,3.5662],[116.64031,3.56457],[116.63962,3.5643],[116.63933,3.56423],[116.63865,3.56407],[116.63863,3.56404],[116.63791,3.56338],[116.63791,3.56338],[116.63738,3.56256],[116.63717,3.56224],[116.63757,3.56167],[116.63678,3.5607],[116.63547,3.56035],[116.63439,3.55944],[116.63371,3.55801],[116.63399,3.55681],[116.63411,3.55607],[116.63395,3.55528],[116.63391,3.55531],[116.63342,3.55531],[116.6325,3.55555],[116.63194,3.55598],[116.63127,3.55626],[116.63081,3.55608],[116.63028,3.55628],[116.63017,3.55632],[116.62984,3.55655],[116.62875,3.55728],[116.61868,3.56695],[116.61834,3.56728],[116.61734,3.56777],[116.61721,3.56805],[116.61709,3.56832],[116.61457,3.56838],[116.61458,3.56881],[116.61459,3.56916],[116.61472,3.56944],[116.61464,3.56957],[116.61433,3.56997],[116.61425,3.56997],[116.61396,3.56991],[116.61366,3.56983],[116.61357,3.5698],[116.61336,3.56979],[116.61309,3.56973],[116.61297,3.56973],[116.61275,3.56969],[116.61264,3.56967],[116.61231,3.5696],[116.61401,3.57115],[116.61313,3.57343],[116.61312,3.57347],[116.61351,3.57357],[116.61372,3.57361],[116.61402,3.57367],[116.61429,3.57373],[116.61446,3.5738],[116.61462,3.57388],[116.61474,3.57396],[116.61495,3.5742],[116.6151,3.57438],[116.61519,3.57448],[116.61527,3.57456],[116.6155,3.57479],[116.61563,3.57493],[116.61571,3.57502],[116.61574,3.57505],[116.61624,3.57549],[116.61589,3.5759],[116.61522,3.57726],[116.6149,3.57789],[116.61409,3.57743],[116.61355,3.5783],[116.61271,3.57943],[116.61409,3.58126],[116.61409,3.58126],[116.61794,3.57856],[116.61851,3.57797],[116.61863,3.57811],[116.61872,3.5785],[116.61872,3.57854]]]]},"properties":{"kdprov":"65","kdkab":"01","kdkec":"150","kddesa":"004","kdsls":"0012","idsls":"65011500040012","nmprov":"KALIMANTAN UTARA","nmkab":"MALINAU","nmkec":"MALINAU KOTA","nmdesa":"MALINAU KOTA","nmsls":"RT 012"}},{"type":"Feature","geometry":{"type":"MultiPolygon","coordinates":[[[[116.62627,3.57822],[116.62316,3.57577],[116.62236,3.57642],[116.62043,3.57773],[116.6198,3.57808],[116.61921,3.57849],[116.61901,3.57841],[116.61872,3.57854],[116.61875,3.57895],[116.61911,3.57954],[116.61922,3.57985],[116.61939,3.58043],[116.61945,3.58088],[116.61927,3.58133],[116.61909,3.58175],[116.6189,3.5822],[116.61881,3.58263],[116.61867,3.58308],[116.61865,3.58329],[116.61866,3.58338],[116.61871,3.58352],[116.61892,3.58388],[116.61908,3.58412],[116.6191,3.58411],[116.61918,3.58407],[116.61933,3.58402],[116.61952,3.58393],[116.61964,3.58386],[116.61973,3.58381],[116.61979,3.58379],[116.61988,3.58377],[116.6204,3.58352],[116.62095,3.58321],[116.62152,3.5828],[116.62143,3.58255],[116.62136,3.58235],[116.62179,3.58202],[116.62217,3.58157],[116.6225,3.58189],[116.62301,3.5824],[116.62354,3.58293],[116.62371,3.5831],[116.62634,3.58047],[116.62738,3.5792],[116.62626,3.57823],[116.62627,3.57822]]]]},"properties":{"kdprov":"65","kdkab":"01","kdkec":"150","kddesa":"004","kdsls":"0012","idsls":"65011500040012","nmprov":"KALIMANTAN UTARA","nmkab":"MALINAU","nmkec":"MALINAU KOTA","nmdesa":"MALINAU KOTA","nmsls":"RT 012"}},{"type":"Feature","geometry":{"type":"MultiPolygon","coordinates":[[[[116.62908,3.59278],[116.62887,3.59301],[116.62858,3.59336],[116.62827,3.59375],[116.62792,3.59348],[116.62749,3.59406],[116.62728,3.59434],[116.62689,3.59487],[116.627,3.59491],[116.62755,3.59517],[116.62818,3.59545],[116.62826,3.59549],[116.62846,3.59558],[116.62901,3.59582],[116.6295,3.59594],[116.62963,3.59597],[116.63032,3.59614],[116.6307,3.59623],[116.63079,3.59625],[116.63103,3.59631],[116.63143,3.5964],[116.63209,3.59492],[116.63227,3.59498],[116.63249,3.59457],[116.63122,3.59396],[116.63079,3.59358],[116.63068,3.5937],[116.63064,3.59364],[116.62993,3.59319],[116.62988,3.59316],[116.62964,3.59301],[116.62935,3.59283],[116.62917,3.59271],[116.62916,3.5927],[116.62923,3.59263],[116.62908,3.59278]]]]},"properties":{"kdprov":"65","kdkab":"01","kdkec":"150","kddesa":"004","kdsls":"0001","idsls":"65011500040001","nmprov":"KALIMANTAN UTARA","nmkab":"MALINAU","nmkec":"MALINAU KOTA","nmdesa":"MALINAU KOTA","nmsls":"RT 001"}},{"type":"Feature","geometry":{"type":"MultiPolygon","coordinates":[[[[116.65615,3.56846],[116.65495,3.5678],[116.65488,3.56796],[116.6548,3.56811],[116.65475,3.56821],[116.65463,3.56839],[116.65449,3.56859],[116.65426,3.5689],[116.65401,3.56927],[116.65391,3.56941],[116.65435,3.56964],[116.65433,3.56969],[116.65448,3.5698],[116.65467,3.56994],[116.65505,3.57017],[116.65522,3.56978],[116.65541,3.56949],[116.65565,3.56913],[116.65584,3.56889],[116.65615,3.56846]]]]},"properties":{"kdprov":"65","kdkab":"01","kdkec":"150","kddesa":"002","kdsls":"0003","idsls":"65011500020003","nmprov":"KALIMANTAN UTARA","nmkab":"MALINAU","nmkec":"MALINAU KOTA","nmdesa":"TANJUNG KERANJANG","nmsls":"RT 03"}},{"type":"Feature","geometry":{"type":"MultiPolygon","coordinates":[[[[116.60269,3.57053],[116.60249,3.56927],[116.60439,3.56902],[116.60452,3.56896],[116.60482,3.56892],[116.60492,3.56888],[116.60502,3.56886],[116.60522,3.5688],[116.60545,3.56864],[116.60543,3.5686],[116.60566,3.56847],[116.60571,3.56854],[116.60587,3.56844],[116.60623,3.56819],[116.60667,3.56787],[116.60686,3.56774],[116.6069,3.56768],[116.60704,3.56744],[116.60709,3.56737],[116.60785,3.56649],[116.60765,3.56614],[116.60735,3.5659],[116.60659,3.56542],[116.60651,3.56544],[116.606,3.56577],[116.60567,3.56596],[116.60526,3.56615],[116.60498,3.56616],[116.60476,3.56617],[116.60466,3.56616],[116.60452,3.5662],[116.60406,3.56623],[116.60405,3.56616],[116.60348,3.56616],[116.60218,3.56606],[116.60213,3.56708],[116.60211,3.56806],[116.59975,3.5684],[116.59688,3.56867],[116.59377,3.56871],[116.5903,3.56871],[116.58612,3.56854],[116.58353,3.56833],[116.58535,3.57014],[116.58827,3.57286],[116.59251,3.5758],[116.59548,3.57787],[116.5989,3.58026],[116.60121,3.58187],[116.60423,3.58051],[116.60438,3.58045],[116.60449,3.58047],[116.60455,3.58059],[116.60472,3.58063],[116.60495,3.58065],[116.60502,3.58054],[116.60523,3.5805],[116.60549,3.5803],[116.6056,3.58033],[116.60568,3.58039],[116.60586,3.58049],[116.60607,3.58053],[116.60621,3.58044],[116.60631,3.58038],[116.60632,3.58015],[116.60632,3.57994],[116.60633,3.57964],[116.60643,3.57938],[116.60663,3.57905],[116.60697,3.57887],[116.6073,3.57874],[116.60759,3.57867],[116.60773,3.57862],[116.60775,3.57861],[116.60707,3.57832],[116.60549,3.57795],[116.60472,3.57762],[116.60429,3.57719],[116.60395,3.57644],[116.60354,3.57519],[116.60313,3.57341],[116.60269,3.57053]]]]},"properties":{"kdprov":"65","kdkab":"01","kdkec":"150","kddesa":"006","kdsls":"0008","idsls":"65011500060008","nmprov":"KALIMANTAN UTARA","nmkab":"MALINAU","nmkec":"MALINAU KOTA","nmdesa":"MALINAU HULU","nmsls":"RT 008"}},{"type":"Feature","geometry":{"type":"MultiPolygon","coordinates":[[[[116.60313,3.57341],[116.60354,3.57519],[116.60395,3.57644],[116.60429,3.57719],[116.60472,3.57762],[116.60549,3.57795],[116.60707,3.57832],[116.60698,3.57705],[116.60684,3.5766],[116.6068,3.57617],[116.60677,3.5758],[116.60676,3.57573],[116.60674,3.57543],[116.60671,3.5753],[116.60676,3.57522],[116.60679,3.57365],[116.60864,3.57294],[116.60834,3.57266],[116.60793,3.57228],[116.60877,3.57122],[116.60805,3.57062],[116.60752,3.57105],[116.60712,3.57136],[116.60632,3.57229],[116.60521,3.57261],[116.60523,3.5727],[116.60313,3.57341]]]]},"properties":{"kdprov":"65","kdkab":"01","kdkec":"150","kddesa":"006","kdsls":"0011","idsls":"65011500060011","nmprov":"KALIMANTAN UTARA","nmkab":"MALINAU","nmkec":"MALINAU KOTA","nmdesa":"MALINAU HULU","nmsls":"RT 011"}},{"type":"Feature","geometry":{"type":"MultiPolygon","coordinates":[[[[116.65449,3.56859],[116.65463,3.56839],[116.65475,3.56821],[116.6548,3.56811],[116.65488,3.56796],[116.65495,3.5678],[116.65615,3.56846],[116.65644,3.5682],[116.65589,3.56711],[116.65543,3.56673],[116.65488,3.56645],[116.65428,3.56631],[116.65354,3.56624],[116.65347,3.56654],[116.65357,3.56696],[116.65373,3.56695],[116.65392,3.56697],[116.65413,3.567],[116.65413,3.56705],[116.65409,3.56746],[116.65399,3.56762],[116.65386,3.56782],[116.65369,3.56811],[116.65449,3.56859]]]]},"properties":{"kdprov":"65","kdkab":"01","kdkec":"150","kddesa":"002","kdsls":"0002","idsls":"65011500020002","nmprov":"KALIMANTAN UTARA","nmkab":"MALINAU","nmkec":"MALINAU KOTA","nmdesa":"TANJUNG KERANJANG","nmsls":"RT 02"}},{"type":"Feature","geometry":{"type":"MultiPolygon","coordinates":[[[[116.61409,3.57743],[116.6149,3.57789],[116.61522,3.57726],[116.61589,3.5759],[116.61624,3.57549],[116.61574,3.57505],[116.61566,3.57507],[116.61405,3.57505],[116.61389,3.57515],[116.61345,3.57507],[116.61343,3.57529],[116.61363,3.57532],[116.61359,3.57565],[116.61359,3.57595],[116.61362,3.57598],[116.61365,3.57629],[116.61374,3.57661],[116.61397,3.57717],[116.61409,3.57743]]]]},"properties":{"kdprov":"65","kdkab":"01","kdkec":"150","kddesa":"005","kdsls":"0004","idsls":"65011500050004","nmprov":"KALIMANTAN UTARA","nmkab":"MALINAU","nmkec":"MALINAU KOTA","nmdesa":"PELITA KANAAN","nmsls":"RT 04"}},{"type":"Feature","geometry":{"type":"MultiPolygon","coordinates":[[[[116.61908,3.58412],[116.61892,3.58388],[116.61871,3.58352],[116.61866,3.58338],[116.61865,3.58329],[116.61867,3.58308],[116.61881,3.58263],[116.6189,3.5822],[116.61909,3.58175],[116.61927,3.58133],[116.61945,3.58088],[116.61939,3.58043],[116.61922,3.57985],[116.61911,3.57954],[116.61875,3.57895],[116.61872,3.5785],[116.61863,3.57811],[116.61851,3.57797],[116.61794,3.57856],[116.61409,3.58126],[116.61402,3.58195],[116.61363,3.58409],[116.61362,3.58414],[116.61374,3.58479],[116.61374,3.58483],[116.61843,3.58444],[116.61857,3.58442],[116.61908,3.58412]]]]},"properties":{"kdprov":"65","kdkab":"01","kdkec":"150","kddesa":"004","kdsls":"0012","idsls":"65011500040012","nmprov":"KALIMANTAN UTARA","nmkab":"MALINAU","nmkec":"MALINAU KOTA","nmdesa":"MALINAU KOTA","nmsls":"RT 012"}},{"type":"Feature","geometry":{"type":"MultiPolygon","coordinates":[[[[116.62076,3.5912],[116.62155,3.59022],[116.62234,3.58925],[116.62243,3.58914],[116.62267,3.58884],[116.62314,3.58825],[116.62351,3.58778],[116.62383,3.58738],[116.62416,3.58697],[116.62466,3.58635],[116.62514,3.58574],[116.62569,3.58503],[116.62517,3.58455],[116.62464,3.58505],[116.62413,3.58555],[116.62388,3.58579],[116.62372,3.58596],[116.62347,3.58618],[116.62328,3.58634],[116.62317,3.58643],[116.62311,3.58652],[116.62301,3.58663],[116.6229,3.58675],[116.62268,3.58701],[116.6223,3.58745],[116.62211,3.58766],[116.62183,3.58795],[116.62166,3.58814],[116.62146,3.58837],[116.62144,3.58844],[116.62116,3.58872],[116.62101,3.58879],[116.62041,3.58948],[116.61972,3.59029],[116.62011,3.59062],[116.62042,3.59096],[116.62076,3.5912]]]]},"properties":{"kdprov":"65","kdkab":"01","kdkec":"150","kddesa":"004","kdsls":"0008","idsls":"65011500040008","nmprov":"KALIMANTAN UTARA","nmkab":"MALINAU","nmkec":"MALINAU KOTA","nmdesa":"MALINAU KOTA","nmsls":"RT 008"}},{"type":"Feature","geometry":{"type":"MultiPolygon","coordinates":[[[[116.62383,3.58738],[116.62351,3.58778],[116.62314,3.58825],[116.62267,3.58884],[116.62243,3.58914],[116.62234,3.58925],[116.62155,3.59022],[116.62076,3.5912],[116.62077,3.5912],[116.62153,3.59173],[116.6231,3.58989],[116.62316,3.58987],[116.62343,3.58952],[116.62369,3.58912],[116.62403,3.58864],[116.62395,3.58858],[116.62414,3.58832],[116.62417,3.58822],[116.62414,3.5881],[116.62407,3.58776],[116.62404,3.58764],[116.62399,3.58756],[116.62383,3.58738]]]]},"properties":{"kdprov":"65","kdkab":"01","kdkec":"150","kddesa":"004","kdsls":"0007","idsls":"65011500040007","nmprov":"KALIMANTAN UTARA","nmkab":"MALINAU","nmkec":"MALINAU KOTA","nmdesa":"MALINAU KOTA","nmsls":"RT 007"}},{"type":"Feature","geometry":{"type":"MultiPolygon","coordinates":[[[[116.60864,3.57294],[116.60679,3.57365],[116.60676,3.57522],[116.60671,3.5753],[116.60674,3.57543],[116.60676,3.57573],[116.60677,3.5758],[116.6068,3.57617],[116.60684,3.5766],[116.60698,3.57705],[116.60707,3.57832],[116.60775,3.57861],[116.60803,3.57852],[116.60822,3.57842],[116.60845,3.5783],[116.6086,3.57818],[116.60863,3.57815],[116.60887,3.57795],[116.60893,3.57783],[116.61039,3.57622],[116.61046,3.57614],[116.61001,3.57529],[116.61,3.57523],[116.60973,3.57498],[116.60986,3.57481],[116.60986,3.5748],[116.60991,3.57474],[116.61012,3.5744],[116.61009,3.57438],[116.60936,3.57345],[116.60864,3.57294]]]]},"properties":{"kdprov":"65","kdkab":"01","kdkec":"150","kddesa":"006","kdsls":"0012","idsls":"65011500060012","nmprov":"KALIMANTAN UTARA","nmkab":"MALINAU","nmkec":"MALINAU KOTA","nmdesa":"MALINAU HULU","nmsls":"RT 012"}},{"type":"Feature","geometry":{"type":"MultiPolygon","coordinates":[[[[116.61401,3.57115],[116.61231,3.5696],[116.60963,3.57047],[116.60932,3.57057],[116.60914,3.57075],[116.60904,3.57088],[116.60895,3.571],[116.60877,3.57122],[116.60793,3.57228],[116.60834,3.57266],[116.60864,3.57294],[116.60936,3.57345],[116.61009,3.57438],[116.61012,3.5744],[116.61033,3.57415],[116.61037,3.57409],[116.61043,3.57404],[116.6106,3.57396],[116.61085,3.57387],[116.61087,3.57386],[116.6112,3.57378],[116.61157,3.5737],[116.6113,3.5726],[116.61138,3.57245],[116.61149,3.57225],[116.61167,3.57216],[116.61167,3.57216],[116.61168,3.5721],[116.6117,3.57206],[116.61173,3.57203],[116.61173,3.57199],[116.61175,3.57193],[116.61178,3.57191],[116.61182,3.57189],[116.61188,3.57187],[116.61192,3.57182],[116.61191,3.57179],[116.61192,3.57174],[116.61194,3.57173],[116.61195,3.57169],[116.61198,3.57167],[116.61202,3.57166],[116.61206,3.57164],[116.6121,3.57162],[116.61217,3.57161],[116.61225,3.57161],[116.61232,3.57159],[116.61237,3.57156],[116.61242,3.57154],[116.61249,3.57153],[116.61257,3.57155],[116.61267,3.57156],[116.61271,3.57159],[116.61276,3.57162],[116.61332,3.57166],[116.61401,3.57115]]]]},"properties":{"kdprov":"65","kdkab":"01","kdkec":"150","kddesa":"005","kdsls":"0006","idsls":"65011500050006","nmprov":"KALIMANTAN UTARA","nmkab":"MALINAU","nmkec":"MALINAU KOTA","nmdesa":"PELITA KANAAN","nmsls":"RT 06"}},{"type":"Feature","geometry":{"type":"MultiPolygon","coordinates":[[[[116.65752,3.5797],[116.65688,3.57997],[116.65671,3.58006],[116.65629,3.58022],[116.65596,3.58031],[116.65599,3.58044],[116.65511,3.58071],[116.65542,3.58153],[116.65548,3.58167],[116.65558,3.5819],[116.65565,3.58209],[116.65577,3.58236],[116.65604,3.58283],[116.65627,3.58336],[116.65651,3.58322],[116.65699,3.58296],[116.65709,3.58289],[116.65723,3.58264],[116.65924,3.58184],[116.65837,3.58082],[116.65784,3.58005],[116.65752,3.5797]]]]},"properties":{"kdprov":"65","kdkab":"01","kdkec":"150","kddesa":"003","kdsls":"0002","idsls":"65011500030002","nmprov":"KALIMANTAN UTARA","nmkab":"MALINAU","nmkec":"MALINAU KOTA","nmdesa":"MALINAU HILIR","nmsls":"RT 02"}},{"type":"Feature","geometry":{"type":"MultiPolygon","coordinates":[[[[116.61271,3.57943],[116.61355,3.5783],[116.61338,3.57749],[116.61326,3.57754],[116.613,3.57694],[116.61295,3.57692],[116.61285,3.57662],[116.61278,3.57638],[116.61278,3.57603],[116.61266,3.57603],[116.61286,3.57516],[116.6127,3.57513],[116.61274,3.57497],[116.61273,3.57486],[116.61266,3.57461],[116.61256,3.57438],[116.61241,3.57442],[116.61242,3.57469],[116.61217,3.57463],[116.61204,3.575],[116.61216,3.57503],[116.61196,3.57604],[116.61209,3.57606],[116.6121,3.57619],[116.61215,3.57619],[116.61216,3.5763],[116.61221,3.5764],[116.61225,3.57654],[116.61228,3.57662],[116.61231,3.5767],[116.61233,3.57677],[116.61237,3.57676],[116.61241,3.57682],[116.61238,3.57685],[116.61241,3.57691],[116.61243,3.57697],[116.61243,3.57704],[116.61249,3.57715],[116.61252,3.57717],[116.61266,3.57762],[116.61266,3.57784],[116.61271,3.57943]]]]},"properties":{"kdprov":"65","kdkab":"01","kdkec":"150","kddesa":"005","kdsls":"0002","idsls":"65011500050002","nmprov":"KALIMANTAN UTARA","nmkab":"MALINAU","nmkec":"MALINAU KOTA","nmdesa":"PELITA KANAAN","nmsls":"RT 02"}},{"type":"Feature","geometry":{"type":"MultiPolygon","coordinates":[[[[116.61223,3.549],[116.61171,3.54961],[116.61136,3.55022],[116.61105,3.55083],[116.61187,3.55123],[116.6123,3.55142],[116.61332,3.55118],[116.61332,3.55188],[116.61331,3.55215],[116.61343,3.55262],[116.61353,3.55316],[116.61362,3.55375],[116.61394,3.55364],[116.61413,3.55361],[116.61425,3.5536],[116.61439,3.55362],[116.61462,3.55364],[116.615,3.55368],[116.61541,3.55368],[116.61562,3.55366],[116.61583,3.55363],[116.61597,3.55358],[116.61622,3.55346],[116.61649,3.55333],[116.6167,3.55318],[116.61718,3.55289],[116.61753,3.55273],[116.61782,3.55263],[116.61808,3.55253],[116.6182,3.55245],[116.6183,3.55234],[116.61831,3.55219],[116.61834,3.55183],[116.61832,3.55153],[116.61829,3.55113],[116.61824,3.55075],[116.61822,3.5501],[116.6182,3.54978],[116.61817,3.54953],[116.61812,3.54929],[116.61811,3.54915],[116.61813,3.54905],[116.61816,3.54895],[116.61819,3.54888],[116.61849,3.54865],[116.61677,3.54871],[116.61638,3.54874],[116.61223,3.549]]]]},"properties":{"kdprov":"65","kdkab":"01","kdkec":"150","kddesa":"006","kdsls":"0002","idsls":"65011500060002","nmprov":"KALIMANTAN UTARA","nmkab":"MALINAU","nmkec":"MALINAU KOTA","nmdesa":"MALINAU HULU","nmsls":"RT 002"}},{"type":"Feature","geometry":{"type":"MultiPolygon","coordinates":[[[[116.62307,3.58992],[116.62363,3.59038],[116.62369,3.59028],[116.62378,3.59014],[116.62381,3.59007],[116.62382,3.58997],[116.62379,3.5899],[116.62378,3.58985],[116.62378,3.58979],[116.62382,3.58973],[116.62388,3.58971],[116.62396,3.5897],[116.62405,3.5897],[116.6241,3.5897],[116.62416,3.58967],[116.62424,3.5896],[116.62431,3.58953],[116.62433,3.58946],[116.62434,3.58937],[116.6244,3.58937],[116.62443,3.58937],[116.62447,3.58935],[116.62452,3.58936],[116.6246,3.5894],[116.62465,3.58943],[116.62469,3.58946],[116.62472,3.58945],[116.62477,3.58946],[116.62479,3.58948],[116.62482,3.58949],[116.62489,3.58949],[116.62494,3.58946],[116.62502,3.58936],[116.62486,3.58923],[116.62456,3.58902],[116.62432,3.58885],[116.62403,3.58864],[116.62369,3.58912],[116.62343,3.58952],[116.62316,3.58987],[116.6231,3.58989],[116.62307,3.58992]]]]},"properties":{"kdprov":"65","kdkab":"01","kdkec":"150","kddesa":"004","kdsls":"0006","idsls":"65011500040006","nmprov":"KALIMANTAN UTARA","nmkab":"MALINAU","nmkec":"MALINAU KOTA","nmdesa":"MALINAU KOTA","nmsls":"RT 006"}},{"type":"Feature","geometry":{"type":"MultiPolygon","coordinates":[[[[116.63395,3.55528],[116.63411,3.55607],[116.63399,3.55681],[116.63371,3.55801],[116.63439,3.55944],[116.63547,3.56035],[116.63678,3.5607],[116.63757,3.56167],[116.63717,3.56224],[116.63738,3.56256],[116.63791,3.56338],[116.63791,3.56338],[116.63863,3.56404],[116.63865,3.56407],[116.63933,3.56423],[116.63962,3.5643],[116.64031,3.56457],[116.64064,3.5647],[116.64151,3.56493],[116.64195,3.56504],[116.64213,3.56509],[116.64233,3.56515],[116.64269,3.56525],[116.64289,3.56531],[116.64343,3.56462],[116.64345,3.56463],[116.64345,3.56462],[116.64567,3.56176],[116.6467,3.56045],[116.64957,3.55722],[116.64958,3.55719],[116.64943,3.55671],[116.64928,3.5563],[116.64916,3.55601],[116.64891,3.55572],[116.64849,3.55528],[116.64819,3.55485],[116.64786,3.55426],[116.64769,3.5537],[116.64807,3.55352],[116.6485,3.55335],[116.64901,3.5532],[116.64949,3.55312],[116.64973,3.55316],[116.65007,3.55322],[116.65033,3.55329],[116.65082,3.55348],[116.65083,3.55349],[116.65084,3.55347],[116.65112,3.55242],[116.65122,3.55207],[116.65196,3.54948],[116.65177,3.5493],[116.65139,3.54923],[116.65069,3.5493],[116.65019,3.54941],[116.64973,3.54955],[116.64926,3.54976],[116.64899,3.54982],[116.64865,3.5496],[116.64857,3.54933],[116.6486,3.54893],[116.64863,3.54831],[116.64871,3.54778],[116.64881,3.54698],[116.64882,3.54606],[116.64885,3.54557],[116.64891,3.54495],[116.64898,3.54467],[116.6491,3.54438],[116.64904,3.5441],[116.64889,3.54391],[116.64861,3.54377],[116.64813,3.54371],[116.64741,3.54362],[116.64651,3.54338],[116.64599,3.54324],[116.64586,3.54302],[116.6456,3.54264],[116.64531,3.54229],[116.64499,3.54187],[116.64484,3.54148],[116.64486,3.54093],[116.64487,3.54061],[116.6449,3.53943],[116.64506,3.53852],[116.6452,3.53764],[116.64547,3.53619],[116.64552,3.53594],[116.64526,3.53562],[116.64494,3.53547],[116.64451,3.53547],[116.64406,3.53554],[116.6436,3.53562],[116.64316,3.53574],[116.64276,3.53566],[116.6426,3.53544],[116.6425,3.53511],[116.64247,3.5348],[116.64246,3.53435],[116.64245,3.53373],[116.64238,3.53305],[116.642,3.53049],[116.64189,3.52923],[116.64183,3.52864],[116.64181,3.52811],[116.64209,3.52743],[116.64245,3.52714],[116.64275,3.52717],[116.64305,3.52729],[116.64329,3.52744],[116.64362,3.52762],[116.64427,3.52788],[116.6447,3.52794],[116.64505,3.52788],[116.64529,3.52769],[116.64538,3.52738],[116.6453,3.52712],[116.64512,3.52684],[116.6449,3.52635],[116.64474,3.52596],[116.64472,3.52559],[116.64477,3.52526],[116.64484,3.52499],[116.64499,3.52475],[116.64523,3.52466],[116.64547,3.52467],[116.64572,3.52481],[116.64608,3.52493],[116.64635,3.52499],[116.64659,3.52494],[116.64685,3.52457],[116.64685,3.52387],[116.64675,3.5232],[116.64642,3.52244],[116.64624,3.52205],[116.64595,3.52203],[116.64223,3.52173],[116.63919,3.5228],[116.63904,3.52284],[116.63789,3.52308],[116.63731,3.523],[116.63256,3.52276],[116.62998,3.5222],[116.63,3.52272],[116.62897,3.52426],[116.62802,3.52539],[116.62755,3.52584],[116.62715,3.52703],[116.62702,3.5275],[116.6266,3.52891],[116.62738,3.53001],[116.6277,3.53205],[116.62777,3.53386],[116.62808,3.53613],[116.62925,3.53903],[116.63074,3.5416],[116.6309,3.54352],[116.63197,3.54541],[116.63253,3.54615],[116.63261,3.54626],[116.63329,3.54722],[116.63309,3.54786],[116.63349,3.54871],[116.63441,3.54891],[116.63456,3.54942],[116.6341,3.54972],[116.63382,3.54993],[116.63418,3.55026],[116.63421,3.55109],[116.63459,3.55137],[116.63486,3.55244],[116.63483,3.55354],[116.63491,3.55418],[116.63445,3.55478],[116.63395,3.55528]]]]},"properties":{"kdprov":"65","kdkab":"01","kdkec":"150","kddesa":"001","kdsls":"0004","idsls":"65011500010004","nmprov":"KALIMANTAN UTARA","nmkab":"MALINAU","nmkec":"MALINAU KOTA","nmdesa":"BATU LIDUNG","nmsls":"RT 004"}},{"type":"Feature","geometry":{"type":"MultiPolygon","coordinates":[[[[116.60964,3.58739],[116.60986,3.58774],[116.60987,3.58775],[116.60989,3.5879],[116.61002,3.58838],[116.61009,3.58862],[116.61027,3.58889],[116.61037,3.58905],[116.61059,3.58926],[116.61065,3.58948],[116.61065,3.58967],[116.61076,3.58984],[116.6109,3.59],[116.61125,3.59039],[116.61161,3.59061],[116.61312,3.59253],[116.6134,3.59288],[116.61333,3.59233],[116.61327,3.59193],[116.6132,3.59144],[116.61322,3.59118],[116.61324,3.59114],[116.61332,3.59097],[116.61348,3.59076],[116.61371,3.59059],[116.61402,3.59032],[116.61435,3.59007],[116.61487,3.58984],[116.61522,3.58971],[116.616,3.58942],[116.61666,3.58928],[116.61711,3.58923],[116.61739,3.58918],[116.61771,3.58912],[116.6184,3.589],[116.61797,3.58826],[116.61788,3.58785],[116.619,3.58709],[116.61974,3.58646],[116.61981,3.58656],[116.62009,3.58632],[116.62057,3.58584],[116.62052,3.58579],[116.62069,3.58563],[116.62153,3.58474],[116.62365,3.58316],[116.62371,3.5831],[116.62354,3.58293],[116.62301,3.5824],[116.6225,3.58189],[116.62217,3.58157],[116.62179,3.58202],[116.62136,3.58235],[116.62143,3.58255],[116.62152,3.5828],[116.62095,3.58321],[116.6204,3.58352],[116.61988,3.58377],[116.61979,3.58379],[116.61973,3.58381],[116.61964,3.58386],[116.61952,3.58393],[116.61933,3.58402],[116.61918,3.58407],[116.6191,3.58411],[116.61857,3.58442],[116.61843,3.58444],[116.61374,3.58483],[116.61362,3.58498],[116.61351,3.5851],[116.61323,3.5852],[116.61314,3.58522],[116.6127,3.58558],[116.61254,3.58595],[116.61253,3.58627],[116.61185,3.58648],[116.61161,3.5866],[116.60964,3.58739]]]]},"properties":{"kdprov":"65","kdkab":"01","kdkec":"150","kddesa":"004","kdsls":"0011","idsls":"65011500040011","nmprov":"KALIMANTAN UTARA","nmkab":"MALINAU","nmkec":"MALINAU KOTA","nmdesa":"MALINAU KOTA","nmsls":"RT 011"}},{"type":"Feature","geometry":{"type":"MultiPolygon","coordinates":[[[[116.62502,3.58936],[116.62494,3.58946],[116.62489,3.58949],[116.62482,3.58949],[116.62479,3.58948],[116.62477,3.58946],[116.62472,3.58945],[116.62469,3.58946],[116.62465,3.58943],[116.6246,3.5894],[116.62452,3.58936],[116.62447,3.58935],[116.62443,3.58937],[116.6244,3.58937],[116.62434,3.58937],[116.62433,3.58946],[116.62431,3.58953],[116.62424,3.5896],[116.62416,3.58967],[116.6241,3.5897],[116.62405,3.5897],[116.62396,3.5897],[116.62388,3.58971],[116.62382,3.58973],[116.62378,3.58979],[116.62378,3.58985],[116.62379,3.5899],[116.62382,3.58997],[116.62381,3.59007],[116.62378,3.59014],[116.62369,3.59028],[116.62358,3.59047],[116.62343,3.59068],[116.62339,3.59103],[116.6234,3.59121],[116.62334,3.5914],[116.62325,3.59161],[116.62306,3.59165],[116.6225,3.59241],[116.62255,3.59244],[116.6227,3.59255],[116.62334,3.593],[116.6236,3.59318],[116.62428,3.59221],[116.62486,3.59131],[116.62507,3.59098],[116.62537,3.59088],[116.62537,3.59081],[116.62539,3.59068],[116.62544,3.59045],[116.62561,3.58979],[116.62552,3.58973],[116.62543,3.58966],[116.62529,3.58955],[116.62519,3.58947],[116.62502,3.58936]]]]},"properties":{"kdprov":"65","kdkab":"01","kdkec":"150","kddesa":"004","kdsls":"0005","idsls":"65011500040005","nmprov":"KALIMANTAN UTARA","nmkab":"MALINAU","nmkec":"MALINAU KOTA","nmdesa":"MALINAU KOTA","nmsls":"RT 005"}},{"type":"Feature","geometry":{"type":"MultiPolygon","coordinates":[[[[116.65035,3.56722],[116.6503,3.56742],[116.65024,3.56769],[116.65012,3.56795],[116.64993,3.56825],[116.64954,3.56888],[116.64932,3.56917],[116.64908,3.56951],[116.64904,3.56958],[116.64876,3.56998],[116.6485,3.57021],[116.64848,3.57023],[116.64685,3.57129],[116.64521,3.57315],[116.65032,3.57397],[116.65108,3.57409],[116.65049,3.5705],[116.65111,3.56954],[116.65215,3.56794],[116.65236,3.56762],[116.65035,3.56722]]]]},"properties":{"kdprov":"65","kdkab":"01","kdkec":"150","kddesa":"002","kdsls":"1002","idsls":"65011500021002","nmprov":"KALIMANTAN UTARA","nmkab":"MALINAU","nmkec":"MALINAU KOTA","nmdesa":"TANJUNG KERANJANG","nmsls":"KEBUN"}},{"type":"Feature","geometry":{"type":"MultiPolygon","coordinates":[[[[116.62743,3.577],[116.63034,3.57955],[116.63134,3.58027],[116.63148,3.58028],[116.63177,3.57988],[116.6323,3.5792],[116.63283,3.57849],[116.63372,3.57735],[116.63453,3.5763],[116.63537,3.57517],[116.63644,3.57374],[116.63772,3.57205],[116.63861,3.57088],[116.63991,3.56921],[116.64085,3.56794],[116.64251,3.56582],[116.64289,3.56531],[116.64289,3.56531],[116.64269,3.56525],[116.64233,3.56515],[116.64213,3.56509],[116.64195,3.56504],[116.64151,3.56493],[116.64064,3.5647],[116.64031,3.56457],[116.63869,3.5662],[116.62746,3.57697],[116.62743,3.577]]]]},"properties":{"kdprov":"65","kdkab":"01","kdkec":"150","kddesa":"004","kdsls":"0013","idsls":"65011500040013","nmprov":"KALIMANTAN UTARA","nmkab":"MALINAU","nmkec":"MALINAU KOTA","nmdesa":"MALINAU KOTA","nmsls":"RT 013"}},{"type":"Feature","geometry":{"type":"MultiPolygon","coordinates":[[[[116.61271,3.57943],[116.61266,3.57784],[116.61266,3.57762],[116.61252,3.57717],[116.61249,3.57715],[116.61243,3.57704],[116.61243,3.57697],[116.61241,3.57691],[116.61238,3.57685],[116.61241,3.57682],[116.61237,3.57676],[116.61233,3.57677],[116.61231,3.5767],[116.61228,3.57662],[116.61225,3.57654],[116.61221,3.5764],[116.61216,3.5763],[116.61215,3.57619],[116.6121,3.57619],[116.61209,3.57606],[116.61196,3.57604],[116.61216,3.57503],[116.61204,3.575],[116.61217,3.57463],[116.61242,3.57469],[116.61241,3.57442],[116.61256,3.57438],[116.61253,3.57419],[116.61159,3.57405],[116.61162,3.57416],[116.61169,3.57421],[116.61169,3.57426],[116.61159,3.57432],[116.61156,3.57438],[116.61163,3.5744],[116.61165,3.57445],[116.61169,3.57452],[116.61165,3.57461],[116.61167,3.57467],[116.61171,3.57473],[116.61168,3.57484],[116.61159,3.57525],[116.61155,3.57527],[116.6115,3.57543],[116.61147,3.57563],[116.61159,3.57568],[116.61157,3.5758],[116.61145,3.57597],[116.61147,3.57619],[116.61159,3.57641],[116.61159,3.5765],[116.61156,3.57662],[116.61178,3.57711],[116.61191,3.57735],[116.61119,3.57865],[116.61271,3.57943]]]]},"properties":{"kdprov":"65","kdkab":"01","kdkec":"150","kddesa":"005","kdsls":"0001","idsls":"65011500050001","nmprov":"KALIMANTAN UTARA","nmkab":"MALINAU","nmkec":"MALINAU KOTA","nmdesa":"PELITA KANAAN","nmsls":"RT 01"}},{"type":"Feature","geometry":{"type":"MultiPolygon","coordinates":[[[[116.62898,3.58756],[116.62831,3.58728],[116.6279,3.58699],[116.62748,3.58662],[116.62704,3.58622],[116.62647,3.5857],[116.62578,3.58648],[116.62476,3.5877],[116.62417,3.58822],[116.62417,3.58822],[116.62414,3.58832],[116.62395,3.58858],[116.62403,3.58864],[116.62432,3.58885],[116.62456,3.58902],[116.62486,3.58923],[116.62502,3.58936],[116.62507,3.58924],[116.62518,3.58908],[116.62536,3.58886],[116.62557,3.58861],[116.62577,3.58841],[116.6259,3.58832],[116.6262,3.58824],[116.6265,3.58824],[116.62664,3.58828],[116.62672,3.58832],[116.62682,3.58831],[116.62708,3.58829],[116.62738,3.58826],[116.62749,3.58819],[116.62769,3.5882],[116.62781,3.58818],[116.62809,3.58807],[116.62869,3.58782],[116.62889,3.58767],[116.62898,3.58756]]]]},"properties":{"kdprov":"65","kdkab":"01","kdkec":"150","kddesa":"004","kdsls":"0014","idsls":"65011500040014","nmprov":"KALIMANTAN UTARA","nmkab":"MALINAU","nmkec":"MALINAU KOTA","nmdesa":"MALINAU KOTA","nmsls":"RT 014"}},{"type":"Feature","geometry":{"type":"MultiPolygon","coordinates":[[[[116.61574,3.57505],[116.61571,3.57502],[116.61563,3.57493],[116.6155,3.57479],[116.61527,3.57456],[116.61519,3.57448],[116.6151,3.57438],[116.61495,3.5742],[116.61474,3.57396],[116.61462,3.57388],[116.61446,3.5738],[116.61429,3.57373],[116.61402,3.57367],[116.61372,3.57361],[116.61351,3.57357],[116.61312,3.57347],[116.61313,3.57343],[116.61401,3.57115],[116.61332,3.57166],[116.61276,3.57162],[116.61271,3.57159],[116.61267,3.57156],[116.61257,3.57155],[116.61249,3.57153],[116.61242,3.57154],[116.61237,3.57156],[116.61232,3.57159],[116.61225,3.57161],[116.61217,3.57161],[116.6121,3.57162],[116.61206,3.57164],[116.61202,3.57166],[116.61198,3.57167],[116.61195,3.57169],[116.61194,3.57173],[116.61192,3.57174],[116.61191,3.57179],[116.61192,3.57182],[116.61188,3.57187],[116.61182,3.57189],[116.61178,3.57191],[116.61175,3.57193],[116.61173,3.57199],[116.61173,3.57203],[116.6117,3.57206],[116.61168,3.5721],[116.61167,3.57216],[116.61167,3.57216],[116.61149,3.57225],[116.61138,3.57245],[116.6113,3.5726],[116.61157,3.5737],[116.6112,3.57378],[116.61087,3.57386],[116.61085,3.57387],[116.61097,3.57417],[116.61159,3.57405],[116.61253,3.57419],[116.61256,3.57438],[116.61328,3.57428],[116.61347,3.57426],[116.6136,3.5743],[116.61371,3.57435],[116.61348,3.57493],[116.61345,3.57507],[116.61389,3.57515],[116.61405,3.57505],[116.61566,3.57507],[116.61574,3.57505]]]]},"properties":{"kdprov":"65","kdkab":"01","kdkec":"150","kddesa":"005","kdsls":"0005","idsls":"65011500050005","nmprov":"KALIMANTAN UTARA","nmkab":"MALINAU","nmkec":"MALINAU KOTA","nmdesa":"PELITA KANAAN","nmsls":"RT 05"}},{"type":"Feature","geometry":{"type":"MultiPolygon","coordinates":[[[[116.70427,3.57023],[116.69898,3.55924],[116.69834,3.55754],[116.69687,3.55338],[116.69295,3.54577],[116.69276,3.54549],[116.69151,3.54672],[116.68946,3.54722],[116.68683,3.54786],[116.68349,3.54867],[116.67033,3.55163],[116.66906,3.5525],[116.66838,3.55351],[116.66828,3.55424],[116.66838,3.55497],[116.66837,3.55611],[116.66751,3.55684],[116.66628,3.55684],[116.66483,3.55629],[116.66392,3.55524],[116.66283,3.55442],[116.66155,3.55419],[116.66119,3.55483],[116.66083,3.55556],[116.6601,3.55643],[116.66055,3.55734],[116.6621,3.55803],[116.66319,3.55926],[116.66337,3.56077],[116.66251,3.56232],[116.661,3.5626],[116.65955,3.56287],[116.65828,3.56342],[116.65749,3.56387],[116.65728,3.56399],[116.65711,3.56412],[116.65694,3.56425],[116.65671,3.56437],[116.65649,3.56449],[116.65622,3.56464],[116.65605,3.56475],[116.65577,3.56489],[116.6555,3.56496],[116.65519,3.5651],[116.65503,3.56518],[116.65491,3.56527],[116.655,3.56534],[116.65513,3.56546],[116.65501,3.56553],[116.65488,3.56556],[116.65484,3.56556],[116.65476,3.56555],[116.65466,3.5655],[116.65455,3.56557],[116.65452,3.56567],[116.65448,3.5658],[116.6541,3.56574],[116.65367,3.56566],[116.65362,3.56586],[116.65354,3.56624],[116.65428,3.56631],[116.65488,3.56645],[116.65543,3.56673],[116.65589,3.56711],[116.65644,3.5682],[116.65615,3.56846],[116.65584,3.56889],[116.65565,3.56913],[116.65541,3.56949],[116.65522,3.56978],[116.65505,3.57017],[116.65491,3.57076],[116.65482,3.57124],[116.65475,3.57178],[116.65469,3.57227],[116.65455,3.57269],[116.65437,3.57323],[116.65441,3.57323],[116.65571,3.57319],[116.65584,3.57342],[116.65617,3.57326],[116.65687,3.57312],[116.65733,3.57266],[116.65794,3.57258],[116.65838,3.57251],[116.65884,3.57274],[116.65951,3.57231],[116.65997,3.57186],[116.66055,3.5717],[116.66062,3.57168],[116.66252,3.57284],[116.664,3.57237],[116.66428,3.57155],[116.66353,3.56993],[116.66237,3.56843],[116.66131,3.56745],[116.66131,3.5674],[116.66135,3.56692],[116.66249,3.56694],[116.6637,3.56708],[116.66428,3.56763],[116.66541,3.56827],[116.66712,3.56827],[116.66825,3.56816],[116.67054,3.56824],[116.68961,3.56834],[116.69447,3.57045],[116.69956,3.57003],[116.70078,3.56993],[116.70368,3.57019],[116.70427,3.57023]]]]},"properties":{"kdprov":"65","kdkab":"01","kdkec":"150","kddesa":"002","kdsls":"2001","idsls":"65011500022001","nmprov":"KALIMANTAN UTARA","nmkab":"MALINAU","nmkec":"MALINAU KOTA","nmdesa":"TANJUNG KERANJANG","nmsls":"HUTAN"}},{"type":"Feature","geometry":{"type":"MultiPolygon","coordinates":[[[[116.64112,3.58856],[116.64312,3.58673],[116.64355,3.58651],[116.64448,3.587],[116.64484,3.58759],[116.64506,3.58802],[116.64533,3.58856],[116.64585,3.58842],[116.64625,3.58836],[116.64704,3.58821],[116.64679,3.5866],[116.64592,3.58666],[116.6457,3.58518],[116.64666,3.58509],[116.64668,3.5853],[116.64827,3.58486],[116.65018,3.58473],[116.6508,3.58438],[116.65013,3.58301],[116.64934,3.5814],[116.64741,3.58121],[116.64712,3.58123],[116.64712,3.58123],[116.64698,3.58124],[116.64681,3.58125],[116.6467,3.58126],[116.64615,3.5813],[116.64536,3.58148],[116.64503,3.58156],[116.64436,3.58153],[116.64376,3.5815],[116.6435,3.58095],[116.64316,3.58074],[116.64293,3.5806],[116.64238,3.5806],[116.64178,3.5806],[116.6418,3.58099],[116.64187,3.58134],[116.64202,3.58185],[116.64214,3.58244],[116.64214,3.58319],[116.6421,3.58387],[116.64199,3.58452],[116.64172,3.58531],[116.64149,3.58598],[116.64117,3.58691],[116.64107,3.5872],[116.64106,3.58733],[116.64105,3.58751],[116.64106,3.58779],[116.64108,3.58819],[116.64108,3.58847],[116.6411,3.58854],[116.64112,3.58856]]]]},"properties":{"kdprov":"65","kdkab":"01","kdkec":"150","kddesa":"004","kdsls":"0020","idsls":"65011500040020","nmprov":"KALIMANTAN UTARA","nmkab":"MALINAU","nmkec":"MALINAU KOTA","nmdesa":"MALINAU KOTA","nmsls":"RT 020"}},{"type":"Feature","geometry":{"type":"MultiPolygon","coordinates":[[[[116.65143,3.58566],[116.65205,3.58822],[116.65206,3.58823],[116.65218,3.58919],[116.65224,3.58963],[116.65241,3.59097],[116.65648,3.59164],[116.65948,3.59048],[116.66045,3.58635],[116.66059,3.58445],[116.66049,3.58378],[116.66047,3.58363],[116.66029,3.58343],[116.6602,3.58333],[116.66009,3.5831],[116.65991,3.58298],[116.65984,3.58287],[116.65974,3.58276],[116.65969,3.58263],[116.65957,3.58249],[116.65932,3.5821],[116.65924,3.58184],[116.65723,3.58264],[116.65709,3.58289],[116.65699,3.58296],[116.65651,3.58322],[116.65627,3.58336],[116.6561,3.58346],[116.65548,3.58378],[116.65513,3.58394],[116.65495,3.58405],[116.65324,3.58501],[116.65143,3.58566]]]]},"properties":{"kdprov":"65","kdkab":"01","kdkec":"150","kddesa":"003","kdsls":"0001","idsls":"65011500030001","nmprov":"KALIMANTAN UTARA","nmkab":"MALINAU","nmkec":"MALINAU KOTA","nmdesa":"MALINAU HILIR","nmsls":"RT 01"}},{"type":"Feature","geometry":{"type":"MultiPolygon","coordinates":[[[[116.65511,3.58071],[116.65599,3.58044],[116.65596,3.58031],[116.65629,3.58022],[116.65671,3.58006],[116.65688,3.57997],[116.65752,3.5797],[116.65569,3.57664],[116.65509,3.57715],[116.65472,3.57745],[116.65448,3.57767],[116.65431,3.57786],[116.65394,3.57824],[116.65397,3.57828],[116.65413,3.57858],[116.65418,3.57867],[116.65426,3.5788],[116.6544,3.57898],[116.65453,3.57914],[116.65468,3.57929],[116.6547,3.57939],[116.65476,3.57957],[116.65481,3.57978],[116.65483,3.57986],[116.65486,3.57997],[116.65491,3.58009],[116.65497,3.58025],[116.65509,3.58064],[116.65511,3.58071]]]]},"properties":{"kdprov":"65","kdkab":"01","kdkec":"150","kddesa":"003","kdsls":"0003","idsls":"65011500030003","nmprov":"KALIMANTAN UTARA","nmkab":"MALINAU","nmkec":"MALINAU KOTA","nmdesa":"MALINAU HILIR","nmsls":"RT 03"}},{"type":"Feature","geometry":{"type":"MultiPolygon","coordinates":[[[[116.61374,3.58483],[116.61374,3.58479],[116.61362,3.58414],[116.61363,3.58409],[116.61402,3.58195],[116.61409,3.58126],[116.61271,3.57943],[116.61119,3.57865],[116.61005,3.57831],[116.6086,3.57818],[116.60845,3.5783],[116.60822,3.57842],[116.60803,3.57852],[116.60775,3.57861],[116.60773,3.57862],[116.60759,3.57867],[116.6073,3.57874],[116.60697,3.57887],[116.60663,3.57905],[116.60643,3.57938],[116.60633,3.57964],[116.60632,3.57994],[116.60632,3.58015],[116.60631,3.58038],[116.60621,3.58044],[116.60607,3.58053],[116.60586,3.58049],[116.60568,3.58039],[116.6056,3.58033],[116.60549,3.5803],[116.60523,3.5805],[116.60502,3.58054],[116.60495,3.58065],[116.60472,3.58063],[116.60455,3.58059],[116.60449,3.58047],[116.60438,3.58045],[116.60423,3.58051],[116.60121,3.58187],[116.60247,3.58275],[116.60545,3.58482],[116.60545,3.58482],[116.60959,3.5873],[116.60964,3.58739],[116.61161,3.5866],[116.61185,3.58648],[116.61253,3.58627],[116.61254,3.58595],[116.6127,3.58558],[116.61314,3.58522],[116.61323,3.5852],[116.61351,3.5851],[116.61362,3.58498],[116.61374,3.58483]]]]},"properties":{"kdprov":"65","kdkab":"01","kdkec":"150","kddesa":"005","kdsls":"2001","idsls":"65011500052001","nmprov":"KALIMANTAN UTARA","nmkab":"MALINAU","nmkec":"MALINAU KOTA","nmdesa":"PELITA KANAAN","nmsls":"HUTAN"}},{"type":"Feature","geometry":{"type":"MultiPolygon","coordinates":[[[[116.65627,3.58336],[116.65604,3.58283],[116.65577,3.58236],[116.65565,3.58209],[116.65558,3.5819],[116.65548,3.58167],[116.65542,3.58153],[116.65511,3.58071],[116.65509,3.58064],[116.65504,3.58066],[116.65427,3.58102],[116.65289,3.5817],[116.65013,3.58301],[116.65143,3.58566],[116.65324,3.58501],[116.65495,3.58405],[116.65513,3.58394],[116.65548,3.58378],[116.6561,3.58346],[116.65627,3.58336]]]]},"properties":{"kdprov":"65","kdkab":"01","kdkec":"150","kddesa":"003","kdsls":"0006","idsls":"65011500030006","nmprov":"KALIMANTAN UTARA","nmkab":"MALINAU","nmkec":"MALINAU KOTA","nmdesa":"MALINAU HILIR","nmsls":"RT 06"}},{"type":"Feature","geometry":{"type":"MultiPolygon","coordinates":[[[[116.65362,3.56586],[116.65367,3.56566],[116.6541,3.56574],[116.65448,3.5658],[116.65452,3.56567],[116.65455,3.56557],[116.65466,3.5655],[116.65476,3.56555],[116.65484,3.56556],[116.65488,3.56556],[116.65501,3.56553],[116.65513,3.56546],[116.655,3.56534],[116.65491,3.56527],[116.65503,3.56518],[116.65519,3.5651],[116.6555,3.56496],[116.65577,3.56489],[116.65605,3.56475],[116.65622,3.56464],[116.65649,3.56449],[116.65671,3.56437],[116.65694,3.56425],[116.65711,3.56412],[116.65728,3.56399],[116.65749,3.56387],[116.65623,3.56273],[116.65488,3.56165],[116.65488,3.56065],[116.6561,3.5601],[116.65802,3.55987],[116.66012,3.55974],[116.66085,3.55929],[116.66053,3.55883],[116.65922,3.55833],[116.65841,3.55774],[116.65764,3.55669],[116.65696,3.55592],[116.65646,3.55587],[116.65501,3.55642],[116.65375,3.55742],[116.65271,3.55859],[116.65189,3.55955],[116.65112,3.55965],[116.65035,3.55874],[116.65035,3.55791],[116.64984,3.55801],[116.64959,3.5572],[116.64957,3.55722],[116.6467,3.56045],[116.64567,3.56176],[116.64345,3.56462],[116.64345,3.56463],[116.64857,3.56641],[116.65043,3.56635],[116.65362,3.56586]]]]},"properties":{"kdprov":"65","kdkab":"01","kdkec":"150","kddesa":"001","kdsls":"0003","idsls":"65011500010003","nmprov":"KALIMANTAN UTARA","nmkab":"MALINAU","nmkec":"MALINAU KOTA","nmdesa":"BATU LIDUNG","nmsls":"RT 003 DUSUN KOLAM INDAH"}},{"type":"Feature","geometry":{"type":"MultiPolygon","coordinates":[[[[116.65509,3.58064],[116.65497,3.58025],[116.65491,3.58009],[116.65486,3.57997],[116.65483,3.57986],[116.65481,3.57978],[116.65476,3.57957],[116.6547,3.57939],[116.65468,3.57929],[116.65453,3.57914],[116.6544,3.57898],[116.65426,3.5788],[116.65418,3.57867],[116.65413,3.57858],[116.65397,3.57828],[116.65394,3.57824],[116.65389,3.5783],[116.65324,3.57897],[116.65283,3.5794],[116.65252,3.5797],[116.65166,3.58011],[116.65043,3.58069],[116.64961,3.58108],[116.64927,3.58127],[116.64934,3.5814],[116.65013,3.58301],[116.65289,3.5817],[116.65427,3.58102],[116.65504,3.58066],[116.65509,3.58064]]]]},"properties":{"kdprov":"65","kdkab":"01","kdkec":"150","kddesa":"003","kdsls":"0005","idsls":"65011500030005","nmprov":"KALIMANTAN UTARA","nmkab":"MALINAU","nmkec":"MALINAU KOTA","nmdesa":"MALINAU HILIR","nmsls":"RT 05"}},{"type":"Feature","geometry":{"type":"MultiPolygon","coordinates":[[[[116.65437,3.57323],[116.65455,3.57269],[116.65469,3.57227],[116.65475,3.57178],[116.65482,3.57124],[116.65491,3.57076],[116.65505,3.57017],[116.65467,3.56994],[116.65448,3.5698],[116.65433,3.56969],[116.65435,3.56964],[116.65391,3.56941],[116.65401,3.56927],[116.65426,3.5689],[116.65449,3.56859],[116.65369,3.56811],[116.65341,3.56796],[116.65335,3.56809],[116.65315,3.56854],[116.65289,3.5684],[116.65256,3.56893],[116.6522,3.56944],[116.65201,3.56969],[116.65189,3.56986],[116.65183,3.57],[116.65111,3.56954],[116.65049,3.5705],[116.65108,3.57409],[116.65124,3.57432],[116.6514,3.57455],[116.65164,3.5749],[116.65177,3.57548],[116.65182,3.57566],[116.65183,3.57582],[116.65185,3.57589],[116.65205,3.57606],[116.65223,3.576],[116.65232,3.57593],[116.65235,3.5759],[116.65246,3.57593],[116.65252,3.57609],[116.65255,3.5762],[116.65258,3.57629],[116.6527,3.57627],[116.65293,3.5762],[116.65322,3.57608],[116.65339,3.57591],[116.65374,3.57564],[116.65416,3.57533],[116.65415,3.57532],[116.65387,3.57472],[116.65398,3.57389],[116.65412,3.57364],[116.65437,3.57323]]]]},"properties":{"kdprov":"65","kdkab":"01","kdkec":"150","kddesa":"002","kdsls":"0001","idsls":"65011500020001","nmprov":"KALIMANTAN UTARA","nmkab":"MALINAU","nmkec":"MALINAU KOTA","nmdesa":"TANJUNG KERANJANG","nmsls":"RT 01"}},{"type":"Feature","geometry":{"type":"MultiPolygon","coordinates":[[[[116.60785,3.56649],[116.61368,3.55963],[116.61366,3.55963],[116.61154,3.55975],[116.60803,3.56284],[116.60592,3.5647],[116.60564,3.56451],[116.60514,3.56436],[116.60477,3.56426],[116.60458,3.56416],[116.60437,3.5641],[116.60421,3.56406],[116.60395,3.56401],[116.60379,3.56399],[116.60378,3.56394],[116.60299,3.56375],[116.60236,3.56362],[116.60141,3.56151],[116.6014,3.5615],[116.6011,3.56141],[116.60056,3.56123],[116.5999,3.56054],[116.59868,3.56019],[116.59485,3.55963],[116.59145,3.55926],[116.5879,3.55869],[116.58338,3.55777],[116.58011,3.55663],[116.57694,3.55494],[116.57539,3.55365],[116.57343,3.5515],[116.57198,3.5492],[116.57177,3.54925],[116.57174,3.5496],[116.57172,3.55007],[116.57165,3.55056],[116.57134,3.55126],[116.57109,3.55193],[116.57069,3.55262],[116.57042,3.55304],[116.56999,3.55423],[116.56936,3.55471],[116.56913,3.55481],[116.56766,3.5554],[116.56667,3.55551],[116.56667,3.55551],[116.5661,3.55544],[116.5661,3.55544],[116.56545,3.55549],[116.56438,3.55578],[116.56367,3.55604],[116.56331,3.5563],[116.56333,3.55645],[116.56338,3.55693],[116.5634,3.55794],[116.56341,3.55843],[116.56342,3.55938],[116.56342,3.55938],[116.56343,3.55995],[116.56345,3.56047],[116.56345,3.56047],[116.56345,3.5608],[116.56343,3.56111],[116.5634,3.56145],[116.56337,3.56184],[116.56335,3.56227],[116.56341,3.56276],[116.56337,3.5632],[116.56356,3.56375],[116.56374,3.56419],[116.5639,3.56456],[116.5641,3.56477],[116.56432,3.565],[116.56463,3.56515],[116.56497,3.56533],[116.56533,3.5657],[116.56545,3.56599],[116.56558,3.56632],[116.56557,3.56655],[116.56549,3.5668],[116.56543,3.56699],[116.56539,3.56734],[116.56539,3.56734],[116.56563,3.56745],[116.56593,3.56753],[116.56593,3.56753],[116.56628,3.56749],[116.56652,3.56747],[116.56673,3.5674],[116.56695,3.56739],[116.56695,3.56739],[116.56736,3.56767],[116.56801,3.56784],[116.56836,3.56811],[116.56862,3.56832],[116.56897,3.56833],[116.56897,3.56833],[116.56908,3.56828],[116.56908,3.56828],[116.56935,3.56828],[116.56961,3.56829],[116.57013,3.56833],[116.57074,3.56846],[116.57074,3.56846],[116.57124,3.56844],[116.57197,3.56834],[116.57263,3.56812],[116.573,3.56801],[116.57312,3.568],[116.57312,3.568],[116.5736,3.56809],[116.57379,3.56811],[116.57402,3.56812],[116.57422,3.56813],[116.57437,3.56817],[116.57451,3.5682],[116.57476,3.56825],[116.57519,3.5683],[116.57563,3.56831],[116.57592,3.56836],[116.57625,3.56842],[116.57625,3.56842],[116.57651,3.56842],[116.57676,3.56839],[116.57688,3.56833],[116.57717,3.5681],[116.57743,3.56801],[116.57778,3.568],[116.57778,3.568],[116.57814,3.56802],[116.57852,3.56804],[116.57852,3.56804],[116.57901,3.56804],[116.57926,3.56799],[116.5796,3.56787],[116.57984,3.56774],[116.57984,3.56774],[116.58002,3.56774],[116.58025,3.56784],[116.58039,3.56795],[116.5806,3.56799],[116.5806,3.56799],[116.58075,3.56791],[116.58106,3.56777],[116.58145,3.56761],[116.5818,3.56751],[116.58202,3.56747],[116.58202,3.56747],[116.58248,3.56759],[116.58296,3.56777],[116.58353,3.56833],[116.58612,3.56854],[116.5903,3.56871],[116.59377,3.56871],[116.59688,3.56867],[116.59975,3.5684],[116.60211,3.56806],[116.60213,3.56708],[116.60218,3.56606],[116.60348,3.56616],[116.60405,3.56616],[116.60406,3.56623],[116.60452,3.5662],[116.60466,3.56616],[116.60476,3.56617],[116.60498,3.56616],[116.60526,3.56615],[116.60567,3.56596],[116.606,3.56577],[116.60651,3.56544],[116.60659,3.56542],[116.60735,3.5659],[116.60765,3.56614],[116.60785,3.56649]]]]},"properties":{"kdprov":"65","kdkab":"01","kdkec":"150","kddesa":"006","kdsls":"0007","idsls":"65011500060007","nmprov":"KALIMANTAN UTARA","nmkab":"MALINAU","nmkec":"MALINAU KOTA","nmdesa":"MALINAU HULU","nmsls":"RT 007"}},{"type":"Feature","geometry":{"type":"MultiPolygon","coordinates":[[[[116.61409,3.57743],[116.61397,3.57717],[116.61374,3.57661],[116.61365,3.57629],[116.61362,3.57598],[116.61359,3.57595],[116.61359,3.57565],[116.61363,3.57532],[116.61343,3.57529],[116.61345,3.57507],[116.61348,3.57493],[116.61371,3.57435],[116.6136,3.5743],[116.61347,3.57426],[116.61328,3.57428],[116.61256,3.57438],[116.61266,3.57461],[116.61273,3.57486],[116.61274,3.57497],[116.6127,3.57513],[116.61286,3.57516],[116.61266,3.57603],[116.61278,3.57603],[116.61278,3.57638],[116.61285,3.57662],[116.61295,3.57692],[116.613,3.57694],[116.61326,3.57754],[116.61338,3.57749],[116.61355,3.5783],[116.61409,3.57743]]]]},"properties":{"kdprov":"65","kdkab":"01","kdkec":"150","kddesa":"005","kdsls":"0003","idsls":"65011500050003","nmprov":"KALIMANTAN UTARA","nmkab":"MALINAU","nmkec":"MALINAU KOTA","nmdesa":"PELITA KANAAN","nmsls":"RT 03"}},{"type":"Feature","geometry":{"type":"MultiPolygon","coordinates":[[[[116.61154,3.55975],[116.61366,3.55963],[116.61368,3.55963],[116.6165,3.55632],[116.61127,3.55803],[116.60836,3.55666],[116.60794,3.55641],[116.60785,3.55638],[116.60757,3.55625],[116.60757,3.55618],[116.60689,3.55593],[116.60709,3.55464],[116.60724,3.55337],[116.60734,3.55233],[116.60738,3.55138],[116.60619,3.55141],[116.60533,3.5517],[116.60435,3.55205],[116.60337,3.55245],[116.60239,3.55303],[116.60139,3.55385],[116.60156,3.55515],[116.60167,3.55565],[116.60168,3.55566],[116.60283,3.55625],[116.60366,3.55653],[116.60396,3.55662],[116.60502,3.55691],[116.60584,3.5571],[116.60659,3.55727],[116.60633,3.55825],[116.60612,3.5587],[116.60556,3.55954],[116.60591,3.55973],[116.60602,3.55979],[116.60663,3.56005],[116.6089,3.56094],[116.61071,3.5597],[116.61154,3.55975]]]]},"properties":{"kdprov":"65","kdkab":"01","kdkec":"150","kddesa":"006","kdsls":"0004","idsls":"65011500060004","nmprov":"KALIMANTAN UTARA","nmkab":"MALINAU","nmkec":"MALINAU KOTA","nmdesa":"MALINAU HULU","nmsls":"RT 004"}},{"type":"Feature","geometry":{"type":"MultiPolygon","coordinates":[[[[116.62778,3.59029],[116.62802,3.58943],[116.62817,3.58887],[116.62797,3.58874],[116.62792,3.58814],[116.62781,3.58818],[116.62769,3.5882],[116.62749,3.58819],[116.62738,3.58826],[116.62708,3.58829],[116.62682,3.58831],[116.62672,3.58832],[116.62664,3.58828],[116.6265,3.58824],[116.6262,3.58824],[116.6259,3.58832],[116.62577,3.58841],[116.62557,3.58861],[116.62536,3.58886],[116.62518,3.58908],[116.62507,3.58924],[116.62502,3.58936],[116.62519,3.58947],[116.62529,3.58955],[116.62543,3.58966],[116.62552,3.58973],[116.62561,3.58979],[116.62594,3.58991],[116.62649,3.59007],[116.62681,3.59015],[116.62691,3.59016],[116.6274,3.59019],[116.62753,3.59021],[116.62765,3.59023],[116.62778,3.59029]]]]},"properties":{"kdprov":"65","kdkab":"01","kdkec":"150","kddesa":"004","kdsls":"0015","idsls":"65011500040015","nmprov":"KALIMANTAN UTARA","nmkab":"MALINAU","nmkec":"MALINAU KOTA","nmdesa":"MALINAU KOTA","nmsls":"RT 015"}},{"type":"Feature","geometry":{"type":"MultiPolygon","coordinates":[[[[116.60803,3.56284],[116.61154,3.55975],[116.61071,3.5597],[116.6089,3.56094],[116.60663,3.56005],[116.60602,3.55979],[116.60591,3.55973],[116.60556,3.55954],[116.60612,3.5587],[116.60633,3.55825],[116.60659,3.55727],[116.60584,3.5571],[116.60502,3.55691],[116.60396,3.55662],[116.60366,3.55653],[116.60283,3.55625],[116.60168,3.55566],[116.60167,3.55565],[116.60183,3.5564],[116.60203,3.55744],[116.60224,3.55918],[116.60227,3.56021],[116.60227,3.56063],[116.60226,3.56124],[116.60346,3.56172],[116.60464,3.56219],[116.60508,3.56239],[116.60538,3.56249],[116.60571,3.56264],[116.60603,3.56265],[116.60614,3.56265],[116.60619,3.56284],[116.60687,3.56283],[116.60803,3.56284],[116.60803,3.56284]]]]},"properties":{"kdprov":"65","kdkab":"01","kdkec":"150","kddesa":"006","kdsls":"0005","idsls":"65011500060005","nmprov":"KALIMANTAN UTARA","nmkab":"MALINAU","nmkec":"MALINAU KOTA","nmdesa":"MALINAU HULU","nmsls":"RT 005"}},{"type":"Feature","geometry":{"type":"MultiPolygon","coordinates":[[[[116.62077,3.58779],[116.62022,3.58714],[116.61987,3.5867],[116.61969,3.5865],[116.619,3.58709],[116.61788,3.58785],[116.61797,3.58826],[116.6184,3.589],[116.61873,3.58936],[116.61906,3.58973],[116.61906,3.58974],[116.61986,3.58883],[116.62032,3.58833],[116.62055,3.58802],[116.62077,3.58779]]]]},"properties":{"kdprov":"65","kdkab":"01","kdkec":"150","kddesa":"004","kdsls":"0010","idsls":"65011500040010","nmprov":"KALIMANTAN UTARA","nmkab":"MALINAU","nmkec":"MALINAU KOTA","nmdesa":"MALINAU KOTA","nmsls":"RT 010"}},{"type":"Feature","geometry":{"type":"MultiPolygon","coordinates":[[[[116.60803,3.56284],[116.60803,3.56284],[116.60687,3.56283],[116.60619,3.56284],[116.60614,3.56265],[116.60603,3.56265],[116.60571,3.56264],[116.60538,3.56249],[116.60508,3.56239],[116.60464,3.56219],[116.60346,3.56172],[116.60226,3.56124],[116.60227,3.56063],[116.60227,3.56021],[116.60224,3.55918],[116.60203,3.55744],[116.60183,3.5564],[116.60167,3.55565],[116.60156,3.55515],[116.60139,3.55385],[116.6011,3.55412],[116.60055,3.55454],[116.59859,3.55564],[116.5963,3.55686],[116.59461,3.5574],[116.59306,3.55774],[116.59152,3.55759],[116.59048,3.55786],[116.58748,3.55707],[116.58468,3.55707],[116.58136,3.55431],[116.57914,3.55405],[116.57788,3.55392],[116.57539,3.55365],[116.57694,3.55494],[116.58011,3.55663],[116.58338,3.55777],[116.5879,3.55869],[116.59145,3.55926],[116.59485,3.55963],[116.59868,3.56019],[116.5999,3.56054],[116.60056,3.56123],[116.6011,3.56141],[116.6014,3.5615],[116.60141,3.56151],[116.60236,3.56362],[116.60299,3.56375],[116.60378,3.56394],[116.60379,3.56399],[116.60395,3.56401],[116.60421,3.56406],[116.60437,3.5641],[116.60458,3.56416],[116.60477,3.56426],[116.60514,3.56436],[116.60564,3.56451],[116.60592,3.5647],[116.60803,3.56284]]]]},"properties":{"kdprov":"65","kdkab":"01","kdkec":"150","kddesa":"006","kdsls":"0006","idsls":"65011500060006","nmprov":"KALIMANTAN UTARA","nmkab":"MALINAU","nmkec":"MALINAU KOTA","nmdesa":"MALINAU HULU","nmsls":"RT 006"}},{"type":"Feature","geometry":{"type":"MultiPolygon","coordinates":[[[[116.61225,3.549],[116.6124,3.54849],[116.61236,3.54717],[116.61231,3.54628],[116.61215,3.54572],[116.61206,3.54516],[116.61194,3.54466],[116.61194,3.54437],[116.61196,3.54432],[116.61198,3.54417],[116.61209,3.54391],[116.61227,3.54347],[116.61117,3.54338],[116.61026,3.54331],[116.61003,3.54329],[116.60971,3.54596],[116.60971,3.54597],[116.60971,3.54597],[116.60971,3.54597],[116.60969,3.54597],[116.60488,3.54613],[116.6,3.54607],[116.60087,3.54709],[116.60146,3.54758],[116.60204,3.54799],[116.60303,3.54817],[116.60389,3.5479],[116.6047,3.54763],[116.60537,3.54749],[116.60582,3.54781],[116.60614,3.54821],[116.60658,3.54812],[116.60717,3.54794],[116.60771,3.54808],[116.60936,3.54885],[116.61054,3.54895],[116.61156,3.54914],[116.61173,3.54895],[116.61211,3.54901],[116.61225,3.549]]]]},"properties":{"kdprov":"65","kdkab":"01","kdkec":"150","kddesa":"006","kdsls":"0001","idsls":"65011500060001","nmprov":"KALIMANTAN UTARA","nmkab":"MALINAU","nmkec":"MALINAU KOTA","nmdesa":"MALINAU HULU","nmsls":"RT 001"}},{"type":"Feature","geometry":{"type":"MultiPolygon","coordinates":[[[[116.61085,3.57387],[116.6106,3.57396],[116.61043,3.57404],[116.61037,3.57409],[116.61033,3.57415],[116.61012,3.5744],[116.60991,3.57474],[116.60986,3.5748],[116.60986,3.57481],[116.60973,3.57498],[116.61,3.57523],[116.61001,3.57529],[116.61046,3.57614],[116.61039,3.57622],[116.60893,3.57783],[116.60887,3.57795],[116.60863,3.57815],[116.6086,3.57818],[116.61005,3.57831],[116.61119,3.57865],[116.61191,3.57735],[116.61178,3.57711],[116.61156,3.57662],[116.61159,3.5765],[116.61159,3.57641],[116.61147,3.57619],[116.61145,3.57597],[116.61157,3.5758],[116.61159,3.57568],[116.61147,3.57563],[116.6115,3.57543],[116.61155,3.57527],[116.61159,3.57525],[116.61168,3.57484],[116.61171,3.57473],[116.61167,3.57467],[116.61165,3.57461],[116.61169,3.57452],[116.61165,3.57445],[116.61163,3.5744],[116.61156,3.57438],[116.61159,3.57432],[116.61169,3.57426],[116.61169,3.57421],[116.61162,3.57416],[116.61159,3.57405],[116.61097,3.57417],[116.61085,3.57387]]]]},"properties":{"kdprov":"65","kdkab":"01","kdkec":"150","kddesa":"005","kdsls":"0007","idsls":"65011500050007","nmprov":"KALIMANTAN UTARA","nmkab":"MALINAU","nmkec":"MALINAU KOTA","nmdesa":"PELITA KANAAN","nmsls":"RT 07"}},{"type":"Feature","geometry":{"type":"MultiPolygon","coordinates":[[[[116.62656,3.59472],[116.62689,3.59487],[116.62728,3.59434],[116.62749,3.59406],[116.62792,3.59348],[116.62827,3.59375],[116.62858,3.59336],[116.62887,3.59301],[116.62908,3.59278],[116.62923,3.59263],[116.62932,3.59254],[116.62935,3.59251],[116.62874,3.59198],[116.62902,3.59158],[116.62876,3.59138],[116.62872,3.59135],[116.62862,3.59127],[116.62827,3.59174],[116.62813,3.59193],[116.62812,3.59194],[116.62792,3.59213],[116.62776,3.5922],[116.62776,3.5922],[116.62768,3.59225],[116.62775,3.59231],[116.62776,3.59232],[116.6277,3.59241],[116.6276,3.59253],[116.62742,3.59239],[116.62708,3.59286],[116.62702,3.59289],[116.62643,3.59371],[116.6261,3.59416],[116.62592,3.59441],[116.62607,3.59449],[116.62656,3.59472]]]]},"properties":{"kdprov":"65","kdkab":"01","kdkec":"150","kddesa":"004","kdsls":"0002","idsls":"65011500040002","nmprov":"KALIMANTAN UTARA","nmkab":"MALINAU","nmkec":"MALINAU KOTA","nmdesa":"MALINAU KOTA","nmsls":"RT 002"}},{"type":"Feature","geometry":{"type":"MultiPolygon","coordinates":[[[[116.59475,3.55172],[116.59387,3.55314],[116.59296,3.5555],[116.59152,3.55759],[116.59306,3.55774],[116.59461,3.5574],[116.5963,3.55686],[116.59859,3.55564],[116.60055,3.55454],[116.6011,3.55412],[116.60139,3.55385],[116.60239,3.55303],[116.60337,3.55245],[116.60435,3.55205],[116.60533,3.5517],[116.60619,3.55141],[116.60738,3.55138],[116.60734,3.55233],[116.60724,3.55337],[116.60709,3.55464],[116.60689,3.55593],[116.60757,3.55618],[116.60757,3.55625],[116.60785,3.55638],[116.60794,3.55641],[116.60836,3.55666],[116.61127,3.55803],[116.6165,3.55632],[116.6203,3.55184],[116.62045,3.55167],[116.6202,3.55138],[116.62029,3.55122],[116.62102,3.5502],[116.62112,3.55008],[116.62127,3.54991],[116.62135,3.54983],[116.62146,3.54984],[116.62155,3.54985],[116.62167,3.54979],[116.62172,3.54959],[116.62173,3.54931],[116.62165,3.54897],[116.62153,3.54853],[116.62128,3.54782],[116.62094,3.54695],[116.62055,3.54727],[116.62012,3.54761],[116.61942,3.54793],[116.61908,3.54813],[116.61849,3.54865],[116.61819,3.54888],[116.61816,3.54895],[116.61813,3.54905],[116.61811,3.54915],[116.61812,3.54929],[116.61817,3.54953],[116.6182,3.54978],[116.61822,3.5501],[116.61824,3.55075],[116.61829,3.55113],[116.61832,3.55153],[116.61834,3.55183],[116.61831,3.55219],[116.6183,3.55234],[116.6182,3.55245],[116.61808,3.55253],[116.61782,3.55263],[116.61753,3.55273],[116.61718,3.55289],[116.6167,3.55318],[116.61649,3.55333],[116.61622,3.55346],[116.61597,3.55358],[116.61583,3.55363],[116.61562,3.55366],[116.61541,3.55368],[116.615,3.55368],[116.61462,3.55364],[116.61439,3.55362],[116.61425,3.5536],[116.61413,3.55361],[116.61394,3.55364],[116.61357,3.55377],[116.61345,3.55381],[116.61323,3.55387],[116.61307,3.55388],[116.61296,3.55386],[116.61238,3.55341],[116.612,3.55325],[116.61171,3.55319],[116.6109,3.5531],[116.60998,3.55255],[116.60982,3.55276],[116.60937,3.55248],[116.60916,3.55239],[116.60904,3.55239],[116.60882,3.55248],[116.60868,3.55253],[116.60855,3.5524],[116.60846,3.55231],[116.60846,3.55219],[116.60854,3.55201],[116.60852,3.5519],[116.60738,3.55094],[116.60692,3.55069],[116.60647,3.55035],[116.60578,3.54967],[116.60506,3.54999],[116.60472,3.54997],[116.60445,3.54961],[116.60407,3.54913],[116.60368,3.54918],[116.60308,3.54963],[116.60245,3.55019],[116.60191,3.55046],[116.60125,3.55024],[116.60053,3.55012],[116.59997,3.5503],[116.59923,3.55037],[116.5988,3.55071],[116.59856,3.55091],[116.59835,3.5512],[116.59788,3.5515],[116.5975,3.55172],[116.5973,3.55204],[116.59689,3.55228],[116.59658,3.55235],[116.59622,3.55219],[116.59568,3.55199],[116.59516,3.55177],[116.59475,3.55172]]]]},"properties":{"kdprov":"65","kdkab":"01","kdkec":"150","kddesa":"006","kdsls":"0003","idsls":"65011500060003","nmprov":"KALIMANTAN UTARA","nmkab":"MALINAU","nmkec":"MALINAU KOTA","nmdesa":"MALINAU HULU","nmsls":"RT 003"}},{"type":"Feature","geometry":{"type":"MultiPolygon","coordinates":[[[[116.628,3.59042],[116.6278,3.5903],[116.62765,3.59023],[116.62753,3.59021],[116.6274,3.59019],[116.62691,3.59016],[116.62681,3.59015],[116.62649,3.59007],[116.62594,3.58991],[116.62561,3.58979],[116.62544,3.59045],[116.62539,3.59068],[116.62537,3.59081],[116.62537,3.59088],[116.62507,3.59098],[116.62486,3.59131],[116.62428,3.59221],[116.6236,3.59318],[116.62443,3.59368],[116.62454,3.59375],[116.62476,3.59343],[116.62572,3.59204],[116.62577,3.59197],[116.62588,3.59203],[116.62622,3.59154],[116.62646,3.59171],[116.62679,3.59127],[116.62696,3.5912],[116.62726,3.59108],[116.62755,3.59089],[116.62779,3.59071],[116.62791,3.59058],[116.62796,3.59046],[116.628,3.59042]]]]},"properties":{"kdprov":"65","kdkab":"01","kdkec":"150","kddesa":"004","kdsls":"0004","idsls":"65011500040004","nmprov":"KALIMANTAN UTARA","nmkab":"MALINAU","nmkec":"MALINAU KOTA","nmdesa":"MALINAU KOTA","nmsls":"RT 004"}},{"type":"Feature","geometry":{"type":"MultiPolygon","coordinates":[[[[116.62886,3.59092],[116.62875,3.59084],[116.62859,3.59074],[116.62846,3.59066],[116.62829,3.59059],[116.62813,3.59051],[116.628,3.59042],[116.62796,3.59046],[116.62791,3.59058],[116.62779,3.59071],[116.62755,3.59089],[116.62726,3.59108],[116.62696,3.5912],[116.62679,3.59127],[116.62646,3.59171],[116.62622,3.59154],[116.62588,3.59203],[116.62577,3.59197],[116.62572,3.59204],[116.62476,3.59343],[116.62454,3.59375],[116.62465,3.59381],[116.62482,3.59391],[116.62538,3.59417],[116.62592,3.59441],[116.6261,3.59416],[116.62643,3.59371],[116.62702,3.59289],[116.62708,3.59286],[116.62742,3.59239],[116.6276,3.59253],[116.6277,3.59241],[116.62776,3.59232],[116.62775,3.59231],[116.62768,3.59225],[116.62776,3.5922],[116.62776,3.5922],[116.62792,3.59213],[116.62812,3.59194],[116.62813,3.59193],[116.62827,3.59174],[116.62862,3.59127],[116.62878,3.59103],[116.62882,3.59098],[116.62886,3.59092]]]]},"properties":{"kdprov":"65","kdkab":"01","kdkec":"150","kddesa":"004","kdsls":"0003","idsls":"65011500040003","nmprov":"KALIMANTAN UTARA","nmkab":"MALINAU","nmkec":"MALINAU KOTA","nmdesa":"MALINAU KOTA","nmsls":"RT 003"}},{"type":"Feature","geometry":{"type":"MultiPolygon","coordinates":[[[[116.63079,3.59358],[116.63079,3.59358],[116.63087,3.59349],[116.63122,3.5931],[116.63131,3.59317],[116.63137,3.59321],[116.6317,3.59274],[116.63163,3.59265],[116.63204,3.59196],[116.63235,3.59143],[116.63239,3.5914],[116.63239,3.59139],[116.6324,3.59139],[116.63419,3.59004],[116.63458,3.58934],[116.63452,3.58902],[116.63511,3.58802],[116.63817,3.58572],[116.63817,3.58572],[116.63762,3.58505],[116.63709,3.58446],[116.63704,3.58442],[116.63649,3.58393],[116.63607,3.58358],[116.63562,3.58319],[116.63525,3.58285],[116.63509,3.58272],[116.63419,3.58341],[116.63357,3.58385],[116.63298,3.58434],[116.63204,3.58507],[116.63063,3.5862],[116.62978,3.58686],[116.62939,3.58718],[116.62907,3.58745],[116.62901,3.58752],[116.62927,3.58768],[116.62952,3.58785],[116.62985,3.58804],[116.63013,3.58813],[116.63048,3.58826],[116.62962,3.58919],[116.62927,3.58985],[116.62914,3.59002],[116.62944,3.59029],[116.62913,3.59062],[116.62894,3.59087],[116.62886,3.59092],[116.62882,3.59098],[116.62878,3.59103],[116.62862,3.59127],[116.62872,3.59135],[116.62876,3.59138],[116.62902,3.59158],[116.62874,3.59198],[116.62935,3.59251],[116.62932,3.59254],[116.62923,3.59263],[116.62916,3.5927],[116.62917,3.59271],[116.62935,3.59283],[116.62964,3.59301],[116.62988,3.59316],[116.62993,3.59319],[116.63064,3.59364],[116.63068,3.5937],[116.63079,3.59358]]]]},"properties":{"kdprov":"65","kdkab":"01","kdkec":"150","kddesa":"004","kdsls":"0016","idsls":"65011500040016","nmprov":"KALIMANTAN UTARA","nmkab":"MALINAU","nmkec":"MALINAU KOTA","nmdesa":"MALINAU KOTA","nmsls":"RT 016"}},{"type":"Feature","geometry":{"type":"MultiPolygon","coordinates":[[[[116.63746,3.59252],[116.63813,3.59294],[116.63885,3.59316],[116.64029,3.59353],[116.64035,3.59353],[116.64054,3.59226],[116.64164,3.5928],[116.64215,3.59344],[116.64223,3.59419],[116.64272,3.59563],[116.64304,3.59633],[116.64315,3.5964],[116.64318,3.59635],[116.64518,3.59553],[116.64402,3.59303],[116.64242,3.59061],[116.64235,3.59058],[116.64219,3.59021],[116.6411,3.58854],[116.64108,3.58847],[116.64108,3.58819],[116.64106,3.58779],[116.64105,3.58751],[116.64106,3.58733],[116.64107,3.5872],[116.64117,3.58691],[116.64149,3.58598],[116.64172,3.58531],[116.64199,3.58452],[116.6421,3.58387],[116.64214,3.58319],[116.64214,3.58244],[116.64202,3.58185],[116.64187,3.58134],[116.6418,3.58099],[116.64178,3.5806],[116.64182,3.58007],[116.64189,3.57916],[116.64204,3.57816],[116.64209,3.57779],[116.64198,3.57668],[116.64201,3.57643],[116.64201,3.5764],[116.63644,3.5811],[116.63608,3.58139],[116.63586,3.58178],[116.63525,3.58285],[116.63562,3.58319],[116.63607,3.58358],[116.63649,3.58393],[116.63704,3.58442],[116.63709,3.58446],[116.63762,3.58505],[116.63817,3.58572],[116.63817,3.58572],[116.63832,3.58589],[116.63897,3.58663],[116.63914,3.5869],[116.63967,3.58745],[116.64,3.5878],[116.64012,3.58797],[116.64081,3.58914],[116.64027,3.58964],[116.63828,3.59118],[116.63746,3.59252]]]]},"properties":{"kdprov":"65","kdkab":"01","kdkec":"150","kddesa":"004","kdsls":"0019","idsls":"65011500040019","nmprov":"KALIMANTAN UTARA","nmkab":"MALINAU","nmkec":"MALINAU KOTA","nmdesa":"MALINAU KOTA","nmsls":"RT 019"}},{"type":"Feature","geometry":{"type":"MultiPolygon","coordinates":[[[[116.63298,3.59414],[116.63491,3.59498],[116.63494,3.59498],[116.63512,3.59435],[116.6352,3.59409],[116.63521,3.59398],[116.63526,3.59387],[116.63534,3.59369],[116.63562,3.59329],[116.63596,3.59276],[116.63656,3.59181],[116.63658,3.59174],[116.63538,3.59077],[116.63456,3.5901],[116.63455,3.59011],[116.63416,3.59107],[116.63381,3.59195],[116.63326,3.59344],[116.63301,3.59408],[116.63298,3.59414]]]]},"properties":{"kdprov":"65","kdkab":"01","kdkec":"150","kddesa":"004","kdsls":"0018","idsls":"65011500040018","nmprov":"KALIMANTAN UTARA","nmkab":"MALINAU","nmkec":"MALINAU KOTA","nmdesa":"MALINAU KOTA","nmsls":"RT 018"}},{"type":"Feature","geometry":{"type":"MultiPolygon","coordinates":[[[[116.65415,3.57532],[116.65416,3.57533],[116.65374,3.57564],[116.65339,3.57591],[116.65322,3.57608],[116.65293,3.5762],[116.6527,3.57627],[116.65258,3.57629],[116.65255,3.5762],[116.65252,3.57609],[116.65246,3.57593],[116.65235,3.5759],[116.65232,3.57593],[116.65223,3.576],[116.65205,3.57606],[116.65185,3.57589],[116.65183,3.57582],[116.65182,3.57566],[116.65177,3.57548],[116.65164,3.5749],[116.6514,3.57455],[116.65124,3.57432],[116.65108,3.57409],[116.65032,3.57397],[116.64521,3.57315],[116.64432,3.57417],[116.64406,3.57428],[116.64312,3.57415],[116.64277,3.57422],[116.64259,3.57428],[116.64211,3.57559],[116.64209,3.5758],[116.64208,3.57581],[116.64201,3.5764],[116.64201,3.57643],[116.64198,3.57668],[116.64209,3.57779],[116.64204,3.57816],[116.64189,3.57916],[116.64182,3.58007],[116.64178,3.5806],[116.64238,3.5806],[116.64293,3.5806],[116.64316,3.58074],[116.6435,3.58095],[116.64376,3.5815],[116.64436,3.58153],[116.64503,3.58156],[116.64536,3.58148],[116.64615,3.5813],[116.6467,3.58126],[116.64681,3.58125],[116.64698,3.58124],[116.64712,3.58123],[116.64712,3.58123],[116.64741,3.58121],[116.64934,3.5814],[116.64927,3.58127],[116.64961,3.58108],[116.65043,3.58069],[116.65166,3.58011],[116.65252,3.5797],[116.65283,3.5794],[116.65324,3.57897],[116.65389,3.5783],[116.65394,3.57824],[116.65431,3.57786],[116.65448,3.57767],[116.65472,3.57745],[116.65509,3.57715],[116.65569,3.57664],[116.65532,3.57539],[116.65492,3.57535],[116.65415,3.57532]]]]},"properties":{"kdprov":"65","kdkab":"01","kdkec":"150","kddesa":"003","kdsls":"0004","idsls":"65011500030004","nmprov":"KALIMANTAN UTARA","nmkab":"MALINAU","nmkec":"MALINAU KOTA","nmdesa":"MALINAU HILIR","nmsls":"RT 04"}},{"type":"Feature","geometry":{"type":"MultiPolygon","coordinates":[[[[116.60853,3.56825],[116.6086,3.56837],[116.609,3.5687],[116.60932,3.56896],[116.60989,3.56942],[116.61018,3.56957],[116.61038,3.56961],[116.6108,3.56979],[116.61107,3.57001],[116.61231,3.5696],[116.61264,3.56967],[116.61275,3.56969],[116.61297,3.56973],[116.61309,3.56973],[116.61336,3.56979],[116.61357,3.5698],[116.61366,3.56983],[116.61396,3.56991],[116.61425,3.56997],[116.61433,3.56997],[116.61464,3.56957],[116.61472,3.56944],[116.61459,3.56916],[116.61458,3.56881],[116.61457,3.56838],[116.61709,3.56832],[116.61721,3.56805],[116.61734,3.56777],[116.61834,3.56728],[116.61868,3.56695],[116.62875,3.55728],[116.62984,3.55655],[116.63017,3.55632],[116.63028,3.55628],[116.63081,3.55608],[116.63127,3.55626],[116.63194,3.55598],[116.6325,3.55555],[116.63342,3.55531],[116.63391,3.55531],[116.63395,3.55528],[116.63445,3.55478],[116.63491,3.55418],[116.63483,3.55354],[116.63486,3.55244],[116.63459,3.55137],[116.63421,3.55109],[116.63418,3.55026],[116.63382,3.54993],[116.6341,3.54972],[116.63456,3.54942],[116.63441,3.54891],[116.63349,3.54871],[116.63309,3.54786],[116.63329,3.54722],[116.63261,3.54626],[116.63253,3.54615],[116.63191,3.54676],[116.63137,3.54725],[116.63076,3.5478],[116.6295,3.54901],[116.62832,3.55015],[116.62708,3.55133],[116.62609,3.55231],[116.62591,3.55237],[116.62503,3.55312],[116.62334,3.55477],[116.62161,3.55635],[116.62056,3.55735],[116.61741,3.56032],[116.61585,3.56179],[116.61314,3.56436],[116.61097,3.56645],[116.61048,3.56688],[116.6103,3.567],[116.60997,3.56724],[116.60945,3.56761],[116.60876,3.5681],[116.60853,3.56825]]]]},"properties":{"kdprov":"65","kdkab":"01","kdkec":"150","kddesa":"006","kdsls":"0010","idsls":"65011500060010","nmprov":"KALIMANTAN UTARA","nmkab":"MALINAU","nmkec":"MALINAU KOTA","nmdesa":"MALINAU HULU","nmsls":"RT 010"}},{"type":"Feature","geometry":{"type":"MultiPolygon","coordinates":[[[[116.65236,3.56762],[116.65215,3.56794],[116.65111,3.56954],[116.65183,3.57],[116.65189,3.56986],[116.65201,3.56969],[116.6522,3.56944],[116.65256,3.56893],[116.65289,3.5684],[116.65315,3.56854],[116.65335,3.56809],[116.65341,3.56796],[116.65369,3.56811],[116.65386,3.56782],[116.65399,3.56762],[116.65409,3.56746],[116.65413,3.56705],[116.65413,3.567],[116.65392,3.56697],[116.65373,3.56695],[116.65357,3.56696],[116.65312,3.56777],[116.65236,3.56762]]]]},"properties":{"kdprov":"65","kdkab":"01","kdkec":"150","kddesa":"002","kdsls":"0004","idsls":"65011500020004","nmprov":"KALIMANTAN UTARA","nmkab":"MALINAU","nmkec":"MALINAU KOTA","nmdesa":"TANJUNG KERANJANG","nmsls":"RT 04"}},{"type":"Feature","geometry":{"type":"MultiPolygon","coordinates":[[[[116.67944,3.63216],[116.68115,3.6319],[116.68261,3.63162],[116.68425,3.63135],[116.68512,3.6315],[116.68585,3.63162],[116.68736,3.63185],[116.68841,3.63199],[116.68992,3.63167],[116.69024,3.63157],[116.6912,3.63126],[116.69138,3.63118],[116.69243,3.63075],[116.69348,3.6303],[116.69462,3.62943],[116.69581,3.62842],[116.69634,3.62772],[116.69695,3.62647],[116.69705,3.62623],[116.69749,3.62476],[116.69759,3.62413],[116.69737,3.62267],[116.69709,3.62116],[116.69641,3.61933],[116.69536,3.61764],[116.6943,3.61632],[116.69371,3.61499],[116.69303,3.61371],[116.69321,3.61166],[116.69348,3.60992],[116.69408,3.60873],[116.69494,3.60741],[116.69613,3.60686],[116.69755,3.60659],[116.69933,3.60595],[116.70257,3.60535],[116.70477,3.60535],[116.70691,3.60558],[116.70915,3.60654],[116.71121,3.60782],[116.71313,3.60965],[116.715,3.6117],[116.71687,3.61335],[116.71879,3.61458],[116.72039,3.61572],[116.72208,3.61645],[116.72327,3.61705],[116.72515,3.61735],[116.72498,3.61702],[116.72479,3.61657],[116.72444,3.61574],[116.72249,3.61119],[116.72196,3.60995],[116.72082,3.60705],[116.71778,3.59855],[116.71579,3.59432],[116.71502,3.59236],[116.71403,3.59057],[116.71159,3.58539],[116.70655,3.57495],[116.70594,3.57348],[116.70528,3.57233],[116.70427,3.57023],[116.70368,3.57019],[116.70078,3.56993],[116.69956,3.57003],[116.69447,3.57045],[116.68961,3.56834],[116.67054,3.56824],[116.66825,3.56816],[116.66712,3.56827],[116.66541,3.56827],[116.66428,3.56763],[116.6637,3.56708],[116.66249,3.56694],[116.66135,3.56692],[116.66131,3.5674],[116.66131,3.56745],[116.66237,3.56843],[116.66353,3.56993],[116.66428,3.57155],[116.664,3.57237],[116.66252,3.57284],[116.66062,3.57168],[116.66055,3.5717],[116.65997,3.57186],[116.65951,3.57231],[116.65884,3.57274],[116.65838,3.57251],[116.65794,3.57258],[116.65733,3.57266],[116.65687,3.57312],[116.65617,3.57326],[116.65584,3.57342],[116.65571,3.57319],[116.65441,3.57323],[116.65437,3.57323],[116.65412,3.57364],[116.65398,3.57389],[116.65387,3.57472],[116.65415,3.57532],[116.65492,3.57535],[116.65532,3.57539],[116.65569,3.57664],[116.65752,3.5797],[116.65784,3.58005],[116.65837,3.58082],[116.65924,3.58184],[116.65932,3.5821],[116.65957,3.58249],[116.65969,3.58263],[116.65974,3.58276],[116.65984,3.58287],[116.65991,3.58298],[116.66009,3.5831],[116.6602,3.58333],[116.66029,3.58343],[116.66047,3.58363],[116.66049,3.58378],[116.66059,3.58445],[116.66045,3.58635],[116.65948,3.59048],[116.65979,3.59036],[116.66036,3.5901],[116.66062,3.58996],[116.66341,3.58837],[116.66387,3.58831],[116.66476,3.58819],[116.66635,3.58791],[116.66761,3.58808],[116.66868,3.58814],[116.67031,3.58799],[116.67066,3.58832],[116.67136,3.58898],[116.67452,3.59196],[116.67562,3.59278],[116.67858,3.59499],[116.6788,3.59515],[116.67814,3.5989],[116.67562,3.60397],[116.67386,3.60761],[116.67035,3.60882],[116.6681,3.60898],[116.66574,3.60915],[116.66505,3.60995],[116.66506,3.60995],[116.6652,3.6101],[116.66543,3.61035],[116.66574,3.6107],[116.66592,3.61089],[116.66605,3.61104],[116.66634,3.6114],[116.66659,3.6116],[116.66662,3.61193],[116.66674,3.61221],[116.66678,3.61231],[116.66695,3.61269],[116.66714,3.61313],[116.66723,3.61355],[116.66734,3.614],[116.66746,3.61453],[116.66757,3.61502],[116.66764,3.61546],[116.66773,3.61604],[116.6678,3.61652],[116.66774,3.61694],[116.66765,3.61755],[116.66757,3.6181],[116.66755,3.61877],[116.66755,3.619],[116.66755,3.61923],[116.66754,3.61974],[116.66753,3.62028],[116.66751,3.62116],[116.6675,3.62156],[116.66762,3.62201],[116.66765,3.62213],[116.66767,3.62218],[116.66785,3.62262],[116.66813,3.6239],[116.66886,3.62559],[116.66926,3.6267],[116.66941,3.6271],[116.67041,3.62842],[116.67096,3.62924],[116.67114,3.62952],[116.67201,3.63053],[116.673,3.63123],[116.67311,3.6313],[116.67416,3.63212],[116.67498,3.63223],[116.67532,3.63227],[116.6763,3.6324],[116.67795,3.6324],[116.67869,3.63228],[116.67944,3.63216]]]]},"properties":{"kdprov":"65","kdkab":"01","kdkec":"150","kddesa":"003","kdsls":"2001","idsls":"65011500032001","nmprov":"KALIMANTAN UTARA","nmkab":"MALINAU","nmkec":"MALINAU KOTA","nmdesa":"MALINAU HILIR","nmsls":"HUTAN"}},{"type":"Feature","geometry":{"type":"MultiPolygon","coordinates":[[[[116.65196,3.54948],[116.65122,3.55207],[116.65112,3.55242],[116.6517,3.55266],[116.65189,3.55244],[116.65294,3.55277],[116.65311,3.55233],[116.65361,3.55082],[116.65298,3.55019],[116.65226,3.5496],[116.65196,3.54948]]]]},"properties":{"kdprov":"65","kdkab":"01","kdkec":"150","kddesa":"001","kdsls":"0001","idsls":"65011500010001","nmprov":"KALIMANTAN UTARA","nmkab":"MALINAU","nmkec":"MALINAU KOTA","nmdesa":"BATU LIDUNG","nmsls":"RT 001"}},{"type":"Feature","geometry":{"type":"MultiPolygon","coordinates":[[[[116.65035,3.56722],[116.65236,3.56762],[116.65312,3.56777],[116.65357,3.56696],[116.65347,3.56654],[116.65354,3.56624],[116.65362,3.56586],[116.65043,3.56635],[116.64857,3.56641],[116.64345,3.56463],[116.64343,3.56462],[116.64289,3.56531],[116.64416,3.56567],[116.64469,3.56589],[116.64553,3.56624],[116.64572,3.56637],[116.64644,3.56687],[116.64677,3.56708],[116.64752,3.56756],[116.64837,3.56807],[116.64883,3.56788],[116.64905,3.56778],[116.64979,3.56733],[116.65035,3.56722]]]]},"properties":{"kdprov":"65","kdkab":"01","kdkec":"150","kddesa":"001","kdsls":"0005","idsls":"65011500010005","nmprov":"KALIMANTAN UTARA","nmkab":"MALINAU","nmkec":"MALINAU KOTA","nmdesa":"BATU LIDUNG","nmsls":"RT 005 DUSUN KOLAM INDAH"}},{"type":"Feature","geometry":{"type":"MultiPolygon","coordinates":[[[[116.64957,3.55722],[116.64959,3.5572],[116.64984,3.55801],[116.65035,3.55791],[116.65035,3.55764],[116.65127,3.55617],[116.65167,3.5555],[116.65216,3.5547],[116.65239,3.55411],[116.65239,3.55411],[116.6524,3.55411],[116.65294,3.55277],[116.65189,3.55244],[116.6517,3.55266],[116.65112,3.55242],[116.65084,3.55347],[116.65083,3.55349],[116.65082,3.55348],[116.65033,3.55329],[116.65007,3.55322],[116.64973,3.55316],[116.64949,3.55312],[116.64901,3.5532],[116.6485,3.55335],[116.64807,3.55352],[116.64769,3.5537],[116.64786,3.55426],[116.64819,3.55485],[116.64849,3.55528],[116.64891,3.55572],[116.64916,3.55601],[116.64928,3.5563],[116.64943,3.55671],[116.64958,3.55719],[116.64957,3.55722]]]]},"properties":{"kdprov":"65","kdkab":"01","kdkec":"150","kddesa":"001","kdsls":"0002","idsls":"65011500010002","nmprov":"KALIMANTAN UTARA","nmkab":"MALINAU","nmkec":"MALINAU KOTA","nmdesa":"BATU LIDUNG","nmsls":"RT 002"}},{"type":"Feature","geometry":{"type":"MultiPolygon","coordinates":[[[[116.63914,3.5869],[116.63897,3.58663],[116.63832,3.58589],[116.63817,3.58572],[116.63511,3.58802],[116.63452,3.58902],[116.63458,3.58934],[116.63419,3.59004],[116.6324,3.59139],[116.63239,3.59139],[116.63239,3.5914],[116.63235,3.59143],[116.63204,3.59196],[116.63163,3.59265],[116.6317,3.59274],[116.63137,3.59321],[116.63131,3.59317],[116.63122,3.5931],[116.63087,3.59349],[116.63079,3.59358],[116.63079,3.59358],[116.63122,3.59396],[116.63249,3.59457],[116.63227,3.59498],[116.63209,3.59492],[116.63143,3.5964],[116.63144,3.5964],[116.63173,3.59647],[116.63231,3.59662],[116.63233,3.59662],[116.63237,3.59663],[116.63264,3.59598],[116.63293,3.59525],[116.63252,3.5951],[116.63275,3.59458],[116.63301,3.59408],[116.63326,3.59344],[116.63381,3.59195],[116.63416,3.59107],[116.63455,3.59011],[116.63514,3.58943],[116.63561,3.58969],[116.63914,3.5869]]]]},"properties":{"kdprov":"65","kdkab":"01","kdkec":"150","kddesa":"004","kdsls":"0017","idsls":"65011500040017","nmprov":"KALIMANTAN UTARA","nmkab":"MALINAU","nmkec":"MALINAU KOTA","nmdesa":"MALINAU KOTA","nmsls":"RT 017"}},{"type":"Feature","geometry":{"type":"MultiPolygon","coordinates":[[[[116.69276,3.54549],[116.69001,3.54136],[116.68535,3.5367],[116.68216,3.53388],[116.67799,3.53069],[116.67627,3.52726],[116.67431,3.52211],[116.67431,3.51843],[116.67441,3.5169],[116.67274,3.51965],[116.67052,3.52122],[116.67028,3.5212],[116.66824,3.52107],[116.66635,3.52095],[116.66192,3.52095],[116.65762,3.52095],[116.65295,3.52173],[116.65083,3.52185],[116.64922,3.52194],[116.647,3.52207],[116.64686,3.52208],[116.64669,3.52209],[116.6465,3.52207],[116.64624,3.52205],[116.64642,3.52244],[116.64675,3.5232],[116.64685,3.52387],[116.64685,3.52457],[116.64659,3.52494],[116.64635,3.52499],[116.64608,3.52493],[116.64572,3.52481],[116.64547,3.52467],[116.64523,3.52466],[116.64499,3.52475],[116.64484,3.52499],[116.64477,3.52526],[116.64472,3.52559],[116.64474,3.52596],[116.6449,3.52635],[116.64512,3.52684],[116.6453,3.52712],[116.64538,3.52738],[116.64529,3.52769],[116.64505,3.52788],[116.6447,3.52794],[116.64427,3.52788],[116.64362,3.52762],[116.64329,3.52744],[116.64305,3.52729],[116.64275,3.52717],[116.64245,3.52714],[116.64209,3.52743],[116.64181,3.52811],[116.64183,3.52864],[116.64189,3.52923],[116.642,3.53049],[116.64238,3.53305],[116.64245,3.53373],[116.64246,3.53435],[116.64247,3.5348],[116.6425,3.53511],[116.6426,3.53544],[116.64276,3.53566],[116.64316,3.53574],[116.6436,3.53562],[116.64406,3.53554],[116.64451,3.53547],[116.64494,3.53547],[116.64526,3.53562],[116.64552,3.53594],[116.64547,3.53619],[116.6452,3.53764],[116.64506,3.53852],[116.6449,3.53943],[116.64487,3.54061],[116.64486,3.54093],[116.64484,3.54148],[116.64499,3.54187],[116.64531,3.54229],[116.6456,3.54264],[116.64586,3.54302],[116.64599,3.54324],[116.64651,3.54338],[116.64741,3.54362],[116.64813,3.54371],[116.64861,3.54377],[116.64889,3.54391],[116.64904,3.5441],[116.6491,3.54438],[116.64898,3.54467],[116.64891,3.54495],[116.64885,3.54557],[116.64882,3.54606],[116.64881,3.54698],[116.64871,3.54778],[116.64863,3.54831],[116.6486,3.54893],[116.64857,3.54933],[116.64865,3.5496],[116.64899,3.54982],[116.64926,3.54976],[116.64973,3.54955],[116.65019,3.54941],[116.65069,3.5493],[116.65139,3.54923],[116.65177,3.5493],[116.65196,3.54948],[116.65226,3.5496],[116.65298,3.55019],[116.65361,3.55082],[116.65311,3.55233],[116.65294,3.55277],[116.6524,3.55411],[116.65239,3.55411],[116.65239,3.55411],[116.65216,3.5547],[116.65167,3.5555],[116.65127,3.55617],[116.65035,3.55764],[116.65035,3.55791],[116.65035,3.55874],[116.65112,3.55965],[116.65189,3.55955],[116.65271,3.55859],[116.65375,3.55742],[116.65501,3.55642],[116.65646,3.55587],[116.65696,3.55592],[116.65764,3.55669],[116.65841,3.55774],[116.65922,3.55833],[116.66053,3.55883],[116.66085,3.55929],[116.66012,3.55974],[116.65802,3.55987],[116.6561,3.5601],[116.65488,3.56065],[116.65488,3.56165],[116.65623,3.56273],[116.65749,3.56387],[116.65828,3.56342],[116.65955,3.56287],[116.661,3.5626],[116.66251,3.56232],[116.66337,3.56077],[116.66319,3.55926],[116.6621,3.55803],[116.66055,3.55734],[116.6601,3.55643],[116.66083,3.55556],[116.66119,3.55483],[116.66155,3.55419],[116.66283,3.55442],[116.66392,3.55524],[116.66483,3.55629],[116.66628,3.55684],[116.66751,3.55684],[116.66837,3.55611],[116.66838,3.55497],[116.66828,3.55424],[116.66838,3.55351],[116.66906,3.5525],[116.67033,3.55163],[116.68349,3.54867],[116.68683,3.54786],[116.68946,3.54722],[116.69151,3.54672],[116.69276,3.54549]]]]},"properties":{"kdprov":"65","kdkab":"01","kdkec":"150","kddesa":"001","kdsls":"2001","idsls":"65011500012001","nmprov":"KALIMANTAN UTARA","nmkab":"MALINAU","nmkec":"MALINAU KOTA","nmdesa":"BATU LIDUNG","nmsls":"HUTAN/RAWA"}}]}