{"type":"FeatureCollection","features":[{"type":"Feature","geometry":{"type":"MultiPolygon","coordinates":[[[[116.93651,2.82955],[116.93652,2.82955],[116.93656,2.82963],[116.93675,2.82975],[116.93732,2.83127],[116.93771,2.83119],[116.93848,2.83094],[116.93885,2.83081],[116.93913,2.83054],[116.93755,2.82838],[116.93549,2.82923],[116.93651,2.82955]]]]},"properties":{"kdprov":"65","kdkab":"02","kdkec":"020","kddesa":"002","kdsls":"0002","idsls":"65020200020002","nmprov":"KALIMANTAN UTARA","nmkab":"BULUNGAN","nmkec":"PESO HILIR","nmdesa":"LONG TELENJAU","nmsls":"RT 002"}},{"type":"Feature","geometry":{"type":"MultiPolygon","coordinates":[[[[116.9709,2.81804],[116.97132,2.81829],[116.97133,2.8183],[116.97218,2.81898],[116.97236,2.81837],[116.97262,2.8184],[116.97287,2.81819],[116.97209,2.81657],[116.97201,2.81665],[116.97156,2.81698],[116.97118,2.81781],[116.97118,2.81781],[116.9709,2.81804]]]]},"properties":{"kdprov":"65","kdkab":"02","kdkec":"020","kddesa":"003","kdsls":"0003","idsls":"65020200030003","nmprov":"KALIMANTAN UTARA","nmkab":"BULUNGAN","nmkec":"PESO HILIR","nmdesa":"LONG BANG HULU","nmsls":"RT 003"}},{"type":"Feature","geometry":{"type":"MultiPolygon","coordinates":[[[[116.97218,2.81898],[116.97133,2.8183],[116.97132,2.81829],[116.9709,2.81804],[116.97064,2.81825],[116.97012,2.81921],[116.97113,2.82018],[116.97208,2.81954],[116.97218,2.81898],[116.97218,2.81898]]]]},"properties":{"kdprov":"65","kdkab":"02","kdkec":"020","kddesa":"003","kdsls":"0004","idsls":"65020200030004","nmprov":"KALIMANTAN UTARA","nmkab":"BULUNGAN","nmkec":"PESO HILIR","nmdesa":"LONG BANG HULU","nmsls":"RT 004"}},{"type":"Feature","geometry":{"type":"MultiPolygon","coordinates":[[[[116.97872,2.81161],[116.97861,2.81149],[116.97827,2.81126],[116.97773,2.81173],[116.97698,2.81243],[116.97598,2.81346],[116.97596,2.81346],[116.97576,2.81373],[116.97554,2.81401],[116.97557,2.81401],[116.97578,2.81537],[116.97617,2.81554],[116.97657,2.81492],[116.97657,2.81492],[116.97726,2.81413],[116.97743,2.81397],[116.97744,2.81397],[116.97693,2.81367],[116.97717,2.8134],[116.97872,2.81161]]]]},"properties":{"kdprov":"65","kdkab":"02","kdkec":"020","kddesa":"004","kdsls":"0001","idsls":"65020200040001","nmprov":"KALIMANTAN UTARA","nmkab":"BULUNGAN","nmkec":"PESO HILIR","nmdesa":"LONG BANG","nmsls":"RT 001"}},{"type":"Feature","geometry":{"type":"MultiPolygon","coordinates":[[[[116.97872,2.81161],[116.97717,2.8134],[116.97693,2.81367],[116.97744,2.81397],[116.97743,2.81397],[116.97726,2.81413],[116.97657,2.81492],[116.97762,2.81465],[116.97784,2.81433],[116.97883,2.81319],[116.97913,2.81256],[116.97915,2.81212],[116.97898,2.8119],[116.97872,2.81161]]]]},"properties":{"kdprov":"65","kdkab":"02","kdkec":"020","kddesa":"004","kdsls":"0002","idsls":"65020200040002","nmprov":"KALIMANTAN UTARA","nmkab":"BULUNGAN","nmkec":"PESO HILIR","nmdesa":"LONG BANG","nmsls":"RT 002"}},{"type":"Feature","geometry":{"type":"MultiPolygon","coordinates":[[[[116.97372,2.81505],[116.97359,2.81515],[116.97309,2.81563],[116.97369,2.81588],[116.97455,2.81659],[116.97456,2.81667],[116.97488,2.81618],[116.97413,2.81538],[116.97372,2.81505]]]]},"properties":{"kdprov":"65","kdkab":"02","kdkec":"020","kddesa":"004","kdsls":"0005","idsls":"65020200040005","nmprov":"KALIMANTAN UTARA","nmkab":"BULUNGAN","nmkec":"PESO HILIR","nmdesa":"LONG BANG","nmsls":"RT 005"}},{"type":"Feature","geometry":{"type":"MultiPolygon","coordinates":[[[[117.07429,2.79619],[117.07505,2.79667],[117.07509,2.79668],[117.07527,2.79562],[117.07526,2.79562],[117.07522,2.79544],[117.07466,2.7955],[117.07448,2.79552],[117.07447,2.79553],[117.07447,2.79553],[117.07436,2.79577],[117.07429,2.79619]]]]},"properties":{"kdprov":"65","kdkab":"02","kdkec":"020","kddesa":"005","kdsls":"0005","idsls":"65020200050005","nmprov":"KALIMANTAN UTARA","nmkab":"BULUNGAN","nmkec":"PESO HILIR","nmdesa":"LONG TUNGU","nmsls":"RT 005"}},{"type":"Feature","geometry":{"type":"MultiPolygon","coordinates":[[[[117.07466,2.7955],[117.07522,2.79544],[117.07519,2.79533],[117.07519,2.79533],[117.07513,2.79501],[117.07513,2.79501],[117.07556,2.79314],[117.07537,2.79112],[117.07384,2.78772],[117.07273,2.78912],[117.073,2.7932],[117.07301,2.79335],[117.074,2.79469],[117.074,2.79469],[117.07466,2.7955]]]]},"properties":{"kdprov":"65","kdkab":"02","kdkec":"020","kddesa":"005","kdsls":"0007","idsls":"65020200050007","nmprov":"KALIMANTAN UTARA","nmkab":"BULUNGAN","nmkec":"PESO HILIR","nmdesa":"LONG TUNGU","nmsls":"RT 007"}},{"type":"Feature","geometry":{"type":"MultiPolygon","coordinates":[[[[117.07429,2.79619],[117.07436,2.79577],[117.07447,2.79553],[117.07447,2.79553],[117.07448,2.79552],[117.07466,2.7955],[117.074,2.79469],[117.074,2.79469],[117.07301,2.79335],[117.073,2.7932],[117.07289,2.79326],[117.07258,2.79436],[117.07312,2.79487],[117.07325,2.79554],[117.07429,2.79619]]]]},"properties":{"kdprov":"65","kdkab":"02","kdkec":"020","kddesa":"005","kdsls":"0006","idsls":"65020200050006","nmprov":"KALIMANTAN UTARA","nmkab":"BULUNGAN","nmkec":"PESO HILIR","nmdesa":"LONG TUNGU","nmsls":"RT 006"}},{"type":"Feature","geometry":{"type":"MultiPolygon","coordinates":[[[[117.07715,2.79694],[117.07663,2.79591],[117.07663,2.79591],[117.07596,2.7946],[117.07596,2.7946],[117.07545,2.79485],[117.07548,2.79496],[117.0756,2.79543],[117.07561,2.79543],[117.07582,2.79622],[117.07602,2.79622],[117.07605,2.79659],[117.07624,2.79654],[117.07628,2.79701],[117.07628,2.79701],[117.07695,2.79705],[117.07715,2.79694]]]]},"properties":{"kdprov":"65","kdkab":"02","kdkec":"020","kddesa":"005","kdsls":"0003","idsls":"65020200050003","nmprov":"KALIMANTAN UTARA","nmkab":"BULUNGAN","nmkec":"PESO HILIR","nmdesa":"LONG TUNGU","nmsls":"RT 003"}},{"type":"Feature","geometry":{"type":"MultiPolygon","coordinates":[[[[117.07522,2.79544],[117.07526,2.79562],[117.07527,2.79562],[117.07509,2.79668],[117.07628,2.79701],[117.07624,2.79654],[117.07605,2.79659],[117.07602,2.79622],[117.07582,2.79622],[117.07561,2.79543],[117.0756,2.79543],[117.07548,2.79496],[117.07518,2.79501],[117.07513,2.79501],[117.07513,2.79501],[117.07519,2.79533],[117.07519,2.79533],[117.07522,2.79544]]]]},"properties":{"kdprov":"65","kdkab":"02","kdkec":"020","kddesa":"005","kdsls":"0004","idsls":"65020200050004","nmprov":"KALIMANTAN UTARA","nmkab":"BULUNGAN","nmkec":"PESO HILIR","nmdesa":"LONG TUNGU","nmsls":"RT 004"}},{"type":"Feature","geometry":{"type":"MultiPolygon","coordinates":[[[[117.07596,2.7946],[117.07663,2.79591],[117.07674,2.79592],[117.07725,2.79561],[117.07801,2.79627],[117.07803,2.79624],[117.07841,2.7956],[117.07876,2.79515],[117.07684,2.79422],[117.07596,2.7946]]]]},"properties":{"kdprov":"65","kdkab":"02","kdkec":"020","kddesa":"005","kdsls":"0001","idsls":"65020200050001","nmprov":"KALIMANTAN UTARA","nmkab":"BULUNGAN","nmkec":"PESO HILIR","nmdesa":"LONG TUNGU","nmsls":"RT 001"}},{"type":"Feature","geometry":{"type":"MultiPolygon","coordinates":[[[[117.07663,2.79591],[117.07663,2.79591],[117.07715,2.79694],[117.07726,2.79688],[117.07737,2.79682],[117.07785,2.79656],[117.07801,2.79627],[117.07725,2.79561],[117.07674,2.79592],[117.07663,2.79591]]]]},"properties":{"kdprov":"65","kdkab":"02","kdkec":"020","kddesa":"005","kdsls":"0002","idsls":"65020200050002","nmprov":"KALIMANTAN UTARA","nmkab":"BULUNGAN","nmkec":"PESO HILIR","nmdesa":"LONG TUNGU","nmsls":"RT 002"}},{"type":"Feature","geometry":{"type":"MultiPolygon","coordinates":[[[[117.03933,2.8262],[117.0397,2.82655],[117.03994,2.82671],[117.04002,2.82673],[117.04003,2.8267],[117.04003,2.8267],[117.04014,2.82633],[117.04011,2.82613],[117.04011,2.82613],[117.04012,2.82542],[117.03986,2.82516],[117.03899,2.82536],[117.03885,2.8261],[117.03933,2.8262]]]]},"properties":{"kdprov":"65","kdkab":"02","kdkec":"020","kddesa":"005","kdsls":"0008","idsls":"65020200050008","nmprov":"KALIMANTAN UTARA","nmkab":"BULUNGAN","nmkec":"PESO HILIR","nmdesa":"LONG TUNGU","nmsls":"RT 008"}},{"type":"Feature","geometry":{"type":"MultiPolygon","coordinates":[[[[116.89962,2.84389],[116.89962,2.8439],[116.89941,2.8441],[116.89975,2.84486],[116.90117,2.84687],[116.90149,2.84732],[116.90249,2.84852],[116.90272,2.84842],[116.90288,2.8486],[116.90301,2.84871],[116.90345,2.84893],[116.90362,2.8489],[116.90362,2.8489],[116.90384,2.84884],[116.90425,2.84865],[116.90461,2.84842],[116.90522,2.84779],[116.90523,2.84779],[116.90502,2.84654],[116.90502,2.84654],[116.90411,2.84669],[116.90293,2.84776],[116.8999,2.84222],[116.89969,2.84384],[116.89962,2.84389]]]]},"properties":{"kdprov":"65","kdkab":"02","kdkec":"020","kddesa":"001","kdsls":"0002","idsls":"65020200010002","nmprov":"KALIMANTAN UTARA","nmkab":"BULUNGAN","nmkec":"PESO HILIR","nmdesa":"NAHA AYA","nmsls":"RT 002"}},{"type":"Feature","geometry":{"type":"MultiPolygon","coordinates":[[[[116.90523,2.84779],[116.90522,2.84779],[116.90461,2.84842],[116.90425,2.84865],[116.90384,2.84884],[116.90362,2.8489],[116.90362,2.8489],[116.90345,2.84893],[116.90301,2.84871],[116.90288,2.8486],[116.90272,2.84842],[116.90249,2.84852],[116.9025,2.84854],[116.90286,2.84887],[116.90364,2.8493],[116.90367,2.84929],[116.90439,2.84938],[116.905,2.84934],[116.90553,2.84905],[116.90557,2.84902],[116.90618,2.84859],[116.9056,2.84809],[116.90523,2.84779]]]]},"properties":{"kdprov":"65","kdkab":"02","kdkec":"020","kddesa":"001","kdsls":"0001","idsls":"65020200010001","nmprov":"KALIMANTAN UTARA","nmkab":"BULUNGAN","nmkec":"PESO HILIR","nmdesa":"NAHA AYA","nmsls":"RT 001"}},{"type":"Feature","geometry":{"type":"MultiPolygon","coordinates":[[[[116.93732,2.83127],[116.93675,2.82975],[116.93656,2.82963],[116.93652,2.82955],[116.93651,2.82955],[116.93292,2.83042],[116.93286,2.83161],[116.93313,2.83163],[116.93365,2.83164],[116.93402,2.83171],[116.93548,2.83191],[116.93586,2.83206],[116.93611,2.83216],[116.93613,2.83182],[116.93611,2.83169],[116.93641,2.83157],[116.93725,2.83129],[116.93732,2.83127]]]]},"properties":{"kdprov":"65","kdkab":"02","kdkec":"020","kddesa":"002","kdsls":"0001","idsls":"65020200020001","nmprov":"KALIMANTAN UTARA","nmkab":"BULUNGAN","nmkec":"PESO HILIR","nmdesa":"LONG TELENJAU","nmsls":"RT 001"}},{"type":"Feature","geometry":{"type":"MultiPolygon","coordinates":[[[[117.073,2.7932],[117.07273,2.78912],[117.07384,2.78772],[117.07537,2.79112],[117.07556,2.79314],[117.07513,2.79501],[117.07518,2.79501],[117.07548,2.79496],[117.07545,2.79485],[117.07596,2.7946],[117.07596,2.7946],[117.07684,2.79422],[117.07876,2.79515],[117.07884,2.79505],[117.07889,2.79467],[117.07885,2.79347],[117.07874,2.78727],[117.07661,2.78277],[117.07595,2.78138],[117.07169,2.77612],[117.06917,2.77191],[117.0687,2.7712],[117.06582,2.76683],[117.06293,2.76108],[117.06137,2.75817],[117.05976,2.75407],[117.05755,2.74854],[117.05552,2.74332],[117.0533,2.73774],[117.05093,2.73185],[117.04854,2.72582],[117.0476,2.72338],[117.04498,2.71945],[117.04347,2.7172],[117.04202,2.71259],[117.03989,2.70629],[117.03785,2.69998],[117.03577,2.69366],[117.03369,2.68739],[117.03158,2.68102],[117.0305,2.67723],[117.02983,2.67416],[117.0283,2.66758],[117.02679,2.66098],[117.02537,2.6548],[117.02507,2.64853],[117.02468,2.64167],[117.02427,2.63476],[117.0239,2.6281],[117.02348,2.62117],[117.02306,2.6144],[117.0227,2.60768],[117.02228,2.60079],[117.02207,2.59756],[117.02192,2.59527],[117.02191,2.59507],[117.02262,2.59234],[117.02275,2.59185],[117.02336,2.58952],[117.02336,2.58952],[117.04078,2.55196],[117.03878,2.54793],[117.03615,2.54403],[117.03477,2.53975],[117.03415,2.53572],[117.03302,2.53157],[117.03189,2.52804],[117.02035,2.54945],[117.00219,2.58314],[117.00214,2.58343],[117.00179,2.58529],[117.00068,2.59037],[117.00054,2.59104],[116.999,2.59695],[116.9981,2.59992],[116.99785,2.604],[116.99727,2.6102],[116.99697,2.61609],[116.99693,2.62193],[116.99697,2.62837],[116.99681,2.63414],[116.99652,2.6405],[116.99779,2.64627],[116.99902,2.65138],[117.00031,2.65643],[117.00168,2.66194],[117.00238,2.66614],[117.00325,2.67163],[117.0046,2.67742],[117.00599,2.68307],[117.00731,2.6888],[117.0086,2.6944],[117.01,2.70064],[117.01141,2.70663],[117.01295,2.71276],[117.01405,2.71784],[117.01535,2.72346],[117.0164,2.72765],[117.01503,2.73016],[117.01176,2.73638],[117.00858,2.74254],[117.00862,2.74585],[117.00857,2.74897],[117.01075,2.7527],[117.01586,2.75084],[117.01699,2.75678],[117.01782,2.76137],[117.01984,2.76336],[117.02119,2.76443],[117.0223,2.77027],[117.02352,2.77642],[117.02384,2.77807],[117.02465,2.78236],[117.02501,2.78374],[117.02597,2.78939],[117.02626,2.79058],[117.02654,2.7927],[117.02697,2.79252],[117.02856,2.79172],[117.03107,2.79051],[117.03386,2.78971],[117.03655,2.78971],[117.03825,2.78951],[117.0393,2.78925],[117.04035,2.789],[117.04093,2.78875],[117.04195,2.7883],[117.04327,2.788],[117.04375,2.7879],[117.04454,2.7878],[117.04534,2.7879],[117.04584,2.78788],[117.04704,2.78785],[117.04766,2.78823],[117.04833,2.78865],[117.04984,2.78965],[117.05113,2.79046],[117.05155,2.79069],[117.05223,2.79106],[117.05309,2.79117],[117.05392,2.79126],[117.05543,2.79126],[117.05564,2.7912],[117.05712,2.79076],[117.05852,2.79056],[117.0593,2.79031],[117.06042,2.78996],[117.06102,2.78988],[117.06191,2.78975],[117.06459,2.79007],[117.06531,2.79016],[117.06651,2.79031],[117.06666,2.79033],[117.06805,2.79108],[117.06937,2.79202],[117.07036,2.7922],[117.07096,2.79291],[117.07146,2.79329],[117.07258,2.79436],[117.07289,2.79326],[117.073,2.7932]]]]},"properties":{"kdprov":"65","kdkab":"02","kdkec":"020","kddesa":"005","kdsls":"2002","idsls":"65020200052002","nmprov":"KALIMANTAN UTARA","nmkab":"BULUNGAN","nmkec":"PESO HILIR","nmdesa":"LONG TUNGU","nmsls":"HUTAN"}},{"type":"Feature","geometry":{"type":"MultiPolygon","coordinates":[[[[117.09176,2.77844],[117.0918,2.77839],[117.09181,2.77837],[117.09271,2.77711],[117.09274,2.77665],[117.09277,2.77614],[117.09284,2.7759],[117.09274,2.77562],[117.09246,2.77479],[117.09248,2.77407],[117.09248,2.77379],[117.09225,2.77337],[117.09206,2.77322],[117.09122,2.77297],[117.09018,2.77219],[117.08995,2.77169],[117.08992,2.77166],[117.08939,2.77129],[117.08858,2.77167],[117.08809,2.77189],[117.08913,2.77728],[117.09176,2.77844]]]]},"properties":{"kdprov":"65","kdkab":"02","kdkec":"020","kddesa":"006","kdsls":"0003","idsls":"65020200060003","nmprov":"KALIMANTAN UTARA","nmkab":"BULUNGAN","nmkec":"PESO HILIR","nmdesa":"LONG LEMBU","nmsls":"RT 003"}},{"type":"Feature","geometry":{"type":"MultiPolygon","coordinates":[[[[117.08974,2.77875],[117.08908,2.77939],[117.08907,2.77975],[117.08912,2.78086],[117.08952,2.7811],[117.08979,2.78072],[117.09044,2.7803],[117.09091,2.77964],[117.08983,2.77866],[117.08974,2.77875]]]]},"properties":{"kdprov":"65","kdkab":"02","kdkec":"020","kddesa":"006","kdsls":"0001","idsls":"65020200060001","nmprov":"KALIMANTAN UTARA","nmkab":"BULUNGAN","nmkec":"PESO HILIR","nmdesa":"LONG LEMBU","nmsls":"RT 001"}},{"type":"Feature","geometry":{"type":"MultiPolygon","coordinates":[[[[117.04689,3.00696],[117.0655,2.9853],[117.07362,2.97725],[117.07725,2.97366],[117.08005,2.97088],[117.08116,2.96978],[117.08126,2.96969],[117.08126,2.96969],[117.08204,2.96891],[117.08183,2.96855],[117.08177,2.96846],[117.08068,2.96667],[117.08015,2.9658],[117.07876,2.9635],[117.07494,2.95716],[117.07152,2.95137],[117.06839,2.94657],[117.06695,2.9442],[117.06793,2.94187],[117.06616,2.9386],[117.06594,2.93482],[117.06555,2.92783],[117.06561,2.92116],[117.06576,2.91444],[117.06592,2.90722],[117.06598,2.90028],[117.06625,2.89358],[117.06674,2.88688],[117.06723,2.87988],[117.06783,2.87308],[117.06846,2.86617],[117.06909,2.85923],[117.0693,2.85753],[117.06854,2.85287],[117.06955,2.85072],[117.07097,2.84826],[117.07056,2.84123],[117.07047,2.84053],[117.07142,2.8347],[117.07147,2.83437],[117.0716,2.83357],[117.07161,2.83355],[117.07279,2.83238],[117.07594,2.83288],[117.07694,2.83288],[117.07767,2.83072],[117.07889,2.82943],[117.07933,2.82754],[117.07766,2.82533],[117.07791,2.82172],[117.07396,2.81875],[117.07067,2.81476],[117.06937,2.81218],[117.06995,2.80898],[117.07409,2.80618],[117.07452,2.80589],[117.07803,2.80007],[117.0788,2.79793],[117.07867,2.79795],[117.07767,2.79809],[117.07668,2.79838],[117.07642,2.79844],[117.0761,2.79852],[117.07539,2.79859],[117.07475,2.79852],[117.07447,2.79844],[117.07424,2.79838],[117.07389,2.79816],[117.0737,2.79795],[117.07346,2.79766],[117.07335,2.79737],[117.07324,2.79709],[117.07299,2.7968],[117.07275,2.79651],[117.07122,2.79527],[117.07046,2.79465],[117.07027,2.79449],[117.06967,2.79399],[117.06846,2.79306],[117.06627,2.79231],[117.06596,2.7922],[117.06403,2.79149],[117.06325,2.79127],[117.0621,2.79142],[117.06166,2.7915],[117.06096,2.79162],[117.06046,2.7917],[117.05894,2.79206],[117.05891,2.79206],[117.05837,2.79219],[117.05724,2.79246],[117.05603,2.7926],[117.0554,2.79269],[117.05453,2.79281],[117.05356,2.79294],[117.05346,2.79295],[117.05334,2.79294],[117.05225,2.79281],[117.05179,2.79269],[117.05146,2.7926],[117.05087,2.7922],[117.05082,2.79217],[117.05078,2.79213],[117.05018,2.7916],[117.04803,2.79001],[117.04779,2.78991],[117.04739,2.78973],[117.04661,2.78936],[117.04596,2.78933],[117.04532,2.7893],[117.04411,2.7893],[117.04352,2.78962],[117.04332,2.78973],[117.04285,2.78991],[117.04239,2.79009],[117.04175,2.7903],[117.04146,2.79044],[117.04118,2.79058],[117.0406,2.79073],[117.03761,2.7908],[117.03603,2.79095],[117.03531,2.79103],[117.03482,2.79109],[117.03411,2.79124],[117.03337,2.79153],[117.03233,2.79195],[117.02868,2.79414],[117.02809,2.7945],[117.02806,2.79452],[117.02761,2.79479],[117.02683,2.79497],[117.02703,2.79654],[117.02672,2.79951],[117.02476,2.80319],[117.02283,2.8059],[117.01771,2.80955],[117.01286,2.81447],[117.01189,2.81872],[117.01186,2.81882],[117.0133,2.82078],[117.01171,2.82197],[117.00926,2.82266],[117.00507,2.8259],[117.00504,2.82597],[117.00504,2.82597],[117.00504,2.82597],[117.00425,2.82779],[117.00392,2.83012],[117.00461,2.83241],[117.00651,2.83255],[117.00824,2.83458],[117.00791,2.83993],[117.00731,2.84689],[117.00646,2.8538],[117.00562,2.86057],[117.00475,2.86769],[117.0046,2.87273],[117.00439,2.87933],[117.00423,2.88445],[117.00369,2.8865],[117.0018,2.89344],[117.002,2.89743],[117.0023,2.90446],[117.00038,2.91042],[116.99869,2.91596],[116.99849,2.91759],[116.99812,2.92415],[116.99579,2.92469],[116.9952,2.92641],[116.9966,2.92917],[116.99659,2.93101],[116.99521,2.93729],[116.99527,2.93769],[116.99626,2.94469],[116.9972,2.95127],[116.99786,2.95575],[116.99887,2.95814],[117.00155,2.96386],[117.00423,2.96989],[117.00678,2.97533],[117.00927,2.98046],[117.01202,2.98578],[117.01501,2.99176],[117.01813,2.99791],[117.02112,3.0038],[117.02368,3.00893],[117.02647,3.01439],[117.02927,3.01997],[117.03006,3.02154],[117.03102,3.01978],[117.04689,3.00696]],[[117.03899,2.82536],[117.03986,2.82516],[117.04012,2.82542],[117.04011,2.82613],[117.04011,2.82613],[117.04014,2.82633],[117.04003,2.8267],[117.04003,2.8267],[117.04002,2.82673],[117.03994,2.82671],[117.0397,2.82655],[117.03933,2.8262],[117.03885,2.8261],[117.03899,2.82536]]]]},"properties":{"kdprov":"65","kdkab":"02","kdkec":"020","kddesa":"005","kdsls":"2001","idsls":"65020200052001","nmprov":"KALIMANTAN UTARA","nmkab":"BULUNGAN","nmkec":"PESO HILIR","nmdesa":"LONG TUNGU","nmsls":"HUTAN"}},{"type":"Feature","geometry":{"type":"MultiPolygon","coordinates":[[[[116.90502,2.84654],[116.90502,2.84654],[116.90523,2.84779],[116.9056,2.84809],[116.90618,2.84859],[116.90651,2.84836],[116.90651,2.84835],[116.9068,2.84806],[116.90684,2.8478],[116.90693,2.84775],[116.90711,2.84733],[116.90725,2.84648],[116.90729,2.84587],[116.90728,2.84551],[116.90644,2.84541],[116.90527,2.84566],[116.90526,2.8459],[116.90499,2.84645],[116.90502,2.84654]]]]},"properties":{"kdprov":"65","kdkab":"02","kdkec":"020","kddesa":"001","kdsls":"0003","idsls":"65020200010003","nmprov":"KALIMANTAN UTARA","nmkab":"BULUNGAN","nmkec":"PESO HILIR","nmdesa":"NAHA AYA","nmsls":"RT 003"}},{"type":"Feature","geometry":{"type":"MultiPolygon","coordinates":[[[[116.97209,2.81657],[116.97287,2.81819],[116.97262,2.8184],[116.97326,2.81892],[116.97634,2.81974],[116.97652,2.8191],[116.97722,2.81901],[116.97722,2.81901],[116.97488,2.81618],[116.97488,2.81618],[116.97456,2.81667],[116.97454,2.81671],[116.97412,2.81726],[116.97411,2.81726],[116.97332,2.81731],[116.9733,2.81717],[116.9733,2.81717],[116.97329,2.81709],[116.97358,2.81704],[116.97344,2.81635],[116.97316,2.8162],[116.97308,2.81563],[116.97209,2.81657]]]]},"properties":{"kdprov":"65","kdkab":"02","kdkec":"020","kddesa":"003","kdsls":"0002","idsls":"65020200030002","nmprov":"KALIMANTAN UTARA","nmkab":"BULUNGAN","nmkec":"PESO HILIR","nmdesa":"LONG BANG HULU","nmsls":"RT 002"}},{"type":"Feature","geometry":{"type":"MultiPolygon","coordinates":[[[[116.97456,2.81667],[116.97455,2.81659],[116.97369,2.81588],[116.97309,2.81563],[116.97308,2.81563],[116.97316,2.8162],[116.97344,2.81635],[116.97358,2.81704],[116.97329,2.81709],[116.9733,2.81717],[116.9733,2.81717],[116.97332,2.81731],[116.97411,2.81726],[116.97412,2.81726],[116.97454,2.81671],[116.97456,2.81667]]]]},"properties":{"kdprov":"65","kdkab":"02","kdkec":"020","kddesa":"003","kdsls":"0001","idsls":"65020200030001","nmprov":"KALIMANTAN UTARA","nmkab":"BULUNGAN","nmkec":"PESO HILIR","nmdesa":"LONG BANG HULU","nmsls":"RT 001"}},{"type":"Feature","geometry":{"type":"MultiPolygon","coordinates":[[[[116.93203,2.91194],[116.9325,2.91317],[116.93301,2.91305],[116.93295,2.91163],[116.93271,2.91137],[116.93224,2.91085],[116.93197,2.91133],[116.93203,2.91194]]]]},"properties":{"kdprov":"65","kdkab":"02","kdkec":"020","kddesa":"002","kdsls":"0003","idsls":"65020200020003","nmprov":"KALIMANTAN UTARA","nmkab":"BULUNGAN","nmkec":"PESO HILIR","nmdesa":"LONG TELENJAU","nmsls":"RT 003"}},{"type":"Feature","geometry":{"type":"MultiPolygon","coordinates":[[[[117.0788,2.79793],[117.07803,2.80007],[117.07452,2.80589],[117.07409,2.80618],[117.06995,2.80898],[117.06937,2.81218],[117.07067,2.81476],[117.07396,2.81875],[117.07791,2.82172],[117.07766,2.82533],[117.07933,2.82754],[117.07889,2.82943],[117.07767,2.83072],[117.07694,2.83288],[117.07594,2.83288],[117.07279,2.83238],[117.07161,2.83355],[117.0716,2.83357],[117.07147,2.83437],[117.07142,2.8347],[117.07047,2.84053],[117.07056,2.84123],[117.07097,2.84826],[117.06955,2.85072],[117.06854,2.85287],[117.0693,2.85753],[117.06909,2.85923],[117.06846,2.86617],[117.06783,2.87308],[117.06723,2.87988],[117.06674,2.88688],[117.06625,2.89358],[117.06598,2.90028],[117.06592,2.90722],[117.06576,2.91444],[117.06561,2.92116],[117.06555,2.92783],[117.06594,2.93482],[117.06616,2.9386],[117.06793,2.94187],[117.06695,2.9442],[117.06839,2.94657],[117.07152,2.95137],[117.07494,2.95716],[117.07876,2.9635],[117.08015,2.9658],[117.08068,2.96667],[117.08177,2.96846],[117.08183,2.96855],[117.08204,2.96891],[117.08259,2.96836],[117.08587,2.96455],[117.09015,2.96027],[117.09121,2.93968],[117.09495,2.93189],[117.1009,2.91954],[117.10652,2.91027],[117.10655,2.91023],[117.10731,2.90748],[117.10945,2.89467],[117.11334,2.87208],[117.1141,2.86827],[117.11807,2.85698],[117.11708,2.84782],[117.11402,2.82616],[117.1125,2.81655],[117.11105,2.80861],[117.11196,2.79396],[117.11502,2.78313],[117.10945,2.77306],[117.10777,2.76543],[117.10792,2.75639],[117.10745,2.75644],[117.10715,2.75652],[117.10695,2.75658],[117.10238,2.75902],[117.10217,2.75917],[117.10166,2.75952],[117.10131,2.75998],[117.1011,2.76025],[117.10038,2.7614],[117.09999,2.76201],[117.09988,2.76218],[117.09902,2.76282],[117.09664,2.7634],[117.0956,2.76366],[117.09445,2.76387],[117.09348,2.76422],[117.09303,2.76437],[117.0924,2.76457],[117.09209,2.76466],[117.09095,2.76502],[117.0906,2.76502],[117.09003,2.76481],[117.08964,2.76458],[117.08952,2.76452],[117.08948,2.76443],[117.08924,2.76388],[117.0891,2.76351],[117.08905,2.76344],[117.08881,2.76308],[117.08786,2.76344],[117.08767,2.76351],[117.08766,2.76361],[117.08759,2.76416],[117.08756,2.76446],[117.08755,2.76449],[117.08752,2.76473],[117.08752,2.76473],[117.08755,2.76482],[117.08767,2.76516],[117.08792,2.76574],[117.08795,2.76581],[117.08796,2.76583],[117.08797,2.76584],[117.08797,2.76584],[117.0881,2.76602],[117.08817,2.76613],[117.08824,2.76625],[117.08836,2.76636],[117.08846,2.76645],[117.08852,2.76682],[117.08903,2.76789],[117.08939,2.76882],[117.08961,2.76919],[117.08974,2.7694],[117.09006,2.76976],[117.09039,2.77012],[117.0906,2.77033],[117.09088,2.77062],[117.09102,2.77072],[117.09131,2.7709],[117.09338,2.77213],[117.09384,2.77264],[117.09402,2.77285],[117.0941,2.77321],[117.09417,2.77356],[117.09419,2.77379],[117.09424,2.77436],[117.09424,2.77436],[117.09409,2.775],[117.09404,2.7754],[117.09396,2.77601],[117.09396,2.77601],[117.09402,2.77672],[117.09407,2.7787],[117.09409,2.77989],[117.09409,2.77989],[117.09401,2.78023],[117.09396,2.78046],[117.09362,2.78096],[117.09345,2.78121],[117.09277,2.78148],[117.09209,2.78175],[117.09188,2.78185],[117.09103,2.78226],[117.0907,2.78235],[117.09031,2.78247],[117.08949,2.783],[117.08896,2.78334],[117.08839,2.78384],[117.08739,2.78473],[117.08704,2.78531],[117.08695,2.78545],[117.08688,2.78569],[117.08674,2.78617],[117.08664,2.78646],[117.08652,2.78682],[117.0861,2.78768],[117.08503,2.78919],[117.0846,2.78982],[117.0841,2.79055],[117.08317,2.7917],[117.08285,2.79217],[117.08253,2.79264],[117.0818,2.79323],[117.08174,2.79328],[117.08169,2.79332],[117.08096,2.79386],[117.0804,2.79526],[117.07996,2.79636],[117.07996,2.79637],[117.07996,2.79687],[117.07996,2.79687],[117.07981,2.79723],[117.07974,2.79738],[117.07967,2.79751],[117.07917,2.79787],[117.0788,2.79793]]]]},"properties":{"kdprov":"65","kdkab":"02","kdkec":"020","kddesa":"006","kdsls":"2002","idsls":"65020200062002","nmprov":"KALIMANTAN UTARA","nmkab":"BULUNGAN","nmkec":"PESO HILIR","nmdesa":"LONG LEMBU","nmsls":"HUTAN"}},{"type":"Feature","geometry":{"type":"MultiPolygon","coordinates":[[[[116.86552,2.78804],[116.86667,2.78969],[116.86713,2.79035],[116.86762,2.79133],[116.86912,2.79427],[116.87038,2.79632],[116.87122,2.79768],[116.87302,2.79999],[116.87312,2.80013],[116.87536,2.80323],[116.87611,2.80426],[116.87881,2.80727],[116.8836,2.8146],[116.88729,2.82073],[116.89198,2.82776],[116.89413,2.83155],[116.89428,2.83182],[116.89449,2.83226],[116.89658,2.83664],[116.89771,2.83905],[116.89827,2.84025],[116.89947,2.84366],[116.89962,2.84389],[116.89969,2.84384],[116.8999,2.84222],[116.90293,2.84776],[116.90411,2.84669],[116.90502,2.84654],[116.90499,2.84645],[116.90526,2.8459],[116.90527,2.84566],[116.90541,2.84246],[116.90541,2.84246],[116.90659,2.84235],[116.90635,2.84146],[116.90617,2.84017],[116.90616,2.84005],[116.90616,2.84005],[116.90616,2.83996],[116.90626,2.83854],[116.90632,2.83803],[116.90636,2.83774],[116.90686,2.83674],[116.90707,2.83652],[116.90673,2.83553],[116.90662,2.83518],[116.90697,2.83246],[116.907,2.82973],[116.90701,2.82835],[116.90972,2.82633],[116.91345,2.82346],[116.91346,2.8216],[116.91346,2.82],[116.91345,2.81631],[116.91345,2.81436],[116.91581,2.81286],[116.91877,2.81093],[116.91597,2.80927],[116.91119,2.8064],[116.91137,2.80621],[116.91415,2.80323],[116.91633,2.80086],[116.91668,2.79968],[116.91706,2.79826],[116.91935,2.79633],[116.91934,2.79516],[116.91804,2.79264],[116.91743,2.79143],[116.91706,2.78988],[116.91732,2.78913],[116.91746,2.78876],[116.92125,2.79179],[116.92084,2.78833],[116.92084,2.78586],[116.92083,2.78251],[116.92087,2.77935],[116.92086,2.77772],[116.92136,2.77567],[116.92224,2.77212],[116.9224,2.77169],[116.92237,2.76843],[116.92235,2.76675],[116.91892,2.76331],[116.91593,2.76109],[116.91668,2.75875],[116.91706,2.75653],[116.91704,2.75308],[116.91904,2.75015],[116.92127,2.74696],[116.92201,2.74588],[116.92648,2.74432],[116.92845,2.74363],[116.92878,2.74089],[116.92883,2.74059],[116.92651,2.73983],[116.92801,2.73752],[116.92845,2.73679],[116.92843,2.7338],[116.92843,2.73176],[116.92828,2.73011],[116.92804,2.72753],[116.92806,2.72427],[116.92953,2.72108],[116.93033,2.71936],[116.93377,2.71897],[116.93314,2.71741],[116.93195,2.71432],[116.93108,2.71208],[116.93082,2.71064],[116.93035,2.70798],[116.93242,2.70428],[116.93391,2.70158],[116.93621,2.69812],[116.93722,2.69648],[116.93797,2.69456],[116.93916,2.69156],[116.93945,2.69092],[116.93943,2.688],[116.93942,2.68634],[116.94024,2.68455],[116.94026,2.68451],[116.94159,2.68142],[116.9421,2.68028],[116.94358,2.67815],[116.9448,2.67641],[116.94633,2.67493],[116.94704,2.6742],[116.94704,2.67197],[116.94911,2.66948],[116.94946,2.66607],[116.94833,2.66306],[116.94888,2.66005],[116.94943,2.65682],[116.94987,2.65357],[116.9488,2.64992],[116.94832,2.64821],[116.94752,2.64621],[116.94645,2.64349],[116.94531,2.64062],[116.94512,2.63703],[116.94492,2.63385],[116.94874,2.63347],[116.94988,2.63307],[116.95062,2.63155],[116.94985,2.6285],[116.94794,2.62699],[116.94889,2.625],[116.95025,2.62209],[116.95024,2.6185],[116.95024,2.61754],[116.9506,2.61678],[116.94759,2.61639],[116.94493,2.61679],[116.94343,2.6149],[116.94037,2.61489],[116.93737,2.61375],[116.93811,2.61074],[116.94043,2.6084],[116.94341,2.60805],[116.9438,2.60725],[116.94495,2.60503],[116.94795,2.6039],[116.94834,2.60199],[116.94846,2.60026],[116.94868,2.59746],[116.94871,2.59627],[116.95025,2.59516],[116.94953,2.5939],[116.94869,2.59243],[116.94798,2.59045],[116.94757,2.58939],[116.94609,2.58757],[116.94721,2.5849],[116.94454,2.58264],[116.94505,2.57913],[116.94533,2.57732],[116.947,2.57566],[116.94758,2.57506],[116.94873,2.57695],[116.95255,2.57698],[116.95366,2.57884],[116.95818,2.5781],[116.96279,2.57542],[116.96461,2.57542],[116.96173,2.57268],[116.95904,2.57021],[116.95287,2.56671],[116.95129,2.56305],[116.94963,2.55933],[116.9481,2.55589],[116.94716,2.55373],[116.94651,2.55223],[116.94506,2.54892],[116.9449,2.54856],[116.94426,2.54711],[116.93355,2.51011],[116.93088,2.50089],[116.93051,2.50147],[116.93004,2.50194],[116.92938,2.50262],[116.92673,2.50398],[116.92576,2.50419],[116.92417,2.50493],[116.92168,2.50275],[116.91976,2.50315],[116.91862,2.50286],[116.91689,2.50278],[116.9144,2.50189],[116.91212,2.50085],[116.91062,2.49929],[116.90788,2.49877],[116.90605,2.49877],[116.90417,2.4989],[116.90182,2.49987],[116.90123,2.50079],[116.89999,2.50163],[116.89832,2.50139],[116.89704,2.49964],[116.89562,2.49857],[116.89307,2.49714],[116.89113,2.49581],[116.88994,2.4946],[116.8897,2.4928],[116.89038,2.49101],[116.89092,2.48944],[116.89105,2.48795],[116.8911,2.48614],[116.89088,2.48441],[116.8897,2.4807],[116.8893,2.47894],[116.88881,2.47762],[116.88863,2.47723],[116.88836,2.47663],[116.8879,2.4765],[116.88751,2.47651],[116.8872,2.47687],[116.88625,2.47797],[116.88537,2.47922],[116.88505,2.48069],[116.88427,2.48149],[116.88358,2.48192],[116.88301,2.48294],[116.88324,2.4836],[116.88387,2.48459],[116.88427,2.48592],[116.88404,2.48676],[116.88337,2.48821],[116.88314,2.48929],[116.88265,2.49003],[116.88139,2.49128],[116.87959,2.49321],[116.87869,2.49379],[116.87816,2.49441],[116.87744,2.49513],[116.87706,2.49582],[116.87722,2.49681],[116.87768,2.49824],[116.87912,2.50063],[116.87869,2.50139],[116.87792,2.5023],[116.87744,2.50296],[116.87696,2.50347],[116.8765,2.50479],[116.87618,2.50555],[116.87588,2.50619],[116.87564,2.50709],[116.87464,2.50681],[116.87413,2.50667],[116.87311,2.50683],[116.87072,2.50694],[116.8699,2.50735],[116.8693,2.5078],[116.86594,2.50997],[116.8653,2.51037],[116.86485,2.51066],[116.86547,2.51848],[116.86547,2.51862],[116.86578,2.52238],[116.86623,2.52794],[116.86662,2.53277],[116.86721,2.53668],[116.86736,2.53771],[116.86941,2.54748],[116.8702,2.55127],[116.87115,2.55581],[116.87107,2.57687],[116.87608,2.60533],[116.87707,2.61257],[116.87896,2.63873],[116.8811,2.67032],[116.88201,2.67739],[116.88382,2.6978],[116.88234,2.71853],[116.8816,2.72412],[116.87715,2.75209],[116.87238,2.76114],[116.87148,2.76295],[116.87089,2.76415],[116.86441,2.77722],[116.8636,2.77883],[116.8633,2.78228],[116.8622,2.78293],[116.86373,2.78533],[116.86478,2.78691],[116.86552,2.78804]]],[[[116.8993,2.84735],[116.89834,2.84584],[116.89713,2.84276],[116.89563,2.83988],[116.8945,2.83631],[116.89427,2.83557],[116.89313,2.83356],[116.89256,2.83256],[116.89198,2.83174],[116.89156,2.83112],[116.89049,2.82942],[116.88876,2.82664],[116.88409,2.81917],[116.8805,2.81375],[116.87806,2.81021],[116.8773,2.80913],[116.87671,2.80829],[116.87551,2.80662],[116.87321,2.80451],[116.87242,2.80344],[116.87202,2.8029],[116.87189,2.80267],[116.87075,2.80065],[116.87041,2.80004],[116.86994,2.7994],[116.86778,2.80079],[116.86481,2.80968],[116.86152,2.82037],[116.86129,2.82194],[116.86128,2.82202],[116.84474,2.83427],[116.84285,2.83567],[116.83467,2.8426],[116.83246,2.84447],[116.82944,2.84703],[116.81661,2.85805],[116.80525,2.88931],[116.80402,2.89276],[116.80139,2.91498],[116.80279,2.93472],[116.80953,2.95594],[116.81184,2.97684],[116.81323,3.0007],[116.81965,3.03854],[116.8223,3.0527],[116.83177,3.05404],[116.85871,3.05113],[116.85916,3.05028],[116.85917,3.04603],[116.85915,3.04239],[116.85915,3.03873],[116.85914,3.03528],[116.85915,3.03441],[116.86169,3.0345],[116.86206,3.03146],[116.86518,3.03084],[116.86587,3.0307],[116.86928,3.03297],[116.87192,3.03146],[116.87193,3.02995],[116.87572,3.02995],[116.878,3.02692],[116.8799,3.02692],[116.88067,3.02499],[116.88184,3.02323],[116.88219,3.02273],[116.88286,3.01977],[116.88331,3.01781],[116.88271,3.01603],[116.88216,3.01438],[116.88241,3.01281],[116.88292,3.00945],[116.88219,3.0068],[116.88363,3.00409],[116.88482,3.00185],[116.8835,2.99818],[116.88291,2.99656],[116.88317,2.99484],[116.88367,2.99128],[116.88519,2.98975],[116.88352,2.98701],[116.88331,2.9867],[116.8848,2.98483],[116.885,2.98176],[116.88518,2.97813],[116.8852,2.97793],[116.88484,2.97447],[116.88483,2.97418],[116.88635,2.97116],[116.88899,2.97002],[116.88865,2.96641],[116.88862,2.96294],[116.88862,2.9596],[116.88863,2.95598],[116.88862,2.95515],[116.88835,2.95235],[116.88823,2.95106],[116.88911,2.94757],[116.88938,2.94654],[116.89142,2.9429],[116.89316,2.93968],[116.89206,2.93609],[116.89145,2.93418],[116.89277,2.93082],[116.89337,2.92925],[116.89524,2.93077],[116.89545,2.92736],[116.89563,2.92391],[116.8946,2.92041],[116.89372,2.91752],[116.89159,2.91474],[116.89102,2.91399],[116.88992,2.91254],[116.89017,2.91044],[116.89055,2.90689],[116.89072,2.90573],[116.893,2.90575],[116.89677,2.90802],[116.89904,2.90763],[116.89866,2.90612],[116.89943,2.90309],[116.89943,2.89952],[116.89944,2.89739],[116.89991,2.89595],[116.90019,2.8951],[116.90051,2.89251],[116.90058,2.89209],[116.89714,2.89133],[116.89715,2.88783],[116.89714,2.88444],[116.89715,2.88259],[116.89642,2.88074],[116.8953,2.87787],[116.89401,2.87457],[116.89372,2.87387],[116.89362,2.87085],[116.89347,2.86717],[116.89337,2.86437],[116.89533,2.86106],[116.89718,2.85794],[116.89907,2.85529],[116.90031,2.85446],[116.90134,2.85379],[116.90248,2.85265],[116.90337,2.85174],[116.90361,2.8515],[116.90625,2.85075],[116.90627,2.85057],[116.90613,2.85065],[116.90574,2.85079],[116.90505,2.85102],[116.90405,2.85131],[116.90305,2.85131],[116.90212,2.85102],[116.90027,2.84886],[116.8993,2.84735]],[[116.86829,2.8639],[116.86826,2.86336],[116.86842,2.86316],[116.86908,2.86302],[116.86946,2.86308],[116.86984,2.86361],[116.86974,2.86402],[116.86902,2.86461],[116.86862,2.8645],[116.86829,2.8639]]]]},"properties":{"kdprov":"65","kdkab":"02","kdkec":"020","kddesa":"001","kdsls":"2001","idsls":"65020200012001","nmprov":"KALIMANTAN UTARA","nmkab":"BULUNGAN","nmkec":"PESO HILIR","nmdesa":"NAHA AYA","nmsls":"HUTAN"}},{"type":"Feature","geometry":{"type":"MultiPolygon","coordinates":[[[[116.93755,2.82838],[116.93913,2.83054],[116.93997,2.82968],[116.94011,2.82956],[116.94084,2.82846],[116.9411,2.82806],[116.9416,2.82665],[116.9421,2.82565],[116.9423,2.82524],[116.9433,2.82414],[116.94374,2.82383],[116.94374,2.82368],[116.94368,2.81933],[116.94364,2.81929],[116.94249,2.81786],[116.94099,2.81876],[116.93918,2.81876],[116.93917,2.81368],[116.93896,2.81195],[116.93856,2.80901],[116.94022,2.80462],[116.94472,2.8025],[116.94297,2.79818],[116.94408,2.79566],[116.94329,2.7937],[116.94445,2.78875],[116.94418,2.78338],[116.94295,2.78161],[116.94293,2.7794],[116.9445,2.77761],[116.94018,2.77179],[116.93991,2.76807],[116.93903,2.7649],[116.93961,2.76063],[116.94326,2.75577],[116.94468,2.7489],[116.94593,2.74292],[116.94711,2.7367],[116.94848,2.73035],[116.94903,2.72751],[116.95058,2.72661],[116.95141,2.7278],[116.95389,2.72637],[116.95389,2.72425],[116.952,2.72236],[116.95235,2.71824],[116.95422,2.71302],[116.95294,2.71143],[116.95357,2.70846],[116.95235,2.70597],[116.94966,2.70451],[116.95141,2.7021],[116.95175,2.69998],[116.95296,2.69931],[116.95416,2.69492],[116.94987,2.69208],[116.94896,2.68823],[116.94614,2.68783],[116.94324,2.68683],[116.94024,2.68455],[116.93942,2.68634],[116.93943,2.688],[116.93945,2.69092],[116.93916,2.69156],[116.93797,2.69456],[116.93722,2.69648],[116.93621,2.69812],[116.93391,2.70158],[116.93242,2.70428],[116.93035,2.70798],[116.93082,2.71064],[116.93108,2.71208],[116.93195,2.71432],[116.93314,2.71741],[116.93377,2.71897],[116.93033,2.71936],[116.92953,2.72108],[116.92806,2.72427],[116.92804,2.72753],[116.92828,2.73011],[116.92843,2.73176],[116.92843,2.7338],[116.92845,2.73679],[116.92801,2.73752],[116.92651,2.73983],[116.92883,2.74059],[116.92878,2.74089],[116.92845,2.74363],[116.92648,2.74432],[116.92201,2.74588],[116.92127,2.74696],[116.91904,2.75015],[116.91704,2.75308],[116.91706,2.75653],[116.91668,2.75875],[116.91593,2.76109],[116.91892,2.76331],[116.92235,2.76675],[116.92237,2.76843],[116.9224,2.77169],[116.92224,2.77212],[116.92136,2.77567],[116.92086,2.77772],[116.92087,2.77935],[116.92083,2.78251],[116.92084,2.78586],[116.92084,2.78833],[116.92125,2.79179],[116.91746,2.78876],[116.91732,2.78913],[116.91706,2.78988],[116.91743,2.79143],[116.91804,2.79264],[116.91934,2.79516],[116.91935,2.79633],[116.91706,2.79826],[116.91668,2.79968],[116.91633,2.80086],[116.91415,2.80323],[116.91137,2.80621],[116.91119,2.8064],[116.91597,2.80927],[116.91877,2.81093],[116.91581,2.81286],[116.91345,2.81436],[116.91345,2.81631],[116.91346,2.82],[116.91346,2.8216],[116.91345,2.82346],[116.90972,2.82633],[116.90701,2.82835],[116.907,2.82973],[116.90697,2.83246],[116.90662,2.83518],[116.90673,2.83553],[116.90707,2.83652],[116.90718,2.83641],[116.90746,2.83613],[116.90776,2.83598],[116.90892,2.83474],[116.91101,2.83417],[116.91299,2.83485],[116.91514,2.83615],[116.91655,2.83711],[116.91836,2.83767],[116.92029,2.83713],[116.92135,2.83683],[116.92299,2.83575],[116.9235,2.83423],[116.92412,2.83287],[116.92491,2.83208],[116.92695,2.83112],[116.92751,2.83072],[116.9297,2.83076],[116.93103,2.83115],[116.93203,2.83153],[116.93286,2.83161],[116.93292,2.83042],[116.93651,2.82955],[116.93549,2.82923],[116.93755,2.82838]]],[[[116.90248,2.85265],[116.90134,2.85379],[116.90031,2.85446],[116.89907,2.85529],[116.89718,2.85794],[116.89533,2.86106],[116.89337,2.86437],[116.89347,2.86717],[116.89362,2.87085],[116.89372,2.87387],[116.89401,2.87457],[116.8953,2.87787],[116.89642,2.88074],[116.89715,2.88259],[116.89714,2.88444],[116.89715,2.88783],[116.89714,2.89133],[116.90058,2.89209],[116.90051,2.89251],[116.90019,2.8951],[116.89991,2.89595],[116.89944,2.89739],[116.89943,2.89952],[116.89943,2.90309],[116.89866,2.90612],[116.89904,2.90763],[116.89677,2.90802],[116.893,2.90575],[116.89072,2.90573],[116.89055,2.90689],[116.89017,2.91044],[116.88992,2.91254],[116.89102,2.91399],[116.89159,2.91474],[116.89372,2.91752],[116.8946,2.92041],[116.89563,2.92391],[116.89545,2.92736],[116.89524,2.93077],[116.89337,2.92925],[116.89277,2.93082],[116.89145,2.93418],[116.89206,2.93609],[116.89316,2.93968],[116.89142,2.9429],[116.88938,2.94654],[116.88911,2.94757],[116.88823,2.95106],[116.88835,2.95235],[116.88862,2.95515],[116.88863,2.95598],[116.88862,2.9596],[116.88862,2.96294],[116.88865,2.96641],[116.88899,2.97002],[116.88635,2.97116],[116.88483,2.97418],[116.88484,2.97447],[116.8852,2.97793],[116.88518,2.97813],[116.885,2.98176],[116.8848,2.98483],[116.88331,2.9867],[116.88352,2.98701],[116.88519,2.98975],[116.88367,2.99128],[116.88317,2.99484],[116.88291,2.99656],[116.8835,2.99818],[116.88482,3.00185],[116.88363,3.00409],[116.88219,3.0068],[116.88292,3.00945],[116.88241,3.01281],[116.88216,3.01438],[116.88271,3.01603],[116.88331,3.01781],[116.88286,3.01977],[116.88219,3.02273],[116.88184,3.02323],[116.88067,3.02499],[116.8799,3.02692],[116.878,3.02692],[116.87572,3.02995],[116.87193,3.02995],[116.87192,3.03146],[116.86928,3.03297],[116.86587,3.0307],[116.86518,3.03084],[116.86206,3.03146],[116.86169,3.0345],[116.85915,3.03441],[116.85914,3.03528],[116.85915,3.03873],[116.85915,3.04239],[116.85917,3.04603],[116.85916,3.05028],[116.85871,3.05113],[116.8608,3.05091],[116.87545,3.05509],[116.88304,3.05823],[116.89507,3.06294],[116.903,3.06582],[116.90537,3.05802],[116.90733,3.05146],[116.90932,3.04496],[116.90949,3.0445],[116.91109,3.03914],[116.91097,3.03735],[116.9108,3.03541],[116.91175,3.03127],[116.91112,3.02974],[116.90895,3.02914],[116.90413,3.02549],[116.90415,3.02272],[116.90562,3.02189],[116.90591,3.01925],[116.90594,3.01233],[116.90591,3.01213],[116.9099,3.00942],[116.91383,3.00939],[116.91379,3.00477],[116.91231,3.00092],[116.91416,2.99878],[116.91529,2.99549],[116.91539,2.99304],[116.91741,2.99213],[116.91902,2.98962],[116.91928,2.98688],[116.9208,2.98603],[116.9202,2.98202],[116.91876,2.98006],[116.91749,2.97841],[116.9193,2.97784],[116.92078,2.9782],[116.92415,2.97388],[116.92619,2.97241],[116.92967,2.97117],[116.93201,2.9703],[116.93446,2.96935],[116.93441,2.97035],[116.93617,2.96973],[116.93782,2.97211],[116.94022,2.96966],[116.93896,2.96873],[116.93874,2.96733],[116.94024,2.96754],[116.94115,2.96575],[116.94113,2.96443],[116.94211,2.96355],[116.94413,2.96208],[116.94418,2.96029],[116.94718,2.96087],[116.94845,2.95719],[116.95083,2.95664],[116.95176,2.95574],[116.95321,2.95362],[116.9551,2.95354],[116.95448,2.94904],[116.95219,2.94565],[116.94993,2.94298],[116.94996,2.9415],[116.94872,2.93905],[116.94749,2.93843],[116.9478,2.93636],[116.94537,2.93629],[116.94541,2.93473],[116.94417,2.93477],[116.94143,2.93106],[116.94055,2.93052],[116.94109,2.92658],[116.94149,2.92601],[116.94168,2.92377],[116.94143,2.922],[116.9396,2.92207],[116.93867,2.91952],[116.93715,2.91809],[116.9378,2.91654],[116.93626,2.91449],[116.93566,2.91235],[116.93352,2.91235],[116.93325,2.91136],[116.93244,2.91053],[116.93241,2.9105],[116.93237,2.91046],[116.93389,2.90746],[116.93301,2.90534],[116.93231,2.90385],[116.93083,2.90569],[116.92931,2.90383],[116.92936,2.90188],[116.93017,2.89874],[116.93504,2.89871],[116.93603,2.89656],[116.93567,2.89442],[116.93422,2.89444],[116.9341,2.8924],[116.93478,2.89074],[116.93378,2.88874],[116.93238,2.88836],[116.93554,2.88717],[116.93626,2.88717],[116.93533,2.88567],[116.93634,2.88288],[116.93874,2.88197],[116.93996,2.88202],[116.94297,2.87827],[116.94499,2.87835],[116.94637,2.8787],[116.94844,2.87832],[116.94903,2.87568],[116.94752,2.87322],[116.94876,2.87191],[116.94902,2.87053],[116.94764,2.86972],[116.9462,2.86795],[116.94646,2.86426],[116.94637,2.86281],[116.9464,2.86203],[116.94649,2.86195],[116.9495,2.85904],[116.95128,2.86146],[116.95303,2.85958],[116.95385,2.8587],[116.95704,2.85844],[116.95829,2.85424],[116.95572,2.85124],[116.95528,2.85057],[116.94555,2.85092],[116.94495,2.84773],[116.94646,2.84425],[116.94646,2.84234],[116.94644,2.84233],[116.94461,2.84115],[116.94317,2.83976],[116.94583,2.83876],[116.94581,2.83724],[116.94738,2.83631],[116.94734,2.83478],[116.94799,2.83421],[116.94768,2.83054],[116.94586,2.82905],[116.94362,2.8282],[116.94364,2.82734],[116.94361,2.82737],[116.94229,2.82923],[116.94174,2.82961],[116.94155,2.82987],[116.94026,2.83116],[116.9401,2.83126],[116.93934,2.83174],[116.9378,2.83301],[116.93607,2.83327],[116.93605,2.83326],[116.9337,2.83298],[116.93248,2.83295],[116.93217,2.83284],[116.93215,2.83256],[116.93192,2.83248],[116.93011,2.83215],[116.92962,2.832],[116.92596,2.83312],[116.92545,2.83352],[116.92364,2.83595],[116.92141,2.83866],[116.92068,2.83912],[116.91925,2.83944],[116.91915,2.83948],[116.91776,2.84007],[116.91729,2.84036],[116.91596,2.84019],[116.91418,2.83895],[116.91344,2.83827],[116.91306,2.83807],[116.91184,2.83745],[116.91041,2.83701],[116.90962,2.83701],[116.90962,2.83701],[116.90877,2.83716],[116.90861,2.83726],[116.9086,2.83727],[116.90788,2.83849],[116.90779,2.83971],[116.90799,2.8416],[116.90855,2.84366],[116.9085,2.8459],[116.90834,2.84771],[116.90834,2.84772],[116.90833,2.84785],[116.90824,2.84881],[116.90796,2.84912],[116.90791,2.84929],[116.90765,2.84964],[116.90748,2.84987],[116.90667,2.85034],[116.90627,2.85057],[116.90625,2.85075],[116.90361,2.8515],[116.90337,2.85174],[116.90248,2.85265]],[[116.93295,2.91163],[116.93301,2.91305],[116.9325,2.91317],[116.93203,2.91194],[116.93197,2.91133],[116.93224,2.91085],[116.93271,2.91137],[116.93295,2.91163]]]]},"properties":{"kdprov":"65","kdkab":"02","kdkec":"020","kddesa":"002","kdsls":"2001","idsls":"65020200022001","nmprov":"KALIMANTAN UTARA","nmkab":"BULUNGAN","nmkec":"PESO HILIR","nmdesa":"LONG TELENJAU","nmsls":"HUTAN"}},{"type":"Feature","geometry":{"type":"MultiPolygon","coordinates":[[[[116.94614,2.68783],[116.94896,2.68823],[116.94987,2.69208],[116.95416,2.69492],[116.95296,2.69931],[116.95175,2.69998],[116.95141,2.7021],[116.94966,2.70451],[116.95235,2.70597],[116.95357,2.70846],[116.95294,2.71143],[116.95422,2.71302],[116.95235,2.71824],[116.952,2.72236],[116.95389,2.72425],[116.95389,2.72637],[116.95141,2.7278],[116.95058,2.72661],[116.94903,2.72751],[116.94848,2.73035],[116.94711,2.7367],[116.94593,2.74292],[116.94468,2.7489],[116.94326,2.75577],[116.93961,2.76063],[116.93903,2.7649],[116.93991,2.76807],[116.94018,2.77179],[116.9445,2.77761],[116.94293,2.7794],[116.94295,2.78161],[116.94418,2.78338],[116.94445,2.78875],[116.94329,2.7937],[116.94408,2.79566],[116.94297,2.79818],[116.94472,2.8025],[116.94022,2.80462],[116.93856,2.80901],[116.93896,2.81195],[116.93917,2.81368],[116.93918,2.81876],[116.94099,2.81876],[116.94249,2.81786],[116.94364,2.81929],[116.94368,2.81933],[116.94374,2.82368],[116.94374,2.82383],[116.9443,2.82343],[116.9455,2.82304],[116.94736,2.82297],[116.9483,2.82294],[116.94854,2.82297],[116.94979,2.82314],[116.95093,2.82371],[116.95139,2.82394],[116.95151,2.82401],[116.95229,2.82444],[116.95299,2.82514],[116.9532,2.82523],[116.95419,2.82565],[116.95558,2.82575],[116.95728,2.82575],[116.95787,2.82561],[116.95858,2.82544],[116.95941,2.82508],[116.95967,2.82496],[116.95998,2.82496],[116.96187,2.82434],[116.96292,2.82372],[116.96422,2.82199],[116.96501,2.82123],[116.96591,2.82038],[116.96642,2.82007],[116.96744,2.81897],[116.96766,2.81829],[116.96854,2.81756],[116.96874,2.8173],[116.96896,2.81716],[116.96984,2.81623],[116.97156,2.81473],[116.97207,2.81445],[116.97326,2.81332],[116.97603,2.8108],[116.9765,2.8103],[116.97702,2.81001],[116.97715,2.80994],[116.97729,2.8098],[116.97733,2.80976],[116.97735,2.80763],[116.97746,2.7997],[116.97775,2.79134],[116.97405,2.78764],[116.97247,2.78642],[116.97046,2.78411],[116.96781,2.78563],[116.96511,2.78519],[116.96252,2.78284],[116.96112,2.7791],[116.95859,2.77919],[116.95546,2.77849],[116.95882,2.77491],[116.96071,2.77421],[116.96458,2.7761],[116.96787,2.77613],[116.96941,2.77188],[116.9698,2.76862],[116.97169,2.76774],[116.96784,2.76126],[116.97137,2.75947],[116.97269,2.75912],[116.96892,2.75708],[116.9656,2.75223],[116.96634,2.74728],[116.96899,2.74387],[116.97085,2.74317],[116.96864,2.74072],[116.96947,2.7371],[116.97221,2.73582],[116.97705,2.73512],[116.98101,2.73411],[116.98383,2.73212],[116.98593,2.72724],[116.98741,2.72467],[116.98744,2.72077],[116.98858,2.71783],[116.98849,2.71594],[116.98782,2.71211],[116.98664,2.70627],[116.98523,2.69861],[116.98369,2.69062],[116.98218,2.68271],[116.98092,2.67572],[116.97938,2.66767],[116.97775,2.65958],[116.9763,2.6515],[116.97525,2.64615],[116.97352,2.64247],[116.97298,2.64135],[116.97484,2.63417],[116.97145,2.62556],[116.96957,2.62034],[116.97,2.61699],[116.96651,2.61469],[116.96764,2.61167],[116.97038,2.61015],[116.96954,2.60742],[116.97329,2.60517],[116.97003,2.60368],[116.96997,2.60158],[116.97001,2.59986],[116.97665,2.60226],[116.9776,2.60028],[116.97688,2.59256],[116.97668,2.58898],[116.9769,2.58396],[116.97774,2.5777],[116.97804,2.57538],[116.9783,2.57345],[116.97846,2.57232],[116.97894,2.56878],[116.97913,2.56765],[116.98858,2.51653],[116.98897,2.51445],[116.96819,2.5108],[116.95418,2.50841],[116.94416,2.5069],[116.94154,2.50664],[116.94035,2.50628],[116.93986,2.50613],[116.93828,2.50564],[116.93598,2.50385],[116.93565,2.50359],[116.93553,2.5035],[116.93215,2.50123],[116.93088,2.50089],[116.93355,2.51011],[116.94426,2.54711],[116.9449,2.54856],[116.94506,2.54892],[116.94651,2.55223],[116.94716,2.55373],[116.9481,2.55589],[116.94963,2.55933],[116.95129,2.56305],[116.95287,2.56671],[116.95904,2.57021],[116.96173,2.57268],[116.96461,2.57542],[116.96279,2.57542],[116.95818,2.5781],[116.95366,2.57884],[116.95255,2.57698],[116.94873,2.57695],[116.94758,2.57506],[116.947,2.57566],[116.94533,2.57732],[116.94505,2.57913],[116.94454,2.58264],[116.94721,2.5849],[116.94609,2.58757],[116.94757,2.58939],[116.94798,2.59045],[116.94869,2.59243],[116.94953,2.5939],[116.95025,2.59516],[116.94871,2.59627],[116.94868,2.59746],[116.94846,2.60026],[116.94834,2.60199],[116.94795,2.6039],[116.94495,2.60503],[116.9438,2.60725],[116.94341,2.60805],[116.94043,2.6084],[116.93811,2.61074],[116.93737,2.61375],[116.94037,2.61489],[116.94343,2.6149],[116.94493,2.61679],[116.94759,2.61639],[116.9506,2.61678],[116.95024,2.61754],[116.95024,2.6185],[116.95025,2.62209],[116.94889,2.625],[116.94794,2.62699],[116.94985,2.6285],[116.95062,2.63155],[116.94988,2.63307],[116.94874,2.63347],[116.94492,2.63385],[116.94512,2.63703],[116.94531,2.64062],[116.94645,2.64349],[116.94752,2.64621],[116.94832,2.64821],[116.9488,2.64992],[116.94987,2.65357],[116.94943,2.65682],[116.94888,2.66005],[116.94833,2.66306],[116.94946,2.66607],[116.94911,2.66948],[116.94704,2.67197],[116.94704,2.6742],[116.94633,2.67493],[116.9448,2.67641],[116.94358,2.67815],[116.9421,2.68028],[116.94159,2.68142],[116.94026,2.68451],[116.94024,2.68455],[116.94324,2.68683],[116.94614,2.68783]]],[[[116.97218,2.81898],[116.97218,2.81898],[116.97208,2.81954],[116.97113,2.82018],[116.97012,2.81921],[116.97064,2.81825],[116.96936,2.81931],[116.968,2.82109],[116.96738,2.82134],[116.96676,2.82202],[116.96642,2.82278],[116.96619,2.82295],[116.96554,2.82377],[116.96538,2.82479],[116.96458,2.82575],[116.96385,2.82605],[116.96388,2.82612],[116.96182,2.82663],[116.95902,2.82691],[116.95597,2.82753],[116.95515,2.82749],[116.95505,2.82753],[116.95433,2.82761],[116.95312,2.82753],[116.95253,2.82725],[116.9506,2.82592],[116.95006,2.82519],[116.94933,2.82509],[116.94892,2.82483],[116.94841,2.82452],[116.9481,2.82438],[116.94762,2.82416],[116.9471,2.82427],[116.94574,2.82507],[116.94421,2.82668],[116.94364,2.82734],[116.94362,2.8282],[116.94586,2.82905],[116.94768,2.83054],[116.94799,2.83421],[116.94734,2.83478],[116.94738,2.83631],[116.94581,2.83724],[116.94583,2.83876],[116.94317,2.83976],[116.94461,2.84115],[116.94644,2.84233],[116.94646,2.84234],[116.94646,2.84425],[116.94495,2.84773],[116.94555,2.85092],[116.95528,2.85057],[116.95572,2.85124],[116.95829,2.85424],[116.95704,2.85844],[116.95385,2.8587],[116.95303,2.85958],[116.95128,2.86146],[116.9495,2.85904],[116.94649,2.86195],[116.9464,2.86203],[116.94637,2.86281],[116.94646,2.86426],[116.9462,2.86795],[116.94764,2.86972],[116.94902,2.87053],[116.94876,2.87191],[116.94752,2.87322],[116.94903,2.87568],[116.94844,2.87832],[116.94637,2.8787],[116.94499,2.87835],[116.94297,2.87827],[116.93996,2.88202],[116.93874,2.88197],[116.93634,2.88288],[116.93533,2.88567],[116.93626,2.88717],[116.93554,2.88717],[116.93238,2.88836],[116.93378,2.88874],[116.93478,2.89074],[116.9341,2.8924],[116.93422,2.89444],[116.93567,2.89442],[116.93603,2.89656],[116.93504,2.89871],[116.93017,2.89874],[116.92936,2.90188],[116.92931,2.90383],[116.93083,2.90569],[116.93231,2.90385],[116.93301,2.90534],[116.93389,2.90746],[116.93237,2.91046],[116.93241,2.9105],[116.93244,2.91053],[116.93325,2.91136],[116.93352,2.91235],[116.93566,2.91235],[116.93626,2.91449],[116.9378,2.91654],[116.93715,2.91809],[116.93867,2.91952],[116.9396,2.92207],[116.94143,2.922],[116.94168,2.92377],[116.94149,2.92601],[116.94109,2.92658],[116.94055,2.93052],[116.94143,2.93106],[116.94417,2.93477],[116.94541,2.93473],[116.94537,2.93629],[116.9478,2.93636],[116.94749,2.93843],[116.94872,2.93905],[116.94996,2.9415],[116.94993,2.94298],[116.95219,2.94565],[116.95448,2.94904],[116.9551,2.95354],[116.95321,2.95362],[116.95176,2.95574],[116.95083,2.95664],[116.94845,2.95719],[116.94718,2.96087],[116.94418,2.96029],[116.94413,2.96208],[116.94211,2.96355],[116.94113,2.96443],[116.94115,2.96575],[116.94024,2.96754],[116.93874,2.96733],[116.93896,2.96873],[116.94022,2.96966],[116.93782,2.97211],[116.93617,2.96973],[116.93441,2.97035],[116.93446,2.96935],[116.93201,2.9703],[116.92967,2.97117],[116.92619,2.97241],[116.92415,2.97388],[116.92078,2.9782],[116.9193,2.97784],[116.91749,2.97841],[116.91876,2.98006],[116.9202,2.98202],[116.9208,2.98603],[116.91928,2.98688],[116.91902,2.98962],[116.91741,2.99213],[116.91539,2.99304],[116.91529,2.99549],[116.91416,2.99878],[116.91231,3.00092],[116.91379,3.00477],[116.91383,3.00939],[116.9099,3.00942],[116.90591,3.01213],[116.90594,3.01233],[116.90591,3.01925],[116.90562,3.02189],[116.90415,3.02272],[116.90413,3.02549],[116.90895,3.02914],[116.91112,3.02974],[116.91175,3.03127],[116.9108,3.03541],[116.91097,3.03735],[116.91109,3.03914],[116.90949,3.0445],[116.90932,3.04496],[116.90733,3.05146],[116.90537,3.05802],[116.903,3.06582],[116.91522,3.07026],[116.93261,3.07576],[116.9572,3.0768],[116.95875,3.07681],[117.00952,3.07706],[117.01763,3.07552],[117.01691,3.06921],[117.01139,3.05632],[117.0081,3.05184],[117.00472,3.04683],[117.00088,3.0411],[116.99621,3.03405],[116.99156,3.02718],[116.98658,3.01971],[116.98142,3.01202],[116.97626,3.00433],[116.97417,3.00117],[116.96775,2.99627],[116.96618,2.9951],[116.96191,2.98946],[116.9619,2.98713],[116.95992,2.98659],[116.96101,2.98381],[116.96714,2.98372],[116.96753,2.98235],[116.97088,2.98089],[116.96895,2.97844],[116.96956,2.97423],[116.97087,2.9725],[116.97097,2.96609],[116.97139,2.9623],[116.97428,2.95913],[116.97662,2.95715],[116.97134,2.95141],[116.97027,2.94867],[116.9695,2.94667],[116.9659,2.94162],[116.96478,2.9397],[116.96732,2.93755],[116.97146,2.93484],[116.9747,2.92974],[116.97845,2.92968],[116.97801,2.92494],[116.97512,2.92491],[116.97426,2.92732],[116.97049,2.92406],[116.97047,2.92109],[116.968,2.91825],[116.96708,2.91498],[116.96762,2.91026],[116.96374,2.90595],[116.96287,2.90082],[116.96286,2.89599],[116.95664,2.89514],[116.95477,2.89217],[116.9548,2.88787],[116.95384,2.8856],[116.95482,2.88098],[116.95614,2.87752],[116.95626,2.87377],[116.96143,2.86858],[116.95908,2.8652],[116.96147,2.8618],[116.96488,2.85842],[116.96677,2.85952],[116.97043,2.85988],[116.97247,2.85952],[116.9732,2.85809],[116.97318,2.85612],[116.97687,2.85317],[116.97924,2.85155],[116.98198,2.85034],[116.983,2.84822],[116.98575,2.84776],[116.98593,2.84204],[116.986,2.83824],[116.98795,2.83517],[116.9884,2.8322],[116.98724,2.82952],[116.98572,2.82845],[116.9857,2.82499],[116.98418,2.82277],[116.98421,2.82164],[116.98156,2.82164],[116.98265,2.82082],[116.98255,2.82074],[116.97921,2.81825],[116.97957,2.81869],[116.97957,2.81869],[116.97722,2.81901],[116.97722,2.81901],[116.97652,2.8191],[116.97634,2.81974],[116.97326,2.81892],[116.97262,2.8184],[116.97236,2.81837],[116.97218,2.81898]]]]},"properties":{"kdprov":"65","kdkab":"02","kdkec":"020","kddesa":"003","kdsls":"2001","idsls":"65020200032001","nmprov":"KALIMANTAN UTARA","nmkab":"BULUNGAN","nmkec":"PESO HILIR","nmdesa":"LONG BANG HULU","nmsls":"HUTAN"}},{"type":"Feature","geometry":{"type":"MultiPolygon","coordinates":[[[[117.02597,2.78939],[117.02501,2.78374],[117.02465,2.78236],[117.02384,2.77807],[117.02352,2.77642],[117.0223,2.77027],[117.02119,2.76443],[117.01984,2.76336],[117.01782,2.76137],[117.01699,2.75678],[117.01586,2.75084],[117.01075,2.7527],[117.00857,2.74897],[117.00862,2.74585],[117.00858,2.74254],[117.01176,2.73638],[117.01503,2.73016],[117.0164,2.72765],[117.01535,2.72346],[117.01405,2.71784],[117.01295,2.71276],[117.01141,2.70663],[117.01,2.70064],[117.0086,2.6944],[117.00731,2.6888],[117.00599,2.68307],[117.0046,2.67742],[117.00325,2.67163],[117.00238,2.66614],[117.00168,2.66194],[117.00031,2.65643],[116.99902,2.65138],[116.99779,2.64627],[116.99652,2.6405],[116.99681,2.63414],[116.99697,2.62837],[116.99693,2.62193],[116.99697,2.61609],[116.99727,2.6102],[116.99785,2.604],[116.9981,2.59992],[116.999,2.59695],[117.00054,2.59104],[117.00068,2.59037],[117.00179,2.58529],[117.00214,2.58343],[117.00219,2.58314],[117.02035,2.54945],[117.03189,2.52804],[117.02939,2.52477],[117.02539,2.52162],[117.02176,2.51961],[117.01738,2.5181],[117.01137,2.51697],[117.00086,2.51495],[116.99435,2.51407],[116.99147,2.51432],[116.98897,2.51445],[116.98858,2.51653],[116.97913,2.56765],[116.97894,2.56878],[116.97846,2.57232],[116.9783,2.57345],[116.97804,2.57538],[116.97774,2.5777],[116.9769,2.58396],[116.97668,2.58898],[116.97688,2.59256],[116.9776,2.60028],[116.97665,2.60226],[116.97001,2.59986],[116.96997,2.60158],[116.97003,2.60368],[116.97329,2.60517],[116.96954,2.60742],[116.97038,2.61015],[116.96764,2.61167],[116.96651,2.61469],[116.97,2.61699],[116.96957,2.62034],[116.97145,2.62556],[116.97484,2.63417],[116.97298,2.64135],[116.97352,2.64247],[116.97525,2.64615],[116.9763,2.6515],[116.97775,2.65958],[116.97938,2.66767],[116.98092,2.67572],[116.98218,2.68271],[116.98369,2.69062],[116.98523,2.69861],[116.98664,2.70627],[116.98782,2.71211],[116.98849,2.71594],[116.98858,2.71783],[116.98744,2.72077],[116.98741,2.72467],[116.98593,2.72724],[116.98383,2.73212],[116.98101,2.73411],[116.97705,2.73512],[116.97221,2.73582],[116.96947,2.7371],[116.96864,2.74072],[116.97085,2.74317],[116.96899,2.74387],[116.96634,2.74728],[116.9656,2.75223],[116.96892,2.75708],[116.97269,2.75912],[116.97137,2.75947],[116.96784,2.76126],[116.97169,2.76774],[116.9698,2.76862],[116.96941,2.77188],[116.96787,2.77613],[116.96458,2.7761],[116.96071,2.77421],[116.95882,2.77491],[116.95546,2.77849],[116.95859,2.77919],[116.96112,2.7791],[116.96252,2.78284],[116.96511,2.78519],[116.96781,2.78563],[116.97046,2.78411],[116.97247,2.78642],[116.97405,2.78764],[116.97775,2.79134],[116.97746,2.7997],[116.97735,2.80763],[116.97733,2.80976],[116.97784,2.80923],[116.97879,2.80821],[116.97915,2.80783],[116.97935,2.80746],[116.98004,2.80622],[116.98056,2.80544],[116.98124,2.80442],[116.98184,2.80331],[116.98304,2.8017],[116.98307,2.80167],[116.98354,2.8012],[116.98434,2.8009],[116.98544,2.8011],[116.98597,2.80137],[116.98624,2.80151],[116.98734,2.8016],[116.98853,2.80131],[116.99093,2.8002],[116.99193,2.7996],[116.99282,2.7994],[116.99612,2.79859],[116.99882,2.79829],[116.99977,2.79815],[117.00091,2.79799],[117.00243,2.79759],[117.00281,2.79749],[117.00352,2.79735],[117.00591,2.79688],[117.00761,2.79653],[117.0088,2.79629],[117.0106,2.79603],[117.01339,2.79573],[117.01466,2.79561],[117.01649,2.79543],[117.01928,2.79513],[117.02011,2.79496],[117.02078,2.79483],[117.02258,2.79453],[117.02448,2.79353],[117.02654,2.7927],[117.02626,2.79058],[117.02597,2.78939]]],[[[116.97872,2.81161],[116.97898,2.8119],[116.97915,2.81212],[116.97913,2.81256],[116.97883,2.81319],[116.97784,2.81433],[116.97762,2.81465],[116.97657,2.81492],[116.97657,2.81492],[116.97657,2.81492],[116.97657,2.81492],[116.97666,2.81528],[116.97957,2.81869],[116.97921,2.81825],[116.98255,2.82074],[116.98265,2.82082],[116.98156,2.82164],[116.98421,2.82164],[116.98418,2.82277],[116.9857,2.82499],[116.98572,2.82845],[116.98724,2.82952],[116.9884,2.8322],[116.98795,2.83517],[116.986,2.83824],[116.98593,2.84204],[116.98575,2.84776],[116.983,2.84822],[116.98198,2.85034],[116.97924,2.85155],[116.97687,2.85317],[116.97318,2.85612],[116.9732,2.85809],[116.97247,2.85952],[116.97043,2.85988],[116.96677,2.85952],[116.96488,2.85842],[116.96147,2.8618],[116.95908,2.8652],[116.96143,2.86858],[116.95626,2.87377],[116.95614,2.87752],[116.95482,2.88098],[116.95384,2.8856],[116.9548,2.88787],[116.95477,2.89217],[116.95664,2.89514],[116.96286,2.89599],[116.96287,2.90082],[116.96374,2.90595],[116.96762,2.91026],[116.96708,2.91498],[116.968,2.91825],[116.97047,2.92109],[116.97049,2.92406],[116.97426,2.92732],[116.97512,2.92491],[116.97801,2.92494],[116.97845,2.92968],[116.9747,2.92974],[116.97146,2.93484],[116.96732,2.93755],[116.96478,2.9397],[116.9659,2.94162],[116.9695,2.94667],[116.97027,2.94867],[116.97134,2.95141],[116.97662,2.95715],[116.97428,2.95913],[116.97139,2.9623],[116.97097,2.96609],[116.97087,2.9725],[116.96956,2.97423],[116.96895,2.97844],[116.97088,2.98089],[116.96753,2.98235],[116.96714,2.98372],[116.96101,2.98381],[116.95992,2.98659],[116.9619,2.98713],[116.96191,2.98946],[116.96618,2.9951],[116.96775,2.99627],[116.97417,3.00117],[116.97626,3.00433],[116.98142,3.01202],[116.98658,3.01971],[116.99156,3.02718],[116.99621,3.03405],[117.00088,3.0411],[117.00472,3.04683],[117.0081,3.05184],[117.01139,3.05632],[117.01691,3.06921],[117.01763,3.07552],[117.01776,3.07549],[117.02587,3.06922],[117.02594,3.06905],[117.0311,3.05692],[117.03031,3.05038],[117.03031,3.0496],[117.03007,3.04493],[117.02995,3.0448],[117.0237,3.03321],[117.03006,3.02154],[117.02927,3.01997],[117.02647,3.01439],[117.02368,3.00893],[117.02112,3.0038],[117.01813,2.99791],[117.01501,2.99176],[117.01202,2.98578],[117.00927,2.98046],[117.00678,2.97533],[117.00423,2.96989],[117.00155,2.96386],[116.99887,2.95814],[116.99786,2.95575],[116.9972,2.95127],[116.99626,2.94469],[116.99527,2.93769],[116.99521,2.93729],[116.99659,2.93101],[116.9966,2.92917],[116.9952,2.92641],[116.99579,2.92469],[116.99812,2.92415],[116.99849,2.91759],[116.99869,2.91596],[117.00038,2.91042],[117.0023,2.90446],[117.002,2.89743],[117.0018,2.89344],[117.00369,2.8865],[117.00423,2.88445],[117.00439,2.87933],[117.0046,2.87273],[117.00475,2.86769],[117.00562,2.86057],[117.00646,2.8538],[117.00731,2.84689],[117.00791,2.83993],[117.00824,2.83458],[117.00651,2.83255],[117.00461,2.83241],[117.00392,2.83012],[117.00425,2.82779],[117.00504,2.82597],[117.00504,2.82597],[117.00504,2.82597],[117.00507,2.8259],[117.00926,2.82266],[117.01171,2.82197],[117.0133,2.82078],[117.01186,2.81882],[117.01189,2.81872],[117.01286,2.81447],[117.01771,2.80955],[117.02283,2.8059],[117.02476,2.80319],[117.02672,2.79951],[117.02703,2.79654],[117.02683,2.79497],[117.02668,2.79501],[117.0261,2.79517],[117.02568,2.79529],[117.02497,2.79565],[117.02425,2.79601],[117.02393,2.79613],[117.02347,2.79629],[117.02325,2.79629],[117.02161,2.79644],[117.021,2.79647],[117.02073,2.79656],[117.01739,2.79704],[117.01474,2.79701],[117.01363,2.79706],[117.0124,2.79752],[117.00983,2.79795],[117.00768,2.79831],[117.00719,2.79854],[117.00675,2.79874],[117.00454,2.79903],[117.00405,2.7991],[117.00128,2.79951],[116.99891,2.80021],[116.99657,2.80026],[116.99318,2.80077],[116.99177,2.80171],[116.99028,2.8021],[116.98951,2.8023],[116.989,2.80269],[116.98771,2.80329],[116.98741,2.80343],[116.98603,2.80346],[116.9856,2.80349],[116.985,2.80308],[116.98434,2.80311],[116.98356,2.80354],[116.98267,2.80458],[116.98222,2.80511],[116.98176,2.80586],[116.9815,2.80668],[116.98091,2.80798],[116.97966,2.80975],[116.97922,2.81032],[116.9786,2.81098],[116.97827,2.81126],[116.97861,2.81149],[116.97872,2.81161]]]]},"properties":{"kdprov":"65","kdkab":"02","kdkec":"020","kddesa":"004","kdsls":"2001","idsls":"65020200042001","nmprov":"KALIMANTAN UTARA","nmkab":"BULUNGAN","nmkec":"PESO HILIR","nmdesa":"LONG BANG","nmsls":"HUTAN"}},{"type":"Feature","geometry":{"type":"MultiPolygon","coordinates":[[[[117.04078,2.55196],[117.02336,2.58952],[117.02336,2.58952],[117.02275,2.59185],[117.02262,2.59234],[117.02191,2.59507],[117.02192,2.59527],[117.02207,2.59756],[117.02228,2.60079],[117.0227,2.60768],[117.02306,2.6144],[117.02348,2.62117],[117.0239,2.6281],[117.02427,2.63476],[117.02468,2.64167],[117.02507,2.64853],[117.02537,2.6548],[117.02679,2.66098],[117.0283,2.66758],[117.02983,2.67416],[117.0305,2.67723],[117.03158,2.68102],[117.03369,2.68739],[117.03577,2.69366],[117.03785,2.69998],[117.03989,2.70629],[117.04202,2.71259],[117.04347,2.7172],[117.04498,2.71945],[117.0476,2.72338],[117.04854,2.72582],[117.05093,2.73185],[117.0533,2.73774],[117.05552,2.74332],[117.05755,2.74854],[117.05976,2.75407],[117.06137,2.75817],[117.06293,2.76108],[117.06582,2.76683],[117.0687,2.7712],[117.06917,2.77191],[117.07169,2.77612],[117.07595,2.78138],[117.07661,2.78277],[117.07874,2.78727],[117.07885,2.79347],[117.07889,2.79467],[117.07938,2.79347],[117.08019,2.79246],[117.08099,2.79186],[117.08208,2.79056],[117.08408,2.78825],[117.08488,2.78705],[117.08668,2.78348],[117.08746,2.78294],[117.08797,2.78258],[117.08897,2.78187],[117.08952,2.7811],[117.08912,2.78086],[117.08907,2.77975],[117.08908,2.77939],[117.08974,2.77875],[117.08941,2.77833],[117.08913,2.77728],[117.08809,2.77189],[117.08858,2.77167],[117.08939,2.77129],[117.08887,2.77093],[117.08837,2.77058],[117.08788,2.77023],[117.08788,2.77023],[117.08746,2.76922],[117.08737,2.76902],[117.08688,2.76792],[117.08668,2.76747],[117.08607,2.76611],[117.08594,2.76524],[117.08588,2.76481],[117.08588,2.76481],[117.08588,2.7638],[117.0858,2.76358],[117.08557,2.7629],[117.08537,2.7619],[117.08537,2.76189],[117.08598,2.76109],[117.0863,2.76093],[117.08657,2.76079],[117.08698,2.76079],[117.08777,2.76079],[117.08907,2.76119],[117.08959,2.76163],[117.08967,2.76169],[117.08972,2.76176],[117.08997,2.76209],[117.09018,2.76253],[117.09027,2.7627],[117.09035,2.76282],[117.09057,2.7632],[117.09075,2.76329],[117.09097,2.7634],[117.09126,2.7635],[117.09193,2.76342],[117.09287,2.7633],[117.09436,2.7629],[117.09656,2.76189],[117.09825,2.76099],[117.09963,2.75997],[117.10015,2.75959],[117.10091,2.75875],[117.10394,2.75541],[117.10474,2.75512],[117.10534,2.75541],[117.10604,2.75551],[117.10736,2.75527],[117.10716,2.7549],[117.09617,2.74514],[117.07916,2.73415],[117.0784,2.73293],[117.06604,2.70761],[117.05498,2.69159],[117.05162,2.67312],[117.04437,2.64657],[117.04339,2.63486],[117.04331,2.63401],[117.04315,2.63208],[117.04033,2.6034],[117.0404,2.60207],[117.04052,2.5997],[117.04056,2.59885],[117.04062,2.59783],[117.04066,2.59695],[117.05217,2.56744],[117.05029,2.56492],[117.04804,2.56228],[117.04579,2.55863],[117.04341,2.55485],[117.04269,2.55407],[117.04078,2.55196]]]]},"properties":{"kdprov":"65","kdkab":"02","kdkec":"020","kddesa":"006","kdsls":"2001","idsls":"65020200062001","nmprov":"KALIMANTAN UTARA","nmkab":"BULUNGAN","nmkec":"PESO HILIR","nmdesa":"LONG LEMBU","nmsls":"HUTAN"}},{"type":"Feature","geometry":{"type":"MultiPolygon","coordinates":[[[[117.09176,2.77844],[117.08913,2.77728],[117.08941,2.77833],[117.08974,2.77875],[117.08983,2.77866],[117.09091,2.77964],[117.09176,2.77844]]]]},"properties":{"kdprov":"65","kdkab":"02","kdkec":"020","kddesa":"006","kdsls":"0002","idsls":"65020200060002","nmprov":"KALIMANTAN UTARA","nmkab":"BULUNGAN","nmkec":"PESO HILIR","nmdesa":"LONG LEMBU","nmsls":"RT 002"}},{"type":"Feature","geometry":{"type":"MultiPolygon","coordinates":[[[[116.90527,2.84566],[116.90644,2.84541],[116.90728,2.84551],[116.90725,2.84449],[116.90702,2.84374],[116.90676,2.84296],[116.90659,2.84235],[116.90541,2.84246],[116.90541,2.84246],[116.90527,2.84566]]]]},"properties":{"kdprov":"65","kdkab":"02","kdkec":"020","kddesa":"001","kdsls":"0005","idsls":"65020200010005","nmprov":"KALIMANTAN UTARA","nmkab":"BULUNGAN","nmkec":"PESO HILIR","nmdesa":"NAHA AYA","nmsls":"RT 005"}},{"type":"Feature","geometry":{"type":"MultiPolygon","coordinates":[[[[116.97578,2.81537],[116.97557,2.81401],[116.97554,2.81401],[116.97514,2.81403],[116.97434,2.81461],[116.97422,2.81469],[116.97443,2.81493],[116.97481,2.81534],[116.97496,2.8155],[116.97578,2.81537]]]]},"properties":{"kdprov":"65","kdkab":"02","kdkec":"020","kddesa":"004","kdsls":"0003","idsls":"65020200040003","nmprov":"KALIMANTAN UTARA","nmkab":"BULUNGAN","nmkec":"PESO HILIR","nmdesa":"LONG BANG","nmsls":"RT 003"}},{"type":"Feature","geometry":{"type":"MultiPolygon","coordinates":[[[[116.97657,2.81492],[116.97617,2.81554],[116.97578,2.81537],[116.97496,2.8155],[116.97481,2.81534],[116.97443,2.81493],[116.97422,2.81469],[116.97372,2.81505],[116.97413,2.81538],[116.97488,2.81618],[116.97488,2.81618],[116.97722,2.81901],[116.97957,2.81869],[116.97957,2.81869],[116.97666,2.81528],[116.97657,2.81492],[116.97657,2.81492],[116.97657,2.81492]]]]},"properties":{"kdprov":"65","kdkab":"02","kdkec":"020","kddesa":"004","kdsls":"0004","idsls":"65020200040004","nmprov":"KALIMANTAN UTARA","nmkab":"BULUNGAN","nmkec":"PESO HILIR","nmdesa":"LONG BANG","nmsls":"RT 004"}},{"type":"Feature","geometry":{"type":"MultiPolygon","coordinates":[[[[116.86908,2.86302],[116.86842,2.86316],[116.86826,2.86336],[116.86829,2.8639],[116.86862,2.8645],[116.86902,2.86461],[116.86974,2.86402],[116.86984,2.86361],[116.86946,2.86308],[116.86908,2.86302]]]]},"properties":{"kdprov":"65","kdkab":"02","kdkec":"020","kddesa":"001","kdsls":"0004","idsls":"65020200010004","nmprov":"KALIMANTAN UTARA","nmkab":"BULUNGAN","nmkec":"PESO HILIR","nmdesa":"NAHA AYA","nmsls":"RT 004"}}]}