{"type":"FeatureCollection","features":[{"type":"Feature","geometry":{"type":"MultiPolygon","coordinates":[[[[117.23326,2.75424],[117.23303,2.75337],[117.23278,2.75339],[117.23222,2.75155],[117.23222,2.75155],[117.23147,2.75228],[117.2324,2.75346],[117.2324,2.75435],[117.23288,2.75432],[117.23326,2.75424]]]]},"properties":{"kdprov":"65","kdkab":"02","kdkec":"030","kddesa":"004","kdsls":"0007","idsls":"65020300040007","nmprov":"KALIMANTAN UTARA","nmkab":"BULUNGAN","nmkec":"TANJUNG PALAS BARAT","nmdesa":"MARA SATU","nmsls":"RT 007"}},{"type":"Feature","geometry":{"type":"MultiPolygon","coordinates":[[[[117.13066,2.73095],[117.12782,2.73002],[117.12782,2.73002],[117.12577,2.72936],[117.12577,2.72936],[117.12577,2.72936],[117.1248,2.7319],[117.12817,2.73309],[117.12843,2.73328],[117.12854,2.73318],[117.1287,2.73303],[117.1296,2.73203],[117.13053,2.73108],[117.13066,2.73095]]]]},"properties":{"kdprov":"65","kdkab":"02","kdkec":"030","kddesa":"001","kdsls":"0009","idsls":"65020300010009","nmprov":"KALIMANTAN UTARA","nmkab":"BULUNGAN","nmkec":"TANJUNG PALAS BARAT","nmdesa":"LONG BELUAH","nmsls":"RT 009"}},{"type":"Feature","geometry":{"type":"MultiPolygon","coordinates":[[[[117.12565,2.73667],[117.1257,2.73661],[117.1263,2.73574],[117.12666,2.73525],[117.12639,2.73506],[117.12553,2.73441],[117.12553,2.73441],[117.1255,2.73443],[117.12489,2.73509],[117.12471,2.73531],[117.12434,2.73582],[117.12408,2.73616],[117.12565,2.73667]]]]},"properties":{"kdprov":"65","kdkab":"02","kdkec":"030","kddesa":"001","kdsls":"0007","idsls":"65020300010007","nmprov":"KALIMANTAN UTARA","nmkab":"BULUNGAN","nmkec":"TANJUNG PALAS BARAT","nmdesa":"LONG BELUAH","nmsls":"RT 007"}},{"type":"Feature","geometry":{"type":"MultiPolygon","coordinates":[[[[117.12843,2.73328],[117.12817,2.73309],[117.1248,2.7319],[117.12553,2.73441],[117.12639,2.73506],[117.12666,2.73525],[117.12732,2.73434],[117.1274,2.73423],[117.12843,2.73328]]]]},"properties":{"kdprov":"65","kdkab":"02","kdkec":"030","kddesa":"001","kdsls":"0008","idsls":"65020300010008","nmprov":"KALIMANTAN UTARA","nmkab":"BULUNGAN","nmkec":"TANJUNG PALAS BARAT","nmdesa":"LONG BELUAH","nmsls":"RT 008"}},{"type":"Feature","geometry":{"type":"MultiPolygon","coordinates":[[[[117.12251,2.73625],[117.12251,2.73625],[117.12119,2.73808],[117.1229,2.73931],[117.12384,2.73785],[117.12251,2.73625]]]]},"properties":{"kdprov":"65","kdkab":"02","kdkec":"030","kddesa":"001","kdsls":"0004","idsls":"65020300010004","nmprov":"KALIMANTAN UTARA","nmkab":"BULUNGAN","nmkec":"TANJUNG PALAS BARAT","nmdesa":"LONG BELUAH","nmsls":"RT 004"}},{"type":"Feature","geometry":{"type":"MultiPolygon","coordinates":[[[[117.12565,2.73667],[117.12408,2.73616],[117.12281,2.73574],[117.12251,2.73625],[117.12384,2.73785],[117.12461,2.73817],[117.1248,2.7379],[117.12565,2.73667]]]]},"properties":{"kdprov":"65","kdkab":"02","kdkec":"030","kddesa":"001","kdsls":"0006","idsls":"65020300010006","nmprov":"KALIMANTAN UTARA","nmkab":"BULUNGAN","nmkec":"TANJUNG PALAS BARAT","nmdesa":"LONG BELUAH","nmsls":"RT 006"}},{"type":"Feature","geometry":{"type":"MultiPolygon","coordinates":[[[[117.1229,2.73931],[117.12119,2.73808],[117.12118,2.73808],[117.12016,2.73872],[117.12018,2.73921],[117.1218,2.74011],[117.1218,2.74011],[117.12211,2.74041],[117.1229,2.73931]]]]},"properties":{"kdprov":"65","kdkab":"02","kdkec":"030","kddesa":"001","kdsls":"0003","idsls":"65020300010003","nmprov":"KALIMANTAN UTARA","nmkab":"BULUNGAN","nmkec":"TANJUNG PALAS BARAT","nmdesa":"LONG BELUAH","nmsls":"RT 003"}},{"type":"Feature","geometry":{"type":"MultiPolygon","coordinates":[[[[117.12384,2.73785],[117.1229,2.73931],[117.12211,2.74041],[117.12269,2.74098],[117.12271,2.74096],[117.12287,2.74072],[117.12421,2.73875],[117.12461,2.73817],[117.12384,2.73785]]]]},"properties":{"kdprov":"65","kdkab":"02","kdkec":"030","kddesa":"001","kdsls":"0005","idsls":"65020300010005","nmprov":"KALIMANTAN UTARA","nmkab":"BULUNGAN","nmkec":"TANJUNG PALAS BARAT","nmdesa":"LONG BELUAH","nmsls":"RT 005"}},{"type":"Feature","geometry":{"type":"MultiPolygon","coordinates":[[[[117.1218,2.74011],[117.1218,2.74011],[117.12018,2.73921],[117.12018,2.74138],[117.12031,2.7428],[117.12066,2.74298],[117.12086,2.74284],[117.12133,2.74252],[117.1214,2.74247],[117.12086,2.74163],[117.12102,2.74128],[117.1218,2.74011]]]]},"properties":{"kdprov":"65","kdkab":"02","kdkec":"030","kddesa":"001","kdsls":"0001","idsls":"65020300010001","nmprov":"KALIMANTAN UTARA","nmkab":"BULUNGAN","nmkec":"TANJUNG PALAS BARAT","nmdesa":"LONG BELUAH","nmsls":"RT 001"}},{"type":"Feature","geometry":{"type":"MultiPolygon","coordinates":[[[[117.12211,2.74041],[117.1218,2.74011],[117.12102,2.74128],[117.12086,2.74163],[117.1214,2.74247],[117.12171,2.74227],[117.1221,2.74175],[117.12269,2.74098],[117.12211,2.74041]]]]},"properties":{"kdprov":"65","kdkab":"02","kdkec":"030","kddesa":"001","kdsls":"0002","idsls":"65020300010002","nmprov":"KALIMANTAN UTARA","nmkab":"BULUNGAN","nmkec":"TANJUNG PALAS BARAT","nmdesa":"LONG BELUAH","nmsls":"RT 002"}},{"type":"Feature","geometry":{"type":"MultiPolygon","coordinates":[[[[117.15814,2.73914],[117.1583,2.73935],[117.15954,2.74086],[117.16117,2.74271],[117.16119,2.74272],[117.16238,2.74134],[117.16238,2.74134],[117.15923,2.73826],[117.15814,2.73914]]]]},"properties":{"kdprov":"65","kdkab":"02","kdkec":"030","kddesa":"002","kdsls":"0001","idsls":"65020300020001","nmprov":"KALIMANTAN UTARA","nmkab":"BULUNGAN","nmkec":"TANJUNG PALAS BARAT","nmdesa":"LONG SAM","nmsls":"RT 001"}},{"type":"Feature","geometry":{"type":"MultiPolygon","coordinates":[[[[117.16238,2.74134],[117.16119,2.74272],[117.16174,2.7434],[117.16325,2.74222],[117.16325,2.74222],[117.16238,2.74134]]]]},"properties":{"kdprov":"65","kdkab":"02","kdkec":"030","kddesa":"002","kdsls":"0002","idsls":"65020300020002","nmprov":"KALIMANTAN UTARA","nmkab":"BULUNGAN","nmkec":"TANJUNG PALAS BARAT","nmdesa":"LONG SAM","nmsls":"RT 002"}},{"type":"Feature","geometry":{"type":"MultiPolygon","coordinates":[[[[117.16325,2.74222],[117.16325,2.74222],[117.16174,2.7434],[117.16202,2.74373],[117.16234,2.74404],[117.16257,2.74391],[117.16347,2.74406],[117.16387,2.74377],[117.16444,2.74295],[117.16443,2.74294],[117.16343,2.74215],[117.16325,2.74222]]]]},"properties":{"kdprov":"65","kdkab":"02","kdkec":"030","kddesa":"002","kdsls":"0003","idsls":"65020300020003","nmprov":"KALIMANTAN UTARA","nmkab":"BULUNGAN","nmkec":"TANJUNG PALAS BARAT","nmdesa":"LONG SAM","nmsls":"RT 003"}},{"type":"Feature","geometry":{"type":"MultiPolygon","coordinates":[[[[117.16443,2.74294],[117.16444,2.74295],[117.16387,2.74377],[117.16347,2.74406],[117.16257,2.74391],[117.16234,2.74404],[117.16297,2.74464],[117.16444,2.74662],[117.16584,2.74773],[117.16714,2.74853],[117.16844,2.74954],[117.16924,2.74983],[117.16936,2.74985],[117.1698,2.74844],[117.17028,2.7472],[117.16446,2.74291],[117.16443,2.74294]]]]},"properties":{"kdprov":"65","kdkab":"02","kdkec":"030","kddesa":"002","kdsls":"0004","idsls":"65020300020004","nmprov":"KALIMANTAN UTARA","nmkab":"BULUNGAN","nmkec":"TANJUNG PALAS BARAT","nmdesa":"LONG SAM","nmsls":"RT 004"}},{"type":"Feature","geometry":{"type":"MultiPolygon","coordinates":[[[[117.18166,2.76461],[117.1818,2.76369],[117.18193,2.76276],[117.1806,2.76167],[117.17723,2.76121],[117.17694,2.76212],[117.17695,2.76212],[117.17659,2.76394],[117.17664,2.76546],[117.17734,2.76589],[117.18003,2.76496],[117.18166,2.76461]]]]},"properties":{"kdprov":"65","kdkab":"02","kdkec":"030","kddesa":"002","kdsls":"0005","idsls":"65020300020005","nmprov":"KALIMANTAN UTARA","nmkab":"BULUNGAN","nmkec":"TANJUNG PALAS BARAT","nmdesa":"LONG SAM","nmsls":"RT 005"}},{"type":"Feature","geometry":{"type":"MultiPolygon","coordinates":[[[[117.2365,2.75288],[117.23689,2.75269],[117.2387,2.75194],[117.23816,2.75098],[117.23649,2.75174],[117.23591,2.75202],[117.2365,2.75288]]]]},"properties":{"kdprov":"65","kdkab":"02","kdkec":"030","kddesa":"004","kdsls":"0003","idsls":"65020300040003","nmprov":"KALIMANTAN UTARA","nmkab":"BULUNGAN","nmkec":"TANJUNG PALAS BARAT","nmdesa":"MARA SATU","nmsls":"RT 003"}},{"type":"Feature","geometry":{"type":"MultiPolygon","coordinates":[[[[117.23649,2.75174],[117.23816,2.75098],[117.23783,2.75038],[117.23614,2.75097],[117.23649,2.75174]]]]},"properties":{"kdprov":"65","kdkab":"02","kdkec":"030","kddesa":"004","kdsls":"0002","idsls":"65020300040002","nmprov":"KALIMANTAN UTARA","nmkab":"BULUNGAN","nmkec":"TANJUNG PALAS BARAT","nmdesa":"MARA SATU","nmsls":"RT 002"}},{"type":"Feature","geometry":{"type":"MultiPolygon","coordinates":[[[[117.2365,2.75288],[117.23591,2.75202],[117.23649,2.75174],[117.23614,2.75097],[117.23511,2.74869],[117.23336,2.75112],[117.2334,2.75113],[117.23481,2.75253],[117.23556,2.75286],[117.23586,2.7532],[117.2365,2.75288]]]]},"properties":{"kdprov":"65","kdkab":"02","kdkec":"030","kddesa":"004","kdsls":"0004","idsls":"65020300040004","nmprov":"KALIMANTAN UTARA","nmkab":"BULUNGAN","nmkec":"TANJUNG PALAS BARAT","nmdesa":"MARA SATU","nmsls":"RT 004"}},{"type":"Feature","geometry":{"type":"MultiPolygon","coordinates":[[[[117.23326,2.75424],[117.23415,2.75406],[117.23441,2.75392],[117.23336,2.75112],[117.23222,2.75155],[117.23278,2.75339],[117.23303,2.75337],[117.23326,2.75424]]]]},"properties":{"kdprov":"65","kdkab":"02","kdkec":"030","kddesa":"004","kdsls":"0006","idsls":"65020300040006","nmprov":"KALIMANTAN UTARA","nmkab":"BULUNGAN","nmkec":"TANJUNG PALAS BARAT","nmdesa":"MARA SATU","nmsls":"RT 006"}},{"type":"Feature","geometry":{"type":"MultiPolygon","coordinates":[[[[117.23614,2.75097],[117.23783,2.75038],[117.23645,2.74811],[117.23645,2.74811],[117.23511,2.74869],[117.23614,2.75097]]]]},"properties":{"kdprov":"65","kdkab":"02","kdkec":"030","kddesa":"004","kdsls":"0008","idsls":"65020300040008","nmprov":"KALIMANTAN UTARA","nmkab":"BULUNGAN","nmkec":"TANJUNG PALAS BARAT","nmdesa":"MARA SATU","nmsls":"RT 008"}},{"type":"Feature","geometry":{"type":"MultiPolygon","coordinates":[[[[117.2324,2.75435],[117.2324,2.75346],[117.23147,2.75228],[117.23147,2.75228],[117.23046,2.75236],[117.23096,2.75435],[117.23124,2.75442],[117.2324,2.75435]]]]},"properties":{"kdprov":"65","kdkab":"02","kdkec":"030","kddesa":"004","kdsls":"0009","idsls":"65020300040009","nmprov":"KALIMANTAN UTARA","nmkab":"BULUNGAN","nmkec":"TANJUNG PALAS BARAT","nmdesa":"MARA SATU","nmsls":"RT 009"}},{"type":"Feature","geometry":{"type":"MultiPolygon","coordinates":[[[[117.23645,2.74811],[117.23783,2.75038],[117.24035,2.74892],[117.24035,2.74892],[117.23872,2.74679],[117.23814,2.74713],[117.23645,2.74811]]]]},"properties":{"kdprov":"65","kdkab":"02","kdkec":"030","kddesa":"004","kdsls":"0001","idsls":"65020300040001","nmprov":"KALIMANTAN UTARA","nmkab":"BULUNGAN","nmkec":"TANJUNG PALAS BARAT","nmdesa":"MARA SATU","nmsls":"RT 001"}},{"type":"Feature","geometry":{"type":"MultiPolygon","coordinates":[[[[117.23816,2.75098],[117.2387,2.75194],[117.23954,2.75159],[117.24209,2.75026],[117.24113,2.74817],[117.24113,2.74817],[117.24035,2.74892],[117.24035,2.74892],[117.23783,2.75038],[117.23816,2.75098]]]]},"properties":{"kdprov":"65","kdkab":"02","kdkec":"030","kddesa":"005","kdsls":"0001","idsls":"65020300050001","nmprov":"KALIMANTAN UTARA","nmkab":"BULUNGAN","nmkec":"TANJUNG PALAS BARAT","nmdesa":"MARA HILIR","nmsls":"RT 001"}},{"type":"Feature","geometry":{"type":"MultiPolygon","coordinates":[[[[117.24433,2.74899],[117.24537,2.74837],[117.24975,2.7455],[117.25109,2.74469],[117.25111,2.74468],[117.2524,2.74059],[117.24641,2.74242],[117.24225,2.74595],[117.24274,2.74753],[117.24275,2.74753],[117.24433,2.74899]]]]},"properties":{"kdprov":"65","kdkab":"02","kdkec":"030","kddesa":"005","kdsls":"0004","idsls":"65020300050004","nmprov":"KALIMANTAN UTARA","nmkab":"BULUNGAN","nmkec":"TANJUNG PALAS BARAT","nmdesa":"MARA HILIR","nmsls":"RT 004"}},{"type":"Feature","geometry":{"type":"MultiPolygon","coordinates":[[[[117.12782,2.73002],[117.12782,2.73002],[117.13066,2.73095],[117.13093,2.73067],[117.13349,2.72805],[117.13448,2.72747],[117.13279,2.72538],[117.13279,2.72538],[117.131,2.72663],[117.13059,2.72669],[117.13,2.72604],[117.12999,2.72604],[117.12999,2.72604],[117.12877,2.7269],[117.12862,2.72721],[117.1284,2.72812],[117.12782,2.73002],[117.12782,2.73002]]]]},"properties":{"kdprov":"65","kdkab":"02","kdkec":"030","kddesa":"001","kdsls":"0011","idsls":"65020300010011","nmprov":"KALIMANTAN UTARA","nmkab":"BULUNGAN","nmkec":"TANJUNG PALAS BARAT","nmdesa":"LONG BELUAH","nmsls":"RT 011"}},{"type":"Feature","geometry":{"type":"MultiPolygon","coordinates":[[[[117.23586,2.7532],[117.23556,2.75286],[117.23481,2.75253],[117.2334,2.75113],[117.23336,2.75112],[117.23336,2.75112],[117.23441,2.75392],[117.23522,2.75352],[117.23586,2.7532]]]]},"properties":{"kdprov":"65","kdkab":"02","kdkec":"030","kddesa":"004","kdsls":"0005","idsls":"65020300040005","nmprov":"KALIMANTAN UTARA","nmkab":"BULUNGAN","nmkec":"TANJUNG PALAS BARAT","nmdesa":"MARA SATU","nmsls":"RT 005"}},{"type":"Feature","geometry":{"type":"MultiPolygon","coordinates":[[[[117.12577,2.72936],[117.12577,2.72936],[117.12782,2.73002],[117.12782,2.73002],[117.1284,2.72812],[117.12862,2.72721],[117.12877,2.7269],[117.12999,2.72604],[117.12999,2.72604],[117.13,2.72604],[117.13059,2.72669],[117.131,2.72663],[117.13279,2.72538],[117.13279,2.72538],[117.13276,2.72534],[117.13276,2.72528],[117.13276,2.72528],[117.12936,2.7197],[117.12935,2.71969],[117.12935,2.71969],[117.12934,2.71971],[117.12572,2.72186],[117.12577,2.72936]]]]},"properties":{"kdprov":"65","kdkab":"02","kdkec":"030","kddesa":"001","kdsls":"0010","idsls":"65020300010010","nmprov":"KALIMANTAN UTARA","nmkab":"BULUNGAN","nmkec":"TANJUNG PALAS BARAT","nmdesa":"LONG BELUAH","nmsls":"RT 010"}},{"type":"Feature","geometry":{"type":"MultiPolygon","coordinates":[[[[117.13279,2.72538],[117.13448,2.72747],[117.13459,2.72741],[117.13581,2.72669],[117.13639,2.72635],[117.13889,2.72525],[117.13914,2.72511],[117.14128,2.72395],[117.1413,2.72393],[117.13927,2.72074],[117.13787,2.71869],[117.12761,2.71689],[117.12935,2.71969],[117.12935,2.71969],[117.12936,2.7197],[117.13276,2.72528],[117.13276,2.72528],[117.13276,2.72534],[117.13279,2.72538]]]]},"properties":{"kdprov":"65","kdkab":"02","kdkec":"030","kddesa":"001","kdsls":"0012","idsls":"65020300010012","nmprov":"KALIMANTAN UTARA","nmkab":"BULUNGAN","nmkec":"TANJUNG PALAS BARAT","nmdesa":"LONG BELUAH","nmsls":"RT 012"}},{"type":"Feature","geometry":{"type":"MultiPolygon","coordinates":[[[[117.26457,2.7536],[117.26339,2.75381],[117.26267,2.75453],[117.26176,2.75561],[117.2614,2.75676],[117.26149,2.75807],[117.26044,2.7619],[117.26133,2.76282],[117.26224,2.76314],[117.26395,2.76337],[117.26745,2.76311],[117.2686,2.76282],[117.2701,2.7621],[117.27145,2.76125],[117.27207,2.76062],[117.27236,2.7601],[117.27217,2.75954],[117.27181,2.75928],[117.27129,2.75911],[117.2713,2.7591],[117.26991,2.75871],[117.26911,2.75808],[117.268,2.75746],[117.26705,2.75674],[117.26633,2.75596],[117.26554,2.75521],[117.26488,2.75426],[117.26457,2.7536]]]]},"properties":{"kdprov":"65","kdkab":"02","kdkec":"030","kddesa":"005","kdsls":"0003","idsls":"65020300050003","nmprov":"KALIMANTAN UTARA","nmkab":"BULUNGAN","nmkec":"TANJUNG PALAS BARAT","nmdesa":"MARA HILIR","nmsls":"RT 003"}},{"type":"Feature","geometry":{"type":"MultiPolygon","coordinates":[[[[117.24113,2.74817],[117.24209,2.75026],[117.24257,2.75001],[117.2429,2.74984],[117.24433,2.74899],[117.24275,2.74753],[117.24274,2.74753],[117.24113,2.74817]]]]},"properties":{"kdprov":"65","kdkab":"02","kdkec":"030","kddesa":"005","kdsls":"0002","idsls":"65020300050002","nmprov":"KALIMANTAN UTARA","nmkab":"BULUNGAN","nmkec":"TANJUNG PALAS BARAT","nmdesa":"MARA HILIR","nmsls":"RT 002"}},{"type":"Feature","geometry":{"type":"MultiPolygon","coordinates":[[[[117.20063,2.77788],[117.20045,2.78044],[117.20232,2.78299],[117.19787,2.78386],[117.19741,2.78277],[117.19873,2.78059],[117.19822,2.78028],[117.19822,2.78028],[117.19702,2.77937],[117.19717,2.77864],[117.19717,2.77864],[117.19729,2.77813],[117.19615,2.77784],[117.19432,2.77712],[117.19059,2.77408],[117.18752,2.7715],[117.18518,2.76853],[117.18401,2.7681],[117.1827,2.76818],[117.18147,2.76813],[117.18043,2.76786],[117.1792,2.76786],[117.17755,2.76757],[117.17563,2.76693],[117.17454,2.76522],[117.17463,2.76459],[117.17462,2.76456],[117.17452,2.76451],[117.1738,2.76346],[117.17326,2.76159],[117.17296,2.75968],[117.17351,2.75842],[117.17428,2.75752],[117.17563,2.75681],[117.17666,2.75651],[117.17758,2.75597],[117.17891,2.75555],[117.1791,2.75537],[117.17929,2.75517],[117.17935,2.75502],[117.1795,2.75467],[117.1795,2.75467],[117.1795,2.75467],[117.17934,2.75424],[117.17922,2.75395],[117.17854,2.75332],[117.17751,2.75238],[117.17686,2.75209],[117.17651,2.75192],[117.17608,2.75172],[117.17522,2.75158],[117.17351,2.75172],[117.17043,2.75165],[117.16894,2.75136],[117.16826,2.75124],[117.16779,2.75116],[117.16665,2.75079],[117.16586,2.75043],[117.16521,2.75272],[117.16499,2.75417],[117.16473,2.75589],[117.16358,2.75915],[117.16299,2.76177],[117.16177,2.76821],[117.16178,2.76927],[117.16179,2.77658],[117.16178,2.78411],[117.16179,2.79129],[117.16179,2.79701],[117.16188,2.79877],[117.1625,2.80569],[117.16308,2.81309],[117.16375,2.8204],[117.16324,2.82391],[117.16221,2.83042],[117.16118,2.8369],[117.16087,2.84186],[117.15984,2.84234],[117.1601,2.84411],[117.15978,2.84568],[117.16058,2.84924],[117.16076,2.8501],[117.16089,2.85276],[117.16145,2.85642],[117.1625,2.85762],[117.16265,2.85924],[117.16239,2.86065],[117.16149,2.86155],[117.16029,2.86168],[117.15873,2.86092],[117.15701,2.86147],[117.15677,2.86337],[117.16019,2.86666],[117.16025,2.8685],[117.15976,2.86933],[117.15885,2.86902],[117.15767,2.86733],[117.15678,2.86688],[117.156,2.86785],[117.15572,2.87027],[117.15488,2.87061],[117.15397,2.87066],[117.15264,2.8704],[117.1518,2.87145],[117.15093,2.87409],[117.15161,2.87472],[117.15302,2.87636],[117.1544,2.87759],[117.15599,2.87782],[117.15637,2.87885],[117.15582,2.88063],[117.1559,2.88138],[117.15629,2.88334],[117.15688,2.88625],[117.15736,2.89276],[117.15772,2.89727],[117.15763,2.9001],[117.1575,2.90568],[117.15757,2.9071],[117.15802,2.91348],[117.15867,2.91927],[117.16929,2.92586],[117.16989,2.91286],[117.17016,2.9059],[117.17085,2.8989],[117.17152,2.8916],[117.1721,2.88461],[117.17214,2.87699],[117.17213,2.87136],[117.17387,2.86331],[117.17565,2.8564],[117.17759,2.84915],[117.17831,2.84661],[117.18013,2.84108],[117.18196,2.83505],[117.18697,2.8288],[117.19007,2.82498],[117.19397,2.81787],[117.19771,2.81139],[117.19954,2.80686],[117.20263,2.80349],[117.20508,2.80084],[117.2085,2.79532],[117.21076,2.7879],[117.21228,2.78105],[117.21286,2.77802],[117.21077,2.77126],[117.20976,2.76812],[117.20775,2.76846],[117.20573,2.76931],[117.20568,2.76933],[117.20466,2.76983],[117.20717,2.77277],[117.20763,2.77485],[117.20777,2.77727],[117.20661,2.77838],[117.20551,2.77804],[117.20432,2.77835],[117.20226,2.77825],[117.2012,2.77804],[117.20063,2.77788]]]]},"properties":{"kdprov":"65","kdkab":"02","kdkec":"030","kddesa":"003","kdsls":"2001","idsls":"65020300032001","nmprov":"KALIMANTAN UTARA","nmkab":"BULUNGAN","nmkec":"TANJUNG PALAS BARAT","nmdesa":"LONG PARI","nmsls":"HUTAN"}},{"type":"Feature","geometry":{"type":"MultiPolygon","coordinates":[[[[117.19729,2.77813],[117.19717,2.77864],[117.19717,2.77864],[117.19881,2.7794],[117.19889,2.77943],[117.19889,2.77943],[117.19899,2.77918],[117.19878,2.77909],[117.19878,2.77908],[117.19904,2.77817],[117.19887,2.77822],[117.19845,2.7782],[117.19782,2.77816],[117.19729,2.77813]]]]},"properties":{"kdprov":"65","kdkab":"02","kdkec":"030","kddesa":"003","kdsls":"0001","idsls":"65020300030001","nmprov":"KALIMANTAN UTARA","nmkab":"BULUNGAN","nmkec":"TANJUNG PALAS BARAT","nmdesa":"LONG PARI","nmsls":"RT 001"}},{"type":"Feature","geometry":{"type":"MultiPolygon","coordinates":[[[[117.19873,2.78059],[117.19741,2.78277],[117.19787,2.78386],[117.20232,2.78299],[117.20045,2.78044],[117.20045,2.78044],[117.19943,2.7801],[117.19899,2.78017],[117.19873,2.78059]]]]},"properties":{"kdprov":"65","kdkab":"02","kdkec":"030","kddesa":"003","kdsls":"0003","idsls":"65020300030003","nmprov":"KALIMANTAN UTARA","nmkab":"BULUNGAN","nmkec":"TANJUNG PALAS BARAT","nmdesa":"LONG PARI","nmsls":"RT 003"}},{"type":"Feature","geometry":{"type":"MultiPolygon","coordinates":[[[[117.19717,2.77864],[117.19702,2.77937],[117.19822,2.78028],[117.19822,2.78028],[117.19873,2.78059],[117.19899,2.78017],[117.19943,2.7801],[117.19943,2.7801],[117.1994,2.78008],[117.19883,2.77969],[117.19877,2.77965],[117.19889,2.77943],[117.19881,2.7794],[117.19717,2.77864]]]]},"properties":{"kdprov":"65","kdkab":"02","kdkec":"030","kddesa":"003","kdsls":"0004","idsls":"65020300030004","nmprov":"KALIMANTAN UTARA","nmkab":"BULUNGAN","nmkec":"TANJUNG PALAS BARAT","nmdesa":"LONG PARI","nmsls":"RT 004"}},{"type":"Feature","geometry":{"type":"MultiPolygon","coordinates":[[[[117.20045,2.78044],[117.20063,2.77788],[117.20029,2.77811],[117.20014,2.7782],[117.19998,2.77824],[117.1995,2.77827],[117.19904,2.77817],[117.19878,2.77908],[117.19878,2.77909],[117.19899,2.77918],[117.19889,2.77943],[117.19889,2.77943],[117.19877,2.77965],[117.19883,2.77969],[117.1994,2.78008],[117.19943,2.7801],[117.19943,2.7801],[117.20045,2.78044],[117.20045,2.78044]]]]},"properties":{"kdprov":"65","kdkab":"02","kdkec":"030","kddesa":"003","kdsls":"0002","idsls":"65020300030002","nmprov":"KALIMANTAN UTARA","nmkab":"BULUNGAN","nmkec":"TANJUNG PALAS BARAT","nmdesa":"LONG PARI","nmsls":"RT 002"}},{"type":"Feature","geometry":{"type":"MultiPolygon","coordinates":[[[[117.23645,2.74811],[117.23645,2.74811],[117.23814,2.74713],[117.23665,2.74524],[117.23448,2.74248],[117.23148,2.73567],[117.22871,2.72859],[117.2246,2.72066],[117.22114,2.71316],[117.22009,2.71118],[117.21865,2.70021],[117.21751,2.69378],[117.21623,2.68762],[117.21449,2.679],[117.21224,2.66954],[117.21031,2.65948],[117.20866,2.65132],[117.20989,2.63903],[117.21098,2.62883],[117.21128,2.62551],[117.21105,2.6164],[117.21099,2.61398],[117.21085,2.60903],[117.21075,2.60517],[117.21053,2.5999],[117.21047,2.59842],[117.21039,2.59639],[117.21039,2.59639],[117.21039,2.59443],[117.2103,2.59442],[117.20674,2.59398],[117.20539,2.59409],[117.20511,2.59411],[117.20073,2.59423],[117.19385,2.59499],[117.18797,2.596],[117.18221,2.59726],[117.17858,2.59764],[117.17447,2.59838],[117.17394,2.59848],[117.17095,2.59902],[117.16657,2.59965],[117.15856,2.60079],[117.15217,2.60179],[117.14792,2.60079],[117.1455,2.60176],[117.14541,2.60179],[117.14544,2.60478],[117.14544,2.60481],[117.14553,2.60502],[117.14597,2.6061],[117.14632,2.60694],[117.14638,2.60707],[117.14642,2.60745],[117.14663,2.60904],[117.14858,2.60862],[117.14897,2.61006],[117.14767,2.611],[117.1466,2.61235],[117.14681,2.61384],[117.14706,2.61419],[117.14802,2.61558],[117.14932,2.61534],[117.15097,2.61558],[117.15107,2.61761],[117.15256,2.61865],[117.15441,2.6192],[117.15367,2.62141],[117.15223,2.62211],[117.15163,2.62334],[117.15242,2.62472],[117.15169,2.62686],[117.15235,2.62893],[117.15515,2.63194],[117.15573,2.63583],[117.15468,2.63719],[117.15545,2.63871],[117.15514,2.63991],[117.15324,2.64077],[117.15324,2.64202],[117.15425,2.64317],[117.15432,2.64491],[117.15518,2.64697],[117.15455,2.64798],[117.1544,2.64905],[117.15556,2.65011],[117.15508,2.6533],[117.1554,2.65806],[117.15689,2.65775],[117.15817,2.65673],[117.15815,2.65782],[117.15821,2.66102],[117.15791,2.66451],[117.16088,2.66602],[117.16156,2.66774],[117.16374,2.67005],[117.16565,2.67606],[117.16745,2.68172],[117.16807,2.68278],[117.17144,2.68861],[117.17493,2.69465],[117.17682,2.69977],[117.17886,2.70552],[117.18128,2.71174],[117.18356,2.71729],[117.1854,2.72163],[117.18555,2.72416],[117.18561,2.72755],[117.18619,2.72944],[117.1863,2.73132],[117.18684,2.73283],[117.18678,2.73532],[117.18662,2.74012],[117.18671,2.74264],[117.18714,2.74834],[117.18718,2.75424],[117.18726,2.75951],[117.18728,2.7608],[117.18696,2.76226],[117.18678,2.76473],[117.18661,2.76647],[117.1891,2.76666],[117.1924,2.76866],[117.19491,2.77035],[117.19658,2.77237],[117.19778,2.77388],[117.20082,2.77544],[117.20273,2.77577],[117.20495,2.77584],[117.20557,2.77483],[117.20476,2.77355],[117.2027,2.7711],[117.19737,2.76453],[117.19681,2.75946],[117.19891,2.75654],[117.20024,2.7555],[117.20342,2.75304],[117.20329,2.75089],[117.20306,2.75007],[117.20347,2.74771],[117.20434,2.7452],[117.20543,2.74392],[117.20652,2.7432],[117.2088,2.7432],[117.21222,2.74383],[117.21718,2.74506],[117.22219,2.74679],[117.22344,2.74765],[117.22479,2.75005],[117.22569,2.75225],[117.22726,2.75342],[117.23096,2.75435],[117.23046,2.75236],[117.23147,2.75228],[117.23147,2.75228],[117.23222,2.75155],[117.23222,2.75155],[117.23336,2.75112],[117.23336,2.75112],[117.23511,2.74869],[117.23645,2.74811]]],[[[117.20573,2.76931],[117.20775,2.76846],[117.20976,2.76812],[117.21077,2.77126],[117.21286,2.77802],[117.21228,2.78105],[117.21076,2.7879],[117.2085,2.79532],[117.20508,2.80084],[117.20263,2.80349],[117.19954,2.80686],[117.19771,2.81139],[117.19397,2.81787],[117.19007,2.82498],[117.18697,2.8288],[117.18196,2.83505],[117.18013,2.84108],[117.17831,2.84661],[117.17759,2.84915],[117.17565,2.8564],[117.17387,2.86331],[117.17213,2.87136],[117.17214,2.87699],[117.1721,2.88461],[117.17152,2.8916],[117.17085,2.8989],[117.17016,2.9059],[117.16989,2.91286],[117.16929,2.92586],[117.17364,2.92856],[117.18275,2.92974],[117.18676,2.93032],[117.1906,2.91141],[117.19197,2.90107],[117.19244,2.89894],[117.19325,2.88725],[117.19318,2.87542],[117.19423,2.86327],[117.19882,2.8542],[117.20096,2.84425],[117.20309,2.83998],[117.20807,2.83145],[117.21446,2.82008],[117.21802,2.81581],[117.21842,2.80785],[117.22286,2.79941],[117.22762,2.7907],[117.23108,2.78477],[117.23403,2.77267],[117.23796,2.76014],[117.23938,2.75608],[117.2437,2.75264],[117.24363,2.75163],[117.24289,2.75207],[117.24136,2.7527],[117.23387,2.75561],[117.23233,2.75608],[117.23203,2.75574],[117.23163,2.75574],[117.2313,2.75584],[117.23093,2.75628],[117.23043,2.75648],[117.22943,2.75648],[117.22796,2.75587],[117.22535,2.75371],[117.22444,2.75232],[117.22396,2.75208],[117.223,2.75122],[117.22201,2.75078],[117.22186,2.75071],[117.22062,2.75039],[117.22033,2.75007],[117.21928,2.74953],[117.21839,2.74884],[117.21516,2.74782],[117.21311,2.74741],[117.21174,2.74723],[117.20957,2.74654],[117.20832,2.74654],[117.20737,2.74684],[117.2062,2.74759],[117.20595,2.74834],[117.20582,2.74966],[117.20597,2.75058],[117.20618,2.7519],[117.2065,2.75279],[117.20693,2.75324],[117.20711,2.75388],[117.20693,2.7543],[117.20693,2.75431],[117.20695,2.75438],[117.20659,2.75486],[117.20598,2.75511],[117.20484,2.7552],[117.2045,2.75529],[117.20386,2.75515],[117.2029,2.75561],[117.20188,2.75654],[117.20076,2.75716],[117.20017,2.75773],[117.19953,2.75994],[117.19976,2.76072],[117.19971,2.76077],[117.1997,2.76079],[117.20012,2.76178],[117.20041,2.7643],[117.20466,2.76983],[117.20568,2.76933],[117.20573,2.76931]]]]},"properties":{"kdprov":"65","kdkab":"02","kdkec":"030","kddesa":"004","kdsls":"2001","idsls":"65020300042001","nmprov":"KALIMANTAN UTARA","nmkab":"BULUNGAN","nmkec":"TANJUNG PALAS BARAT","nmdesa":"MARA SATU","nmsls":"HUTAN"}},{"type":"Feature","geometry":{"type":"MultiPolygon","coordinates":[[[[117.24035,2.74892],[117.24113,2.74817],[117.24113,2.74817],[117.24274,2.74753],[117.24225,2.74595],[117.24641,2.74242],[117.2524,2.74059],[117.25111,2.74468],[117.25538,2.74276],[117.25679,2.74236],[117.25748,2.7423],[117.25862,2.7423],[117.25886,2.74241],[117.25884,2.74248],[117.25899,2.74258],[117.25899,2.74258],[117.25868,2.74469],[117.25942,2.74682],[117.25972,2.74901],[117.25969,2.74917],[117.25969,2.74917],[117.25969,2.74917],[117.2597,2.75105],[117.25917,2.7515],[117.25885,2.75494],[117.2595,2.75756],[117.25969,2.75788],[117.25979,2.75915],[117.25985,2.76056],[117.26041,2.76187],[117.26044,2.7619],[117.26149,2.75807],[117.2614,2.75676],[117.26176,2.75561],[117.26267,2.75453],[117.26339,2.75381],[117.26457,2.7536],[117.26452,2.7535],[117.26456,2.75259],[117.26456,2.75237],[117.26399,2.7518],[117.26398,2.75178],[117.2639,2.75062],[117.26319,2.74895],[117.26376,2.74617],[117.26532,2.74355],[117.26892,2.74232],[117.27105,2.74133],[117.27212,2.74108],[117.27262,2.74068],[117.27288,2.74048],[117.27589,2.73123],[117.27533,2.73002],[117.27517,2.72968],[117.2745,2.72823],[117.27693,2.71909],[117.27542,2.71077],[117.27404,2.69238],[117.2734,2.6851],[117.27288,2.6777],[117.27022,2.64452],[117.27005,2.64324],[117.27074,2.62555],[117.27068,2.62514],[117.27049,2.62381],[117.27047,2.62364],[117.27012,2.6212],[117.26985,2.61933],[117.26974,2.61858],[117.26924,2.61503],[117.26919,2.61475],[117.269,2.61364],[117.26891,2.61307],[117.26836,2.61302],[117.26441,2.61266],[117.26231,2.61247],[117.25455,2.60895],[117.23991,2.60354],[117.2357,2.60182],[117.23102,2.59989],[117.216,2.59511],[117.21039,2.59443],[117.21039,2.59639],[117.21039,2.59639],[117.21047,2.59842],[117.21053,2.5999],[117.21075,2.60517],[117.21085,2.60903],[117.21099,2.61398],[117.21105,2.6164],[117.21128,2.62551],[117.21098,2.62883],[117.20989,2.63903],[117.20866,2.65132],[117.21031,2.65948],[117.21224,2.66954],[117.21449,2.679],[117.21623,2.68762],[117.21751,2.69378],[117.21865,2.70021],[117.22009,2.71118],[117.22114,2.71316],[117.2246,2.72066],[117.22871,2.72859],[117.23148,2.73567],[117.23448,2.74248],[117.23665,2.74524],[117.23814,2.74713],[117.23872,2.74679],[117.24035,2.74892]]],[[[117.21513,2.90379],[117.21499,2.89805],[117.21886,2.89338],[117.21913,2.8871],[117.23121,2.87228],[117.24557,2.85453],[117.25718,2.84038],[117.26292,2.83343],[117.27,2.81955],[117.27534,2.8094],[117.27841,2.79298],[117.27807,2.7799],[117.27834,2.77376],[117.27714,2.76988],[117.27698,2.76939],[117.27634,2.76748],[117.2742,2.76548],[117.2722,2.76324],[117.2719,2.76335],[117.27185,2.76326],[117.27074,2.76398],[117.26894,2.76453],[117.26727,2.76493],[117.26491,2.76529],[117.26305,2.76515],[117.26108,2.76466],[117.25984,2.76529],[117.25879,2.76476],[117.25928,2.76316],[117.25856,2.76296],[117.25712,2.76231],[117.25698,2.76101],[117.25607,2.76036],[117.25572,2.75842],[117.25551,2.7554],[117.25558,2.75227],[117.25562,2.75227],[117.2557,2.75147],[117.25585,2.7492],[117.25611,2.74754],[117.25622,2.74625],[117.25613,2.74483],[117.25576,2.74492],[117.25402,2.7455],[117.25052,2.74717],[117.24993,2.74743],[117.24901,2.7481],[117.24796,2.74887],[117.24575,2.75041],[117.24514,2.75074],[117.24513,2.75074],[117.24362,2.75155],[117.24363,2.75163],[117.2437,2.75264],[117.23938,2.75608],[117.23796,2.76014],[117.23403,2.77267],[117.23108,2.78477],[117.22762,2.7907],[117.22286,2.79941],[117.21842,2.80785],[117.21802,2.81581],[117.21446,2.82008],[117.20807,2.83145],[117.20309,2.83998],[117.20096,2.84425],[117.19882,2.8542],[117.19423,2.86327],[117.19318,2.87542],[117.19325,2.88725],[117.19244,2.89894],[117.19197,2.90107],[117.1906,2.91141],[117.18676,2.93032],[117.20088,2.93237],[117.20591,2.913],[117.21513,2.90379]]]]},"properties":{"kdprov":"65","kdkab":"02","kdkec":"030","kddesa":"005","kdsls":"2001","idsls":"65020300052001","nmprov":"KALIMANTAN UTARA","nmkab":"BULUNGAN","nmkec":"TANJUNG PALAS BARAT","nmdesa":"MARA HILIR","nmsls":"HUTAN"}},{"type":"Feature","geometry":{"type":"MultiPolygon","coordinates":[[[[117.12577,2.72936],[117.12572,2.72186],[117.12934,2.71971],[117.12935,2.71969],[117.12761,2.71689],[117.13787,2.71869],[117.13927,2.72074],[117.1413,2.72393],[117.14259,2.72313],[117.14338,2.72263],[117.14409,2.72212],[117.14421,2.72204],[117.14369,2.72175],[117.14301,2.72155],[117.14159,2.72138],[117.14054,2.72129],[117.14014,2.72116],[117.13973,2.72088],[117.13935,2.72039],[117.13932,2.71991],[117.13968,2.71946],[117.14013,2.71916],[117.14027,2.7187],[117.14011,2.71822],[117.13979,2.71775],[117.13936,2.71718],[117.13912,2.71679],[117.13876,2.71653],[117.13833,2.71645],[117.13736,2.71654],[117.13698,2.7166],[117.13623,2.7166],[117.13574,2.71634],[117.13547,2.71589],[117.13532,2.71535],[117.13524,2.7141],[117.1352,2.71378],[117.13504,2.71305],[117.13487,2.71267],[117.13453,2.71234],[117.13349,2.712],[117.13288,2.71174],[117.13236,2.71135],[117.13192,2.71078],[117.13146,2.71006],[117.13103,2.70933],[117.13039,2.70861],[117.12945,2.70779],[117.12854,2.70708],[117.12811,2.70682],[117.12755,2.7067],[117.12703,2.7067],[117.12651,2.70683],[117.1261,2.7069],[117.12557,2.70675],[117.12497,2.70639],[117.12437,2.70558],[117.12392,2.70479],[117.12387,2.70476],[117.12392,2.70459],[117.12345,2.70336],[117.12333,2.70276],[117.1233,2.70224],[117.12334,2.70189],[117.12339,2.70151],[117.12371,2.70045],[117.12374,2.70036],[117.12373,2.7],[117.12359,2.69963],[117.12327,2.69937],[117.12276,2.69927],[117.1223,2.69928],[117.12102,2.69951],[117.12036,2.69947],[117.11996,2.69933],[117.1195,2.69893],[117.11902,2.69841],[117.11885,2.69823],[117.11831,2.6975],[117.11788,2.69704],[117.1177,2.69684],[117.11721,2.69609],[117.11689,2.69552],[117.11649,2.695],[117.11612,2.69447],[117.11573,2.69387],[117.1155,2.69325],[117.11537,2.69304],[117.11526,2.69286],[117.11472,2.69265],[117.11424,2.69273],[117.11382,2.69318],[117.11357,2.69381],[117.11366,2.69456],[117.11371,2.69552],[117.11369,2.69604],[117.11353,2.69641],[117.11325,2.69681],[117.11265,2.69718],[117.11199,2.6974],[117.1104,2.69791],[117.11022,2.69797],[117.1089,2.69803],[117.10809,2.69789],[117.10759,2.69755],[117.10721,2.69727],[117.10668,2.69703],[117.10587,2.69683],[117.10503,2.69642],[117.10416,2.69578],[117.10334,2.69501],[117.10313,2.69481],[117.10251,2.6941],[117.10222,2.69341],[117.10214,2.6931],[117.10183,2.69276],[117.10131,2.69279],[117.10091,2.69312],[117.10071,2.69359],[117.10059,2.69432],[117.10043,2.69463],[117.10042,2.69465],[117.10005,2.69466],[117.09986,2.69419],[117.09982,2.69334],[117.09973,2.69269],[117.09933,2.69221],[117.09868,2.69198],[117.09824,2.692],[117.09765,2.69232],[117.0973,2.69307],[117.09708,2.69391],[117.09689,2.69448],[117.09653,2.69478],[117.096,2.69495],[117.0953,2.69498],[117.09462,2.6947],[117.09423,2.69435],[117.09395,2.69378],[117.09377,2.69298],[117.09355,2.69233],[117.09322,2.69145],[117.0929,2.69062],[117.09291,2.68985],[117.09315,2.68914],[117.09356,2.6885],[117.0942,2.68774],[117.095,2.6871],[117.09597,2.68641],[117.09627,2.68618],[117.09704,2.68552],[117.09752,2.68473],[117.09768,2.68395],[117.0976,2.6833],[117.09744,2.68286],[117.09692,2.68227],[117.09625,2.68178],[117.09592,2.68153],[117.09574,2.68137],[117.09542,2.68095],[117.09502,2.6802],[117.09481,2.67991],[117.09449,2.67943],[117.09402,2.67896],[117.09352,2.67883],[117.09288,2.67883],[117.09217,2.67903],[117.09107,2.67958],[117.09025,2.67996],[117.08963,2.67983],[117.08931,2.67935],[117.0893,2.67848],[117.08952,2.67701],[117.08959,2.67629],[117.08985,2.6755],[117.09023,2.67492],[117.09071,2.67469],[117.09134,2.67453],[117.09221,2.67444],[117.09244,2.67442],[117.09282,2.67429],[117.09318,2.67383],[117.09326,2.67325],[117.09311,2.67203],[117.09297,2.67113],[117.09303,2.67031],[117.09312,2.66986],[117.09303,2.66971],[117.09321,2.66947],[117.09347,2.66854],[117.09363,2.66828],[117.09387,2.66759],[117.0941,2.66712],[117.09447,2.66618],[117.09466,2.66534],[117.09495,2.66476],[117.09528,2.66441],[117.09583,2.66413],[117.09658,2.66392],[117.0969,2.66364],[117.09724,2.66315],[117.09725,2.66258],[117.09706,2.66189],[117.09683,2.66128],[117.09685,2.6608],[117.09704,2.66024],[117.09734,2.65968],[117.09747,2.65877],[117.09772,2.65803],[117.09786,2.65747],[117.09772,2.65711],[117.0972,2.65671],[117.09616,2.65654],[117.09565,2.65626],[117.09498,2.65556],[117.09452,2.65509],[117.09443,2.65499],[117.09383,2.65469],[117.0931,2.65468],[117.0925,2.65495],[117.09198,2.65527],[117.09165,2.65536],[117.09031,2.65525],[117.08997,2.65535],[117.08922,2.65607],[117.08879,2.6561],[117.08837,2.65582],[117.08796,2.65527],[117.08751,2.6545],[117.08696,2.65385],[117.08599,2.65329],[117.0857,2.65293],[117.08522,2.65192],[117.08508,2.65163],[117.0847,2.65118],[117.08393,2.65052],[117.08341,2.65008],[117.08279,2.64974],[117.08226,2.6493],[117.08211,2.64912],[117.08205,2.64873],[117.0822,2.64844],[117.08252,2.64836],[117.08288,2.64837],[117.08412,2.6487],[117.08471,2.64871],[117.08614,2.64826],[117.08787,2.64768],[117.08822,2.64743],[117.08851,2.6472],[117.08854,2.64678],[117.08843,2.64645],[117.08798,2.64605],[117.08722,2.64546],[117.08644,2.64486],[117.08556,2.64421],[117.08487,2.64365],[117.08454,2.64304],[117.08452,2.64177],[117.08436,2.64124],[117.08394,2.64061],[117.08338,2.63995],[117.08282,2.63908],[117.08248,2.63831],[117.08234,2.63741],[117.08244,2.63666],[117.08268,2.63623],[117.08328,2.63578],[117.08354,2.63559],[117.08384,2.63532],[117.08404,2.6348],[117.0841,2.63434],[117.08409,2.63358],[117.08409,2.63336],[117.08416,2.63293],[117.08445,2.63226],[117.08477,2.6317],[117.08502,2.63116],[117.08542,2.63052],[117.08579,2.62957],[117.08606,2.6292],[117.08683,2.62875],[117.08713,2.6283],[117.08726,2.62769],[117.08726,2.62742],[117.08726,2.62707],[117.08716,2.62663],[117.08688,2.62634],[117.08656,2.62613],[117.08601,2.6261],[117.08553,2.62625],[117.08434,2.62674],[117.08352,2.62679],[117.0827,2.62677],[117.08178,2.62674],[117.08106,2.62679],[117.0798,2.62708],[117.07889,2.62721],[117.0782,2.62721],[117.07778,2.62678],[117.07768,2.62654],[117.07766,2.62605],[117.07761,2.62575],[117.07764,2.62535],[117.07764,2.62532],[117.07754,2.62512],[117.07754,2.62494],[117.0776,2.62477],[117.07743,2.6243],[117.0771,2.62389],[117.07649,2.62354],[117.07574,2.62341],[117.07554,2.62344],[117.07358,2.62321],[117.07288,2.62286],[117.07227,2.62242],[117.07171,2.6223],[117.0712,2.62239],[117.07082,2.62262],[117.07038,2.62305],[117.0699,2.62336],[117.06954,2.62338],[117.06919,2.62317],[117.06895,2.62272],[117.0687,2.62198],[117.0685,2.62168],[117.06829,2.62153],[117.06798,2.62144],[117.06754,2.62159],[117.06735,2.62198],[117.06735,2.623],[117.06705,2.62331],[117.06658,2.62338],[117.06594,2.62313],[117.06532,2.62281],[117.06465,2.62268],[117.06379,2.62263],[117.06321,2.62263],[117.06266,2.6225],[117.06232,2.62216],[117.06218,2.62158],[117.0624,2.62114],[117.06297,2.62055],[117.0631,2.62043],[117.06322,2.6201],[117.06311,2.61978],[117.0628,2.61935],[117.06205,2.61871],[117.06172,2.61838],[117.0613,2.61763],[117.06076,2.6165],[117.06059,2.61615],[117.06052,2.61562],[117.06074,2.61532],[117.06131,2.61485],[117.06181,2.61437],[117.06199,2.61395],[117.0621,2.61301],[117.06213,2.61192],[117.06223,2.61134],[117.06247,2.61095],[117.06289,2.61067],[117.06357,2.61042],[117.06401,2.61022],[117.06431,2.60982],[117.06457,2.60902],[117.06484,2.60839],[117.06515,2.60802],[117.06535,2.6077],[117.06544,2.60755],[117.06557,2.60736],[117.06584,2.60693],[117.06596,2.60674],[117.06647,2.60616],[117.06668,2.60607],[117.06699,2.60592],[117.06717,2.6059],[117.06751,2.60586],[117.07039,2.60207],[117.07105,2.60121],[117.07284,2.59885],[117.0756,2.59521],[117.07595,2.59475],[117.07553,2.59403],[117.07518,2.59342],[117.07438,2.59205],[117.07382,2.5911],[117.07373,2.59096],[117.07082,2.5867],[117.06907,2.58443],[117.06719,2.58242],[117.06506,2.58103],[117.06168,2.57902],[117.06056,2.57776],[117.05918,2.57398],[117.05805,2.57122],[117.05605,2.56945],[117.05393,2.56835],[117.05217,2.56744],[117.04066,2.59695],[117.04062,2.59783],[117.04056,2.59885],[117.04052,2.5997],[117.0404,2.60207],[117.04033,2.6034],[117.04315,2.63208],[117.04331,2.63401],[117.04339,2.63486],[117.04437,2.64657],[117.05162,2.67312],[117.05498,2.69159],[117.06604,2.70761],[117.0784,2.73293],[117.07916,2.73415],[117.09617,2.74514],[117.10716,2.7549],[117.10736,2.75527],[117.10764,2.75522],[117.10944,2.75441],[117.11008,2.75401],[117.11073,2.75361],[117.11203,2.75258],[117.11263,2.7521],[117.11403,2.7509],[117.11483,2.74999],[117.11489,2.74985],[117.11503,2.7495],[117.11523,2.74869],[117.11543,2.74749],[117.11553,2.74703],[117.11572,2.74618],[117.11608,2.74568],[117.11623,2.74548],[117.11822,2.74438],[117.11934,2.74381],[117.11962,2.74367],[117.12,2.74342],[117.12066,2.74298],[117.12031,2.7428],[117.12018,2.74138],[117.12018,2.73921],[117.12016,2.73872],[117.12118,2.73808],[117.12119,2.73808],[117.12251,2.73625],[117.12251,2.73625],[117.12281,2.73574],[117.12408,2.73616],[117.12434,2.73582],[117.12471,2.73531],[117.12489,2.73509],[117.1255,2.73443],[117.12553,2.73441],[117.12553,2.73441],[117.1248,2.7319],[117.12577,2.72936],[117.12577,2.72936]]],[[[117.11657,2.74604],[117.11645,2.74619],[117.1164,2.74665],[117.1164,2.74666],[117.11641,2.7468],[117.11644,2.74694],[117.11652,2.74707],[117.11664,2.74728],[117.11723,2.74739],[117.11729,2.74738],[117.1174,2.74736],[117.11757,2.74734],[117.11767,2.74733],[117.11794,2.74744],[117.11794,2.74744],[117.11793,2.74755],[117.11788,2.74799],[117.11767,2.74837],[117.11745,2.74919],[117.11745,2.74919],[117.11745,2.74919],[117.11752,2.74936],[117.1177,2.74979],[117.1181,2.74988],[117.11813,2.74985],[117.11813,2.74985],[117.11823,2.74976],[117.11866,2.74937],[117.11883,2.74913],[117.11954,2.74836],[117.12103,2.74608],[117.12109,2.74598],[117.1211,2.74597],[117.12144,2.74514],[117.12153,2.74494],[117.12181,2.7445],[117.12221,2.74388],[117.12228,2.74369],[117.12241,2.74339],[117.12248,2.74301],[117.12248,2.74301],[117.12246,2.74287],[117.12246,2.74284],[117.12237,2.74281],[117.12223,2.74277],[117.12131,2.74328],[117.12122,2.74333],[117.12114,2.74337],[117.12111,2.74338],[117.12087,2.7435],[117.11941,2.74421],[117.11839,2.74475],[117.11826,2.74482],[117.1175,2.74528],[117.11739,2.74535],[117.11691,2.74563],[117.11657,2.74604]]],[[[117.14473,2.91223],[117.1446,2.91196],[117.14438,2.91154],[117.14409,2.91096],[117.14379,2.91046],[117.14371,2.91032],[117.14371,2.90981],[117.14371,2.90931],[117.14371,2.90863],[117.14371,2.90797],[117.14371,2.90731],[117.14371,2.90701],[117.14402,2.90636],[117.14429,2.90578],[117.14496,2.90527],[117.14519,2.90509],[117.14585,2.90504],[117.14666,2.90499],[117.14752,2.90471],[117.14801,2.90455],[117.14863,2.90392],[117.14879,2.90376],[117.14914,2.90317],[117.14878,2.90261],[117.14843,2.90205],[117.14809,2.90154],[117.14772,2.90098],[117.14744,2.90058],[117.14684,2.90024],[117.14621,2.89987],[117.14567,2.89957],[117.14508,2.89923],[117.14483,2.89861],[117.14462,2.89808],[117.14478,2.89742],[117.14493,2.8968],[117.14495,2.89673],[117.14487,2.89614],[117.14479,2.89554],[117.14473,2.89494],[117.14426,2.89442],[117.14373,2.89383],[117.14358,2.89366],[117.14272,2.89321],[117.14234,2.89301],[117.14263,2.89235],[117.1427,2.89221],[117.14257,2.89167],[117.14246,2.89119],[117.14197,2.89076],[117.14141,2.89026],[117.14081,2.88974],[117.14066,2.88961],[117.14049,2.88896],[117.14043,2.8887],[117.14057,2.88829],[117.14076,2.88774],[117.14088,2.88735],[117.14092,2.88707],[117.14097,2.88657],[117.14104,2.88596],[117.14111,2.88534],[117.14126,2.88483],[117.14145,2.8842],[117.14156,2.88384],[117.14152,2.88319],[117.14148,2.88253],[117.14145,2.88192],[117.14118,2.88128],[117.14093,2.88067],[117.14089,2.88058],[117.14084,2.88],[117.14079,2.87933],[117.14078,2.87898],[117.14059,2.87865],[117.14052,2.87851],[117.1403,2.87801],[117.14007,2.87747],[117.13982,2.87689],[117.13956,2.87628],[117.13941,2.87594],[117.13915,2.87562],[117.13874,2.87512],[117.13832,2.87459],[117.13798,2.87417],[117.13769,2.87357],[117.13741,2.87296],[117.13727,2.87266],[117.13719,2.87229],[117.13704,2.87164],[117.13647,2.87122],[117.13569,2.87066],[117.13534,2.8704],[117.13528,2.86973],[117.13521,2.8691],[117.13515,2.86847],[117.13512,2.86824],[117.1348,2.86786],[117.13441,2.86739],[117.13409,2.86701],[117.1341,2.86633],[117.13411,2.86608],[117.13437,2.86566],[117.13476,2.86503],[117.13499,2.86464],[117.13547,2.86404],[117.13586,2.86354],[117.13627,2.86295],[117.1366,2.86246],[117.13683,2.86229],[117.13715,2.86203],[117.13765,2.86197],[117.13823,2.86191],[117.13909,2.8618],[117.13961,2.86126],[117.1401,2.86077],[117.14033,2.86061],[117.14097,2.86015],[117.14134,2.85989],[117.14192,2.86003],[117.14274,2.86024],[117.14359,2.86055],[117.14356,2.85966],[117.14355,2.85902],[117.1441,2.85842],[117.14475,2.85774],[117.14507,2.85738],[117.14534,2.85705],[117.14583,2.85644],[117.14602,2.85621],[117.14613,2.85555],[117.14626,2.85487],[117.14636,2.85419],[117.14637,2.85416],[117.14609,2.85353],[117.14584,2.85294],[117.14568,2.85259],[117.14513,2.85214],[117.14512,2.85147],[117.14512,2.85083],[117.14512,2.85018],[117.14512,2.84983],[117.14507,2.84914],[117.14503,2.84846],[117.14499,2.84801],[117.14489,2.84745],[117.14478,2.84683],[117.14468,2.84625],[117.14457,2.84565],[117.14446,2.84502],[117.14444,2.84491],[117.14464,2.8444],[117.1449,2.84376],[117.1445,2.84322],[117.14399,2.84253],[117.14416,2.84185],[117.14433,2.84119],[117.14434,2.84116],[117.1447,2.8405],[117.14503,2.83988],[117.1454,2.83919],[117.14577,2.83851],[117.14581,2.83842],[117.14593,2.83783],[117.14604,2.83724],[117.14613,2.83677],[117.1461,2.83609],[117.14608,2.83544],[117.14608,2.83535],[117.14622,2.83477],[117.14639,2.83413],[117.14642,2.834],[117.14623,2.83346],[117.146,2.83287],[117.14578,2.83227],[117.14575,2.83219],[117.14587,2.83161],[117.146,2.83092],[117.14613,2.83027],[117.1462,2.82993],[117.14652,2.82924],[117.14681,2.82859],[117.14712,2.82792],[117.14742,2.82729],[117.14766,2.82677],[117.14807,2.8261],[117.14824,2.82583],[117.14823,2.82455],[117.14823,2.82392],[117.14823,2.82355],[117.14827,2.82328],[117.14833,2.82273],[117.1484,2.82214],[117.14847,2.82153],[117.14854,2.8209],[117.14858,2.82064],[117.14829,2.82025],[117.14797,2.81981],[117.1476,2.81931],[117.1473,2.81891],[117.14711,2.81869],[117.14666,2.81816],[117.14625,2.81767],[117.14585,2.8172],[117.14544,2.81671],[117.14503,2.81622],[117.14497,2.81615],[117.1448,2.81604],[117.1441,2.81559],[117.14373,2.81527],[117.14328,2.81486],[117.14282,2.81445],[117.1426,2.81379],[117.14239,2.81318],[117.14223,2.81271],[117.14225,2.81252],[117.14231,2.81188],[117.14236,2.81124],[117.1428,2.81072],[117.14283,2.81068],[117.14327,2.81016],[117.14339,2.81001],[117.14428,2.81003],[117.14508,2.81003],[117.14524,2.80988],[117.14585,2.80936],[117.14586,2.80867],[117.14586,2.8081],[117.14566,2.80748],[117.14549,2.80692],[117.14529,2.8063],[117.14567,2.80562],[117.14585,2.80528],[117.14554,2.80478],[117.14521,2.80423],[117.14494,2.80379],[117.14499,2.80314],[117.14502,2.80272],[117.14551,2.80214],[117.14607,2.80148],[117.14637,2.80113],[117.14637,2.80051],[117.14637,2.79984],[117.14637,2.79978],[117.14604,2.79921],[117.14571,2.79866],[117.14545,2.7982],[117.14518,2.79754],[117.14493,2.79697],[117.14468,2.79636],[117.14443,2.7958],[117.14414,2.7952],[117.14386,2.79459],[117.14365,2.79413],[117.14365,2.79349],[117.14365,2.79286],[117.14366,2.79234],[117.14351,2.7918],[117.14334,2.79125],[117.1432,2.79074],[117.14273,2.79032],[117.1422,2.78984],[117.14184,2.78951],[117.14153,2.78896],[117.14122,2.78842],[117.14088,2.78787],[117.14054,2.78736],[117.14024,2.78688],[117.14001,2.78626],[117.13977,2.78567],[117.13957,2.78521],[117.13924,2.78471],[117.13889,2.78419],[117.13853,2.78364],[117.13818,2.78312],[117.138,2.78285],[117.13798,2.7822],[117.13796,2.7816],[117.13794,2.78098],[117.13792,2.78034],[117.1379,2.77968],[117.13788,2.779],[117.13786,2.77833],[117.13785,2.77802],[117.13755,2.77739],[117.13725,2.77677],[117.13695,2.77616],[117.13667,2.77556],[117.13639,2.77498],[117.13609,2.77438],[117.13606,2.77429],[117.13605,2.77371],[117.13603,2.77304],[117.13601,2.77237],[117.136,2.77172],[117.13598,2.77102],[117.13596,2.77033],[117.13595,2.76966],[117.13593,2.76899],[117.13591,2.76831],[117.1359,2.76762],[117.13588,2.76694],[117.13586,2.76626],[117.13585,2.7656],[117.13584,2.76492],[117.13583,2.76424],[117.13581,2.76356],[117.13579,2.76287],[117.13578,2.76242],[117.13607,2.76175],[117.13635,2.7611],[117.13665,2.76042],[117.13695,2.75973],[117.13725,2.75903],[117.13755,2.75836],[117.13785,2.75767],[117.13814,2.757],[117.13843,2.75632],[117.13855,2.75605],[117.13869,2.75563],[117.13891,2.75497],[117.13914,2.7543],[117.13935,2.75363],[117.13958,2.75295],[117.13981,2.75225],[117.14005,2.75156],[117.14027,2.75087],[117.14049,2.75019],[117.14073,2.74951],[117.14093,2.74882],[117.14113,2.74813],[117.14132,2.74744],[117.14151,2.74677],[117.1417,2.74609],[117.14189,2.74541],[117.14209,2.74473],[117.14228,2.74404],[117.14248,2.74335],[117.14267,2.74267],[117.14287,2.74198],[117.14306,2.7413],[117.1431,2.74115],[117.14318,2.74062],[117.14327,2.73995],[117.14336,2.73928],[117.14346,2.73861],[117.14356,2.73793],[117.14365,2.73725],[117.14375,2.73657],[117.14383,2.73598],[117.14391,2.73534],[117.14401,2.73468],[117.1441,2.73401],[117.1442,2.73335],[117.14422,2.73326],[117.14422,2.73324],[117.14444,2.73268],[117.1447,2.73201],[117.14496,2.73137],[117.14522,2.73069],[117.14548,2.73003],[117.14572,2.72945],[117.14588,2.72903],[117.14589,2.72844],[117.14591,2.72783],[117.14592,2.72717],[117.14594,2.72653],[117.14595,2.72587],[117.14596,2.72563],[117.14621,2.72502],[117.1464,2.72452],[117.1466,2.72402],[117.1465,2.72388],[117.14601,2.7248],[117.14527,2.72535],[117.14515,2.72545],[117.14502,2.72552],[117.14415,2.72603],[117.14251,2.72681],[117.14215,2.72697],[117.14115,2.72738],[117.14005,2.72781],[117.13966,2.72796],[117.13887,2.7282],[117.1373,2.72868],[117.13656,2.72897],[117.13601,2.72918],[117.13467,2.72983],[117.13422,2.73004],[117.13417,2.73008],[117.13287,2.73112],[117.12873,2.73528],[117.12759,2.73657],[117.12695,2.7373],[117.12661,2.73789],[117.12608,2.7388],[117.12498,2.74046],[117.12387,2.74211],[117.12209,2.74538],[117.12106,2.74712],[117.12095,2.74732],[117.12077,2.74764],[117.12023,2.74861],[117.11964,2.74936],[117.11945,2.74961],[117.11895,2.75033],[117.11845,2.75055],[117.11773,2.75069],[117.11687,2.75076],[117.11609,2.75098],[117.11594,2.75106],[117.11545,2.75133],[117.11459,2.75191],[117.11416,2.7522],[117.11324,2.75342],[117.11319,2.75374],[117.11316,2.75399],[117.1131,2.75423],[117.11302,2.75457],[117.11277,2.75491],[117.11259,2.75514],[117.11232,2.75537],[117.11216,2.7555],[117.11145,2.75587],[117.11107,2.75593],[117.11066,2.756],[117.1098,2.75615],[117.10888,2.75629],[117.10792,2.75639],[117.10777,2.76543],[117.10945,2.77306],[117.11502,2.78313],[117.11196,2.79396],[117.11105,2.80861],[117.1125,2.81655],[117.11402,2.82616],[117.11708,2.84782],[117.11807,2.85698],[117.1141,2.86827],[117.11334,2.87208],[117.10945,2.89467],[117.10731,2.90748],[117.10655,2.91023],[117.10652,2.91027],[117.10665,2.91035],[117.1328,2.9127],[117.14473,2.9127],[117.14473,2.91223]]]]},"properties":{"kdprov":"65","kdkab":"02","kdkec":"030","kddesa":"001","kdsls":"2001","idsls":"65020300012001","nmprov":"KALIMANTAN UTARA","nmkab":"BULUNGAN","nmkec":"TANJUNG PALAS BARAT","nmdesa":"LONG BELUAH","nmsls":"HUTAN"}},{"type":"Feature","geometry":{"type":"MultiPolygon","coordinates":[[[[117.16238,2.74134],[117.16238,2.74134],[117.16325,2.74222],[117.16343,2.74215],[117.16443,2.74294],[117.16446,2.74291],[117.17028,2.7472],[117.1698,2.74844],[117.16936,2.74985],[117.16937,2.74985],[117.17143,2.75009],[117.17363,2.74999],[117.17513,2.74989],[117.17622,2.74999],[117.17763,2.75029],[117.17866,2.75059],[117.17902,2.75069],[117.17983,2.75151],[117.18032,2.752],[117.18069,2.75267],[117.18082,2.7529],[117.18097,2.75345],[117.18112,2.754],[117.18122,2.75511],[117.18122,2.75511],[117.1811,2.75532],[117.18082,2.75581],[117.18058,2.75606],[117.18032,2.75632],[117.18018,2.75646],[117.17849,2.75815],[117.17723,2.76121],[117.1806,2.76167],[117.18193,2.76276],[117.1818,2.76369],[117.18166,2.76461],[117.18399,2.76465],[117.18661,2.76647],[117.18678,2.76473],[117.18696,2.76226],[117.18728,2.7608],[117.18726,2.75951],[117.18718,2.75424],[117.18714,2.74834],[117.18671,2.74264],[117.18662,2.74012],[117.18678,2.73532],[117.18684,2.73283],[117.1863,2.73132],[117.18619,2.72944],[117.18561,2.72755],[117.18555,2.72416],[117.1854,2.72163],[117.18356,2.71729],[117.18128,2.71174],[117.17886,2.70552],[117.17682,2.69977],[117.17493,2.69465],[117.17144,2.68861],[117.16807,2.68278],[117.16745,2.68172],[117.16565,2.67606],[117.16374,2.67005],[117.16156,2.66774],[117.16088,2.66602],[117.15791,2.66451],[117.15821,2.66102],[117.15815,2.65782],[117.15817,2.65673],[117.15689,2.65775],[117.1554,2.65806],[117.15508,2.6533],[117.15556,2.65011],[117.1544,2.64905],[117.15455,2.64798],[117.15518,2.64697],[117.15432,2.64491],[117.15425,2.64317],[117.15324,2.64202],[117.15324,2.64077],[117.15514,2.63991],[117.15545,2.63871],[117.15468,2.63719],[117.15573,2.63583],[117.15515,2.63194],[117.15235,2.62893],[117.15169,2.62686],[117.15242,2.62472],[117.15163,2.62334],[117.15223,2.62211],[117.15367,2.62141],[117.15441,2.6192],[117.15256,2.61865],[117.15107,2.61761],[117.15097,2.61558],[117.14932,2.61534],[117.14802,2.61558],[117.14706,2.61419],[117.14681,2.61384],[117.1466,2.61235],[117.14767,2.611],[117.14897,2.61006],[117.14858,2.60862],[117.14663,2.60904],[117.14642,2.60745],[117.14638,2.60707],[117.14632,2.60694],[117.14597,2.6061],[117.14553,2.60502],[117.14544,2.60481],[117.14544,2.60478],[117.14541,2.60179],[117.14228,2.60154],[117.13916,2.60205],[117.13528,2.60331],[117.13215,2.60356],[117.13065,2.60368],[117.12389,2.60368],[117.12001,2.60431],[117.11488,2.60532],[117.1105,2.60583],[117.10772,2.6063],[117.10536,2.60671],[117.10386,2.60608],[117.10161,2.60646],[117.09961,2.60658],[117.09435,2.60696],[117.08822,2.60721],[117.08781,2.60704],[117.08672,2.60658],[117.08371,2.60482],[117.08171,2.6023],[117.07958,2.59878],[117.07783,2.59664],[117.0764,2.59521],[117.07595,2.59475],[117.0756,2.59521],[117.07284,2.59885],[117.07105,2.60121],[117.07039,2.60207],[117.06751,2.60586],[117.06717,2.6059],[117.06699,2.60592],[117.06668,2.60607],[117.06647,2.60616],[117.06596,2.60674],[117.06584,2.60693],[117.06557,2.60736],[117.06544,2.60755],[117.06535,2.6077],[117.06515,2.60802],[117.06484,2.60839],[117.06457,2.60902],[117.06431,2.60982],[117.06401,2.61022],[117.06357,2.61042],[117.06289,2.61067],[117.06247,2.61095],[117.06223,2.61134],[117.06213,2.61192],[117.0621,2.61301],[117.06199,2.61395],[117.06181,2.61437],[117.06131,2.61485],[117.06074,2.61532],[117.06052,2.61562],[117.06059,2.61615],[117.06076,2.6165],[117.0613,2.61763],[117.06172,2.61838],[117.06205,2.61871],[117.0628,2.61935],[117.06311,2.61978],[117.06322,2.6201],[117.0631,2.62043],[117.06297,2.62055],[117.0624,2.62114],[117.06218,2.62158],[117.06232,2.62216],[117.06266,2.6225],[117.06321,2.62263],[117.06379,2.62263],[117.06465,2.62268],[117.06532,2.62281],[117.06594,2.62313],[117.06658,2.62338],[117.06705,2.62331],[117.06735,2.623],[117.06735,2.62198],[117.06754,2.62159],[117.06798,2.62144],[117.06829,2.62153],[117.0685,2.62168],[117.0687,2.62198],[117.06895,2.62272],[117.06919,2.62317],[117.06954,2.62338],[117.0699,2.62336],[117.07038,2.62305],[117.07082,2.62262],[117.0712,2.62239],[117.07171,2.6223],[117.07227,2.62242],[117.07288,2.62286],[117.07358,2.62321],[117.07554,2.62344],[117.07574,2.62341],[117.07649,2.62354],[117.0771,2.62389],[117.07743,2.6243],[117.0776,2.62477],[117.07754,2.62494],[117.07754,2.62512],[117.07764,2.62532],[117.07764,2.62535],[117.07761,2.62575],[117.07766,2.62605],[117.07768,2.62654],[117.07778,2.62678],[117.0782,2.62721],[117.07889,2.62721],[117.0798,2.62708],[117.08106,2.62679],[117.08178,2.62674],[117.0827,2.62677],[117.08352,2.62679],[117.08434,2.62674],[117.08553,2.62625],[117.08601,2.6261],[117.08656,2.62613],[117.08688,2.62634],[117.08716,2.62663],[117.08726,2.62707],[117.08726,2.62742],[117.08726,2.62769],[117.08713,2.6283],[117.08683,2.62875],[117.08606,2.6292],[117.08579,2.62957],[117.08542,2.63052],[117.08502,2.63116],[117.08477,2.6317],[117.08445,2.63226],[117.08416,2.63293],[117.08409,2.63336],[117.08409,2.63358],[117.0841,2.63434],[117.08404,2.6348],[117.08384,2.63532],[117.08354,2.63559],[117.08328,2.63578],[117.08268,2.63623],[117.08244,2.63666],[117.08234,2.63741],[117.08248,2.63831],[117.08282,2.63908],[117.08338,2.63995],[117.08394,2.64061],[117.08436,2.64124],[117.08452,2.64177],[117.08454,2.64304],[117.08487,2.64365],[117.08556,2.64421],[117.08644,2.64486],[117.08722,2.64546],[117.08798,2.64605],[117.08843,2.64645],[117.08854,2.64678],[117.08851,2.6472],[117.08822,2.64743],[117.08787,2.64768],[117.08614,2.64826],[117.08471,2.64871],[117.08412,2.6487],[117.08288,2.64837],[117.08252,2.64836],[117.0822,2.64844],[117.08205,2.64873],[117.08211,2.64912],[117.08226,2.6493],[117.08279,2.64974],[117.08341,2.65008],[117.08393,2.65052],[117.0847,2.65118],[117.08508,2.65163],[117.08522,2.65192],[117.0857,2.65293],[117.08599,2.65329],[117.08696,2.65385],[117.08751,2.6545],[117.08796,2.65527],[117.08837,2.65582],[117.08879,2.6561],[117.08922,2.65607],[117.08997,2.65535],[117.09031,2.65525],[117.09165,2.65536],[117.09198,2.65527],[117.0925,2.65495],[117.0931,2.65468],[117.09383,2.65469],[117.09443,2.65499],[117.09452,2.65509],[117.09498,2.65556],[117.09565,2.65626],[117.09616,2.65654],[117.0972,2.65671],[117.09772,2.65711],[117.09786,2.65747],[117.09772,2.65803],[117.09747,2.65877],[117.09734,2.65968],[117.09704,2.66024],[117.09685,2.6608],[117.09683,2.66128],[117.09706,2.66189],[117.09725,2.66258],[117.09724,2.66315],[117.0969,2.66364],[117.09658,2.66392],[117.09583,2.66413],[117.09528,2.66441],[117.09495,2.66476],[117.09466,2.66534],[117.09447,2.66618],[117.0941,2.66712],[117.09387,2.66759],[117.09363,2.66828],[117.09347,2.66854],[117.09321,2.66947],[117.09303,2.66971],[117.09312,2.66986],[117.09303,2.67031],[117.09297,2.67113],[117.09311,2.67203],[117.09326,2.67325],[117.09318,2.67383],[117.09282,2.67429],[117.09244,2.67442],[117.09221,2.67444],[117.09134,2.67453],[117.09071,2.67469],[117.09023,2.67492],[117.08985,2.6755],[117.08959,2.67629],[117.08952,2.67701],[117.0893,2.67848],[117.08931,2.67935],[117.08963,2.67983],[117.09025,2.67996],[117.09107,2.67958],[117.09217,2.67903],[117.09288,2.67883],[117.09352,2.67883],[117.09402,2.67896],[117.09449,2.67943],[117.09481,2.67991],[117.09502,2.6802],[117.09542,2.68095],[117.09574,2.68137],[117.09592,2.68153],[117.09625,2.68178],[117.09692,2.68227],[117.09744,2.68286],[117.0976,2.6833],[117.09768,2.68395],[117.09752,2.68473],[117.09704,2.68552],[117.09627,2.68618],[117.09597,2.68641],[117.095,2.6871],[117.0942,2.68774],[117.09356,2.6885],[117.09315,2.68914],[117.09291,2.68985],[117.0929,2.69062],[117.09322,2.69145],[117.09355,2.69233],[117.09377,2.69298],[117.09395,2.69378],[117.09423,2.69435],[117.09462,2.6947],[117.0953,2.69498],[117.096,2.69495],[117.09653,2.69478],[117.09689,2.69448],[117.09708,2.69391],[117.0973,2.69307],[117.09765,2.69232],[117.09824,2.692],[117.09868,2.69198],[117.09933,2.69221],[117.09973,2.69269],[117.09982,2.69334],[117.09986,2.69419],[117.10005,2.69466],[117.10042,2.69465],[117.10043,2.69463],[117.10059,2.69432],[117.10071,2.69359],[117.10091,2.69312],[117.10131,2.69279],[117.10183,2.69276],[117.10214,2.6931],[117.10222,2.69341],[117.10251,2.6941],[117.10313,2.69481],[117.10334,2.69501],[117.10416,2.69578],[117.10503,2.69642],[117.10587,2.69683],[117.10668,2.69703],[117.10721,2.69727],[117.10759,2.69755],[117.10809,2.69789],[117.1089,2.69803],[117.11022,2.69797],[117.1104,2.69791],[117.11199,2.6974],[117.11265,2.69718],[117.11325,2.69681],[117.11353,2.69641],[117.11369,2.69604],[117.11371,2.69552],[117.11366,2.69456],[117.11357,2.69381],[117.11382,2.69318],[117.11424,2.69273],[117.11472,2.69265],[117.11526,2.69286],[117.11537,2.69304],[117.1155,2.69325],[117.11573,2.69387],[117.11612,2.69447],[117.11649,2.695],[117.11689,2.69552],[117.11721,2.69609],[117.1177,2.69684],[117.11788,2.69704],[117.11831,2.6975],[117.11885,2.69823],[117.11902,2.69841],[117.1195,2.69893],[117.11996,2.69933],[117.12036,2.69947],[117.12102,2.69951],[117.1223,2.69928],[117.12276,2.69927],[117.12327,2.69937],[117.12359,2.69963],[117.12373,2.7],[117.12374,2.70036],[117.12371,2.70045],[117.12339,2.70151],[117.12334,2.70189],[117.1233,2.70224],[117.12333,2.70276],[117.12345,2.70336],[117.12392,2.70459],[117.12387,2.70476],[117.12392,2.70479],[117.12437,2.70558],[117.12497,2.70639],[117.12557,2.70675],[117.1261,2.7069],[117.12651,2.70683],[117.12703,2.7067],[117.12755,2.7067],[117.12811,2.70682],[117.12854,2.70708],[117.12945,2.70779],[117.13039,2.70861],[117.13103,2.70933],[117.13146,2.71006],[117.13192,2.71078],[117.13236,2.71135],[117.13288,2.71174],[117.13349,2.712],[117.13453,2.71234],[117.13487,2.71267],[117.13504,2.71305],[117.1352,2.71378],[117.13524,2.7141],[117.13532,2.71535],[117.13547,2.71589],[117.13574,2.71634],[117.13623,2.7166],[117.13698,2.7166],[117.13736,2.71654],[117.13833,2.71645],[117.13876,2.71653],[117.13912,2.71679],[117.13936,2.71718],[117.13979,2.71775],[117.14011,2.71822],[117.14027,2.7187],[117.14013,2.71916],[117.13968,2.71946],[117.13932,2.71991],[117.13935,2.72039],[117.13973,2.72088],[117.14014,2.72116],[117.14054,2.72129],[117.14159,2.72138],[117.14301,2.72155],[117.14369,2.72175],[117.14421,2.72204],[117.14425,2.72201],[117.14435,2.72194],[117.14478,2.72163],[117.14657,2.72043],[117.14817,2.71962],[117.14917,2.71932],[117.14949,2.71922],[117.15047,2.71892],[117.15126,2.71882],[117.15186,2.71902],[117.15221,2.71922],[117.15256,2.71942],[117.15316,2.71984],[117.15356,2.72013],[117.15446,2.72103],[117.15495,2.72257],[117.15526,2.72354],[117.15526,2.72354],[117.15526,2.72464],[117.15486,2.72574],[117.15436,2.72966],[117.15429,2.72997],[117.15396,2.73137],[117.15375,2.73222],[117.15356,2.73297],[117.15356,2.73408],[117.15349,2.73454],[117.15347,2.73468],[117.15347,2.73468],[117.15351,2.73479],[117.15366,2.73518],[117.15381,2.73533],[117.15396,2.73549],[117.15438,2.73582],[117.15446,2.73589],[117.15447,2.73589],[117.15578,2.73704],[117.15643,2.7374],[117.15767,2.73853],[117.15814,2.73914],[117.15923,2.73826],[117.16238,2.74134]]],[[[117.15757,2.9071],[117.1575,2.90568],[117.15763,2.9001],[117.15772,2.89727],[117.15736,2.89276],[117.15688,2.88625],[117.15629,2.88334],[117.1559,2.88138],[117.15582,2.88063],[117.15637,2.87885],[117.15599,2.87782],[117.1544,2.87759],[117.15302,2.87636],[117.15161,2.87472],[117.15093,2.87409],[117.1518,2.87145],[117.15264,2.8704],[117.15397,2.87066],[117.15488,2.87061],[117.15572,2.87027],[117.156,2.86785],[117.15678,2.86688],[117.15767,2.86733],[117.15885,2.86902],[117.15976,2.86933],[117.16025,2.8685],[117.16019,2.86666],[117.15677,2.86337],[117.15701,2.86147],[117.15873,2.86092],[117.16029,2.86168],[117.16149,2.86155],[117.16239,2.86065],[117.16265,2.85924],[117.1625,2.85762],[117.16145,2.85642],[117.16089,2.85276],[117.16076,2.8501],[117.16058,2.84924],[117.15978,2.84568],[117.1601,2.84411],[117.15984,2.84234],[117.16087,2.84186],[117.16118,2.8369],[117.16221,2.83042],[117.16324,2.82391],[117.16375,2.8204],[117.16308,2.81309],[117.1625,2.80569],[117.16188,2.79877],[117.16179,2.79701],[117.16179,2.79129],[117.16178,2.78411],[117.16179,2.77658],[117.16178,2.76927],[117.16177,2.76821],[117.16299,2.76177],[117.16358,2.75915],[117.16473,2.75589],[117.16499,2.75417],[117.16521,2.75272],[117.16586,2.75043],[117.16542,2.75011],[117.16508,2.74986],[117.16453,2.74964],[117.16437,2.74957],[117.16417,2.74932],[117.16301,2.74778],[117.16056,2.74472],[117.15872,2.74243],[117.15758,2.74121],[117.1568,2.74056],[117.15672,2.74049],[117.15668,2.74045],[117.15615,2.73998],[117.15457,2.73821],[117.15372,2.73726],[117.15318,2.73701],[117.15279,2.73683],[117.15246,2.7366],[117.15186,2.73618],[117.15137,2.7359],[117.15135,2.73586],[117.15115,2.73539],[117.1511,2.73343],[117.15095,2.733],[117.15061,2.72992],[117.15084,2.72844],[117.15084,2.72665],[117.1511,2.72548],[117.1519,2.72407],[117.15167,2.72183],[117.15141,2.72103],[117.15103,2.72077],[117.14956,2.72098],[117.14929,2.72136],[117.14901,2.72169],[117.14886,2.72185],[117.14837,2.72207],[117.14772,2.72214],[117.14722,2.72251],[117.1465,2.72388],[117.1466,2.72402],[117.1464,2.72452],[117.14621,2.72502],[117.14596,2.72563],[117.14595,2.72587],[117.14594,2.72653],[117.14592,2.72717],[117.14591,2.72783],[117.14589,2.72844],[117.14588,2.72903],[117.14572,2.72945],[117.14548,2.73003],[117.14522,2.73069],[117.14496,2.73137],[117.1447,2.73201],[117.14444,2.73268],[117.14422,2.73324],[117.14422,2.73326],[117.1442,2.73335],[117.1441,2.73401],[117.14401,2.73468],[117.14391,2.73534],[117.14383,2.73598],[117.14375,2.73657],[117.14365,2.73725],[117.14356,2.73793],[117.14346,2.73861],[117.14336,2.73928],[117.14327,2.73995],[117.14318,2.74062],[117.1431,2.74115],[117.14306,2.7413],[117.14287,2.74198],[117.14267,2.74267],[117.14248,2.74335],[117.14228,2.74404],[117.14209,2.74473],[117.14189,2.74541],[117.1417,2.74609],[117.14151,2.74677],[117.14132,2.74744],[117.14113,2.74813],[117.14093,2.74882],[117.14073,2.74951],[117.14049,2.75019],[117.14027,2.75087],[117.14005,2.75156],[117.13981,2.75225],[117.13958,2.75295],[117.13935,2.75363],[117.13914,2.7543],[117.13891,2.75497],[117.13869,2.75563],[117.13855,2.75605],[117.13843,2.75632],[117.13814,2.757],[117.13785,2.75767],[117.13755,2.75836],[117.13725,2.75903],[117.13695,2.75973],[117.13665,2.76042],[117.13635,2.7611],[117.13607,2.76175],[117.13578,2.76242],[117.13579,2.76287],[117.13581,2.76356],[117.13583,2.76424],[117.13584,2.76492],[117.13585,2.7656],[117.13586,2.76626],[117.13588,2.76694],[117.1359,2.76762],[117.13591,2.76831],[117.13593,2.76899],[117.13595,2.76966],[117.13596,2.77033],[117.13598,2.77102],[117.136,2.77172],[117.13601,2.77237],[117.13603,2.77304],[117.13605,2.77371],[117.13606,2.77429],[117.13609,2.77438],[117.13639,2.77498],[117.13667,2.77556],[117.13695,2.77616],[117.13725,2.77677],[117.13755,2.77739],[117.13785,2.77802],[117.13786,2.77833],[117.13788,2.779],[117.1379,2.77968],[117.13792,2.78034],[117.13794,2.78098],[117.13796,2.7816],[117.13798,2.7822],[117.138,2.78285],[117.13818,2.78312],[117.13853,2.78364],[117.13889,2.78419],[117.13924,2.78471],[117.13957,2.78521],[117.13977,2.78567],[117.14001,2.78626],[117.14024,2.78688],[117.14054,2.78736],[117.14088,2.78787],[117.14122,2.78842],[117.14153,2.78896],[117.14184,2.78951],[117.1422,2.78984],[117.14273,2.79032],[117.1432,2.79074],[117.14334,2.79125],[117.14351,2.7918],[117.14366,2.79234],[117.14365,2.79286],[117.14365,2.79349],[117.14365,2.79413],[117.14386,2.79459],[117.14414,2.7952],[117.14443,2.7958],[117.14468,2.79636],[117.14493,2.79697],[117.14518,2.79754],[117.14545,2.7982],[117.14571,2.79866],[117.14604,2.79921],[117.14637,2.79978],[117.14637,2.79984],[117.14637,2.80051],[117.14637,2.80113],[117.14607,2.80148],[117.14551,2.80214],[117.14502,2.80272],[117.14499,2.80314],[117.14494,2.80379],[117.14521,2.80423],[117.14554,2.80478],[117.14585,2.80528],[117.14567,2.80562],[117.14529,2.8063],[117.14549,2.80692],[117.14566,2.80748],[117.14586,2.8081],[117.14586,2.80867],[117.14585,2.80936],[117.14524,2.80988],[117.14508,2.81003],[117.14428,2.81003],[117.14339,2.81001],[117.14327,2.81016],[117.14283,2.81068],[117.1428,2.81072],[117.14236,2.81124],[117.14231,2.81188],[117.14225,2.81252],[117.14223,2.81271],[117.14239,2.81318],[117.1426,2.81379],[117.14282,2.81445],[117.14328,2.81486],[117.14373,2.81527],[117.1441,2.81559],[117.1448,2.81604],[117.14497,2.81615],[117.14503,2.81622],[117.14544,2.81671],[117.14585,2.8172],[117.14625,2.81767],[117.14666,2.81816],[117.14711,2.81869],[117.1473,2.81891],[117.1476,2.81931],[117.14797,2.81981],[117.14829,2.82025],[117.14858,2.82064],[117.14854,2.8209],[117.14847,2.82153],[117.1484,2.82214],[117.14833,2.82273],[117.14827,2.82328],[117.14823,2.82355],[117.14823,2.82392],[117.14823,2.82455],[117.14824,2.82583],[117.14807,2.8261],[117.14766,2.82677],[117.14742,2.82729],[117.14712,2.82792],[117.14681,2.82859],[117.14652,2.82924],[117.1462,2.82993],[117.14613,2.83027],[117.146,2.83092],[117.14587,2.83161],[117.14575,2.83219],[117.14578,2.83227],[117.146,2.83287],[117.14623,2.83346],[117.14642,2.834],[117.14639,2.83413],[117.14622,2.83477],[117.14608,2.83535],[117.14608,2.83544],[117.1461,2.83609],[117.14613,2.83677],[117.14604,2.83724],[117.14593,2.83783],[117.14581,2.83842],[117.14577,2.83851],[117.1454,2.83919],[117.14503,2.83988],[117.1447,2.8405],[117.14434,2.84116],[117.14433,2.84119],[117.14416,2.84185],[117.14399,2.84253],[117.1445,2.84322],[117.1449,2.84376],[117.14464,2.8444],[117.14444,2.84491],[117.14446,2.84502],[117.14457,2.84565],[117.14468,2.84625],[117.14478,2.84683],[117.14489,2.84745],[117.14499,2.84801],[117.14503,2.84846],[117.14507,2.84914],[117.14512,2.84983],[117.14512,2.85018],[117.14512,2.85083],[117.14512,2.85147],[117.14513,2.85214],[117.14568,2.85259],[117.14584,2.85294],[117.14609,2.85353],[117.14637,2.85416],[117.14636,2.85419],[117.14626,2.85487],[117.14613,2.85555],[117.14602,2.85621],[117.14583,2.85644],[117.14534,2.85705],[117.14507,2.85738],[117.14475,2.85774],[117.1441,2.85842],[117.14355,2.85902],[117.14356,2.85966],[117.14359,2.86055],[117.14274,2.86024],[117.14192,2.86003],[117.14134,2.85989],[117.14097,2.86015],[117.14033,2.86061],[117.1401,2.86077],[117.13961,2.86126],[117.13909,2.8618],[117.13823,2.86191],[117.13765,2.86197],[117.13715,2.86203],[117.13683,2.86229],[117.1366,2.86246],[117.13627,2.86295],[117.13586,2.86354],[117.13547,2.86404],[117.13499,2.86464],[117.13476,2.86503],[117.13437,2.86566],[117.13411,2.86608],[117.1341,2.86633],[117.13409,2.86701],[117.13441,2.86739],[117.1348,2.86786],[117.13512,2.86824],[117.13515,2.86847],[117.13521,2.8691],[117.13528,2.86973],[117.13534,2.8704],[117.13569,2.87066],[117.13647,2.87122],[117.13704,2.87164],[117.13719,2.87229],[117.13727,2.87266],[117.13741,2.87296],[117.13769,2.87357],[117.13798,2.87417],[117.13832,2.87459],[117.13874,2.87512],[117.13915,2.87562],[117.13941,2.87594],[117.13956,2.87628],[117.13982,2.87689],[117.14007,2.87747],[117.1403,2.87801],[117.14052,2.87851],[117.14059,2.87865],[117.14078,2.87898],[117.14079,2.87933],[117.14084,2.88],[117.14089,2.88058],[117.14093,2.88067],[117.14118,2.88128],[117.14145,2.88192],[117.14148,2.88253],[117.14152,2.88319],[117.14156,2.88384],[117.14145,2.8842],[117.14126,2.88483],[117.14111,2.88534],[117.14104,2.88596],[117.14097,2.88657],[117.14092,2.88707],[117.14088,2.88735],[117.14076,2.88774],[117.14057,2.88829],[117.14043,2.8887],[117.14049,2.88896],[117.14066,2.88961],[117.14081,2.88974],[117.14141,2.89026],[117.14197,2.89076],[117.14246,2.89119],[117.14257,2.89167],[117.1427,2.89221],[117.14263,2.89235],[117.14234,2.89301],[117.14272,2.89321],[117.14358,2.89366],[117.14373,2.89383],[117.14426,2.89442],[117.14473,2.89494],[117.14479,2.89554],[117.14487,2.89614],[117.14495,2.89673],[117.14493,2.8968],[117.14478,2.89742],[117.14462,2.89808],[117.14483,2.89861],[117.14508,2.89923],[117.14567,2.89957],[117.14621,2.89987],[117.14684,2.90024],[117.14744,2.90058],[117.14772,2.90098],[117.14809,2.90154],[117.14843,2.90205],[117.14878,2.90261],[117.14914,2.90317],[117.14879,2.90376],[117.14863,2.90392],[117.14801,2.90455],[117.14752,2.90471],[117.14666,2.90499],[117.14585,2.90504],[117.14519,2.90509],[117.14496,2.90527],[117.14429,2.90578],[117.14402,2.90636],[117.14371,2.90701],[117.14371,2.90731],[117.14371,2.90797],[117.14371,2.90863],[117.14371,2.90931],[117.14371,2.90981],[117.14371,2.91032],[117.14379,2.91046],[117.14409,2.91096],[117.14438,2.91154],[117.1446,2.91196],[117.14473,2.91223],[117.14473,2.9127],[117.14867,2.9127],[117.1566,2.91799],[117.15867,2.91927],[117.15802,2.91348],[117.15757,2.9071]]]]},"properties":{"kdprov":"65","kdkab":"02","kdkec":"030","kddesa":"002","kdsls":"2001","idsls":"65020300022001","nmprov":"KALIMANTAN UTARA","nmkab":"BULUNGAN","nmkec":"TANJUNG PALAS BARAT","nmdesa":"LONG SAM","nmsls":"HUTAN"}}]}