{"type":"FeatureCollection","features":[{"type":"Feature","geometry":{"type":"MultiPolygon","coordinates":[[[[117.21769,3.00275],[117.21683,3.00306],[117.21601,3.00326],[117.21598,3.00326],[117.21634,3.00371],[117.21619,3.00414],[117.21607,3.00467],[117.21618,3.00524],[117.21629,3.00576],[117.21724,3.00579],[117.22397,3.00656],[117.224,3.0034],[117.22064,3.00205],[117.21828,3.00254],[117.21828,3.00254],[117.21769,3.00275]]]]},"properties":{"kdprov":"65","kdkab":"02","kdkec":"080","kddesa":"001","kdsls":"0002","idsls":"65020800010002","nmprov":"KALIMANTAN UTARA","nmkab":"BULUNGAN","nmkec":"TANJUNG PALAS UTARA","nmdesa":"PIMPING","nmsls":"RT 002 RW 003"}},{"type":"Feature","geometry":{"type":"MultiPolygon","coordinates":[[[[117.21601,3.00326],[117.21683,3.00306],[117.21769,3.00275],[117.21726,3.0014],[117.21624,3.0017],[117.21604,3.00112],[117.21555,3.00118],[117.21554,3.00146],[117.21565,3.00236],[117.2158,3.00298],[117.21601,3.00326]]]]},"properties":{"kdprov":"65","kdkab":"02","kdkec":"080","kddesa":"001","kdsls":"0003","idsls":"65020800010003","nmprov":"KALIMANTAN UTARA","nmkab":"BULUNGAN","nmkec":"TANJUNG PALAS UTARA","nmdesa":"PIMPING","nmsls":"RT 003 RW 003"}},{"type":"Feature","geometry":{"type":"MultiPolygon","coordinates":[[[[117.21555,3.00118],[117.21604,3.00112],[117.21624,3.0017],[117.21726,3.0014],[117.2178,3.00124],[117.21762,3.00066],[117.21744,3.00008],[117.21744,3.00008],[117.2169,3.00027],[117.2167,2.99967],[117.2167,2.99966],[117.2165,2.99968],[117.21569,3.00014],[117.21556,3.00057],[117.21556,3.0011],[117.21555,3.00118]]]]},"properties":{"kdprov":"65","kdkab":"02","kdkec":"080","kddesa":"001","kdsls":"0004","idsls":"65020800010004","nmprov":"KALIMANTAN UTARA","nmkab":"BULUNGAN","nmkec":"TANJUNG PALAS UTARA","nmdesa":"PIMPING","nmsls":"RT 004 RW 004"}},{"type":"Feature","geometry":{"type":"MultiPolygon","coordinates":[[[[117.21769,3.00275],[117.21828,3.00254],[117.21828,3.00254],[117.21812,3.0018],[117.21872,3.00163],[117.21855,3.00102],[117.21856,3.001],[117.2185,3.00074],[117.21842,3.00037],[117.21762,3.00066],[117.2178,3.00124],[117.21726,3.0014],[117.21769,3.00275]]]]},"properties":{"kdprov":"65","kdkab":"02","kdkec":"080","kddesa":"001","kdsls":"0005","idsls":"65020800010005","nmprov":"KALIMANTAN UTARA","nmkab":"BULUNGAN","nmkec":"TANJUNG PALAS UTARA","nmdesa":"PIMPING","nmsls":"RT 005 RW 004"}},{"type":"Feature","geometry":{"type":"MultiPolygon","coordinates":[[[[117.2167,2.99967],[117.2169,3.00027],[117.21744,3.00008],[117.21744,3.00008],[117.21762,3.00066],[117.21842,3.00037],[117.21808,2.99886],[117.21808,2.99884],[117.21719,2.99932],[117.21719,2.99929],[117.2167,2.99967]]]]},"properties":{"kdprov":"65","kdkab":"02","kdkec":"080","kddesa":"001","kdsls":"0006","idsls":"65020800010006","nmprov":"KALIMANTAN UTARA","nmkab":"BULUNGAN","nmkec":"TANJUNG PALAS UTARA","nmdesa":"PIMPING","nmsls":"RT 006 RW 004"}},{"type":"Feature","geometry":{"type":"MultiPolygon","coordinates":[[[[117.21629,3.00576],[117.21618,3.00524],[117.21607,3.00467],[117.21619,3.00414],[117.21634,3.00371],[117.21598,3.00326],[117.21601,3.00326],[117.2158,3.00298],[117.21565,3.00236],[117.21554,3.00146],[117.21555,3.00118],[117.21466,3.00151],[117.2143,3.00158],[117.21389,3.00131],[117.21344,3.00087],[117.213,3.00023],[117.2131,2.9998],[117.21339,2.99896],[117.21344,2.99856],[117.21318,2.99828],[117.21296,2.9981],[117.21296,2.99769],[117.21303,2.99709],[117.2131,2.99675],[117.21302,2.99675],[117.20927,2.99691],[117.20736,3.00176],[117.20739,3.00179],[117.20886,3.00323],[117.21134,3.00562],[117.21134,3.00563],[117.21134,3.00562],[117.21625,3.00576],[117.21629,3.00576]]]]},"properties":{"kdprov":"65","kdkab":"02","kdkec":"080","kddesa":"001","kdsls":"0009","idsls":"65020800010009","nmprov":"KALIMANTAN UTARA","nmkab":"BULUNGAN","nmkec":"TANJUNG PALAS UTARA","nmdesa":"PIMPING","nmsls":"RT 009 RW 001"}},{"type":"Feature","geometry":{"type":"MultiPolygon","coordinates":[[[[117.21996,2.99719],[117.21979,2.99674],[117.21914,2.99698],[117.21914,2.99709],[117.21918,2.99769],[117.21899,2.99814],[117.21889,2.99845],[117.21921,2.99948],[117.219,2.99956],[117.21931,3.00053],[117.21951,3.00048],[117.21951,3.00047],[117.21953,3.00047],[117.22017,3.00037],[117.21991,2.99931],[117.22043,2.99842],[117.21996,2.99719]]]]},"properties":{"kdprov":"65","kdkab":"02","kdkec":"080","kddesa":"001","kdsls":"0007","idsls":"65020800010007","nmprov":"KALIMANTAN UTARA","nmkab":"BULUNGAN","nmkec":"TANJUNG PALAS UTARA","nmdesa":"PIMPING","nmsls":"RT 007 RW 005"}},{"type":"Feature","geometry":{"type":"MultiPolygon","coordinates":[[[[117.21842,3.00037],[117.2185,3.00074],[117.21931,3.00053],[117.219,2.99956],[117.21921,2.99948],[117.21889,2.99845],[117.21889,2.99843],[117.21808,2.99886],[117.21842,3.00037]]]]},"properties":{"kdprov":"65","kdkab":"02","kdkec":"080","kddesa":"001","kdsls":"0010","idsls":"65020800010010","nmprov":"KALIMANTAN UTARA","nmkab":"BULUNGAN","nmkec":"TANJUNG PALAS UTARA","nmdesa":"PIMPING","nmsls":"RT 010 RW 005"}},{"type":"Feature","geometry":{"type":"MultiPolygon","coordinates":[[[[117.21134,3.00562],[117.20886,3.00323],[117.20739,3.00179],[117.20622,3.00268],[117.20628,3.00274],[117.20767,3.00397],[117.21063,3.00622],[117.21064,3.00623],[117.21134,3.00562]]]]},"properties":{"kdprov":"65","kdkab":"02","kdkec":"080","kddesa":"001","kdsls":"0012","idsls":"65020800010012","nmprov":"KALIMANTAN UTARA","nmkab":"BULUNGAN","nmkec":"TANJUNG PALAS UTARA","nmdesa":"PIMPING","nmsls":"RT 012 RW 001"}},{"type":"Feature","geometry":{"type":"MultiPolygon","coordinates":[[[[117.21063,3.00622],[117.20767,3.00397],[117.20628,3.00274],[117.20526,3.00331],[117.20673,3.00756],[117.20686,3.00788],[117.20991,3.00694],[117.21063,3.00622]]]]},"properties":{"kdprov":"65","kdkab":"02","kdkec":"080","kddesa":"001","kdsls":"0001","idsls":"65020800010001","nmprov":"KALIMANTAN UTARA","nmkab":"BULUNGAN","nmkec":"TANJUNG PALAS UTARA","nmdesa":"PIMPING","nmsls":"RT 001 RW 001"}},{"type":"Feature","geometry":{"type":"MultiPolygon","coordinates":[[[[117.21311,3.0703],[117.21274,3.0718],[117.2134,3.07194],[117.21497,3.07281],[117.21621,3.07364],[117.21622,3.0737],[117.21627,3.07362],[117.21717,3.07018],[117.21442,3.06964],[117.21441,3.06964],[117.21392,3.06952],[117.21376,3.07044],[117.21311,3.0703]]]]},"properties":{"kdprov":"65","kdkab":"02","kdkec":"080","kddesa":"005","kdsls":"0007","idsls":"65020800050007","nmprov":"KALIMANTAN UTARA","nmkab":"BULUNGAN","nmkec":"TANJUNG PALAS UTARA","nmdesa":"PANCA AGUNG","nmsls":"RT 007 RW 002"}},{"type":"Feature","geometry":{"type":"MultiPolygon","coordinates":[[[[117.22397,3.00656],[117.21724,3.00579],[117.21629,3.00576],[117.21625,3.00576],[117.21635,3.00615],[117.2162,3.00691],[117.2164,3.00775],[117.21668,3.00813],[117.21671,3.00853],[117.21648,3.009],[117.21602,3.00917],[117.21519,3.00904],[117.21447,3.00892],[117.2132,3.00877],[117.21244,3.0084],[117.21781,3.02191],[117.21981,3.02224],[117.21981,3.02226],[117.22131,3.02225],[117.22458,3.0216],[117.22399,3.00656],[117.22397,3.00656]]]]},"properties":{"kdprov":"65","kdkab":"02","kdkec":"080","kddesa":"001","kdsls":"0013","idsls":"65020800010013","nmprov":"KALIMANTAN UTARA","nmkab":"BULUNGAN","nmkec":"TANJUNG PALAS UTARA","nmdesa":"PIMPING","nmsls":"RT 013 RW 003"}},{"type":"Feature","geometry":{"type":"MultiPolygon","coordinates":[[[[117.2708,3.01848],[117.2705,3.02084],[117.27047,3.02083],[117.27015,3.02201],[117.2714,3.02326],[117.27169,3.02345],[117.27172,3.02348],[117.27483,3.01651],[117.27082,3.01839],[117.2708,3.01848]]]]},"properties":{"kdprov":"65","kdkab":"02","kdkec":"080","kddesa":"002","kdsls":"0004","idsls":"65020800020004","nmprov":"KALIMANTAN UTARA","nmkab":"BULUNGAN","nmkec":"TANJUNG PALAS UTARA","nmdesa":"KELUBIR","nmsls":"RT 004 RW 002"}},{"type":"Feature","geometry":{"type":"MultiPolygon","coordinates":[[[[117.27047,3.02083],[117.2705,3.02084],[117.2708,3.01848],[117.2698,3.01765],[117.2698,3.01749],[117.26985,3.01742],[117.26989,3.01736],[117.26979,3.01726],[117.26895,3.01641],[117.26895,3.01641],[117.26878,3.01627],[117.26846,3.01886],[117.26813,3.01928],[117.26872,3.01967],[117.27003,3.02054],[117.27047,3.02083]]]]},"properties":{"kdprov":"65","kdkab":"02","kdkec":"080","kddesa":"002","kdsls":"0005","idsls":"65020800020005","nmprov":"KALIMANTAN UTARA","nmkab":"BULUNGAN","nmkec":"TANJUNG PALAS UTARA","nmdesa":"KELUBIR","nmsls":"RT 005 RW 002"}},{"type":"Feature","geometry":{"type":"MultiPolygon","coordinates":[[[[117.26813,3.01928],[117.26846,3.01886],[117.26878,3.01627],[117.26678,3.01465],[117.26653,3.01403],[117.26434,3.01271],[117.26278,3.01797],[117.26329,3.01802],[117.26382,3.0183],[117.26383,3.0183],[117.26399,3.01848],[117.26451,3.01875],[117.26773,3.01922],[117.26813,3.01928],[117.26813,3.01928]]]]},"properties":{"kdprov":"65","kdkab":"02","kdkec":"080","kddesa":"002","kdsls":"0006","idsls":"65020800020006","nmprov":"KALIMANTAN UTARA","nmkab":"BULUNGAN","nmkec":"TANJUNG PALAS UTARA","nmdesa":"KELUBIR","nmsls":"RT 006 RW 003"}},{"type":"Feature","geometry":{"type":"MultiPolygon","coordinates":[[[[117.2708,3.01848],[117.27082,3.01839],[117.27483,3.01651],[117.27492,3.01647],[117.27492,3.01647],[117.27517,3.01612],[117.27343,3.01459],[117.2726,3.01387],[117.27253,3.01381],[117.27218,3.01428],[117.27187,3.01469],[117.27137,3.01546],[117.27117,3.01571],[117.27067,3.01629],[117.27051,3.01649],[117.26989,3.01736],[117.26985,3.01742],[117.2698,3.01749],[117.2698,3.01765],[117.2708,3.01848]]]]},"properties":{"kdprov":"65","kdkab":"02","kdkec":"080","kddesa":"002","kdsls":"0008","idsls":"65020800020008","nmprov":"KALIMANTAN UTARA","nmkab":"BULUNGAN","nmkec":"TANJUNG PALAS UTARA","nmdesa":"KELUBIR","nmsls":"RT 008 RW 003"}},{"type":"Feature","geometry":{"type":"MultiPolygon","coordinates":[[[[117.20889,3.04688],[117.20889,3.04688],[117.20937,3.04593],[117.20755,3.045],[117.20755,3.045],[117.20755,3.045],[117.207,3.04474],[117.20598,3.04425],[117.20441,3.04682],[117.20459,3.04689],[117.20505,3.04706],[117.20652,3.04789],[117.20662,3.04767],[117.20758,3.04805],[117.2078,3.04756],[117.20757,3.04747],[117.20785,3.04692],[117.20863,3.04728],[117.20889,3.04688]]]]},"properties":{"kdprov":"65","kdkab":"02","kdkec":"080","kddesa":"003","kdsls":"0006","idsls":"65020800030006","nmprov":"KALIMANTAN UTARA","nmkab":"BULUNGAN","nmkec":"TANJUNG PALAS UTARA","nmdesa":"KARANG AGUNG","nmsls":"RT 006 RW 002"}},{"type":"Feature","geometry":{"type":"MultiPolygon","coordinates":[[[[117.20937,3.04593],[117.20889,3.04688],[117.20889,3.04688],[117.21007,3.04733],[117.21248,3.04878],[117.21279,3.04838],[117.21341,3.04794],[117.2138,3.04753],[117.214,3.04702],[117.21127,3.04541],[117.21062,3.04507],[117.20996,3.0461],[117.20989,3.0462],[117.20937,3.04593]]]]},"properties":{"kdprov":"65","kdkab":"02","kdkec":"080","kddesa":"003","kdsls":"0007","idsls":"65020800030007","nmprov":"KALIMANTAN UTARA","nmkab":"BULUNGAN","nmkec":"TANJUNG PALAS UTARA","nmdesa":"KARANG AGUNG","nmsls":"RT 007 RW 002"}},{"type":"Feature","geometry":{"type":"MultiPolygon","coordinates":[[[[117.20889,3.04688],[117.20863,3.04728],[117.20785,3.04692],[117.20757,3.04747],[117.2078,3.04756],[117.20758,3.04805],[117.20758,3.04805],[117.21169,3.05007],[117.21191,3.05018],[117.21193,3.05015],[117.2123,3.04967],[117.21231,3.04967],[117.21227,3.04917],[117.21248,3.04878],[117.21248,3.04878],[117.21007,3.04733],[117.20889,3.04688]]]]},"properties":{"kdprov":"65","kdkab":"02","kdkec":"080","kddesa":"003","kdsls":"0005","idsls":"65020800030005","nmprov":"KALIMANTAN UTARA","nmkab":"BULUNGAN","nmkec":"TANJUNG PALAS UTARA","nmdesa":"KARANG AGUNG","nmsls":"RT 005 RW 002"}},{"type":"Feature","geometry":{"type":"MultiPolygon","coordinates":[[[[117.214,3.04702],[117.2138,3.04753],[117.21341,3.04794],[117.21279,3.04838],[117.21248,3.04878],[117.21248,3.04878],[117.21227,3.04917],[117.21231,3.04967],[117.2123,3.04967],[117.21259,3.05008],[117.21303,3.05028],[117.21289,3.05067],[117.21289,3.05067],[117.21714,3.05295],[117.21933,3.05356],[117.22028,3.05443],[117.22045,3.05719],[117.2223,3.05732],[117.22231,3.05413],[117.22073,3.05272],[117.21854,3.05204],[117.21336,3.04983],[117.21488,3.04756],[117.21488,3.04751],[117.21486,3.04753],[117.2142,3.04714],[117.2142,3.04714],[117.214,3.04702]]]]},"properties":{"kdprov":"65","kdkab":"02","kdkec":"080","kddesa":"003","kdsls":"0020","idsls":"65020800030020","nmprov":"KALIMANTAN UTARA","nmkab":"BULUNGAN","nmkec":"TANJUNG PALAS UTARA","nmdesa":"KARANG AGUNG","nmsls":"RT 020 RW 002"}},{"type":"Feature","geometry":{"type":"MultiPolygon","coordinates":[[[[117.2123,3.04967],[117.21193,3.05015],[117.21191,3.05018],[117.21169,3.05007],[117.21104,3.05108],[117.21043,3.05202],[117.2097,3.05316],[117.21055,3.0536],[117.21107,3.05387],[117.21289,3.05067],[117.21289,3.05067],[117.21303,3.05028],[117.21259,3.05008],[117.2123,3.04967]]]]},"properties":{"kdprov":"65","kdkab":"02","kdkec":"080","kddesa":"003","kdsls":"0001","idsls":"65020800030001","nmprov":"KALIMANTAN UTARA","nmkab":"BULUNGAN","nmkec":"TANJUNG PALAS UTARA","nmdesa":"KARANG AGUNG","nmsls":"RT 001 RW 001"}},{"type":"Feature","geometry":{"type":"MultiPolygon","coordinates":[[[[117.2097,3.05316],[117.21043,3.05202],[117.20677,3.04988],[117.20581,3.04924],[117.20521,3.05047],[117.20605,3.05102],[117.2097,3.05316]]]]},"properties":{"kdprov":"65","kdkab":"02","kdkec":"080","kddesa":"003","kdsls":"0002","idsls":"65020800030002","nmprov":"KALIMANTAN UTARA","nmkab":"BULUNGAN","nmkec":"TANJUNG PALAS UTARA","nmdesa":"KARANG AGUNG","nmsls":"RT 002 RW 001"}},{"type":"Feature","geometry":{"type":"MultiPolygon","coordinates":[[[[117.21043,3.05202],[117.21104,3.05108],[117.20629,3.04841],[117.20581,3.04923],[117.20581,3.04924],[117.20677,3.04988],[117.21043,3.05202]]]]},"properties":{"kdprov":"65","kdkab":"02","kdkec":"080","kddesa":"003","kdsls":"0003","idsls":"65020800030003","nmprov":"KALIMANTAN UTARA","nmkab":"BULUNGAN","nmkec":"TANJUNG PALAS UTARA","nmdesa":"KARANG AGUNG","nmsls":"RT 003 RW 001"}},{"type":"Feature","geometry":{"type":"MultiPolygon","coordinates":[[[[117.20758,3.04805],[117.20662,3.04767],[117.20652,3.04789],[117.20628,3.04841],[117.20629,3.04841],[117.21104,3.05108],[117.21169,3.05007],[117.20758,3.04805],[117.20758,3.04805]]]]},"properties":{"kdprov":"65","kdkab":"02","kdkec":"080","kddesa":"003","kdsls":"0004","idsls":"65020800030004","nmprov":"KALIMANTAN UTARA","nmkab":"BULUNGAN","nmkec":"TANJUNG PALAS UTARA","nmdesa":"KARANG AGUNG","nmsls":"RT 004 RW 001"}},{"type":"Feature","geometry":{"type":"MultiPolygon","coordinates":[[[[117.20755,3.045],[117.20755,3.045],[117.20937,3.04593],[117.20989,3.0462],[117.20996,3.0461],[117.21062,3.04507],[117.21127,3.04541],[117.214,3.04702],[117.2142,3.04714],[117.2142,3.04714],[117.21486,3.04753],[117.21488,3.04751],[117.21637,3.04538],[117.21637,3.04536],[117.21613,3.04521],[117.21613,3.0452],[117.21613,3.04521],[117.21565,3.04489],[117.21521,3.04535],[117.21458,3.04495],[117.21364,3.04437],[117.21364,3.04438],[117.21191,3.04337],[117.21193,3.04334],[117.20952,3.04359],[117.20755,3.045]]]]},"properties":{"kdprov":"65","kdkab":"02","kdkec":"080","kddesa":"003","kdsls":"0008","idsls":"65020800030008","nmprov":"KALIMANTAN UTARA","nmkab":"BULUNGAN","nmkec":"TANJUNG PALAS UTARA","nmdesa":"KARANG AGUNG","nmsls":"RT 008 RW 003"}},{"type":"Feature","geometry":{"type":"MultiPolygon","coordinates":[[[[117.207,3.04474],[117.20755,3.045],[117.20755,3.045],[117.20952,3.04359],[117.21193,3.04334],[117.21326,3.04114],[117.21325,3.04114],[117.21325,3.04113],[117.21325,3.04113],[117.21082,3.03952],[117.2105,3.03997],[117.21011,3.03973],[117.20815,3.0427],[117.207,3.04474]]]]},"properties":{"kdprov":"65","kdkab":"02","kdkec":"080","kddesa":"003","kdsls":"0009","idsls":"65020800030009","nmprov":"KALIMANTAN UTARA","nmkab":"BULUNGAN","nmkec":"TANJUNG PALAS UTARA","nmdesa":"KARANG AGUNG","nmsls":"RT 009 RW 003"}},{"type":"Feature","geometry":{"type":"MultiPolygon","coordinates":[[[[117.20598,3.04425],[117.207,3.04474],[117.20815,3.0427],[117.21011,3.03973],[117.20895,3.03901],[117.20891,3.03902],[117.20598,3.04425],[117.20598,3.04425]]]]},"properties":{"kdprov":"65","kdkab":"02","kdkec":"080","kddesa":"003","kdsls":"0010","idsls":"65020800030010","nmprov":"KALIMANTAN UTARA","nmkab":"BULUNGAN","nmkec":"TANJUNG PALAS UTARA","nmdesa":"KARANG AGUNG","nmsls":"RT 010 RW 003"}},{"type":"Feature","geometry":{"type":"MultiPolygon","coordinates":[[[[117.21011,3.03973],[117.2105,3.03997],[117.21082,3.03952],[117.21325,3.04113],[117.21325,3.04113],[117.21485,3.03783],[117.21484,3.03784],[117.21426,3.03737],[117.21429,3.03733],[117.21336,3.03681],[117.21336,3.0368],[117.21335,3.03681],[117.21279,3.03659],[117.21183,3.0362],[117.20894,3.03901],[117.20895,3.03901],[117.21011,3.03973]]]]},"properties":{"kdprov":"65","kdkab":"02","kdkec":"080","kddesa":"003","kdsls":"0011","idsls":"65020800030011","nmprov":"KALIMANTAN UTARA","nmkab":"BULUNGAN","nmkec":"TANJUNG PALAS UTARA","nmdesa":"KARANG AGUNG","nmsls":"RT 011 RW 004"}},{"type":"Feature","geometry":{"type":"MultiPolygon","coordinates":[[[[117.21183,3.0362],[117.21279,3.03659],[117.21335,3.03681],[117.21336,3.0368],[117.21598,3.03318],[117.21564,3.03297],[117.21468,3.03239],[117.21381,3.03355],[117.21183,3.0362]]]]},"properties":{"kdprov":"65","kdkab":"02","kdkec":"080","kddesa":"003","kdsls":"0012","idsls":"65020800030012","nmprov":"KALIMANTAN UTARA","nmkab":"BULUNGAN","nmkec":"TANJUNG PALAS UTARA","nmdesa":"KARANG AGUNG","nmsls":"RT 012 RW 005"}},{"type":"Feature","geometry":{"type":"MultiPolygon","coordinates":[[[[117.21336,3.0368],[117.21336,3.03681],[117.21429,3.03733],[117.21662,3.03409],[117.21675,3.03367],[117.21638,3.03341],[117.21637,3.03341],[117.21598,3.03318],[117.21336,3.0368]]]]},"properties":{"kdprov":"65","kdkab":"02","kdkec":"080","kddesa":"003","kdsls":"0013","idsls":"65020800030013","nmprov":"KALIMANTAN UTARA","nmkab":"BULUNGAN","nmkec":"TANJUNG PALAS UTARA","nmdesa":"KARANG AGUNG","nmsls":"RT 013 RW 005"}},{"type":"Feature","geometry":{"type":"MultiPolygon","coordinates":[[[[117.21429,3.03733],[117.21426,3.03737],[117.21484,3.03784],[117.21485,3.03783],[117.21813,3.03642],[117.21813,3.03642],[117.2205,3.03379],[117.2205,3.03378],[117.21744,3.03184],[117.21653,3.03296],[117.21638,3.03341],[117.21675,3.03367],[117.21662,3.03409],[117.21429,3.03733]]]]},"properties":{"kdprov":"65","kdkab":"02","kdkec":"080","kddesa":"003","kdsls":"0014","idsls":"65020800030014","nmprov":"KALIMANTAN UTARA","nmkab":"BULUNGAN","nmkec":"TANJUNG PALAS UTARA","nmdesa":"KARANG AGUNG","nmsls":"RT 014 RW 005"}},{"type":"Feature","geometry":{"type":"MultiPolygon","coordinates":[[[[117.21468,3.03239],[117.21564,3.03297],[117.21598,3.03318],[117.21637,3.03341],[117.21638,3.03341],[117.21653,3.03296],[117.21744,3.03184],[117.2205,3.03378],[117.22051,3.03379],[117.2249,3.03073],[117.22013,3.02701],[117.21941,3.02749],[117.21463,3.03236],[117.21468,3.03239]]]]},"properties":{"kdprov":"65","kdkab":"02","kdkec":"080","kddesa":"003","kdsls":"0015","idsls":"65020800030015","nmprov":"KALIMANTAN UTARA","nmkab":"BULUNGAN","nmkec":"TANJUNG PALAS UTARA","nmdesa":"KARANG AGUNG","nmsls":"RT 015 RW 005"}},{"type":"Feature","geometry":{"type":"MultiPolygon","coordinates":[[[[117.21458,3.04495],[117.21521,3.04535],[117.21565,3.04489],[117.21613,3.04521],[117.21613,3.0452],[117.21613,3.04521],[117.21637,3.04536],[117.21637,3.04537],[117.21816,3.04334],[117.22012,3.03867],[117.21996,3.03834],[117.21969,3.03813],[117.21922,3.0379],[117.21897,3.03769],[117.21892,3.03763],[117.21819,3.03913],[117.21561,3.04344],[117.21458,3.04495]]]]},"properties":{"kdprov":"65","kdkab":"02","kdkec":"080","kddesa":"003","kdsls":"0016","idsls":"65020800030016","nmprov":"KALIMANTAN UTARA","nmkab":"BULUNGAN","nmkec":"TANJUNG PALAS UTARA","nmdesa":"KARANG AGUNG","nmsls":"RT 016 RW 006"}},{"type":"Feature","geometry":{"type":"MultiPolygon","coordinates":[[[[117.21364,3.04437],[117.21458,3.04495],[117.21561,3.04344],[117.21819,3.03913],[117.21892,3.03763],[117.2187,3.03743],[117.21781,3.03887],[117.21746,3.0387],[117.21745,3.03871],[117.21744,3.03871],[117.21364,3.04437]]]]},"properties":{"kdprov":"65","kdkab":"02","kdkec":"080","kddesa":"003","kdsls":"0017","idsls":"65020800030017","nmprov":"KALIMANTAN UTARA","nmkab":"BULUNGAN","nmkec":"TANJUNG PALAS UTARA","nmdesa":"KARANG AGUNG","nmsls":"RT 017 RW 006"}},{"type":"Feature","geometry":{"type":"MultiPolygon","coordinates":[[[[117.21193,3.04334],[117.21191,3.04337],[117.21364,3.04438],[117.21364,3.04437],[117.21744,3.03871],[117.21672,3.03814],[117.21416,3.04178],[117.21326,3.04114],[117.21193,3.04334]]]]},"properties":{"kdprov":"65","kdkab":"02","kdkec":"080","kddesa":"003","kdsls":"0018","idsls":"65020800030018","nmprov":"KALIMANTAN UTARA","nmkab":"BULUNGAN","nmkec":"TANJUNG PALAS UTARA","nmdesa":"KARANG AGUNG","nmsls":"RT 018 RW 006"}},{"type":"Feature","geometry":{"type":"MultiPolygon","coordinates":[[[[117.21325,3.04113],[117.21325,3.04114],[117.21326,3.04114],[117.21416,3.04178],[117.21672,3.03814],[117.21744,3.03871],[117.21745,3.03871],[117.21746,3.0387],[117.21781,3.03887],[117.2187,3.03743],[117.2187,3.03742],[117.21869,3.03742],[117.21827,3.03686],[117.21813,3.03642],[117.21485,3.03783],[117.21325,3.04113]]]]},"properties":{"kdprov":"65","kdkab":"02","kdkec":"080","kddesa":"003","kdsls":"0019","idsls":"65020800030019","nmprov":"KALIMANTAN UTARA","nmkab":"BULUNGAN","nmkec":"TANJUNG PALAS UTARA","nmdesa":"KARANG AGUNG","nmsls":"RT 019 RW 006"}},{"type":"Feature","geometry":{"type":"MultiPolygon","coordinates":[[[[117.24213,3.05871],[117.23949,3.05876],[117.23931,3.05877],[117.23919,3.06072],[117.23918,3.06072],[117.23911,3.06284],[117.2401,3.0628],[117.24146,3.06288],[117.24146,3.06283],[117.24157,3.06252],[117.24166,3.06199],[117.24173,3.06161],[117.24173,3.06063],[117.24193,3.05929],[117.24213,3.05871]]]]},"properties":{"kdprov":"65","kdkab":"02","kdkec":"080","kddesa":"004","kdsls":"0012","idsls":"65020800040012","nmprov":"KALIMANTAN UTARA","nmkab":"BULUNGAN","nmkec":"TANJUNG PALAS UTARA","nmdesa":"RUHUI RAHAYU","nmsls":"RT 012 RW 004"}},{"type":"Feature","geometry":{"type":"MultiPolygon","coordinates":[[[[117.24146,3.06288],[117.2401,3.0628],[117.23911,3.06284],[117.23918,3.06072],[117.23669,3.06067],[117.23668,3.06055],[117.23036,3.06929],[117.23165,3.06932],[117.23169,3.06932],[117.23833,3.06775],[117.23864,3.06768],[117.24009,3.06761],[117.24015,3.06761],[117.24143,3.06755],[117.24143,3.06755],[117.24169,3.06755],[117.24163,3.06709],[117.24162,3.06696],[117.24141,3.0666],[117.24127,3.06628],[117.24125,3.06606],[117.24124,3.06505],[117.2412,3.06461],[117.24112,3.06416],[117.24114,3.06398],[117.24135,3.06334],[117.24144,3.063],[117.24146,3.06294],[117.24146,3.06288]]]]},"properties":{"kdprov":"65","kdkab":"02","kdkec":"080","kddesa":"004","kdsls":"0013","idsls":"65020800040013","nmprov":"KALIMANTAN UTARA","nmkab":"BULUNGAN","nmkec":"TANJUNG PALAS UTARA","nmdesa":"RUHUI RAHAYU","nmsls":"RT 013 RW 004"}},{"type":"Feature","geometry":{"type":"MultiPolygon","coordinates":[[[[117.21488,3.04751],[117.21488,3.04756],[117.21336,3.04983],[117.21854,3.05204],[117.22073,3.05272],[117.22231,3.05413],[117.2223,3.05732],[117.22045,3.05719],[117.22028,3.05443],[117.21933,3.05356],[117.21714,3.05295],[117.21289,3.05067],[117.21107,3.05387],[117.21055,3.0536],[117.21038,3.05446],[117.20986,3.05532],[117.20986,3.05635],[117.20947,3.05839],[117.22126,3.05821],[117.2237,3.06038],[117.22593,3.06183],[117.22601,3.06183],[117.22766,3.06181],[117.23053,3.0589],[117.23216,3.0557],[117.2328,3.05446],[117.23298,3.05411],[117.2353,3.04956],[117.23455,3.04769],[117.23451,3.04678],[117.23497,3.04595],[117.23497,3.04558],[117.23488,3.0445],[117.23522,3.04267],[117.23523,3.04262],[117.23584,3.04097],[117.23599,3.03819],[117.2353,3.02831],[117.23538,3.02727],[117.23559,3.02608],[117.23559,3.02497],[117.23564,3.02413],[117.23566,3.02374],[117.23591,3.02278],[117.2363,3.02202],[117.23666,3.02136],[117.23681,3.02089],[117.23682,3.02052],[117.23679,3.01943],[117.23699,3.01884],[117.23733,3.01805],[117.23758,3.01737],[117.23794,3.01703],[117.23852,3.01654],[117.23892,3.01607],[117.23946,3.0154],[117.23987,3.01463],[117.23987,3.01458],[117.22193,3.02485],[117.21989,3.02602],[117.21972,3.02611],[117.21926,3.02638],[117.21866,3.02672],[117.21751,3.02738],[117.21423,3.02694],[117.21381,3.02688],[117.16229,3.01992],[117.15995,3.01952],[117.11551,3.012],[117.09125,2.99888],[117.08284,2.99492],[117.07418,2.98576],[117.07362,2.97725],[117.0655,2.9853],[117.04689,3.00696],[117.03102,3.01978],[117.03006,3.02154],[117.0237,3.03321],[117.02995,3.0448],[117.03007,3.04493],[117.03005,3.04463],[117.04444,3.04881],[117.06981,3.04777],[117.08185,3.05588],[117.08682,3.06608],[117.08708,3.06582],[117.08996,3.06948],[117.09467,3.06922],[117.09872,3.06555],[117.11075,3.07131],[117.11155,3.07285],[117.11242,3.0693],[117.11532,3.06705],[117.11786,3.06534],[117.12108,3.06187],[117.13321,3.05717],[117.14039,3.05618],[117.14498,3.05554],[117.14842,3.05574],[117.15083,3.05528],[117.15205,3.05503],[117.15335,3.05455],[117.15521,3.05422],[117.1587,3.05592],[117.1604,3.05698],[117.16135,3.05863],[117.16267,3.05901],[117.16616,3.05852],[117.16694,3.05979],[117.17661,3.06018],[117.19727,3.06113],[117.20109,3.06131],[117.20303,3.0614],[117.20311,3.0614],[117.20409,3.06091],[117.20471,3.06058],[117.20412,3.06028],[117.20309,3.05994],[117.20172,3.0596],[117.20027,3.05823],[117.19941,3.05626],[117.19881,3.05472],[117.19838,3.05327],[117.19804,3.05173],[117.19701,3.0501],[117.19667,3.04865],[117.19636,3.04819],[117.1959,3.04824],[117.19382,3.04726],[117.19074,3.04696],[117.18739,3.04572],[117.18581,3.04465],[117.18577,3.04306],[117.18538,3.04187],[117.18542,3.04045],[117.18615,3.03844],[117.18808,3.03772],[117.18939,3.03433],[117.19007,3.03193],[117.19149,3.02898],[117.19251,3.02787],[117.1947,3.02641],[117.19883,3.02663],[117.20072,3.02718],[117.20414,3.02842],[117.20877,3.03099],[117.21381,3.03355],[117.21468,3.03239],[117.21463,3.03236],[117.21941,3.02749],[117.22013,3.02701],[117.2249,3.03073],[117.22051,3.03379],[117.2205,3.03378],[117.2205,3.03379],[117.21813,3.03642],[117.21813,3.03642],[117.21827,3.03686],[117.21869,3.03742],[117.2187,3.03742],[117.2187,3.03743],[117.21892,3.03763],[117.21897,3.03769],[117.21922,3.0379],[117.21969,3.03813],[117.21996,3.03834],[117.22012,3.03867],[117.21816,3.04334],[117.21637,3.04537],[117.21637,3.04536],[117.21637,3.04538],[117.21488,3.04751]]]]},"properties":{"kdprov":"65","kdkab":"02","kdkec":"080","kddesa":"003","kdsls":"1002","idsls":"65020800031002","nmprov":"KALIMANTAN UTARA","nmkab":"BULUNGAN","nmkec":"TANJUNG PALAS UTARA","nmdesa":"KARANG AGUNG","nmsls":"SAWAH LADANG KEBUN SAWIT"}},{"type":"Feature","geometry":{"type":"MultiPolygon","coordinates":[[[[117.24163,3.06709],[117.24169,3.06755],[117.24143,3.06755],[117.24143,3.06755],[117.24015,3.06761],[117.2405,3.06959],[117.24138,3.07134],[117.24186,3.07172],[117.24241,3.07151],[117.24258,3.07146],[117.24541,3.07058],[117.24626,3.06992],[117.24626,3.06992],[117.24515,3.06965],[117.24417,3.06906],[117.24327,3.06929],[117.24239,3.06695],[117.24163,3.06709]]]]},"properties":{"kdprov":"65","kdkab":"02","kdkec":"080","kddesa":"004","kdsls":"0004","idsls":"65020800040004","nmprov":"KALIMANTAN UTARA","nmkab":"BULUNGAN","nmkec":"TANJUNG PALAS UTARA","nmdesa":"RUHUI RAHAYU","nmsls":"RT 004 RW 002"}},{"type":"Feature","geometry":{"type":"MultiPolygon","coordinates":[[[[117.20652,3.04789],[117.20505,3.04706],[117.20459,3.04689],[117.20441,3.04682],[117.20598,3.04425],[117.20598,3.04425],[117.20891,3.03902],[117.20895,3.03901],[117.20894,3.03901],[117.21183,3.0362],[117.21381,3.03355],[117.20877,3.03099],[117.20414,3.02842],[117.20072,3.02718],[117.19883,3.02663],[117.1947,3.02641],[117.19251,3.02787],[117.19149,3.02898],[117.19007,3.03193],[117.18939,3.03433],[117.18808,3.03772],[117.18615,3.03844],[117.18542,3.04045],[117.18538,3.04187],[117.18577,3.04306],[117.18581,3.04465],[117.18739,3.04572],[117.19074,3.04696],[117.19382,3.04726],[117.1959,3.04824],[117.19636,3.04819],[117.19667,3.04865],[117.19701,3.0501],[117.19804,3.05173],[117.19838,3.05327],[117.19881,3.05472],[117.19941,3.05626],[117.20027,3.05823],[117.20172,3.0596],[117.20309,3.05994],[117.20412,3.06028],[117.20471,3.06058],[117.20884,3.0584],[117.20947,3.05839],[117.20986,3.05635],[117.20986,3.05532],[117.21038,3.05446],[117.21055,3.0536],[117.2097,3.05316],[117.20605,3.05102],[117.20521,3.05047],[117.20581,3.04924],[117.20581,3.04923],[117.20629,3.04841],[117.20628,3.04841],[117.20652,3.04789]]]]},"properties":{"kdprov":"65","kdkab":"02","kdkec":"080","kddesa":"003","kdsls":"1001","idsls":"65020800031001","nmprov":"KALIMANTAN UTARA","nmkab":"BULUNGAN","nmkec":"TANJUNG PALAS UTARA","nmdesa":"KARANG AGUNG","nmsls":"PERKEBUNAN SAWIT"}},{"type":"Feature","geometry":{"type":"MultiPolygon","coordinates":[[[[117.24239,3.06695],[117.24327,3.06929],[117.24417,3.06906],[117.24515,3.06965],[117.24626,3.06992],[117.24627,3.0699],[117.24629,3.06989],[117.2464,3.06979],[117.24964,3.06796],[117.24851,3.06788],[117.2484,3.06788],[117.2465,3.06782],[117.24559,3.06686],[117.24296,3.0677],[117.24279,3.06685],[117.24276,3.06688],[117.24239,3.06695]]]]},"properties":{"kdprov":"65","kdkab":"02","kdkec":"080","kddesa":"004","kdsls":"0005","idsls":"65020800040005","nmprov":"KALIMANTAN UTARA","nmkab":"BULUNGAN","nmkec":"TANJUNG PALAS UTARA","nmdesa":"RUHUI RAHAYU","nmsls":"RT 005 RW 002"}},{"type":"Feature","geometry":{"type":"MultiPolygon","coordinates":[[[[117.24279,3.06685],[117.24296,3.0677],[117.24559,3.06686],[117.2465,3.06782],[117.2484,3.06788],[117.24851,3.06788],[117.24964,3.06796],[117.24982,3.06798],[117.24994,3.0622],[117.24993,3.06219],[117.24993,3.06221],[117.24569,3.06218],[117.24568,3.06268],[117.24557,3.06573],[117.24377,3.06575],[117.24377,3.06578],[117.24279,3.06685]]]]},"properties":{"kdprov":"65","kdkab":"02","kdkec":"080","kddesa":"004","kdsls":"0006","idsls":"65020800040006","nmprov":"KALIMANTAN UTARA","nmkab":"BULUNGAN","nmkec":"TANJUNG PALAS UTARA","nmdesa":"RUHUI RAHAYU","nmsls":"RT 006 RW 002"}},{"type":"Feature","geometry":{"type":"MultiPolygon","coordinates":[[[[117.24569,3.06218],[117.24993,3.06221],[117.24993,3.06219],[117.24986,3.05427],[117.24851,3.05425],[117.24579,3.05413],[117.24571,3.05417],[117.24573,3.0578],[117.2457,3.06044],[117.2457,3.06045],[117.2457,3.06045],[117.24569,3.06218]]]]},"properties":{"kdprov":"65","kdkab":"02","kdkec":"080","kddesa":"004","kdsls":"0007","idsls":"65020800040007","nmprov":"KALIMANTAN UTARA","nmkab":"BULUNGAN","nmkec":"TANJUNG PALAS UTARA","nmdesa":"RUHUI RAHAYU","nmsls":"RT 007 RW 002"}},{"type":"Feature","geometry":{"type":"MultiPolygon","coordinates":[[[[117.2457,3.06045],[117.2457,3.06044],[117.24573,3.0578],[117.24571,3.05417],[117.24571,3.05408],[117.2422,3.05518],[117.24221,3.05518],[117.24218,3.05871],[117.24412,3.05878],[117.24414,3.0605],[117.2457,3.06045]]]]},"properties":{"kdprov":"65","kdkab":"02","kdkec":"080","kddesa":"004","kdsls":"0008","idsls":"65020800040008","nmprov":"KALIMANTAN UTARA","nmkab":"BULUNGAN","nmkec":"TANJUNG PALAS UTARA","nmdesa":"RUHUI RAHAYU","nmsls":"RT 008 RW 003"}},{"type":"Feature","geometry":{"type":"MultiPolygon","coordinates":[[[[117.24377,3.06575],[117.24557,3.06573],[117.24568,3.06268],[117.24569,3.06218],[117.2457,3.06045],[117.2457,3.06045],[117.24414,3.0605],[117.24414,3.06064],[117.24376,3.06336],[117.24377,3.06575]]]]},"properties":{"kdprov":"65","kdkab":"02","kdkec":"080","kddesa":"004","kdsls":"0009","idsls":"65020800040009","nmprov":"KALIMANTAN UTARA","nmkab":"BULUNGAN","nmkec":"TANJUNG PALAS UTARA","nmdesa":"RUHUI RAHAYU","nmsls":"RT 009 RW 003"}},{"type":"Feature","geometry":{"type":"MultiPolygon","coordinates":[[[[117.24213,3.05871],[117.24193,3.05929],[117.24173,3.06063],[117.24173,3.06161],[117.24166,3.06199],[117.24157,3.06252],[117.24146,3.06283],[117.24146,3.06288],[117.24146,3.06294],[117.24144,3.063],[117.24135,3.06334],[117.24114,3.06398],[117.24112,3.06416],[117.2412,3.06461],[117.24124,3.06505],[117.24125,3.06606],[117.24127,3.06628],[117.24141,3.0666],[117.24162,3.06696],[117.24163,3.06709],[117.24239,3.06695],[117.24276,3.06688],[117.24279,3.06685],[117.24377,3.06578],[117.24377,3.06575],[117.24376,3.06336],[117.24414,3.06064],[117.24414,3.0605],[117.24412,3.05878],[117.24218,3.05871],[117.24215,3.05871],[117.24213,3.05871]]]]},"properties":{"kdprov":"65","kdkab":"02","kdkec":"080","kddesa":"004","kdsls":"0010","idsls":"65020800040010","nmprov":"KALIMANTAN UTARA","nmkab":"BULUNGAN","nmkec":"TANJUNG PALAS UTARA","nmdesa":"RUHUI RAHAYU","nmsls":"RT 010 RW 003"}},{"type":"Feature","geometry":{"type":"MultiPolygon","coordinates":[[[[117.23918,3.06072],[117.23919,3.06072],[117.23931,3.05877],[117.23949,3.05876],[117.24213,3.05871],[117.24215,3.05871],[117.24218,3.05871],[117.24221,3.05518],[117.2422,3.05518],[117.23626,3.05506],[117.23668,3.06055],[117.23669,3.06067],[117.23918,3.06072]]]]},"properties":{"kdprov":"65","kdkab":"02","kdkec":"080","kddesa":"004","kdsls":"0011","idsls":"65020800040011","nmprov":"KALIMANTAN UTARA","nmkab":"BULUNGAN","nmkec":"TANJUNG PALAS UTARA","nmdesa":"RUHUI RAHAYU","nmsls":"RT 011 RW 004"}},{"type":"Feature","geometry":{"type":"MultiPolygon","coordinates":[[[[117.24626,3.06992],[117.24626,3.06992],[117.24541,3.07058],[117.24258,3.07146],[117.24355,3.07303],[117.24377,3.0734],[117.24355,3.07352],[117.24341,3.07356],[117.24847,3.07871],[117.24845,3.07886],[117.25293,3.07767],[117.24629,3.06989],[117.24627,3.0699],[117.24626,3.06992]]]]},"properties":{"kdprov":"65","kdkab":"02","kdkec":"080","kddesa":"004","kdsls":"0014","idsls":"65020800040014","nmprov":"KALIMANTAN UTARA","nmkab":"BULUNGAN","nmkec":"TANJUNG PALAS UTARA","nmdesa":"RUHUI RAHAYU","nmsls":"RT 014 RW 001"}},{"type":"Feature","geometry":{"type":"MultiPolygon","coordinates":[[[[117.23833,3.06775],[117.23169,3.06932],[117.23472,3.07638],[117.2373,3.0779],[117.23999,3.07864],[117.24129,3.07905],[117.2413,3.07906],[117.24147,3.07691],[117.24146,3.07688],[117.24096,3.07554],[117.24029,3.07572],[117.23977,3.07473],[117.23976,3.07472],[117.23961,3.0741],[117.23845,3.06952],[117.23833,3.06775]]]]},"properties":{"kdprov":"65","kdkab":"02","kdkec":"080","kddesa":"004","kdsls":"0001","idsls":"65020800040001","nmprov":"KALIMANTAN UTARA","nmkab":"BULUNGAN","nmkec":"TANJUNG PALAS UTARA","nmdesa":"RUHUI RAHAYU","nmsls":"RT 001 RW 001"}},{"type":"Feature","geometry":{"type":"MultiPolygon","coordinates":[[[[117.24845,3.07886],[117.24847,3.07871],[117.24341,3.07356],[117.24072,3.0744],[117.24059,3.07445],[117.24039,3.07379],[117.23961,3.0741],[117.23976,3.07472],[117.23977,3.07473],[117.24029,3.07572],[117.24096,3.07554],[117.24146,3.07688],[117.24147,3.07691],[117.2413,3.07906],[117.24129,3.07905],[117.24266,3.08419],[117.2448,3.08432],[117.24787,3.08293],[117.24845,3.07886]]]]},"properties":{"kdprov":"65","kdkab":"02","kdkec":"080","kddesa":"004","kdsls":"0002","idsls":"65020800040002","nmprov":"KALIMANTAN UTARA","nmkab":"BULUNGAN","nmkec":"TANJUNG PALAS UTARA","nmdesa":"RUHUI RAHAYU","nmsls":"RT 002 RW 001"}},{"type":"Feature","geometry":{"type":"MultiPolygon","coordinates":[[[[117.24015,3.06761],[117.24009,3.06761],[117.23864,3.06768],[117.23833,3.06775],[117.23845,3.06952],[117.23961,3.0741],[117.24039,3.07379],[117.24059,3.07445],[117.24072,3.0744],[117.24341,3.07356],[117.24355,3.07352],[117.24377,3.0734],[117.24355,3.07303],[117.24258,3.07146],[117.24241,3.07151],[117.24186,3.07172],[117.24138,3.07134],[117.2405,3.06959],[117.24015,3.06761]]]]},"properties":{"kdprov":"65","kdkab":"02","kdkec":"080","kddesa":"004","kdsls":"0003","idsls":"65020800040003","nmprov":"KALIMANTAN UTARA","nmkab":"BULUNGAN","nmkec":"TANJUNG PALAS UTARA","nmdesa":"RUHUI RAHAYU","nmsls":"RT 003 RW 001"}},{"type":"Feature","geometry":{"type":"MultiPolygon","coordinates":[[[[117.21274,3.0718],[117.21311,3.0703],[117.2123,3.07012],[117.2123,3.07012],[117.2123,3.07013],[117.2123,3.07013],[117.2119,3.07169],[117.21191,3.07169],[117.2112,3.0746],[117.21119,3.07461],[117.21119,3.07462],[117.21119,3.07462],[117.21109,3.07491],[117.21204,3.07515],[117.212,3.07478],[117.212,3.07478],[117.21274,3.0718]]]]},"properties":{"kdprov":"65","kdkab":"02","kdkec":"080","kddesa":"005","kdsls":"0008","idsls":"65020800050008","nmprov":"KALIMANTAN UTARA","nmkab":"BULUNGAN","nmkec":"TANJUNG PALAS UTARA","nmdesa":"PANCA AGUNG","nmsls":"RT 008 RW 002"}},{"type":"Feature","geometry":{"type":"MultiPolygon","coordinates":[[[[117.21109,3.07491],[117.21119,3.07462],[117.21119,3.07462],[117.21119,3.07461],[117.2112,3.0746],[117.21191,3.07169],[117.2119,3.07169],[117.2123,3.07013],[117.21176,3.07001],[117.21024,3.06967],[117.21024,3.06967],[117.20942,3.06947],[117.2094,3.06949],[117.20819,3.06927],[117.20882,3.07417],[117.20883,3.07417],[117.20884,3.07444],[117.20969,3.07459],[117.2104,3.07471],[117.2104,3.07473],[117.21109,3.07491]]]]},"properties":{"kdprov":"65","kdkab":"02","kdkec":"080","kddesa":"005","kdsls":"0009","idsls":"65020800050009","nmprov":"KALIMANTAN UTARA","nmkab":"BULUNGAN","nmkec":"TANJUNG PALAS UTARA","nmdesa":"PANCA AGUNG","nmsls":"RT 009 RW 002"}},{"type":"Feature","geometry":{"type":"MultiPolygon","coordinates":[[[[117.21442,3.06964],[117.21717,3.07018],[117.21719,3.07018],[117.21917,3.06459],[117.21542,3.06527],[117.21541,3.06527],[117.21441,3.06964],[117.21442,3.06964]]]]},"properties":{"kdprov":"65","kdkab":"02","kdkec":"080","kddesa":"005","kdsls":"0010","idsls":"65020800050010","nmprov":"KALIMANTAN UTARA","nmkab":"BULUNGAN","nmkec":"TANJUNG PALAS UTARA","nmdesa":"PANCA AGUNG","nmsls":"RT 010 RW 003"}},{"type":"Feature","geometry":{"type":"MultiPolygon","coordinates":[[[[117.21311,3.0703],[117.21376,3.07044],[117.21392,3.06952],[117.21441,3.06964],[117.21442,3.06964],[117.21441,3.06964],[117.21541,3.06527],[117.21542,3.06527],[117.2135,3.06475],[117.21349,3.06475],[117.21281,3.06784],[117.2123,3.07012],[117.2123,3.07012],[117.21311,3.0703]]]]},"properties":{"kdprov":"65","kdkab":"02","kdkec":"080","kddesa":"005","kdsls":"0011","idsls":"65020800050011","nmprov":"KALIMANTAN UTARA","nmkab":"BULUNGAN","nmkec":"TANJUNG PALAS UTARA","nmdesa":"PANCA AGUNG","nmsls":"RT 011 RW 003"}},{"type":"Feature","geometry":{"type":"MultiPolygon","coordinates":[[[[117.2123,3.07013],[117.2123,3.07013],[117.2123,3.07012],[117.21281,3.06784],[117.21097,3.06725],[117.21024,3.06967],[117.21024,3.06967],[117.21176,3.07001],[117.2123,3.07013]]]]},"properties":{"kdprov":"65","kdkab":"02","kdkec":"080","kddesa":"005","kdsls":"0012","idsls":"65020800050012","nmprov":"KALIMANTAN UTARA","nmkab":"BULUNGAN","nmkec":"TANJUNG PALAS UTARA","nmdesa":"PANCA AGUNG","nmsls":"RT 012 RW 003"}},{"type":"Feature","geometry":{"type":"MultiPolygon","coordinates":[[[[117.21281,3.06784],[117.21349,3.06475],[117.2135,3.06475],[117.2135,3.06475],[117.21142,3.06425],[117.21142,3.06425],[117.21142,3.06426],[117.21097,3.06725],[117.21097,3.06725],[117.21281,3.06784]]]]},"properties":{"kdprov":"65","kdkab":"02","kdkec":"080","kddesa":"005","kdsls":"0013","idsls":"65020800050013","nmprov":"KALIMANTAN UTARA","nmkab":"BULUNGAN","nmkec":"TANJUNG PALAS UTARA","nmdesa":"PANCA AGUNG","nmsls":"RT 013 RW 003"}},{"type":"Feature","geometry":{"type":"MultiPolygon","coordinates":[[[[117.20942,3.06947],[117.21024,3.06967],[117.21024,3.06967],[117.21024,3.06967],[117.21097,3.06725],[117.21097,3.06725],[117.21142,3.06426],[117.21084,3.06302],[117.21084,3.06303],[117.20938,3.06946],[117.20942,3.06947]]]]},"properties":{"kdprov":"65","kdkab":"02","kdkec":"080","kddesa":"005","kdsls":"0014","idsls":"65020800050014","nmprov":"KALIMANTAN UTARA","nmkab":"BULUNGAN","nmkec":"TANJUNG PALAS UTARA","nmdesa":"PANCA AGUNG","nmsls":"RT 014 RW 003"}},{"type":"Feature","geometry":{"type":"MultiPolygon","coordinates":[[[[117.20819,3.06927],[117.2094,3.06949],[117.20942,3.06947],[117.20938,3.06946],[117.21084,3.06303],[117.20922,3.0611],[117.2092,3.06109],[117.20817,3.06926],[117.20819,3.06927]]]]},"properties":{"kdprov":"65","kdkab":"02","kdkec":"080","kddesa":"005","kdsls":"0015","idsls":"65020800050015","nmprov":"KALIMANTAN UTARA","nmkab":"BULUNGAN","nmkec":"TANJUNG PALAS UTARA","nmdesa":"PANCA AGUNG","nmsls":"RT 015 RW 003"}},{"type":"Feature","geometry":{"type":"MultiPolygon","coordinates":[[[[117.2237,3.06038],[117.22126,3.05821],[117.20947,3.05839],[117.20884,3.0584],[117.20471,3.06058],[117.20409,3.06091],[117.20311,3.0614],[117.20303,3.0614],[117.19052,3.07631],[117.21073,3.10401],[117.2073,3.10835],[117.20672,3.10957],[117.20754,3.11076],[117.21361,3.11302],[117.21505,3.10733],[117.21564,3.1051],[117.21705,3.0997],[117.21759,3.09766],[117.21821,3.0942],[117.21862,3.09188],[117.2187,3.09149],[117.21978,3.08977],[117.22015,3.08918],[117.2225,3.08547],[117.22372,3.08332],[117.22384,3.08312],[117.22432,3.08227],[117.2263,3.07881],[117.22601,3.06183],[117.22593,3.06183],[117.2237,3.06038]],[[117.21622,3.0737],[117.21708,3.07837],[117.21705,3.07837],[117.21472,3.0798],[117.21635,3.08309],[117.21777,3.08835],[117.21776,3.08835],[117.21814,3.08897],[117.21813,3.08897],[117.21813,3.08897],[117.21813,3.08897],[117.21531,3.08859],[117.21505,3.09136],[117.21465,3.0917],[117.21393,3.09186],[117.213,3.09163],[117.2117,3.09222],[117.21141,3.09383],[117.21005,3.09384],[117.21001,3.09271],[117.21,3.09271],[117.21,3.09032],[117.20937,3.08922],[117.20941,3.08732],[117.20948,3.08412],[117.20959,3.07921],[117.20969,3.07459],[117.20884,3.07444],[117.20883,3.07417],[117.20882,3.07417],[117.20819,3.06927],[117.20817,3.06926],[117.2092,3.06109],[117.20922,3.0611],[117.21084,3.06303],[117.21084,3.06302],[117.21142,3.06426],[117.21142,3.06425],[117.21142,3.06425],[117.2135,3.06475],[117.2135,3.06475],[117.21542,3.06527],[117.21917,3.06459],[117.21719,3.07018],[117.21717,3.07018],[117.21627,3.07362],[117.21622,3.0737]]]]},"properties":{"kdprov":"65","kdkab":"02","kdkec":"080","kddesa":"005","kdsls":"1002","idsls":"65020800051002","nmprov":"KALIMANTAN UTARA","nmkab":"BULUNGAN","nmkec":"TANJUNG PALAS UTARA","nmdesa":"PANCA AGUNG","nmsls":"SAWAH LADANG"}},{"type":"Feature","geometry":{"type":"MultiPolygon","coordinates":[[[[117.22015,3.08918],[117.21978,3.08977],[117.2187,3.09149],[117.21862,3.09188],[117.21821,3.0942],[117.21944,3.09458],[117.21944,3.09458],[117.22428,3.09656],[117.22621,3.09727],[117.22622,3.09726],[117.22623,3.09724],[117.22626,3.09717],[117.22739,3.0948],[117.22736,3.09478],[117.22343,3.09175],[117.22343,3.09175],[117.22015,3.08918]]]]},"properties":{"kdprov":"65","kdkab":"02","kdkec":"080","kddesa":"006","kdsls":"0001","idsls":"65020800060001","nmprov":"KALIMANTAN UTARA","nmkab":"BULUNGAN","nmkec":"TANJUNG PALAS UTARA","nmdesa":"ARDI MULYA","nmsls":"RT 001 RW 002"}},{"type":"Feature","geometry":{"type":"MultiPolygon","coordinates":[[[[117.23152,3.0979],[117.23115,3.09793],[117.23114,3.09794],[117.23114,3.10168],[117.23111,3.10168],[117.23112,3.10168],[117.23439,3.10379],[117.23732,3.1069],[117.23833,3.10798],[117.24249,3.11332],[117.24398,3.11413],[117.24631,3.11425],[117.24778,3.11243],[117.2396,3.10448],[117.23565,3.10065],[117.2352,3.09784],[117.2352,3.09785],[117.23155,3.09791],[117.23152,3.0979]]]]},"properties":{"kdprov":"65","kdkab":"02","kdkec":"080","kddesa":"006","kdsls":"0004","idsls":"65020800060004","nmprov":"KALIMANTAN UTARA","nmkab":"BULUNGAN","nmkec":"TANJUNG PALAS UTARA","nmdesa":"ARDI MULYA","nmsls":"RT 004 RW 001"}},{"type":"Feature","geometry":{"type":"MultiPolygon","coordinates":[[[[117.22736,3.09478],[117.22739,3.0948],[117.22626,3.09717],[117.22623,3.09724],[117.22649,3.09746],[117.2265,3.09746],[117.22849,3.09832],[117.22974,3.09819],[117.22974,3.09793],[117.23114,3.09792],[117.23114,3.09794],[117.23115,3.09793],[117.23152,3.0979],[117.23157,3.09789],[117.23152,3.09668],[117.23128,3.09668],[117.23124,3.09568],[117.23119,3.09467],[117.23119,3.09465],[117.22736,3.09478]]]]},"properties":{"kdprov":"65","kdkab":"02","kdkec":"080","kddesa":"006","kdsls":"0002","idsls":"65020800060002","nmprov":"KALIMANTAN UTARA","nmkab":"BULUNGAN","nmkec":"TANJUNG PALAS UTARA","nmdesa":"ARDI MULYA","nmsls":"RT 002 RW 002"}},{"type":"Feature","geometry":{"type":"MultiPolygon","coordinates":[[[[117.22623,3.09724],[117.22622,3.09726],[117.22916,3.1016],[117.23111,3.10168],[117.23114,3.10168],[117.23114,3.09794],[117.23114,3.09792],[117.22974,3.09793],[117.22974,3.09819],[117.22849,3.09832],[117.2265,3.09746],[117.22649,3.09746],[117.22623,3.09724]]]]},"properties":{"kdprov":"65","kdkab":"02","kdkec":"080","kddesa":"006","kdsls":"0005","idsls":"65020800060005","nmprov":"KALIMANTAN UTARA","nmkab":"BULUNGAN","nmkec":"TANJUNG PALAS UTARA","nmdesa":"ARDI MULYA","nmsls":"RT 005 RW 001"}},{"type":"Feature","geometry":{"type":"MultiPolygon","coordinates":[[[[117.23152,3.0979],[117.23155,3.09791],[117.2352,3.09785],[117.2352,3.09784],[117.23508,3.09439],[117.2312,3.09467],[117.23119,3.09467],[117.23124,3.09568],[117.23128,3.09668],[117.23152,3.09668],[117.23157,3.09789],[117.23152,3.0979]]]]},"properties":{"kdprov":"65","kdkab":"02","kdkec":"080","kddesa":"006","kdsls":"0003","idsls":"65020800060003","nmprov":"KALIMANTAN UTARA","nmkab":"BULUNGAN","nmkec":"TANJUNG PALAS UTARA","nmdesa":"ARDI MULYA","nmsls":"RT 003 RW 001"}},{"type":"Feature","geometry":{"type":"MultiPolygon","coordinates":[[[[117.20303,3.0614],[117.20109,3.06131],[117.19727,3.06113],[117.17661,3.06018],[117.16694,3.05979],[117.16616,3.05852],[117.16267,3.05901],[117.16135,3.05863],[117.1604,3.05698],[117.1587,3.05592],[117.15521,3.05422],[117.15335,3.05455],[117.15205,3.05503],[117.15083,3.05528],[117.14842,3.05574],[117.14498,3.05554],[117.14039,3.05618],[117.13321,3.05717],[117.12108,3.06187],[117.11786,3.06534],[117.11532,3.06705],[117.11242,3.0693],[117.11155,3.07285],[117.12069,3.09067],[117.13665,3.11264],[117.13687,3.11281],[117.13796,3.11369],[117.15601,3.12467],[117.17537,3.12991],[117.18996,3.12952],[117.19002,3.12952],[117.19016,3.12951],[117.1902,3.12951],[117.19501,3.12939],[117.19542,3.12838],[117.196,3.12726],[117.19842,3.12606],[117.20126,3.12476],[117.20201,3.12532],[117.20266,3.12581],[117.20113,3.12847],[117.20111,3.12849],[117.20112,3.12848],[117.2008,3.12923],[117.20506,3.12912],[117.20808,3.13031],[117.2122,3.11857],[117.21259,3.11704],[117.21361,3.11302],[117.20754,3.11076],[117.20672,3.10957],[117.2073,3.10835],[117.21073,3.10401],[117.19052,3.07631],[117.20303,3.0614]]]]},"properties":{"kdprov":"65","kdkab":"02","kdkec":"080","kddesa":"005","kdsls":"1001","idsls":"65020800051001","nmprov":"KALIMANTAN UTARA","nmkab":"BULUNGAN","nmkec":"TANJUNG PALAS UTARA","nmdesa":"PANCA AGUNG","nmsls":"PERKEBUNAN SAWIT"}},{"type":"Feature","geometry":{"type":"MultiPolygon","coordinates":[[[[117.21564,3.1051],[117.21505,3.10733],[117.21361,3.11302],[117.21259,3.11704],[117.23173,3.11967],[117.23161,3.10643],[117.21564,3.1051]]]]},"properties":{"kdprov":"65","kdkab":"02","kdkec":"080","kddesa":"006","kdsls":"2001","idsls":"65020800062001","nmprov":"KALIMANTAN UTARA","nmkab":"BULUNGAN","nmkec":"TANJUNG PALAS UTARA","nmdesa":"ARDI MULYA","nmsls":"HUTAN"}},{"type":"Feature","geometry":{"type":"MultiPolygon","coordinates":[[[[117.2396,3.10448],[117.24778,3.11243],[117.24631,3.11425],[117.24398,3.11413],[117.24249,3.11332],[117.23833,3.10798],[117.23732,3.1069],[117.23161,3.10643],[117.23173,3.11967],[117.21259,3.11704],[117.2122,3.11857],[117.20808,3.13031],[117.22363,3.13645],[117.22991,3.15345],[117.23095,3.15528],[117.23723,3.1647],[117.23932,3.16731],[117.25554,3.17176],[117.26967,3.17124],[117.27412,3.17019],[117.27961,3.17019],[117.28275,3.17176],[117.28903,3.17071],[117.29295,3.16417],[117.29416,3.16146],[117.29101,3.16118],[117.28961,3.16109],[117.28822,3.161],[117.28741,3.16096],[117.28607,3.16089],[117.28363,3.16089],[117.28101,3.16089],[117.27922,3.16071],[117.27708,3.16083],[117.27651,3.16093],[117.27571,3.16107],[117.27309,3.16097],[117.27178,3.16092],[117.27134,3.16071],[117.27089,3.1605],[117.26934,3.15954],[117.26934,3.15954],[117.26762,3.1584],[117.26729,3.158],[117.26684,3.15746],[117.26624,3.1565],[117.26582,3.15524],[117.26559,3.15446],[117.26487,3.15398],[117.26302,3.15279],[117.26211,3.15231],[117.26166,3.15206],[117.26076,3.1514],[117.26033,3.15104],[117.25999,3.15075],[117.25973,3.15035],[117.25951,3.15003],[117.25939,3.14957],[117.25922,3.1489],[117.25914,3.14843],[117.25909,3.14817],[117.25909,3.1471],[117.25909,3.1471],[117.25911,3.14688],[117.25916,3.14627],[117.25951,3.14444],[117.25951,3.14444],[117.25909,3.14414],[117.25877,3.1441],[117.25856,3.14408],[117.25841,3.14414],[117.25803,3.14432],[117.25739,3.14473],[117.25719,3.14486],[117.25618,3.14575],[117.25527,3.14646],[117.2551,3.14659],[117.25469,3.14679],[117.25386,3.14719],[117.25314,3.14752],[117.25243,3.14785],[117.25183,3.14821],[117.25156,3.14844],[117.25142,3.14857],[117.25129,3.14871],[117.25106,3.14899],[117.25094,3.14923],[117.25089,3.14934],[117.2508,3.1496],[117.25076,3.14971],[117.25069,3.14975],[117.2504,3.14994],[117.25023,3.14964],[117.25023,3.14964],[117.25038,3.14905],[117.2504,3.14893],[117.25064,3.14845],[117.25106,3.14797],[117.2516,3.14752],[117.25178,3.14737],[117.25297,3.14659],[117.2532,3.14646],[117.25446,3.14575],[117.25485,3.14544],[117.25529,3.1451],[117.25576,3.14426],[117.25582,3.14348],[117.25558,3.14282],[117.2554,3.1425],[117.25535,3.1424],[117.25535,3.1424],[117.2554,3.14192],[117.2554,3.14192],[117.25612,3.14204],[117.25654,3.14264],[117.25684,3.1427],[117.25713,3.14277],[117.25768,3.14259],[117.2579,3.14252],[117.25845,3.14242],[117.25856,3.1424],[117.25871,3.14242],[117.25945,3.14252],[117.26005,3.143],[117.26022,3.14319],[117.26064,3.14366],[117.26076,3.14444],[117.26076,3.14444],[117.26066,3.14521],[117.26064,3.14533],[117.26035,3.14611],[117.26011,3.14671],[117.26005,3.14719],[117.26005,3.14719],[117.26017,3.14767],[117.26058,3.14838],[117.26112,3.14916],[117.26159,3.14979],[117.26202,3.15036],[117.26252,3.15071],[117.26279,3.1509],[117.26362,3.15131],[117.26452,3.15149],[117.26478,3.15146],[117.26499,3.15144],[117.2651,3.15111],[117.26517,3.1509],[117.26519,3.15063],[117.26523,3.15006],[117.26523,3.14929],[117.26532,3.14855],[117.26535,3.14826],[117.2657,3.14778],[117.26613,3.14741],[117.26618,3.14737],[117.26632,3.14721],[117.26659,3.14689],[117.26658,3.14676],[117.26648,3.14588],[117.26648,3.14587],[117.26689,3.14132],[117.26695,3.14022],[117.26701,3.13911],[117.26731,3.13803],[117.26767,3.13677],[117.26783,3.13645],[117.26802,3.13606],[117.26832,3.13528],[117.26838,3.13503],[117.26844,3.13474],[117.26844,3.13391],[117.26819,3.13319],[117.26814,3.13306],[117.26757,3.13251],[117.26672,3.13169],[117.26451,3.13013],[117.26403,3.12968],[117.2626,3.12831],[117.26221,3.12798],[117.26124,3.12718],[117.26034,3.12661],[117.2598,3.12627],[117.25855,3.12586],[117.25736,3.12549],[117.25689,3.12517],[117.25659,3.12496],[117.25552,3.12448],[117.2551,3.1243],[117.25426,3.12394],[117.25373,3.12352],[117.25366,3.12348],[117.25314,3.12311],[117.25289,3.12298],[117.25192,3.1225],[117.24735,3.1184],[117.24639,3.11732],[117.24603,3.11588],[117.24597,3.11564],[117.24654,3.11483],[117.24717,3.11395],[117.25078,3.10926],[117.2509,3.10841],[117.2503,3.10613],[117.25042,3.10468],[117.25138,3.10288],[117.25247,3.10167],[117.25247,3.09999],[117.25295,3.09843],[117.25427,3.09698],[117.25475,3.09626],[117.25475,3.09542],[117.25415,3.09506],[117.25271,3.09518],[117.25199,3.09457],[117.25174,3.09397],[117.2515,3.09349],[117.25163,3.09303],[117.24702,3.09303],[117.24001,3.09251],[117.2396,3.10448]]]]},"properties":{"kdprov":"65","kdkab":"02","kdkec":"080","kddesa":"006","kdsls":"2002","idsls":"65020800062002","nmprov":"KALIMANTAN UTARA","nmkab":"BULUNGAN","nmkec":"TANJUNG PALAS UTARA","nmdesa":"ARDI MULYA","nmsls":"HUTAN - TAMBANG"}},{"type":"Feature","geometry":{"type":"MultiPolygon","coordinates":[[[[117.21555,3.00118],[117.21556,3.0011],[117.21556,3.00057],[117.21569,3.00014],[117.2165,2.99968],[117.2167,2.99966],[117.2167,2.99967],[117.21719,2.99929],[117.21719,2.99932],[117.21808,2.99884],[117.21808,2.99886],[117.21889,2.99843],[117.21889,2.99845],[117.21899,2.99814],[117.21918,2.99769],[117.21914,2.99709],[117.21914,2.99698],[117.21979,2.99674],[117.21996,2.99719],[117.22148,2.99542],[117.2232,2.99186],[117.22043,2.98711],[117.21647,2.97696],[117.22119,2.96571],[117.22115,2.96575],[117.2197,2.96615],[117.21798,2.96621],[117.21746,2.96628],[117.21713,2.96674],[117.2166,2.96753],[117.2164,2.96819],[117.21614,2.96845],[117.21508,2.96885],[117.21389,2.96938],[117.21349,2.96951],[117.21277,2.96962],[117.21169,2.97117],[117.21168,2.97122],[117.21164,2.97133],[117.21285,2.97189],[117.21536,2.98428],[117.2158,2.98616],[117.21564,2.9862],[117.21532,2.98651],[117.21522,2.9869],[117.21502,2.98721],[117.2146,2.9874],[117.21414,2.98744],[117.21392,2.98744],[117.21413,2.98822],[117.21493,2.98996],[117.21549,2.99277],[117.21495,2.99359],[117.21396,2.995],[117.21316,2.99615],[117.21302,2.99675],[117.2131,2.99675],[117.21303,2.99709],[117.21296,2.99769],[117.21296,2.9981],[117.21318,2.99828],[117.21344,2.99856],[117.21339,2.99896],[117.2131,2.9998],[117.213,3.00023],[117.21344,3.00087],[117.21389,3.00131],[117.2143,3.00158],[117.21466,3.00151],[117.21555,3.00118]]]]},"properties":{"kdprov":"65","kdkab":"02","kdkec":"080","kddesa":"001","kdsls":"1001","idsls":"65020800011001","nmprov":"KALIMANTAN UTARA","nmkab":"BULUNGAN","nmkec":"TANJUNG PALAS UTARA","nmdesa":"PIMPING","nmsls":"LADANG - KEBUN"}},{"type":"Feature","geometry":{"type":"MultiPolygon","coordinates":[[[[117.21164,2.97133],[117.21168,2.97122],[117.20333,2.97574],[117.20186,2.98023],[117.20266,2.98132],[117.20312,2.98237],[117.20381,2.98422],[117.20406,2.9857],[117.20909,2.98643],[117.2093,2.98584],[117.20969,2.98513],[117.21041,2.98438],[117.21073,2.98418],[117.21114,2.98368],[117.21141,2.98342],[117.21173,2.98336],[117.21203,2.98342],[117.2123,2.9838],[117.21247,2.98472],[117.21257,2.98524],[117.21302,2.98638],[117.21338,2.98689],[117.21356,2.98726],[117.21385,2.98743],[117.21384,2.98742],[117.21337,2.98614],[117.21313,2.98464],[117.21261,2.98162],[117.21242,2.98119],[117.21134,2.97994],[117.21124,2.97967],[117.21138,2.9787],[117.2113,2.97844],[117.2111,2.97804],[117.21096,2.97796],[117.21015,2.97777],[117.20921,2.97775],[117.20829,2.97761],[117.20789,2.97734],[117.2077,2.97696],[117.20747,2.97609],[117.2075,2.97576],[117.2076,2.97544],[117.20786,2.97521],[117.20877,2.97495],[117.20945,2.97486],[117.20984,2.97461],[117.21018,2.97426],[117.21121,2.97229],[117.21163,2.97136],[117.21164,2.97133]]]]},"properties":{"kdprov":"65","kdkab":"02","kdkec":"080","kddesa":"001","kdsls":"0008","idsls":"65020800010008","nmprov":"KALIMANTAN UTARA","nmkab":"BULUNGAN","nmkec":"TANJUNG PALAS UTARA","nmdesa":"PIMPING","nmsls":"RT 008 RW 002"}},{"type":"Feature","geometry":{"type":"MultiPolygon","coordinates":[[[[117.21392,2.98744],[117.21414,2.98744],[117.2146,2.9874],[117.21502,2.98721],[117.21522,2.9869],[117.21532,2.98651],[117.21564,2.9862],[117.2158,2.98616],[117.21536,2.98428],[117.21285,2.97189],[117.21164,2.97133],[117.21163,2.97136],[117.21121,2.97229],[117.21018,2.97426],[117.20984,2.97461],[117.20945,2.97486],[117.20877,2.97495],[117.20786,2.97521],[117.2076,2.97544],[117.2075,2.97576],[117.20747,2.97609],[117.2077,2.97696],[117.20789,2.97734],[117.20829,2.97761],[117.20921,2.97775],[117.21015,2.97777],[117.21096,2.97796],[117.2111,2.97804],[117.2113,2.97844],[117.21138,2.9787],[117.21124,2.97967],[117.21134,2.97994],[117.21242,2.98119],[117.21261,2.98162],[117.21313,2.98464],[117.21337,2.98614],[117.21384,2.98742],[117.21388,2.98744],[117.21392,2.98744]]]]},"properties":{"kdprov":"65","kdkab":"02","kdkec":"080","kddesa":"001","kdsls":"0011","idsls":"65020800010011","nmprov":"KALIMANTAN UTARA","nmkab":"BULUNGAN","nmkec":"TANJUNG PALAS UTARA","nmdesa":"PIMPING","nmsls":"RT 011 RW 002"}},{"type":"Feature","geometry":{"type":"MultiPolygon","coordinates":[[[[117.2438,2.94171],[117.24339,2.94245],[117.24273,2.94265],[117.24247,2.94344],[117.24253,2.9445],[117.24247,2.94516],[117.24181,2.94568],[117.24075,2.94601],[117.24055,2.94641],[117.24036,2.94753],[117.24022,2.94832],[117.24009,2.94898],[117.23917,2.94911],[117.23811,2.94911],[117.23752,2.94944],[117.23692,2.9499],[117.23679,2.95076],[117.23653,2.95136],[117.23567,2.95202],[117.23441,2.95202],[117.23276,2.95129],[117.23157,2.95182],[117.23052,2.95221],[117.22913,2.953],[117.22827,2.95413],[117.22754,2.9563],[117.22649,2.95927],[117.22119,2.96571],[117.21647,2.97696],[117.22043,2.98711],[117.2232,2.99186],[117.22148,2.99542],[117.21996,2.99719],[117.22043,2.99842],[117.21991,2.99931],[117.22017,3.00037],[117.21953,3.00047],[117.21951,3.00047],[117.21951,3.00048],[117.21931,3.00053],[117.2185,3.00074],[117.21856,3.001],[117.21855,3.00102],[117.21872,3.00163],[117.21812,3.0018],[117.21828,3.00254],[117.22064,3.00205],[117.224,3.0034],[117.22397,3.00656],[117.22399,3.00656],[117.22458,3.0216],[117.22131,3.02225],[117.21981,3.02226],[117.21972,3.02611],[117.21989,3.02602],[117.22193,3.02485],[117.23987,3.01458],[117.23993,3.01454],[117.24006,3.01369],[117.24023,3.01291],[117.2409,3.01206],[117.24103,3.01155],[117.24116,3.01113],[117.24135,3.011],[117.2417,3.01062],[117.24243,3.00981],[117.24365,3.00907],[117.24596,3.00803],[117.24765,3.00728],[117.24985,3.00597],[117.2515,3.00496],[117.25246,3.00406],[117.25307,3.00313],[117.25339,3.00228],[117.25398,3.00082],[117.25462,2.99989],[117.25549,2.99891],[117.2566,2.99789],[117.25724,2.99751],[117.25771,2.99742],[117.25838,2.99745],[117.25923,2.99759],[117.26019,2.99782],[117.2611,2.99803],[117.26158,2.99808],[117.26238,2.99805],[117.26359,2.99791],[117.26445,2.99763],[117.26627,2.99703],[117.26659,2.99692],[117.26681,2.99685],[117.26741,2.99664],[117.26851,2.99635],[117.26918,2.99623],[117.26977,2.99622],[117.27055,2.99625],[117.27217,2.99645],[117.27326,2.99652],[117.27509,2.99647],[117.27682,2.99631],[117.2782,2.99575],[117.27908,2.99525],[117.28094,2.99428],[117.28289,2.99206],[117.28308,2.99185],[117.2832,2.99165],[117.28495,2.98865],[117.28498,2.9886],[117.28522,2.98522],[117.28484,2.98057],[117.28475,2.98005],[117.28474,2.98005],[117.28465,2.97953],[117.28448,2.97855],[117.28434,2.97775],[117.28366,2.97652],[117.2832,2.97569],[117.28179,2.97425],[117.28158,2.97396],[117.28119,2.97343],[117.28101,2.97318],[117.2807,2.97277],[117.28068,2.97275],[117.28065,2.9727],[117.28019,2.97206],[117.27964,2.97171],[117.27943,2.97152],[117.27906,2.97118],[117.27894,2.97104],[117.27893,2.97102],[117.27892,2.97094],[117.27892,2.97094],[117.27892,2.97093],[117.27927,2.9707],[117.27927,2.97067],[117.27932,2.9699],[117.28061,2.96631],[117.28197,2.96337],[117.28197,2.96337],[117.28282,2.96107],[117.28281,2.96106],[117.28281,2.96106],[117.28246,2.96085],[117.28152,2.96029],[117.28074,2.95983],[117.27994,2.95935],[117.27895,2.95876],[117.27792,2.95814],[117.2775,2.9579],[117.27717,2.9577],[117.27614,2.95708],[117.27564,2.95679],[117.27521,2.95653],[117.27414,2.95589],[117.27364,2.95565],[117.27361,2.95564],[117.25033,2.94443],[117.24413,2.94185],[117.24392,2.94176],[117.24392,2.94176],[117.2438,2.94171]]]]},"properties":{"kdprov":"65","kdkab":"02","kdkec":"080","kddesa":"001","kdsls":"2003","idsls":"65020800012003","nmprov":"KALIMANTAN UTARA","nmkab":"BULUNGAN","nmkec":"TANJUNG PALAS UTARA","nmdesa":"PIMPING","nmsls":"HUTAN"}},{"type":"Feature","geometry":{"type":"MultiPolygon","coordinates":[[[[117.26872,3.01967],[117.26813,3.01928],[117.26813,3.01928],[117.26773,3.01922],[117.26459,3.0216],[117.26506,3.02202],[117.26636,3.02293],[117.26872,3.01967]]]]},"properties":{"kdprov":"65","kdkab":"02","kdkec":"080","kddesa":"002","kdsls":"0001","idsls":"65020800020001","nmprov":"KALIMANTAN UTARA","nmkab":"BULUNGAN","nmkec":"TANJUNG PALAS UTARA","nmdesa":"KELUBIR","nmsls":"RT 001 RW 001"}},{"type":"Feature","geometry":{"type":"MultiPolygon","coordinates":[[[[117.27003,3.02054],[117.26872,3.01967],[117.26636,3.02293],[117.26776,3.02409],[117.26793,3.02385],[117.27003,3.02054]]]]},"properties":{"kdprov":"65","kdkab":"02","kdkec":"080","kddesa":"002","kdsls":"0002","idsls":"65020800020002","nmprov":"KALIMANTAN UTARA","nmkab":"BULUNGAN","nmkec":"TANJUNG PALAS UTARA","nmdesa":"KELUBIR","nmsls":"RT 002 RW 001"}},{"type":"Feature","geometry":{"type":"MultiPolygon","coordinates":[[[[117.27169,3.02345],[117.2714,3.02326],[117.27015,3.02201],[117.27047,3.02083],[117.27003,3.02054],[117.26793,3.02385],[117.26776,3.02409],[117.26494,3.02806],[117.26623,3.02891],[117.27169,3.02345]]]]},"properties":{"kdprov":"65","kdkab":"02","kdkec":"080","kddesa":"002","kdsls":"0003","idsls":"65020800020003","nmprov":"KALIMANTAN UTARA","nmkab":"BULUNGAN","nmkec":"TANJUNG PALAS UTARA","nmdesa":"KELUBIR","nmsls":"RT 003 RW 001"}},{"type":"Feature","geometry":{"type":"MultiPolygon","coordinates":[[[[117.26878,3.01627],[117.26895,3.01641],[117.26895,3.01641],[117.26979,3.01726],[117.26989,3.01736],[117.27051,3.01649],[117.27067,3.01629],[117.27117,3.01571],[117.27137,3.01546],[117.27187,3.01469],[117.27218,3.01428],[117.27253,3.01381],[117.27289,3.01332],[117.27307,3.01318],[117.27397,3.01296],[117.27411,3.01289],[117.2767,3.01268],[117.27804,3.01227],[117.2786,3.0121],[117.28076,3.01011],[117.27971,3.0089],[117.27025,3.01031],[117.2675,3.01139],[117.26426,3.01266],[117.26434,3.01271],[117.26653,3.01403],[117.26678,3.01465],[117.26878,3.01627]]]]},"properties":{"kdprov":"65","kdkab":"02","kdkec":"080","kddesa":"002","kdsls":"0007","idsls":"65020800020007","nmprov":"KALIMANTAN UTARA","nmkab":"BULUNGAN","nmkec":"TANJUNG PALAS UTARA","nmdesa":"KELUBIR","nmsls":"RT 007 RW 003"}},{"type":"Feature","geometry":{"type":"MultiPolygon","coordinates":[[[[117.27483,3.01651],[117.27172,3.02348],[117.27169,3.02345],[117.26623,3.02891],[117.26494,3.02806],[117.26776,3.02409],[117.26636,3.02293],[117.26506,3.02202],[117.26459,3.0216],[117.26773,3.01922],[117.26451,3.01875],[117.26399,3.01848],[117.26383,3.0183],[117.26382,3.0183],[117.26284,3.01918],[117.26078,3.02003],[117.25924,3.02055],[117.25855,3.02072],[117.25753,3.0214],[117.25753,3.02226],[117.25753,3.02363],[117.25753,3.02431],[117.25598,3.02551],[117.25513,3.02654],[117.25478,3.02791],[117.25478,3.02893],[117.25495,3.03047],[117.25513,3.03218],[117.25513,3.03355],[117.25513,3.03441],[117.25495,3.03612],[117.25495,3.0368],[117.2535,3.03998],[117.25394,3.03992],[117.25934,3.0423],[117.26027,3.04091],[117.26095,3.03988],[117.26147,3.03886],[117.26232,3.03783],[117.26301,3.03749],[117.26421,3.0368],[117.26489,3.03612],[117.26558,3.03526],[117.26609,3.03441],[117.26678,3.03355],[117.26764,3.03184],[117.26832,3.03116],[117.26952,3.03013],[117.27106,3.0291],[117.2726,3.02791],[117.27415,3.02705],[117.27603,3.02619],[117.27757,3.02534],[117.27877,3.02397],[117.28049,3.02243],[117.28186,3.02123],[117.28203,3.01884],[117.28306,3.0161],[117.28377,3.01336],[117.28426,3.01336],[117.28529,3.01302],[117.28666,3.0125],[117.28751,3.01199],[117.2882,3.01131],[117.28991,3.01028],[117.29161,3.00909],[117.29029,3.00908],[117.29029,3.00908],[117.28912,3.00907],[117.28509,3.00559],[117.28494,3.00547],[117.28422,3.00484],[117.28397,3.00462],[117.28265,3.00349],[117.2808,2.99444],[117.28094,2.99428],[117.27908,2.99525],[117.2782,2.99575],[117.27682,2.99631],[117.27509,2.99647],[117.27326,2.99652],[117.27217,2.99645],[117.27055,2.99625],[117.26977,2.99622],[117.26918,2.99623],[117.26851,2.99635],[117.26741,2.99664],[117.26681,2.99685],[117.26712,3.0007],[117.26644,3.00155],[117.26524,3.00189],[117.26472,3.00258],[117.26455,3.00361],[117.26455,3.00446],[117.26455,3.00532],[117.26489,3.00703],[117.26558,3.00737],[117.26609,3.00771],[117.26626,3.0084],[117.26626,3.00925],[117.26661,3.01062],[117.2675,3.01139],[117.27025,3.01031],[117.27971,3.0089],[117.28076,3.01011],[117.2786,3.0121],[117.27804,3.01227],[117.2767,3.01268],[117.27411,3.01289],[117.27397,3.01296],[117.27307,3.01318],[117.27289,3.01332],[117.27253,3.01381],[117.2726,3.01387],[117.27343,3.01459],[117.27517,3.01612],[117.27492,3.01647],[117.27492,3.01647],[117.27483,3.01651]]]]},"properties":{"kdprov":"65","kdkab":"02","kdkec":"080","kddesa":"002","kdsls":"1003","idsls":"65020800021003","nmprov":"KALIMANTAN UTARA","nmkab":"BULUNGAN","nmkec":"TANJUNG PALAS UTARA","nmdesa":"KELUBIR","nmsls":"LADANG (SAWAH)"}},{"type":"Feature","geometry":{"type":"MultiPolygon","coordinates":[[[[117.23488,3.0445],[117.23497,3.04558],[117.23497,3.04595],[117.23451,3.04678],[117.23455,3.04769],[117.2353,3.04956],[117.23298,3.05411],[117.2328,3.05446],[117.23216,3.0557],[117.23053,3.0589],[117.22766,3.06181],[117.22601,3.06183],[117.2263,3.07881],[117.22432,3.08227],[117.22384,3.08312],[117.22372,3.08332],[117.2225,3.08547],[117.22015,3.08918],[117.22343,3.09175],[117.22343,3.09175],[117.22525,3.09169],[117.22552,3.09169],[117.22796,3.09162],[117.23486,3.09212],[117.24001,3.09251],[117.24702,3.09303],[117.25163,3.09303],[117.25186,3.09217],[117.25343,3.09169],[117.25463,3.09157],[117.25427,3.09036],[117.25463,3.09],[117.2556,3.08988],[117.25656,3.09036],[117.25716,3.0894],[117.258,3.08904],[117.2586,3.0882],[117.25909,3.0882],[117.26041,3.0882],[117.26161,3.08856],[117.26161,3.08856],[117.26221,3.08783],[117.26179,3.08507],[117.26179,3.08295],[117.26179,3.08278],[117.2624,3.08158],[117.26384,3.08025],[117.26384,3.07917],[117.26372,3.07845],[117.26384,3.07736],[117.26408,3.07676],[117.26396,3.0758],[117.26372,3.0746],[117.2636,3.07315],[117.26312,3.07219],[117.26324,3.07147],[117.26444,3.07147],[117.26613,3.07171],[117.26661,3.07111],[117.26697,3.07002],[117.26805,3.06954],[117.26938,3.07002],[117.27106,3.07026],[117.27311,3.0699],[117.27287,3.06858],[117.27226,3.06786],[117.27238,3.06665],[117.27299,3.06617],[117.27539,3.06509],[117.27708,3.06437],[117.27924,3.064],[117.28129,3.06437],[117.28249,3.06425],[117.2849,3.06364],[117.28598,3.06328],[117.28731,3.06292],[117.28791,3.06232],[117.28827,3.06196],[117.28984,3.061],[117.28996,3.05991],[117.28984,3.05919],[117.2902,3.05811],[117.29116,3.05751],[117.29357,3.05727],[117.29573,3.05582],[117.29609,3.05486],[117.29561,3.05414],[117.29561,3.05317],[117.29507,3.05221],[117.29639,3.05125],[117.29688,3.04968],[117.2976,3.0486],[117.29808,3.04764],[117.29784,3.04716],[117.29676,3.04643],[117.2966,3.04642],[117.29483,3.04631],[117.29462,3.04556],[117.29407,3.04588],[117.29297,3.04581],[117.29238,3.0449],[117.29186,3.04393],[117.28816,3.04293],[117.28451,3.04246],[117.2815,3.04246],[117.28081,3.04225],[117.27881,3.04167],[117.2777,3.04246],[117.27612,3.04198],[117.27517,3.04087],[117.27358,3.04135],[117.27216,3.04151],[117.27184,3.04357],[117.27184,3.0442],[117.26494,3.04365],[117.26186,3.04341],[117.25934,3.0423],[117.25394,3.03992],[117.2535,3.03998],[117.24903,3.04056],[117.23889,3.04135],[117.23523,3.04262],[117.23522,3.04267],[117.23488,3.0445]],[[117.23036,3.06929],[117.23668,3.06055],[117.23626,3.05506],[117.2422,3.05518],[117.24571,3.05408],[117.24571,3.05417],[117.24579,3.05413],[117.24851,3.05425],[117.24986,3.05427],[117.24993,3.06219],[117.24994,3.0622],[117.24982,3.06798],[117.24964,3.06796],[117.2464,3.06979],[117.24629,3.06989],[117.25293,3.07767],[117.24845,3.07886],[117.24787,3.08293],[117.2448,3.08432],[117.24266,3.08419],[117.24129,3.07905],[117.23999,3.07864],[117.2373,3.0779],[117.23472,3.07638],[117.23169,3.06932],[117.23165,3.06932],[117.23036,3.06929]]]]},"properties":{"kdprov":"65","kdkab":"02","kdkec":"080","kddesa":"004","kdsls":"1001","idsls":"65020800041001","nmprov":"KALIMANTAN UTARA","nmkab":"BULUNGAN","nmkec":"TANJUNG PALAS UTARA","nmdesa":"RUHUI RAHAYU","nmsls":"LADANG, SAWAH, KEBUN SAWIT"}},{"type":"Feature","geometry":{"type":"MultiPolygon","coordinates":[[[[117.20948,3.08412],[117.20941,3.08732],[117.21005,3.08731],[117.21005,3.08731],[117.21008,3.08731],[117.21044,3.08729],[117.21045,3.08691],[117.21197,3.08654],[117.21198,3.08653],[117.21199,3.08654],[117.21259,3.08651],[117.21252,3.08601],[117.21252,3.08601],[117.21234,3.08469],[117.21005,3.08413],[117.21005,3.08413],[117.21005,3.08413],[117.20948,3.08412]]]]},"properties":{"kdprov":"65","kdkab":"02","kdkec":"080","kddesa":"005","kdsls":"0003","idsls":"65020800050003","nmprov":"KALIMANTAN UTARA","nmkab":"BULUNGAN","nmkec":"TANJUNG PALAS UTARA","nmdesa":"PANCA AGUNG","nmsls":"RT 003 RW 001"}},{"type":"Feature","geometry":{"type":"MultiPolygon","coordinates":[[[[117.20959,3.07921],[117.20948,3.08412],[117.21005,3.08413],[117.21005,3.08413],[117.21005,3.08413],[117.21234,3.08469],[117.21252,3.08601],[117.21252,3.08601],[117.21259,3.08651],[117.21307,3.08649],[117.21365,3.08646],[117.21395,3.08672],[117.21396,3.08672],[117.21398,3.08791],[117.21497,3.08856],[117.21497,3.08856],[117.21498,3.08853],[117.21512,3.08819],[117.21481,3.0872],[117.21424,3.08614],[117.21406,3.08593],[117.21403,3.08551],[117.21369,3.08556],[117.21317,3.08413],[117.2132,3.08307],[117.21375,3.08312],[117.21381,3.08271],[117.2122,3.08143],[117.21214,3.08127],[117.21233,3.08051],[117.21233,3.08051],[117.21229,3.08051],[117.21131,3.08048],[117.21161,3.07934],[117.21082,3.07912],[117.21025,3.07906],[117.21025,3.07906],[117.20988,3.07904],[117.20959,3.07921]]]]},"properties":{"kdprov":"65","kdkab":"02","kdkec":"080","kddesa":"005","kdsls":"0002","idsls":"65020800050002","nmprov":"KALIMANTAN UTARA","nmkab":"BULUNGAN","nmkec":"TANJUNG PALAS UTARA","nmdesa":"PANCA AGUNG","nmsls":"RT 002 RW 001"}},{"type":"Feature","geometry":{"type":"MultiPolygon","coordinates":[[[[117.21622,3.0737],[117.21621,3.07364],[117.21497,3.07281],[117.2134,3.07194],[117.21274,3.0718],[117.212,3.07478],[117.212,3.07478],[117.21204,3.07515],[117.21205,3.07519],[117.21427,3.07593],[117.21427,3.07639],[117.21442,3.07687],[117.21442,3.07712],[117.21449,3.07745],[117.21437,3.07954],[117.2147,3.07976],[117.2147,3.07976],[117.21472,3.0798],[117.21705,3.07837],[117.21708,3.07837],[117.21622,3.0737]]]]},"properties":{"kdprov":"65","kdkab":"02","kdkec":"080","kddesa":"005","kdsls":"0006","idsls":"65020800050006","nmprov":"KALIMANTAN UTARA","nmkab":"BULUNGAN","nmkec":"TANJUNG PALAS UTARA","nmdesa":"PANCA AGUNG","nmsls":"RT 006 RW 002"}},{"type":"Feature","geometry":{"type":"MultiPolygon","coordinates":[[[[117.20941,3.08732],[117.20937,3.08922],[117.21,3.09032],[117.21,3.09271],[117.21001,3.09271],[117.21005,3.09384],[117.21141,3.09383],[117.2117,3.09222],[117.213,3.09163],[117.21393,3.09186],[117.21465,3.0917],[117.21505,3.09136],[117.21531,3.08859],[117.21503,3.08856],[117.215,3.08856],[117.215,3.08856],[117.21497,3.08856],[117.21497,3.08856],[117.21497,3.08856],[117.21398,3.08791],[117.21396,3.08672],[117.21395,3.08672],[117.21365,3.08646],[117.21307,3.08649],[117.21259,3.08651],[117.21199,3.08654],[117.21198,3.08653],[117.21197,3.08654],[117.21045,3.08691],[117.21044,3.08729],[117.21008,3.08731],[117.21005,3.08731],[117.21005,3.08731],[117.20941,3.08732]]]]},"properties":{"kdprov":"65","kdkab":"02","kdkec":"080","kddesa":"005","kdsls":"0004","idsls":"65020800050004","nmprov":"KALIMANTAN UTARA","nmkab":"BULUNGAN","nmkec":"TANJUNG PALAS UTARA","nmdesa":"PANCA AGUNG","nmsls":"RT 004 RW 001"}},{"type":"Feature","geometry":{"type":"MultiPolygon","coordinates":[[[[117.21531,3.08859],[117.21813,3.08897],[117.21813,3.08897],[117.21813,3.08897],[117.21814,3.08897],[117.21776,3.08835],[117.21777,3.08835],[117.21635,3.08309],[117.21472,3.0798],[117.2147,3.07976],[117.2147,3.07976],[117.21437,3.07954],[117.21437,3.07954],[117.21423,3.07954],[117.21284,3.07954],[117.21281,3.07954],[117.21252,3.08053],[117.21233,3.08051],[117.21214,3.08127],[117.2122,3.08143],[117.21381,3.08271],[117.21375,3.08312],[117.2132,3.08307],[117.21317,3.08413],[117.21369,3.08556],[117.21403,3.08551],[117.21406,3.08593],[117.21424,3.08614],[117.21481,3.0872],[117.21512,3.08819],[117.21498,3.08853],[117.21497,3.08856],[117.21497,3.08856],[117.215,3.08856],[117.215,3.08856],[117.21503,3.08856],[117.21531,3.08859]]]]},"properties":{"kdprov":"65","kdkab":"02","kdkec":"080","kddesa":"005","kdsls":"0001","idsls":"65020800050001","nmprov":"KALIMANTAN UTARA","nmkab":"BULUNGAN","nmkec":"TANJUNG PALAS UTARA","nmdesa":"PANCA AGUNG","nmsls":"RT 001 RW 001"}},{"type":"Feature","geometry":{"type":"MultiPolygon","coordinates":[[[[117.21204,3.07515],[117.21109,3.07491],[117.2104,3.07473],[117.2104,3.07471],[117.20969,3.07459],[117.20959,3.07921],[117.20988,3.07904],[117.21025,3.07906],[117.21025,3.07906],[117.21082,3.07912],[117.21161,3.07934],[117.21131,3.08048],[117.21229,3.08051],[117.21233,3.08051],[117.21233,3.08051],[117.21252,3.08053],[117.21281,3.07954],[117.21284,3.07954],[117.21423,3.07954],[117.21437,3.07954],[117.21437,3.07954],[117.21449,3.07745],[117.21442,3.07712],[117.21442,3.07687],[117.21427,3.07639],[117.21427,3.07593],[117.21205,3.07519],[117.21204,3.07515]]]]},"properties":{"kdprov":"65","kdkab":"02","kdkec":"080","kddesa":"005","kdsls":"0005","idsls":"65020800050005","nmprov":"KALIMANTAN UTARA","nmkab":"BULUNGAN","nmkec":"TANJUNG PALAS UTARA","nmdesa":"PANCA AGUNG","nmsls":"RT 005 RW 002"}},{"type":"Feature","geometry":{"type":"MultiPolygon","coordinates":[[[[117.2438,2.94171],[117.23975,2.94002],[117.23379,2.93928],[117.22597,2.9383],[117.22095,2.93767],[117.20097,2.93238],[117.20088,2.93237],[117.18676,2.93032],[117.18275,2.92974],[117.17364,2.92856],[117.16929,2.92586],[117.15867,2.91927],[117.1566,2.91799],[117.14867,2.9127],[117.14473,2.9127],[117.1328,2.9127],[117.10665,2.91035],[117.10652,2.91027],[117.1009,2.91954],[117.09495,2.93189],[117.09121,2.93968],[117.09015,2.96027],[117.08587,2.96455],[117.08259,2.96836],[117.08204,2.96891],[117.08126,2.96969],[117.08126,2.96969],[117.08116,2.96978],[117.08005,2.97088],[117.07725,2.97366],[117.07362,2.97725],[117.07418,2.98576],[117.08284,2.99492],[117.09125,2.99888],[117.11551,3.012],[117.15995,3.01952],[117.16229,3.01992],[117.21381,3.02688],[117.21423,3.02694],[117.21751,3.02738],[117.21866,3.02672],[117.21926,3.02638],[117.21972,3.02611],[117.21981,3.02226],[117.21981,3.02224],[117.21781,3.02191],[117.21244,3.0084],[117.2132,3.00877],[117.21447,3.00892],[117.21519,3.00904],[117.21602,3.00917],[117.21648,3.009],[117.21671,3.00853],[117.21668,3.00813],[117.2164,3.00775],[117.2162,3.00691],[117.21635,3.00615],[117.21625,3.00576],[117.21134,3.00562],[117.21134,3.00563],[117.21134,3.00562],[117.21064,3.00623],[117.21063,3.00622],[117.20991,3.00694],[117.20686,3.00788],[117.20673,3.00756],[117.20526,3.00331],[117.20628,3.00274],[117.20622,3.00268],[117.20739,3.00179],[117.20736,3.00176],[117.20927,2.99691],[117.21302,2.99675],[117.21316,2.99615],[117.21396,2.995],[117.21495,2.99359],[117.21549,2.99277],[117.21493,2.98996],[117.21413,2.98822],[117.21392,2.98744],[117.21388,2.98744],[117.21384,2.98742],[117.21385,2.98743],[117.21356,2.98726],[117.21338,2.98689],[117.21302,2.98638],[117.21257,2.98524],[117.21247,2.98472],[117.2123,2.9838],[117.21203,2.98342],[117.21173,2.98336],[117.21141,2.98342],[117.21114,2.98368],[117.21073,2.98418],[117.21041,2.98438],[117.20969,2.98513],[117.2093,2.98584],[117.20909,2.98643],[117.20406,2.9857],[117.20381,2.98422],[117.20312,2.98237],[117.20266,2.98132],[117.20186,2.98023],[117.20333,2.97574],[117.21168,2.97122],[117.21169,2.97117],[117.21277,2.96962],[117.21349,2.96951],[117.21389,2.96938],[117.21508,2.96885],[117.21614,2.96845],[117.2164,2.96819],[117.2166,2.96753],[117.21713,2.96674],[117.21746,2.96628],[117.21798,2.96621],[117.2197,2.96615],[117.22115,2.96575],[117.22119,2.96571],[117.22649,2.95927],[117.22754,2.9563],[117.22827,2.95413],[117.22913,2.953],[117.23052,2.95221],[117.23157,2.95182],[117.23276,2.95129],[117.23441,2.95202],[117.23567,2.95202],[117.23653,2.95136],[117.23679,2.95076],[117.23692,2.9499],[117.23752,2.94944],[117.23811,2.94911],[117.23917,2.94911],[117.24009,2.94898],[117.24022,2.94832],[117.24036,2.94753],[117.24055,2.94641],[117.24075,2.94601],[117.24181,2.94568],[117.24247,2.94516],[117.24253,2.9445],[117.24247,2.94344],[117.24273,2.94265],[117.24339,2.94245],[117.2438,2.94171]]]]},"properties":{"kdprov":"65","kdkab":"02","kdkec":"080","kddesa":"001","kdsls":"2002","idsls":"65020800012002","nmprov":"KALIMANTAN UTARA","nmkab":"BULUNGAN","nmkec":"TANJUNG PALAS UTARA","nmdesa":"PIMPING","nmsls":"HUTAN"}},{"type":"Feature","geometry":{"type":"MultiPolygon","coordinates":[[[[117.26494,3.04365],[117.27184,3.0442],[117.27184,3.04357],[117.27216,3.04151],[117.27358,3.04135],[117.27517,3.04087],[117.27612,3.04198],[117.2777,3.04246],[117.27881,3.04167],[117.28081,3.04225],[117.28081,3.04213],[117.28081,3.04157],[117.28055,3.04085],[117.27982,3.04008],[117.27905,3.03995],[117.27837,3.04012],[117.27768,3.03986],[117.27755,3.03914],[117.27764,3.03837],[117.27785,3.03764],[117.27802,3.03674],[117.2779,3.03537],[117.27747,3.03417],[117.27695,3.03306],[117.27648,3.0325],[117.27498,3.03229],[117.2737,3.03238],[117.27215,3.0328],[117.27147,3.03323],[117.27078,3.0337],[117.2704,3.03456],[117.27006,3.0352],[117.26946,3.0358],[117.26881,3.03687],[117.26851,3.0376],[117.2683,3.03824],[117.26753,3.03866],[117.26701,3.03905],[117.26641,3.03973],[117.26641,3.04042],[117.26675,3.04095],[117.26671,3.04134],[117.26653,3.04156],[117.26611,3.04166],[117.26597,3.04174],[117.2656,3.04181],[117.26541,3.04189],[117.26504,3.04207],[117.26491,3.04232],[117.26487,3.04239],[117.26482,3.04268],[117.26479,3.0429],[117.26486,3.04303],[117.26494,3.04365]]]]},"properties":{"kdprov":"65","kdkab":"02","kdkec":"080","kddesa":"002","kdsls":"5002","idsls":"65020800025002","nmprov":"KALIMANTAN UTARA","nmkab":"BULUNGAN","nmkec":"TANJUNG PALAS UTARA","nmdesa":"KELUBIR","nmsls":"TAMBANG (PENGGALIAN)"}},{"type":"Feature","geometry":{"type":"MultiPolygon","coordinates":[[[[117.26278,3.01797],[117.26434,3.01271],[117.26426,3.01266],[117.2675,3.01139],[117.26661,3.01062],[117.26626,3.00925],[117.26626,3.0084],[117.26609,3.00771],[117.26558,3.00737],[117.26489,3.00703],[117.26455,3.00532],[117.26455,3.00446],[117.26455,3.00361],[117.26472,3.00258],[117.26524,3.00189],[117.26644,3.00155],[117.26712,3.0007],[117.26681,2.99685],[117.26659,2.99692],[117.26627,2.99703],[117.26445,2.99763],[117.26359,2.99791],[117.26238,2.99805],[117.26158,2.99808],[117.2611,2.99803],[117.26019,2.99782],[117.25923,2.99759],[117.25838,2.99745],[117.25771,2.99742],[117.25724,2.99751],[117.2566,2.99789],[117.25549,2.99891],[117.25462,2.99989],[117.25398,3.00082],[117.25339,3.00228],[117.25307,3.00313],[117.25246,3.00406],[117.2515,3.00496],[117.24985,3.00597],[117.24765,3.00728],[117.24596,3.00803],[117.24365,3.00907],[117.24243,3.00981],[117.2417,3.01062],[117.24135,3.011],[117.24116,3.01113],[117.24103,3.01155],[117.2409,3.01206],[117.24023,3.01291],[117.24006,3.01369],[117.23993,3.01454],[117.23987,3.01458],[117.23987,3.01463],[117.23946,3.0154],[117.23892,3.01607],[117.23852,3.01654],[117.23794,3.01703],[117.23758,3.01737],[117.23733,3.01805],[117.23699,3.01884],[117.23679,3.01943],[117.23682,3.02052],[117.23681,3.02089],[117.23666,3.02136],[117.2363,3.02202],[117.23591,3.02278],[117.23566,3.02374],[117.23564,3.02413],[117.23559,3.02497],[117.23559,3.02608],[117.23538,3.02727],[117.2353,3.02831],[117.23599,3.03819],[117.23584,3.04097],[117.23523,3.04262],[117.23889,3.04135],[117.24903,3.04056],[117.2535,3.03998],[117.25495,3.0368],[117.25495,3.03612],[117.25513,3.03441],[117.25513,3.03355],[117.25513,3.03218],[117.25495,3.03047],[117.25478,3.02893],[117.25478,3.02791],[117.25513,3.02654],[117.25598,3.02551],[117.25753,3.02431],[117.25753,3.02363],[117.25753,3.02226],[117.25753,3.0214],[117.25855,3.02072],[117.25924,3.02055],[117.26078,3.02003],[117.26284,3.01918],[117.26382,3.0183],[117.26329,3.01802],[117.26278,3.01797]]],[[[117.2882,3.01131],[117.28751,3.01199],[117.28666,3.0125],[117.28529,3.01302],[117.28426,3.01336],[117.28377,3.01336],[117.28306,3.0161],[117.28203,3.01884],[117.28186,3.02123],[117.28049,3.02243],[117.27877,3.02397],[117.27757,3.02534],[117.27603,3.02619],[117.27415,3.02705],[117.2726,3.02791],[117.27106,3.0291],[117.26952,3.03013],[117.26832,3.03116],[117.26764,3.03184],[117.26678,3.03355],[117.26609,3.03441],[117.26558,3.03526],[117.26489,3.03612],[117.26421,3.0368],[117.26301,3.03749],[117.26232,3.03783],[117.26147,3.03886],[117.26095,3.03988],[117.26027,3.04091],[117.25934,3.0423],[117.26186,3.04341],[117.26494,3.04365],[117.26486,3.04303],[117.26479,3.0429],[117.26482,3.04268],[117.26487,3.04239],[117.26491,3.04232],[117.26504,3.04207],[117.26541,3.04189],[117.2656,3.04181],[117.26597,3.04174],[117.26611,3.04166],[117.26653,3.04156],[117.26671,3.04134],[117.26675,3.04095],[117.26641,3.04042],[117.26641,3.03973],[117.26701,3.03905],[117.26753,3.03866],[117.2683,3.03824],[117.26851,3.0376],[117.26881,3.03687],[117.26946,3.0358],[117.27006,3.0352],[117.2704,3.03456],[117.27078,3.0337],[117.27147,3.03323],[117.27215,3.0328],[117.2737,3.03238],[117.27498,3.03229],[117.27648,3.0325],[117.27695,3.03306],[117.27747,3.03417],[117.2779,3.03537],[117.27802,3.03674],[117.27785,3.03764],[117.27764,3.03837],[117.27755,3.03914],[117.27768,3.03986],[117.27837,3.04012],[117.27905,3.03995],[117.27982,3.04008],[117.28055,3.04085],[117.28081,3.04157],[117.28081,3.04213],[117.28081,3.04225],[117.2815,3.04246],[117.28451,3.04246],[117.28816,3.04293],[117.29186,3.04393],[117.29238,3.0449],[117.29297,3.04581],[117.29407,3.04588],[117.29462,3.04556],[117.29423,3.04415],[117.29339,3.0433],[117.29351,3.04246],[117.29519,3.04174],[117.29579,3.04126],[117.29627,3.03981],[117.29531,3.03933],[117.29363,3.03933],[117.29351,3.03837],[117.2929,3.03596],[117.29363,3.0344],[117.29447,3.03428],[117.29736,3.0344],[117.29796,3.03356],[117.29676,3.03019],[117.29772,3.02802],[117.29724,3.02465],[117.29784,3.02357],[117.29856,3.02297],[117.2976,3.02212],[117.29808,3.02164],[117.2988,3.02176],[117.29964,3.01972],[117.30007,3.01869],[117.30232,3.01775],[117.30345,3.01624],[117.30477,3.01643],[117.30608,3.01756],[117.30759,3.01812],[117.30834,3.01699],[117.3074,3.0153],[117.30721,3.01436],[117.30909,3.0121],[117.31022,3.01154],[117.31304,3.0106],[117.31473,3.00928],[117.31473,3.00928],[117.29813,3.00915],[117.29477,3.00912],[117.2917,3.00909],[117.29161,3.00909],[117.28991,3.01028],[117.2882,3.01131]]]]},"properties":{"kdprov":"65","kdkab":"02","kdkec":"080","kddesa":"002","kdsls":"1001","idsls":"65020800021001","nmprov":"KALIMANTAN UTARA","nmkab":"BULUNGAN","nmkec":"TANJUNG PALAS UTARA","nmdesa":"KELUBIR","nmsls":"LADANG KEBUN"}},{"type":"Feature","geometry":{"type":"MultiPolygon","coordinates":[[[[117.23119,3.09465],[117.23119,3.09467],[117.2312,3.09467],[117.23508,3.09439],[117.2352,3.09784],[117.23565,3.10065],[117.2396,3.10448],[117.24001,3.09251],[117.23486,3.09212],[117.22796,3.09162],[117.22552,3.09169],[117.22525,3.09169],[117.22343,3.09175],[117.22736,3.09478],[117.23119,3.09465]]],[[[117.21705,3.0997],[117.21564,3.1051],[117.23161,3.10643],[117.23732,3.1069],[117.23439,3.10379],[117.23112,3.10168],[117.23111,3.10168],[117.22916,3.1016],[117.22622,3.09726],[117.22621,3.09727],[117.22428,3.09656],[117.21944,3.09458],[117.21944,3.09458],[117.21821,3.0942],[117.21759,3.09766],[117.21705,3.0997]]]]},"properties":{"kdprov":"65","kdkab":"02","kdkec":"080","kddesa":"006","kdsls":"1003","idsls":"65020800061003","nmprov":"KALIMANTAN UTARA","nmkab":"BULUNGAN","nmkec":"TANJUNG PALAS UTARA","nmdesa":"ARDI MULYA","nmsls":"LADANG KEBUN HORTIKULTURAL"}}]}